##########################################################
# Query made at 11/10/2014 14:21:11 UTC
# Time interval: from 06/01/2008 00:00  to 07/01/2008 23:59  UTC
##########################################################

##########################################################
# LIRA, Roma / Ciampino (Italy)
# WMO index: 16239
# Latitude 41-47N. Longitude 012-35E. Altitude 129 m.
##########################################################

###################################
#  METAR/SPECI from LIRA
###################################
200807012350 METAR LIRA 020045Z 12001KT 5000 BR BKN004 24/22 Q1014=
200807012345 METAR LIRA 012345Z 13002KT 6000 FEW010 25/24 Q1015=
200807012315 METAR LIRA 012315Z 20003KT 7000 SKC 25/23 Q1015=
200807012245 METAR LIRA 012245Z 18003KT 8000 SKC 25/23 Q1015=
200807012215 METAR LIRA 012215Z 19004KT 130V210 8000 NSC 25/20 Q1015=
200807012145 METAR LIRA 012145Z 17004KT 9000 FEW070 SCT200 25/21 Q1015=
200807012115 METAR LIRA 012115Z 13004KT 9000 FEW060 25/21 Q1015=
200807012045 METAR LIRA 012045Z 13005KT 9000 FEW020TCU 26/22 Q1015=
200807012015 METAR LIRA 012015Z 15007KT 8000 FEW018 FEW020TCU 26/24 Q1015=
200807011945 METAR LIRA 011945Z 21002KT 8000 FEW016 FEW020TCU 27/23 Q1014
                        RETS=
200807011915 METAR LIRA 011915Z 25006KT 200V330 9999 FEW016 FEW018CB FEW020TCU
                        28/18 Q1014 RETS=
200807011845 METAR LIRA 011845Z 19009KT 100V220 9999 TS SCT017 SCT018CB
                        29/20 Q1014=
200807011815 METAR LIRA 011815Z 12003KT 090V150 9999 TS SCT017 SCT018CB
                        30/21 Q1014=
200807011745 METAR LIRA 011745Z 24005KT 9999 FEW017 FEW018TCU FEW020CB
                        31/21 Q1014=
200807011715 METAR LIRA 011715Z 20006KT 180V260 9999 FEW017 FEW018TCU
                        FEW020CB SCT200 31/21 Q1013=
200807011645 METAR LIRA 011645Z 23006KT 170V280 9999 FEW018 FEW020TCU
                        FEW025CB 31/20 Q1013=
200807011615 METAR LIRA 011615Z 25006KT 200V300 9999 FEW020TCU FEW025CB
                        SCT200 31/20 Q1013=
200807011545 METAR LIRA 011545Z 25006KT 200V320 9999 FEW020TCU FEW025CB
                        SCT200 32/21 Q1013=
200807011515 METAR LIRA 011515Z 25008KT 200V320 9999 FEW020 FEW023CB 32/20
                        Q1013=
200807011445 METAR LIRA 011445Z 23008KT 200V300 9999 FEW020 FEW023CB 31/20
                        Q1013=
200807011415 METAR LIRA 011415Z 02008KT 180V270 9999 FEW020 FEW023CB 32/19
                        Q1013=
200807011345 METAR LIRA 011345Z 23006KT 180V020 9999 FEW020 FEW023TCU
                        34/20 Q1013=
200807011315 METAR LIRA 011315Z 27006KT 170V330 9999 FEW020 FEW023TCU
                        33/18 Q1014=
200807011245 METAR LIRA 011245Z 30010KT 200V330 9999 FEW020 FEW023TCU
                        33/18 Q1014=
200807011215 METAR LIRA 011215Z 26007KT 210V330 9999 FEW020 FEW021CB 33/17
                        Q1014=
200807011145 METAR LIRA 011145Z 29002KT 280V310 9999 FEW020 FEW021CB 33/17
                        Q1015=
200807011115 METAR LIRA 011115Z 36004KT 300V030 9999 FEW018 FEW020CB 33/18
                        Q1015=
200807011045 METAR LIRA 011045Z 29003KT 240V300 9999 FEW020 32/18 Q1015=
200807011015 METAR LIRA 011015Z 29004KT 9999 FEW020 31/18 Q1015=
200807010945 METAR LIRA 010945Z 29004KT CAVOK 31/18 Q1015=
200807010915 METAR LIRA 010915Z 27003KT CAVOK 30/18 Q1015=
200807010845 METAR LIRA 010845Z 18001KT CAVOK 29/18 Q1015=
200807010815 METAR LIRA 010815Z 00000KT CAVOK 29/19 Q1015=
200807010745 METAR LIRA 010745Z 26002KT CAVOK 27/19 Q1015=
200807010715 METAR LIRA 010715Z 05004KT CAVOK 26/19 Q1015=
200807010645 METAR LIRA 010645Z 05005KT CAVOK 25/19 Q1015=
200807010615 METAR LIRA 010615Z 05003KT CAVOK 24/19 Q1015=
200807010545 METAR LIRA 010545Z 05004KT CAVOK 23/19 Q1015=
200807010515 METAR LIRA 010515Z 04003KT CAVOK 22/19 Q1015=
200807010445 METAR LIRA 010445Z 04002KT CAVOK 21/19 Q1015=
200807010415 METAR LIRA 010415Z 02003KT CAVOK 21/19 Q1015=
200807010345 METAR LIRA 010345Z 05003KT CAVOK 21/16 Q1015=
200807010315 METAR LIRA 010315Z 03002KT CAVOK 21/16 Q1015=
200807010245 METAR LIRA 010245Z 04002KT CAVOK 22/17 Q1015=
200807010215 METAR LIRA 010215Z 00000KT CAVOK 22/17 Q1015=
200807010145 METAR LIRA 010145Z 00000KT CAVOK 22/18 Q1015=
200807010115 METAR LIRA 010115Z 00000KT CAVOK 22/18 Q1015=
200807010045 METAR LIRA 010045Z 00000KT CAVOK 23/20 Q1016=
200807010015 METAR LIRA 010015Z 11001KT CAVOK 23/21 Q1016=
200806302345 METAR LIRA 302345Z 00000KT CAVOK 24/21 Q1016=
200806302315 METAR LIRA 302315Z 00000KT CAVOK 24/21 Q1016=
200806302245 METAR LIRA 302245Z 11001KT CAVOK 24/21 Q1016=
200806302215 METAR LIRA 302215Z 33002KT CAVOK 24/21 Q1016=
200806302145 METAR LIRA 302145Z 25002KT CAVOK 25/21 Q1016=
200806302115 METAR LIRA 302115Z 30002KT CAVOK 25/21 Q1016=
200806302045 METAR LIRA 302045Z 24003KT CAVOK 25/21 Q1016=
200806302015 METAR LIRA 302015Z 25003KT CAVOK 26/19 Q1016=
200806301945 METAR LIRA 301945Z 21003KT CAVOK 27/19 Q1016=
200806301915 METAR LIRA 301915Z 00000KT CAVOK 27/19 Q1016=
200806301845 METAR LIRA 301845Z 26003KT CAVOK 28/19 Q1016=
200806301815 METAR LIRA 301815Z 25003KT CAVOK 28/18 Q1016=
200806301745 METAR LIRA 301745Z 28003KT CAVOK 29/17 Q1016=
200806301715 METAR LIRA 301715Z 30004KT 9999 FEW023 SCT200 29/17 Q1016=
200806301645 METAR LIRA 301645Z 24005KT 180V270 9999 FEW023 SCT200 30/17
                        Q1016=
200806301615 METAR LIRA 301615Z 25007KT 180V300 9999 FEW023 SCT200 31/16
                        Q1016=
200806301545 METAR LIRA 301545Z 23007KT 170V280 9999 FEW023 32/17 Q1016=
200806301515 METAR LIRA 301515Z 24008KT 190V300 9999 FEW023 33/18 Q1016=
200806301445 METAR LIRA 301445Z 23007KT 180V280 9999 FEW023 33/18 Q1016=
200806301415 METAR LIRA 301415Z 23005KT 170V290 9999 FEW023 33/18 Q1016=
200806301345 METAR LIRA 301345Z 23009KT 190V280 9999 FEW023 33/18 Q1016=
200806301315 METAR LIRA 301315Z 24010KT 9999 FEW023 33/18 Q1017=
200806301245 METAR LIRA 301245Z 24009KT 210V300 9999 FEW023 32/18 Q1017=
200806301215 METAR LIRA 301215Z 24007KT 190V310 9999 FEW023 32/19 Q1017=
200806301145 METAR LIRA 301145Z 21005KT 150V270 9999 FEW023 32/20 Q1017=
200806301115 METAR LIRA 301115Z 23007KT 190V310 9999 FEW023 32/17 Q1017=
200806301045 METAR LIRA 301045Z 24007KT 200V300 9999 FEW023 32/17 Q1017=
200806301015 METAR LIRA 301015Z 29010KT 210V350 9999 FEW023 32/17 Q1017=
200806300945 METAR LIRA 300945Z 26004KT 9999 FEW023 32/16 Q1017=
200806300915 METAR LIRA 300915Z 27003KT 9999 FEW023 31/16 Q1017=
200806300845 METAR LIRA 300845Z 19003KT CAVOK 29/20 Q1017=
200806300815 METAR LIRA 300815Z 18003KT CAVOK 29/21 Q1017=
200806300745 METAR LIRA 300745Z 33002KT CAVOK 27/21 Q1017=
200806300715 METAR LIRA 300715Z 35002KT 9000 NSC 26/21 Q1017=
200806300645 METAR LIRA 300645Z 06003KT 9000 SKC 24/20 Q1017=
200806300615 METAR LIRA 300615Z 02002KT 9000 SKC 23/20 Q1017=
200806300545 METAR LIRA 300545Z 07003KT 9000 SKC 22/19 Q1017=
200806300515 METAR LIRA 300515Z 34002KT 8000 SKC 22/19 Q1017=
200806300445 METAR LIRA 300445Z 01002KT 8000 SKC 22/18 Q1016=
200806300415 METAR LIRA 300415Z 02002KT 8000 SKC 22/18 Q1016=
200806300345 METAR LIRA 300345Z 02003KT CAVOK 22/18 Q1016=
200806300315 METAR LIRA 300315Z 07003KT CAVOK 22/18 Q1016=
200806300245 METAR LIRA 300245Z 01002KT CAVOK 22/19 Q1016=
200806300215 METAR LIRA 300215Z 06001KT CAVOK 22/19 Q1016=
200806300145 METAR LIRA 300145Z 08001KT CAVOK 23/19 Q1016=
200806300115 METAR LIRA 300115Z 00000KT CAVOK 23/19 Q1016=
200806300045 METAR LIRA 300045Z 00000KT 9999 FEW005 22/18 Q1017=
200806300015 METAR LIRA 300015Z 00000KT 9999 FEW005 22/17 Q1017=
200806292345 METAR LIRA 292345Z 02002KT CAVOK 24/18 Q1017=
200806292315 METAR LIRA 292315Z 00000KT CAVOK 25/19 Q1017=
200806292245 METAR LIRA 292245Z 30001KT 7000 FEW010 25/18 Q1017=
200806292215 METAR LIRA 292215Z VRB01KT 9999 FEW070 25/17 Q1017=
200806292145 METAR LIRA 292145Z 23001KT CAVOK 25/18 Q1017=
200806292115 METAR LIRA 292115Z 16002KT CAVOK 26/18 Q1017=
200806292045 METAR LIRA 292045Z 20002KT CAVOK 27/18 Q1017=
200806292015 METAR LIRA 292015Z 21003KT 9999 FEW080 SCT200 27/18 Q1017=
200806291945 METAR LIRA 291945Z 16002KT 9999 FEW080 SCT200 27/16 Q1017=
200806291915 METAR LIRA 291915Z 24004KT 9999 FEW080 SCT200 28/16 Q1017=
200806291845 METAR LIRA 291845Z 24005KT 9999 FEW030 SCT200 29/17 Q1017=
200806291815 METAR LIRA 291815Z 24004KT 9999 FEW025 SCT200 29/17 Q1017=
200806291745 METAR LIRA 291745Z 24004KT 220V280 9999 FEW020 SCT200 30/17
                        Q1017=
200806291715 METAR LIRA 291715Z 25005KT 230V300 9999 FEW021TCU SCT200
                        30/18 Q1017=
200806291645 METAR LIRA 291645Z 24005KT 200V330 9999 FEW021TCU SCT080
                        31/19 Q1017=
200806291615 METAR LIRA 291615Z 25006KT 200V300 9999 FEW021CB SCT200 31/19
                        Q1017=
200806291545 METAR LIRA 291545Z 24008KT 170V290 9999 FEW021CB SCT200 31/19
                        Q1017=
200806291515 METAR LIRA 291515Z 21007KT 160V270 9999 FEW021CB 31/19 Q1017=
200806291445 METAR LIRA 291445Z 21008KT 160V280 9999 FEW021CB 31/20 Q1017=
200806291415 METAR LIRA 291415Z 24011KT 200V290 9999 FEW023 32/22 Q1017=
200806291345 METAR LIRA 291345Z 22010KT 150V290 9999 FEW023 32/21 Q1017=
200806291315 METAR LIRA 291315Z 20011KT 160V320 9999 FEW023 32/21 Q1017=
200806291245 METAR LIRA 291245Z 23010KT 180V280 9999 SCT023 33/21 Q1017=
200806291215 METAR LIRA 291215Z 23009KT 160V280 9999 SCT023 33/19 Q1017=
200806291145 METAR LIRA 291145Z 23007G18KT 210V290 9999 SCT023 33/19 Q1017=
200806291115 METAR LIRA 291115Z 24006KT 200V270 9999 SCT023 33/20 Q1017=
200806291045 METAR LIRA 291045Z 32003KT 270V360 9999 FEW023 33/20 Q1017=
200806291015 METAR LIRA 291015Z 27004KT 250V030 9999 FEW023 32/21 Q1017=
200806290945 METAR LIRA 290945Z 25005KT 9999 FEW023 31/20 Q1017=
200806290915 METAR LIRA 290915Z 34004KT 9999 FEW023 30/21 Q1017=
200806290845 METAR LIRA 290845Z 01003KT 9999 FEW023 30/21 Q1017=
200806290815 METAR LIRA 290815Z 35003KT CAVOK 29/21 Q1017=
200806290745 METAR LIRA 290745Z 02004KT CAVOK 28/20 Q1017=
200806290715 METAR LIRA 290715Z 02004KT CAVOK 27/21 Q1018=
200806290645 METAR LIRA 290645Z 05004KT 350V090 CAVOK 25/22 Q1018=
200806290615 METAR LIRA 290615Z 05003KT CAVOK 24/22 Q1018=
200806290545 METAR LIRA 290545Z 04004KT CAVOK 24/21 Q1017=
200806290515 METAR LIRA 290515Z 02002KT 8000 SKC 23/20 Q1017=
200806290445 METAR LIRA 290445Z 04002KT 8000 SKC 23/20 Q1017=
200806290415 METAR LIRA 290415Z 07002KT 7000 SKC 23/21 Q1017=
200806290345 METAR LIRA 290345Z 00000KT 6000 SKC 23/21 Q1016=
200806290315 METAR LIRA 290315Z 10002KT 6000 SKC 23/21 Q1016=
200806290245 METAR LIRA 290245Z 00000KT 7000 SKC 23/21 Q1016=
200806290215 METAR LIRA 290215Z 00000KT 7000 SKC 23/21 Q1016=
200806290145 METAR LIRA 290145Z 05001KT 7000 SKC 23/21 Q1016=
200806290115 METAR LIRA 290115Z 08002KT 6000 SKC 23/21 Q1016=
200806290045 METAR LIRA 290045Z 00000KT 6000 SKC 24/21 Q1016=
200806290015 METAR LIRA 290015Z 00000KT 7000 SKC 24/21 Q1016=
200806282345 METAR LIRA 282345Z 00000KT 7000 SKC 24/21 Q1017=
200806282315 METAR LIRA 282315Z 34002KT 7000 SKC 24/21 Q1017=
200806282245 METAR LIRA 282245Z 18003KT 7000 NSC 24/21 Q1017=
200806282215 METAR LIRA 282215Z 24004KT 8000 NSC 25/21 Q1017=
200806282145 METAR LIRA 282145Z 22004KT 8000 NSC 25/21 Q1017=
200806282115 METAR LIRA 282115Z 22002KT CAVOK 25/21 Q1016=
200806282045 METAR LIRA 282045Z 24001KT 9999 FEW080 SCT200 25/21 Q1016=
200806282015 METAR LIRA 282015Z 21003KT 9999 FEW080 SCT200 26/21 Q1016=
200806281945 METAR LIRA 281945Z 17005KT 9999 FEW060 SCT200 26/21 Q1016=
200806281915 METAR LIRA 281915Z 21004KT 9999 FEW030TCU SCT200 27/21 Q1016=
200806281845 METAR LIRA 281845Z 24005KT 9999 FEW030TCU BKN200 27/20 Q1016=
200806281815 METAR LIRA 281815Z 23003KT 9999 FEW020 BKN200 28/20 Q1015=
200806281745 METAR LIRA 281745Z 22004KT 160V250 9999 FEW080 BKN200 28/19
                        Q1015=
200806281715 METAR LIRA 281715Z 22005KT 170V270 9999 FEW080 BKN200 29/18
                        Q1015=
200806281645 METAR LIRA 281645Z 23004KT 200V270 9999 SCT080 BKN200 29/18
                        Q1015=
200806281615 METAR LIRA 281615Z 26005KT 220V360 9999 SCT080 BKN200 30/18
                        Q1015=
200806281545 METAR LIRA 281545Z 25006KT 200V310 9999 FEW080 BKN200 31/20
                        Q1014=
200806281515 METAR LIRA 281515Z 27005KT 180V310 9999 FEW080 BKN200 31/19
                        Q1014=
200806281445 METAR LIRA 281445Z 24007KT 180V310 9999 FEW020 BKN200 32/21
                        Q1014=
200806281415 METAR LIRA 281415Z 23010KT 180V300 9999 FEW025 BKN200 32/21
                        Q1014=
200806281345 METAR LIRA 281345Z 25007KT 200V300 9999 FEW025 BKN200 32/20
                        Q1014=
200806281315 METAR LIRA 281315Z 24008KT 160V270 9999 FEW025 SCT200 32/21
                        Q1014=
200806281245 METAR LIRA 281245Z 28006KT 210V330 9999 FEW025 SCT200 32/21
                        Q1015=
200806281215 METAR LIRA 281215Z 27008KT 190V330 9999 FEW025 SCT200 32/21
                        Q1015=
200806281145 METAR LIRA 281145Z 27008KT 9999 FEW025 SCT200 32/16 Q1015=
200806281115 METAR LIRA 281115Z 26004KT CAVOK 31/17 Q1015=
200806281045 METAR LIRA 281045Z 16003KT CAVOK 31/17 Q1015=
200806281015 METAR LIRA 281015Z 29002KT CAVOK 30/16 Q1015=
200806280945 METAR LIRA 280945Z 30001KT CAVOK 30/17 Q1015=
200806280915 METAR LIRA 280915Z 28003KT CAVOK 30/17 Q1015=
200806280845 METAR LIRA 280845Z 24003KT 170V270 CAVOK 28/17 Q1015=
200806280815 METAR LIRA 280815Z 24002KT CAVOK 28/18 Q1015=
200806280745 METAR LIRA 280745Z 19003KT CAVOK 26/17 Q1015=
200806280715 METAR LIRA 280715Z 18003KT 8000 FEW012 SCT200 26/19 Q1015=
200806280645 METAR LIRA 280645Z 18003KT 7000 FEW010 SCT200 24/22 Q1015=
200806280615 METAR LIRA 280615Z 19004KT 6000 FEW007 SCT200 24/22 Q1014=
200806280545 METAR LIRA 280545Z 20003KT 6000 FEW007 SCT200 23/22 Q1014=
200806280515 METAR LIRA 280515Z 19004KT 6000 FEW010 23/21 Q1014=
200806280445 METAR LIRA 280445Z 23001KT 8000 FEW010 SCT200 21/19 Q1014=
200806280415 METAR LIRA 280415Z 15003KT 6000 FEW007 SCT200 21/18 Q1014=
200806280345 METAR LIRA 280345Z 14001KT 6000 FEW007 SCT200 21/18 Q1013=
200806280315 METAR LIRA 280315Z 12003KT 7000 FEW007 21/18 Q1013=
200806280245 METAR LIRA 280245Z 18001KT 7000 FEW007 21/18 Q1013=
200806280215 METAR LIRA 280215Z 14002KT 7000 SCT006 21/18 Q1013=
200806280145 METAR LIRA 280145Z 12002KT 8000 FEW070 21/19 Q1013=
200806280115 METAR LIRA 280115Z 17003KT 8000 SKC 22/20 Q1014=
200806280045 METAR LIRA 280045Z 17003KT 8000 SKC 22/20 Q1014=
200806280015 METAR LIRA 280015Z 15004KT 7000 SKC 22/20 Q1014=
200806272345 METAR LIRA 272345Z 16004KT 7000 SKC 23/21 Q1014=
200806272315 METAR LIRA 272315Z 15004KT 7000 SKC 23/20 Q1013=
200806272245 METAR LIRA 272245Z 20003KT 7000 SKC 23/21 Q1013=
200806272215 METAR LIRA 272215Z 20003KT 7000 SKC 23/20 Q1014=
200806272145 METAR LIRA 272145Z 18002KT 7000 SKC 23/20 Q1013=
200806272115 METAR LIRA 272115Z 00000KT 7000 SKC 23/20 Q1014=
200806272045 METAR LIRA 272045Z 00000KT 8000 SKC 24/19 Q1014=
200806272015 METAR LIRA 272015Z 22002KT 8000 NSC 25/17 Q1013=
200806271945 METAR LIRA 271945Z 22003KT 9999 FEW070 SCT200 26/18 Q1013=
200806271915 METAR LIRA 271915Z 24004KT 9999 FEW070 SCT200 27/17 Q1013=
200806271845 METAR LIRA 271845Z 20004KT 9999 FEW070 SCT200 28/17 Q1013=
200806271815 METAR LIRA 271815Z 24004KT 9999 FEW020 FEW025TCU 29/17 Q1013=
200806271745 METAR LIRA 271745Z 23005KT 9999 FEW020 FEW025TCU 29/18 Q1013=
200806271715 METAR LIRA 271715Z 25004KT 230V310 9999 FEW030TCU 29/16 Q1013=
200806271645 METAR LIRA 271645Z 22005KT 170V250 9999 FEW035TCU 30/18 Q1013=
200806271615 METAR LIRA 271615Z 26005KT 200V330 9999 FEW035TCU 30/18 Q1013=
200806271545 METAR LIRA 271545Z 25008KT 220V340 9999 FEW035TCU SCT200
                        31/16 Q1013=
200806271515 METAR LIRA 271515Z 24007KT 200V270 9999 FEW035TCU SCT200
                        31/15 Q1013=
200806271445 METAR LIRA 271445Z 24008KT 180V280 9999 FEW035TCU SCT200
                        32/14 Q1013=
200806271415 METAR LIRA 271415Z 25008KT 140V290 9999 FEW035CB SCT200 32/14
                        Q1013=
200806271345 METAR LIRA 271345Z 25006KT 190V300 9999 FEW035CB SCT200 33/13
                        Q1013=
200806271315 METAR LIRA 271315Z 26008KT 200V330 9999 FEW035CB SCT200 33/15
                        Q1013=
200806271245 METAR LIRA 271245Z 27007KT 190V340 9999 FEW035CB SCT200 33/16
                        Q1013=
200806271215 METAR LIRA 271215Z 26006KT 200V310 9999 FEW035TCU SCT200
                        32/12 Q1013=
200806271145 METAR LIRA 271145Z 27008KT 210V350 9999 FEW030 SCT200 33/15
                        Q1014=
200806271115 METAR LIRA 271115Z 24007KT 180V300 9999 FEW030 SCT200 32/14
                        Q1014=
200806271045 METAR LIRA 271045Z 24005KT 180V340 9999 FEW030 32/16 Q1014=
200806271015 METAR LIRA 271015Z 23003KT 9999 FEW030 31/15 Q1014=
200806270945 METAR LIRA 270945Z 31005KT 9999 FEW030 31/16 Q1014=
200806270915 METAR LIRA 270915Z 32001KT CAVOK 29/17 Q1014=
200806270845 METAR LIRA 270845Z 22002KT CAVOK 28/18 Q1014=
200806270815 METAR LIRA 270815Z 14002KT CAVOK 28/19 Q1014=
200806270745 METAR LIRA 270745Z 31002KT CAVOK 26/18 Q1014=
200806270715 METAR LIRA 270715Z 32002KT CAVOK 25/17 Q1014=
200806270645 METAR LIRA 270645Z 33003KT CAVOK 25/17 Q1014=
200806270615 METAR LIRA 270615Z 00000KT CAVOK 23/16 Q1014=
200806270545 METAR LIRA 270545Z 00000KT CAVOK 21/15 Q1014=
200806270515 METAR LIRA 270515Z 00000KT CAVOK 20/15 Q1014=
200806270445 METAR LIRA 270445Z 00000KT CAVOK 19/16 Q1014=
200806270415 METAR LIRA 270415Z 10003KT CAVOK 20/16 Q1014=
200806270345 METAR LIRA 270345Z 00000KT CAVOK 21/16 Q1014=
200806270315 METAR LIRA 270315Z 00000KT CAVOK 20/16 Q1014=
200806262345 METAR LIRA 262345Z 18003KT CAVOK 22/17 Q1015=
200806262315 METAR LIRA 262315Z 16002KT CAVOK 22/15 Q1015=
200806262245 METAR LIRA 262245Z 00000KT 9999 FEW005 23/15 Q1015=
200806262215 METAR LIRA 262215Z 00000KT CAVOK 23/15 Q1015=
200806262145 METAR LIRA 262145Z 00000KT CAVOK 23/15 Q1015=
200806262115 METAR LIRA 262115Z 09002KT CAVOK 24/15 Q1015=
200806262045 METAR LIRA 262045Z 31001KT CAVOK 24/15 Q1015=
200806262015 METAR LIRA 262015Z 25002KT CAVOK 25/13 Q1015=
200806261945 METAR LIRA 261945Z 21003KT CAVOK 26/12 Q1015=
200806261915 METAR LIRA 261915Z 22002KT CAVOK 27/11 Q1015=
200806261845 METAR LIRA 261845Z 23004KT CAVOK 29/12 Q1015=
200806261815 METAR LIRA 261815Z 25003KT 9999 FEW070 30/12 Q1015=
200806261745 METAR LIRA 261745Z 27003KT 9999 FEW070 30/11 Q1015=
200806261715 METAR LIRA 261715Z 24005KT 220V310 9999 FEW070 30/11 Q1015=
200806261645 METAR LIRA 261645Z 27006KT 230V340 9999 FEW018 32/11 Q1015=
200806261615 METAR LIRA 261615Z 30009KT 230V330 9999 FEW018 32/09 Q1015=
200806261545 METAR LIRA 261545Z 28008KT 250V330 9999 FEW018TCU 33/10 Q1015=
200806261515 METAR LIRA 261515Z 29009KT 220V330 9999 FEW018TCU 33/08 Q1015=
200806261445 METAR LIRA 261445Z 28009KT 240V330 9999 FEW020 33/09 Q1015=
200806261415 METAR LIRA 261415Z 30008KT 240V330 9999 FEW020 34/08 Q1015=
200806261345 METAR LIRA 261345Z 30009KT 240V330 9999 FEW070 34/10 Q1015=
200806261315 METAR LIRA 261315Z 25007KT 210V310 9999 FEW022 33/14 Q1015=
200806261245 METAR LIRA 261245Z 28006KT 220V330 9999 FEW022 33/16 Q1015=
200806261215 METAR LIRA 261215Z 28008KT 210V340 CAVOK 33/16 Q1016=
200806261145 METAR LIRA 261145Z 28008KT 200V320 CAVOK 33/16 Q1016=
200806261115 METAR LIRA 261115Z 29009KT 230V330 CAVOK 33/16 Q1016=
200806261045 METAR LIRA 261045Z 23005KT 200V290 CAVOK 32/15 Q1016=
200806261015 METAR LIRA 261015Z 25003KT CAVOK 32/15 Q1016=
200806260945 METAR LIRA 260945Z 28003KT CAVOK 31/16 Q1016=
200806260915 METAR LIRA 260915Z 29002KT CAVOK 30/18 Q1016=
200806260845 METAR LIRA 260845Z 32001KT CAVOK 29/18 Q1016=
200806260815 METAR LIRA 260815Z 30003KT CAVOK 28/19 Q1016=
200806260745 METAR LIRA 260745Z 34002KT CAVOK 27/19 Q1016=
200806260715 METAR LIRA 260715Z 05003KT CAVOK 27/19 Q1015=
200806260645 METAR LIRA 260645Z 03002KT CAVOK 24/17 Q1015=
200806260615 METAR LIRA 260615Z 32004KT CAVOK 24/17 Q1015=
200806260545 METAR LIRA 260545Z 35003KT CAVOK 22/15 Q1015=
200806260515 METAR LIRA 260515Z 04002KT CAVOK 21/15 Q1015=
200806260445 METAR LIRA 260445Z 04002KT CAVOK 21/15 Q1015=
200806260415 METAR LIRA 260415Z 30001KT CAVOK 21/15 Q1014=
200806260345 METAR LIRA 260345Z 08002KT CAVOK 21/13 Q1014=
200806260315 METAR LIRA 260315Z 00000KT CAVOK 21/13 Q1014=
200806260215 METAR LIRA 260215Z 00000KT CAVOK 21/14 Q1014=
200806260145 METAR LIRA 260145Z 00000KT CAVOK 22/14 Q1014=
200806252345 METAR LIRA 252345Z 18002KT CAVOK 24/15 Q1015=
200806252315 METAR LIRA 252315Z 19003KT CAVOK 24/14 Q1015=
200806252245 METAR LIRA 252245Z 22003KT CAVOK 24/14 Q1015=
200806252215 METAR LIRA 252215Z 00000KT CAVOK 23/13 Q1015=
200806252145 METAR LIRA 252145Z 00000KT CAVOK 25/14 Q1015=
200806252115 METAR LIRA 252115Z 20002KT CAVOK 26/14 Q1015=
200806252045 METAR LIRA 252045Z 21002KT CAVOK 26/14 Q1015=
200806252015 METAR LIRA 252015Z 18003KT CAVOK 26/13 Q1015=
200806251945 METAR LIRA 251945Z 22002KT CAVOK 27/13 Q1015=
200806251915 METAR LIRA 251915Z 22002KT CAVOK 27/12 Q1015=
200806251845 METAR LIRA 251845Z 23003KT CAVOK 28/12 Q1015=
200806251815 METAR LIRA 251815Z 23003KT CAVOK 29/13 Q1015=
200806251745 METAR LIRA 251745Z 23004KT CAVOK 30/13 Q1015=
200806251715 METAR LIRA 251715Z 25005KT CAVOK 30/13 Q1015=
200806251645 METAR LIRA 251645Z 24005KT 200V320 CAVOK 31/12 Q1015=
200806251545 METAR LIRA 251545Z 28006KT 230V340 CAVOK 33/13 Q1015=
200806251515 METAR LIRA 251515Z 27006KT 220V320 CAVOK 33/14 Q1015=
200806251445 METAR LIRA 251445Z 27006KT 210V320 CAVOK 33/15 Q1016=
200806251415 METAR LIRA 251415Z 27007KT 200V360 CAVOK 33/15 Q1016=
200806251345 METAR LIRA 251345Z 27007KT 210V330 CAVOK 34/16 Q1016=
200806251315 METAR LIRA 251315Z 27009KT 200V330 CAVOK 34/16 Q1016=
200806251245 METAR LIRA 251245Z 28007KT 230V360 CAVOK 34/16 Q1016=
200806251215 METAR LIRA 251215Z 27005KT 210V340 CAVOK 34/16 Q1016=
200806251145 METAR LIRA 251145Z 08003KT CAVOK 33/17 Q1016=
200806251115 METAR LIRA 251115Z 34004KT 330V040 CAVOK 33/17 Q1016=
200806251045 METAR LIRA 251045Z 32005KT 240V020 CAVOK 33/19 Q1016=
200806251015 METAR LIRA 251015Z 19002KT CAVOK 32/18 Q1016=
200806250945 METAR LIRA 250945Z 25003KT CAVOK 31/18 Q1016=
200806250915 METAR LIRA 250915Z 01003KT CAVOK 30/17 Q1016=
200806250845 METAR LIRA 250845Z 00000KT CAVOK 29/18 Q1016=
200806250815 METAR LIRA 250815Z 30002KT CAVOK 27/17 Q1016=
200806250745 METAR LIRA 250745Z 30002KT CAVOK 26/18 Q1016=
200806250715 METAR LIRA 250715Z 32002KT CAVOK 25/18 Q1016=
200806250645 METAR LIRA 250645Z 32003KT CAVOK 23/18 Q1016=
200806250615 METAR LIRA 250615Z 34002KT CAVOK 23/17 Q1016=
200806250545 METAR LIRA 250545Z 33002KT CAVOK 21/17 Q1016=
200806250515 METAR LIRA 250515Z 36002KT CAVOK 20/17 Q1016=
200806250445 METAR LIRA 250445Z 07003KT CAVOK 20/16 Q1015=
200806250415 METAR LIRA 250415Z 04004KT CAVOK 20/15 Q1015=
200806250345 METAR LIRA 250345Z 05003KT CAVOK 20/15 Q1015=
200806250315 METAR LIRA 250315Z 04002KT CAVOK 21/16 Q1015=
200806250245 METAR LIRA 250245Z 05003KT CAVOK 21/15 Q1015=
200806250215 METAR LIRA 250215Z 02003KT CAVOK 21/15 Q1015=
200806250145 METAR LIRA 250145Z 05004KT CAVOK 22/15 Q1015=
200806250115 METAR LIRA 250115Z 04002KT CAVOK 22/15 Q1015=
200806250045 METAR LIRA 250045Z 05003KT CAVOK 22/14 Q1016=
200806250015 METAR LIRA 250015Z 00000KT CAVOK 23/14 Q1016=
200806242345 METAR LIRA 242345Z 12001KT CAVOK 23/14 Q1016=
200806242315 METAR LIRA 242315Z 10002KT CAVOK 23/14 Q1016=
200806242245 METAR LIRA 242245Z 09002KT CAVOK 23/13 Q1016=
200806242215 METAR LIRA 242215Z 00000KT 9999 FEW060 24/14 Q1016=
200806242145 METAR LIRA 242145Z 00000KT CAVOK 25/13 Q1016=
200806242115 METAR LIRA 242115Z 00000KT CAVOK 25/13 Q1016=
200806242045 METAR LIRA 242045Z 20002KT CAVOK 26/13 Q1016=
200806242015 METAR LIRA 242015Z 18002KT CAVOK 27/14 Q1016=
200806241945 METAR LIRA 241945Z 18004KT CAVOK 27/14 Q1015=
200806241915 METAR LIRA 241915Z 19004KT CAVOK 27/14 Q1015=
200806241845 METAR LIRA 241845Z 21003KT CAVOK 28/14 Q1015=
200806241815 METAR LIRA 241815Z 23003KT CAVOK 29/14 Q1016=
200806241745 METAR LIRA 241745Z 24005KT 210V280 CAVOK 30/14 Q1016=
200806241715 METAR LIRA 241715Z 25006KT CAVOK 31/16 Q1016=
200806241645 METAR LIRA 241645Z 25005KT CAVOK 32/14 Q1016=
200806241615 METAR LIRA 241615Z 26006KT 210V320 CAVOK 32/13 Q1016=
200806241545 METAR LIRA 241545Z 26005KT 210V330 CAVOK 32/14 Q1016=
200806241515 METAR LIRA 241515Z 27006KT 220V330 CAVOK 33/13 Q1016=
200806241445 METAR LIRA 241445Z 26008KT 220V320 CAVOK 33/14 Q1016=
200806241415 METAR LIRA 241415Z 28008KT 210V330 CAVOK 33/13 Q1016=
200806241345 METAR LIRA 241345Z 26007KT 210V330 CAVOK 33/13 Q1017=
200806241315 METAR LIRA 241315Z 28008KT 210V330 CAVOK 33/14 Q1017=
200806241215 METAR LIRA 241215Z 30010KT 230V330 9999 FEW023 34/14 Q1017=
200806241145 METAR LIRA 241145Z 30004KT 240V330 9999 FEW023 34/13 Q1017=
200806241115 METAR LIRA 241115Z 32006KT 270V360 9999 FEW023 33/13 Q1017=
200806241045 METAR LIRA 241045Z 27004KT 9999 FEW023 33/16 Q1017=
200806241015 METAR LIRA 241015Z 30003KT 240V350 9999 FEW023 32/16 Q1017=
200806240945 METAR LIRA 240945Z 36003KT CAVOK 31/17 Q1017=
200806240915 METAR LIRA 240915Z 32003KT CAVOK 30/17 Q1017=
200806240845 METAR LIRA 240845Z 19001KT CAVOK 29/18 Q1018=
200806240815 METAR LIRA 240815Z 35002KT CAVOK 28/19 Q1018=
200806240745 METAR LIRA 240745Z 35001KT CAVOK 27/18 Q1018=
200806240715 METAR LIRA 240715Z 31002KT CAVOK 26/18 Q1018=
200806240645 METAR LIRA 240645Z 02002KT CAVOK 25/17 Q1018=
200806240615 METAR LIRA 240615Z 07002KT CAVOK 24/17 Q1018=
200806240545 METAR LIRA 240545Z 33002KT CAVOK 22/17 Q1018=
200806240515 METAR LIRA 240515Z 35002KT CAVOK 20/17 Q1018=
200806240445 METAR LIRA 240445Z 13004KT CAVOK 20/16 Q1018=
200806240415 METAR LIRA 240415Z 01002KT CAVOK 20/16 Q1018=
200806240345 METAR LIRA 240345Z 17001KT CAVOK 20/16 Q1017=
200806240315 METAR LIRA 240315Z 08002KT CAVOK 21/16 Q1017=
200806240245 METAR LIRA 240245Z 00000KT CAVOK 21/16 Q1017=
200806240215 METAR LIRA 240215Z 02002KT CAVOK 22/15 Q1017=
200806240145 METAR LIRA 240145Z 07001KT CAVOK 22/15 Q1017=
200806240115 METAR LIRA 240115Z 06001KT CAVOK 22/16 Q1017=
200806240045 METAR LIRA 240045Z 10003KT CAVOK 23/16 Q1017=
200806240015 METAR LIRA 240015Z 00000KT 9999 FEW060 23/16 Q1017=
200806232350 METAR LIRA 240045Z 10003KT CAVOK 23/16 Q1017=
200806232345 METAR LIRA 232345Z 09001KT 9999 FEW060 23/16 Q1017=
200806232315 METAR LIRA 232315Z 08001KT 9999 FEW025 23/17 Q1018=
200806232245 METAR LIRA 232245Z 10002KT CAVOK 24/18 Q1018=
200806232215 METAR LIRA 232215Z 17001KT CAVOK 24/18 Q1018=
200806232145 METAR LIRA 232145Z 21002KT CAVOK 24/18 Q1018=
200806232115 METAR LIRA 232115Z 22001KT CAVOK 24/17 Q1018=
200806232045 METAR LIRA 232045Z 23003KT CAVOK 26/17 Q1018=
200806232015 METAR LIRA 232015Z 23002KT CAVOK 26/17 Q1017=
200806231945 METAR LIRA 231945Z 22002KT CAVOK 27/17 Q1017=
200806231915 METAR LIRA 231915Z 21003KT CAVOK 27/16 Q1017=
200806231845 METAR LIRA 231845Z 23002KT CAVOK 28/16 Q1017=
200806231815 METAR LIRA 231815Z 21004KT CAVOK 29/16 Q1017=
200806231745 METAR LIRA 231745Z 28004KT 240V320 CAVOK 30/15 Q1017=
200806231715 METAR LIRA 231715Z 25005KT 200V290 CAVOK 31/16 Q1017=
200806231645 METAR LIRA 231645Z 25006KT 200V320 CAVOK 32/16 Q1017=
200806231615 METAR LIRA 231615Z 28008KT 220V330 CAVOK 32/16 Q1017=
200806231545 METAR LIRA 231545Z 24009KT 220V320 9999 FEW025 32/17 Q1017=
200806231515 METAR LIRA 231515Z 26007KT 210V320 9999 FEW025 33/17 Q1018=
200806231445 METAR LIRA 231445Z 27008KT 230V330 9999 FEW025 33/18 Q1018=
200806231415 METAR LIRA 231415Z 24008KT 190V280 9999 FEW025 33/20 Q1018=
200806231345 METAR LIRA 231345Z 25006KT 210V330 9999 FEW025 33/21 Q1018=
200806231315 METAR LIRA 231315Z 23008KT 190V310 9999 FEW025 33/21 Q1018=
200806231245 METAR LIRA 231245Z 24007KT 190V310 9999 FEW025 33/21 Q1018=
200806231215 METAR LIRA 231215Z 30006KT 230V330 9999 FEW025 33/21 Q1018=
200806231145 METAR LIRA 231145Z 17003KT 150V270 9999 FEW025 32/20 Q1018=
200806231115 METAR LIRA 231115Z 29006KT 200V300 9999 FEW025 32/20 Q1019=
200806231045 METAR LIRA 231045Z 29004KT 220V300 9999 FEW025 32/20 Q1019=
200806231015 METAR LIRA 231015Z 24006KT 200V300 9999 FEW025 31/19 Q1019=
200806230945 METAR LIRA 230945Z 23005KT 150V280 9999 FEW025 31/19 Q1019=
200806230915 METAR LIRA 230915Z 19003KT CAVOK 30/19 Q1019=
200806230845 METAR LIRA 230845Z 23004KT CAVOK 29/19 Q1019=
200806230815 METAR LIRA 230815Z 23003KT CAVOK 29/19 Q1019=
200806230745 METAR LIRA 230745Z 00000KT CAVOK 28/19 Q1019=
200806230715 METAR LIRA 230715Z 22004KT CAVOK 27/18 Q1019=
200806230645 METAR LIRA 230645Z 25004KT CAVOK 25/19 Q1019=
200806230615 METAR LIRA 230615Z 00000KT CAVOK 25/19 Q1019=
200806230545 METAR LIRA 230545Z 00000KT CAVOK 23/19 Q1019=
200806230515 METAR LIRA 230515Z 00000KT CAVOK 23/19 Q1019=
200806230445 METAR LIRA 230445Z 08002KT CAVOK 21/18 Q1019=
200806230415 METAR LIRA 230415Z 07004KT CAVOK 21/18 Q1019=
200806230345 METAR LIRA 230345Z 05003KT CAVOK 22/18 Q1019=
200806230315 METAR LIRA 230315Z 00000KT CAVOK 22/18 Q1019=
200806230245 METAR LIRA 230245Z 00000KT CAVOK 22/18 Q1018=
200806230215 METAR LIRA 230215Z 36002KT CAVOK 22/18 Q1018=
200806230145 METAR LIRA 230145Z 05003KT CAVOK 22/18 Q1019=
200806230115 METAR LIRA 230115Z 04002KT CAVOK 22/18 Q1019=
200806230045 METAR LIRA 230045Z 00000KT CAVOK 23/18 Q1019=
200806230015 METAR LIRA 230015Z 06002KT CAVOK 23/17 Q1019=
200806222345 METAR LIRA 222345Z 10003KT CAVOK 23/17 Q1019=
200806222315 METAR LIRA 222315Z 05003KT CAVOK 23/17 Q1019=
200806222245 METAR LIRA 222245Z 00000KT CAVOK 24/17 Q1019=
200806222215 METAR LIRA 222215Z 00000KT CAVOK 24/17 Q1019=
200806222145 METAR LIRA 222145Z 00000KT CAVOK 25/17 Q1019=
200806222115 METAR LIRA 222115Z 00000KT CAVOK 25/18 Q1019=
200806222045 METAR LIRA 222045Z 00000KT CAVOK 25/17 Q1019=
200806222015 METAR LIRA 222015Z 23001KT CAVOK 26/17 Q1019=
200806221945 METAR LIRA 221945Z 26002KT CAVOK 27/17 Q1019=
200806221915 METAR LIRA 221915Z 26002KT CAVOK 28/17 Q1019=
200806221845 METAR LIRA 221845Z 26004KT CAVOK 29/17 Q1019=
200806221815 METAR LIRA 221815Z 27004KT 240V310 CAVOK 30/16 Q1019=
200806221745 METAR LIRA 221745Z 26004KT CAVOK 30/15 Q1019=
200806221715 METAR LIRA 221715Z 23004KT CAVOK 30/15 Q1019=
200806221645 METAR LIRA 221645Z 24005KT 180V270 CAVOK 30/14 Q1019=
200806221615 METAR LIRA 221615Z 24007KT 220V300 CAVOK 31/13 Q1020=
200806221545 METAR LIRA 221545Z 24004KT 200V310 CAVOK 31/14 Q1020=
200806221515 METAR LIRA 221515Z 26005KT 200V310 CAVOK 31/14 Q1020=
200806221445 METAR LIRA 221445Z 22005KT 190V270 9999 FEW020 31/14 Q1020=
200806221415 METAR LIRA 221415Z 21007KT 160V300 9999 FEW020 31/15 Q1020=
200806221345 METAR LIRA 221345Z 21008KT 160V280 9999 FEW020 31/15 Q1020=
200806221315 METAR LIRA 221315Z 24008KT 190V300 9999 FEW020 31/16 Q1020=
200806221245 METAR LIRA 221245Z 24008KT 160V300 9999 FEW020 31/15 Q1020=
200806221215 METAR LIRA 221215Z 22008KT 170V270 9999 FEW020 31/15 Q1020=
200806221145 METAR LIRA 221145Z 23009KT 170V270 9999 FEW020 31/16 Q1020=
200806221115 METAR LIRA 221115Z 21010KT 150V240 9999 FEW020 31/17 Q1020=
200806221045 METAR LIRA 221045Z 22009KT 160V300 9999 FEW020 30/16 Q1020=
200806221015 METAR LIRA 221015Z 20007KT 160V300 9999 FEW020 30/16 Q1020=
200806220945 METAR LIRA 220945Z 21009KT 110V250 9999 FEW020 30/16 Q1020=
200806220915 METAR LIRA 220915Z 20009KT 160V250 CAVOK 30/16 Q1020=
200806220845 METAR LIRA 220845Z 21010KT 160V270 CAVOK 29/16 Q1020=
200806220815 METAR LIRA 220815Z 21008KT 170V240 CAVOK 29/16 Q1020=
200806220745 METAR LIRA 220745Z 20008KT 160V240 CAVOK 28/20 Q1020=
200806220715 METAR LIRA 220715Z 21008KT 170V240 CAVOK 26/19 Q1019=
200806220645 METAR LIRA 220645Z 00000KT CAVOK 25/19 Q1019=
200806220615 METAR LIRA 220615Z 00000KT CAVOK 23/18 Q1019=
200806220545 METAR LIRA 220545Z 09001KT CAVOK 22/19 Q1019=
200806220515 METAR LIRA 220515Z 06002KT CAVOK 21/19 Q1019=
200806220445 METAR LIRA 220445Z 04002KT CAVOK 20/17 Q1018=
200806220415 METAR LIRA 220415Z 06002KT 8000 SKC 20/17 Q1018=
200806220345 METAR LIRA 220345Z 05003KT 8000 SKC 21/17 Q1018=
200806220315 METAR LIRA 220315Z 04003KT CAVOK 21/17 Q1018=
200806220245 METAR LIRA 220245Z 05003KT CAVOK 21/17 Q1018=
200806220215 METAR LIRA 220215Z 06003KT CAVOK 21/17 Q1019=
200806220145 METAR LIRA 220145Z 05002KT CAVOK 21/18 Q1019=
200806220115 METAR LIRA 220115Z 06002KT CAVOK 22/18 Q1019=
200806220045 METAR LIRA 220045Z 08002KT CAVOK 22/18 Q1019=
200806220015 METAR LIRA 220015Z 00000KT CAVOK 22/17 Q1019=
200806212345 METAR LIRA 212345Z 23001KT CAVOK 23/17 Q1019=
200806212315 METAR LIRA 212315Z 23001KT CAVOK 23/17 Q1019=
200806212245 METAR LIRA 212245Z 19002KT CAVOK 24/17 Q1019=
200806212215 METAR LIRA 212215Z 00000KT CAVOK 24/17 Q1019=
200806212145 METAR LIRA 212145Z 00000KT CAVOK 25/16 Q1019=
200806212115 METAR LIRA 212115Z 00000KT CAVOK 25/17 Q1019=
200806212045 METAR LIRA 212045Z 00000KT CAVOK 25/18 Q1019=
200806212015 METAR LIRA 212015Z 18001KT CAVOK 26/18 Q1019=
200806211945 METAR LIRA 211945Z 21003KT CAVOK 26/16 Q1018=
200806211915 METAR LIRA 211915Z 22002KT 9999 FEW070 26/15 Q1018=
200806211845 METAR LIRA 211845Z 24004KT 9999 FEW070 28/16 Q1018=
200806211815 METAR LIRA 211815Z 24005KT 9999 FEW030 30/19 Q1017=
200806211745 METAR LIRA 211745Z 25004KT 240V300 9999 FEW030 29/17 Q1017=
200806211715 METAR LIRA 211715Z 26003KT 9999 FEW030 30/17 Q1018=
200806211645 METAR LIRA 211645Z 22005KT 200V260 9999 FEW030 30/16 Q1018=
200806211615 METAR LIRA 211615Z 23006KT 180V270 9999 FEW030 30/15 Q1018=
200806211545 METAR LIRA 211545Z 24006KT 200V300 9999 FEW020 30/14 Q1018=
200806211515 METAR LIRA 211515Z 23005KT 170V300 9999 FEW020 30/14 Q1018=
200806211445 METAR LIRA 211445Z 24008KT 190V340 9999 FEW020 31/14 Q1018=
200806211415 METAR LIRA 211415Z 24006KT 190V280 9999 FEW020 30/14 Q1018=
200806211345 METAR LIRA 211345Z 25006KT 180V290 9999 FEW020 31/13 Q1018=
200806211315 METAR LIRA 211315Z 23007KT 150V310 9999 FEW020 31/14 Q1018=
200806211245 METAR LIRA 211245Z 24008KT 160V280 9999 FEW020 31/15 Q1018=
200806211215 METAR LIRA 211215Z 24010KT 190V280 9999 FEW020 31/15 Q1018=
200806211145 METAR LIRA 211145Z 21007KT 180V270 9999 FEW020 31/15 Q1018=
200806211115 METAR LIRA 211115Z 23008KT 190V310 9999 FEW020 31/15 Q1018=
200806211045 METAR LIRA 211045Z 17005KT 130V200 9999 FEW020 31/15 Q1018=
200806211015 METAR LIRA 211015Z 24002KT 9999 FEW020 30/15 Q1018=
200806210945 METAR LIRA 210945Z 21006KT 9999 FEW020 30/16 Q1018=
200806210915 METAR LIRA 210915Z 20005KT 180V270 9999 FEW020 29/17 Q1018=
200806210845 METAR LIRA 210845Z 23006KT 160V260 9999 FEW020 28/19 Q1018=
200806210815 METAR LIRA 210815Z 24002KT CAVOK 26/18 Q1018=
200806210745 METAR LIRA 210745Z 30001KT CAVOK 24/17 Q1018=
200806210715 METAR LIRA 210715Z 36002KT CAVOK 23/17 Q1017=
200806210645 METAR LIRA 210645Z 05003KT CAVOK 23/17 Q1017=
200806210615 METAR LIRA 210615Z 02002KT CAVOK 21/17 Q1017=
200806210545 METAR LIRA 210545Z 04003KT CAVOK 20/16 Q1017=
200806210515 METAR LIRA 210515Z 07002KT CAVOK 19/16 Q1017=
200806210445 METAR LIRA 210445Z 06004KT CAVOK 19/15 Q1017=
200806210415 METAR LIRA 210415Z 05002KT CAVOK 19/15 Q1017=
200806210345 METAR LIRA 210345Z 04003KT CAVOK 19/15 Q1017=
200806210315 METAR LIRA 210315Z 06004KT CAVOK 20/13 Q1017=
200806210245 METAR LIRA 210245Z 06006KT CAVOK 20/13 Q1017=
200806210215 METAR LIRA 210215Z 07002KT CAVOK 20/13 Q1017=
200806210145 METAR LIRA 210145Z 06002KT CAVOK 21/13 Q1017=
200806210115 METAR LIRA 210115Z 07002KT CAVOK 21/13 Q1017=
200806210045 METAR LIRA 210045Z 08002KT CAVOK 21/13 Q1017=
200806202350 METAR LIRA 210045Z 08002KT CAVOK 21/13 Q1017=
200806202300 METAR LIRA INT=
200806202215 METAR LIRA 202215Z 19003KT CAVOK 22/13 Q1016=
200806202145 METAR LIRA 202145Z 19003KT CAVOK 23/12 Q1016=
200806202115 METAR LIRA 202115Z 19004KT CAVOK 23/13 Q1016=
200806202045 METAR LIRA 202045Z 18005KT CAVOK 23/12 Q1016=
200806202015 METAR LIRA 202015Z 22005KT CAVOK 24/12 Q1016=
200806201945 METAR LIRA 201945Z 20005KT CAVOK 25/12 Q1016=
200806201915 METAR LIRA 201915Z 20004KT CAVOK 26/12 Q1016=
200806201845 METAR LIRA 201845Z 20005KT CAVOK 27/11 Q1016=
200806201815 METAR LIRA 201815Z 23003KT CAVOK 27/11 Q1016=
200806201745 METAR LIRA 201745Z 23005KT CAVOK 28/12 Q1016=
200806201715 METAR LIRA 201715Z 25006KT 220V310 CAVOK 28/13 Q1016=
200806201645 METAR LIRA 201645Z 27006KT 220V320 9999 FEW025 28/14 Q1016=
200806201615 METAR LIRA 201615Z 28007KT 220V320 9999 FEW025 29/14 Q1016=
200806201545 METAR LIRA 201545Z 26007KT 200V320 9999 FEW025 30/15 Q1016=
200806201515 METAR LIRA 201515Z 28007KT 220V320 9999 FEW025 30/15 Q1016=
200806201445 METAR LIRA 201445Z 27007KT 210V310 9999 FEW025 30/16 Q1016=
200806201415 METAR LIRA 201415Z 25008KT 200V310 9999 FEW025 30/17 Q1016=
200806201345 METAR LIRA 201345Z 28009KT 220V330 9999 FEW025 30/17 Q1016=
200806201315 METAR LIRA 201315Z 22009KT 170V280 9999 FEW025 30/18 Q1016=
200806201245 METAR LIRA 201245Z 23005KT 180V310 9999 FEW025 30/18 Q1016=
200806201215 METAR LIRA 201215Z 25008KT 170V260 9999 FEW025 30/18 Q1016=
200806201145 METAR LIRA 201145Z 21006KT 150V270 9999 FEW025 30/16 Q1016=
200806201115 METAR LIRA 201115Z 26005KT 200V330 9999 FEW025 30/16 Q1016=
200806201045 METAR LIRA 201045Z 22003KT 180V270 9999 FEW025 29/16 Q1017=
200806201015 METAR LIRA 201015Z 19002KT 220V300 9999 FEW025 29/17 Q1017=
200806201000 LIRA CONTUS=
200806200945 METAR LIRA 200945Z 25002KT 9999 FEW025 28/18 Q1017=
200806200915 METAR LIRA 200915Z 26002KT 9999 FEW025 27/17 Q1017=
200806200845 METAR LIRA 200845Z 17001KT 9999 FEW025 27/18 Q1016=
200806200815 METAR LIRA 200815Z 18002KT CAVOK 26/17 Q1016=
200806200745 METAR LIRA 200745Z 34003KT CAVOK 24/18 Q1016=
200806200715 METAR LIRA 200715Z 00000KT CAVOK 23/17 Q1016=
200806200645 METAR LIRA 200645Z 03002KT CAVOK 22/17 Q1016=
200806200615 METAR LIRA 200615Z 01004KT 360V080 CAVOK 21/17 Q1016=
200806200600 METAR LIRA INTER=
200806200545 METAR LIRA 200545Z 02004KT 350V080 CAVOK 20/16 Q1016=
200806200515 METAR LIRA 200515Z 04004KT 360V090 CAVOK 20/16 Q1016=
200806200445 METAR LIRA 200445Z 05005KT CAVOK 18/16 Q1015=
200806200415 METAR LIRA 200415Z 04005KT CAVOK 18/16 Q1015=
200806200345 METAR LIRA 200345Z 03004KT CAVOK 19/16 Q1015=
200806200315 METAR LIRA 200315Z 05004KT CAVOK 19/16 Q1015=
200806200245 METAR LIRA 200245Z 03003KT CAVOK 19/16 Q1015=
200806200215 METAR LIRA 200215Z 04003KT CAVOK 19/16 Q1015=
200806200145 METAR LIRA 200145Z 02002KT CAVOK 19/16 Q1015=
200806200115 METAR LIRA 200115Z 06004KT CAVOK 19/16 Q1016=
200806200045 METAR LIRA 200045Z 08003KT CAVOK 20/16 Q1016=
200806200015 METAR LIRA 200015Z 08002KT CAVOK 20/16 Q1016=
200806192345 METAR LIRA 192345Z 00000KT CAVOK 20/16 Q1016=
200806192315 METAR LIRA 192315Z 19002KT CAVOK 20/16 Q1016=
200806192245 METAR LIRA 192245Z 17003KT CAVOK 20/16 Q1016=
200806192215 METAR LIRA 192215Z 23004KT CAVOK 21/16 Q1016=
200806192145 METAR LIRA 192145Z 23004KT CAVOK 21/16 Q1016=
200806192115 METAR LIRA 192115Z 19004KT CAVOK 22/17 Q1016=
200806192045 METAR LIRA 192045Z 20004KT CAVOK 22/17 Q1016=
200806192015 METAR LIRA 192015Z 19005KT CAVOK 22/16 Q1016=
200806191945 METAR LIRA 191945Z 19005KT CAVOK 23/15 Q1015=
200806191915 METAR LIRA 191915Z 21005KT 180V250 CAVOK 24/15 Q1015=
200806191845 METAR LIRA 191845Z 20005KT CAVOK 25/15 Q1015=
200806191815 METAR LIRA 191815Z 21005KT CAVOK 25/14 Q1015=
200806191745 METAR LIRA 191745Z 23005KT 200V260 CAVOK 26/14 Q1015=
200806191715 METAR LIRA 191715Z 25007KT 200V360 CAVOK 27/13 Q1015=
200806191645 METAR LIRA 191645Z 24005KT 210V310 9999 FEW020 28/14 Q1015=
200806191615 METAR LIRA 191615Z 27009KT 220V320 9999 FEW020 28/15 Q1015=
200806191545 METAR LIRA 191545Z 28009KT 220V320 9999 FEW020 28/15 Q1015=
200806191515 METAR LIRA 191515Z 26009KT 210V310 9999 FEW020 28/15 Q1015=
200806191445 METAR LIRA 191445Z 27008KT 190V330 9999 SCT020 29/15 Q1015=
200806191415 METAR LIRA 191415Z 27009KT 220V330 9999 SCT020 29/15 Q1015=
200806191345 METAR LIRA 191345Z 22009KT 220V330 9999 SCT020 29/16 Q1015=
200806191315 METAR LIRA 191315Z 21009KT 210V330 9999 SCT020 29/16 Q1015=
200806191245 METAR LIRA 191245Z 29010KT 210V350 9999 BKN020 29/14 Q1015=
200806191215 METAR LIRA 191215Z 28007KT 210V330 9999 BKN020 30/14 Q1015=
200806191145 METAR LIRA 191145Z 27005KT 9999 SCT020 30/14 Q1015=
200806191115 METAR LIRA 191115Z 34002KT 280V090 9999 SCT020 29/18 Q1015=
200806191045 METAR LIRA 191045Z 32006KT 220V020 9999 SCT020 29/18 Q1015=
200806191015 METAR LIRA 191015Z 02006KT 9999 SCT020 28/19 Q1015=
200806190945 METAR LIRA 190945Z 26004KT 9999 FEW020 27/19 Q1015=
200806190915 METAR LIRA 190915Z 33004KT 9999 FEW020 26/18 Q1015=
200806190845 METAR LIRA 190845Z 36002KT 9999 FEW020 25/17 Q1015=
200806190815 METAR LIRA 190815Z 32002KT CAVOK 24/17 Q1015=
200806190745 METAR LIRA 190745Z 33002KT CAVOK 24/18 Q1015=
200806190715 METAR LIRA 190715Z 01001KT CAVOK 23/17 Q1025=
200806190645 METAR LIRA 190645Z 36002KT CAVOK 22/16 Q1015=
200806190615 METAR LIRA 190615Z 01004KT 330V050 CAVOK 21/15 Q1015=
200806190545 METAR LIRA 190545Z 04005KT CAVOK 19/16 Q1015=
200806190515 METAR LIRA 190515Z 04005KT CAVOK 19/16 Q1015=
200806190445 METAR LIRA 190445Z 03003KT CAVOK 18/15 Q1014=
200806190415 METAR LIRA 190415Z 04004KT CAVOK 17/16 Q1014=
200806190345 METAR LIRA 190345Z 05003KT CAVOK 17/16 Q1014=
200806190315 METAR LIRA 190315Z 04002KT CAVOK 18/16 Q1014=
200806190245 METAR LIRA 190245Z 06001KT CAVOK 18/16 Q1014=
200806190215 METAR LIRA 190215Z 00000KT CAVOK 18/17 Q1014=
200806190145 METAR LIRA 190145Z 17002KT CAVOK 19/17 Q1014=
200806190115 METAR LIRA 190115Z 22002KT CAVOK 19/17 Q1015=
200806190045 METAR LIRA 190045Z 22002KT CAVOK 19/17 Q1015=
200806190015 METAR LIRA 190015Z 15005KT CAVOK 19/17 Q1015=
200806182345 METAR LIRA 182345Z 16004KT CAVOK 19/17 Q1015=
200806182315 METAR LIRA 182315Z 19005KT CAVOK 20/17 Q1015=
200806182245 METAR LIRA 182245Z 19005KT CAVOK 20/17 Q1015=
200806182215 METAR LIRA 182215Z 20004KT CAVOK 20/17 Q1015=
200806182145 METAR LIRA 182145Z 18003KT CAVOK 20/17 Q1015=
200806182115 METAR LIRA 182115Z 19004KT CAVOK 20/17 Q1015=
200806182045 METAR LIRA 182045Z 18004KT 9999 FEW060 21/17 Q1014=
200806182015 METAR LIRA 182015Z 21004KT 9999 FEW060 21/17 Q1014=
200806181945 METAR LIRA 181945Z 21003KT 9999 FEW020 22/18 Q1014=
200806181915 METAR LIRA 181915Z 21005KT 180V240 9999 FEW020 22/18 Q1014=
200806181845 METAR LIRA 181845Z 20006KT 9999 FEW020 24/17 Q1014=
200806181815 METAR LIRA 181815Z 23004KT 210V280 9999 FEW020 25/16 Q1013=
200806181745 METAR LIRA 181745Z 22007KT 190V270 9999 FEW020 25/15 Q1013=
200806181715 METAR LIRA 181715Z 26005KT 200V320 9999 FEW020 25/15 Q1013=
200806181645 METAR LIRA 181645Z 24008KT 230V270 9999 FEW020 26/16 Q1013=
200806181615 METAR LIRA 181615Z 23007KT 180V310 9999 FEW020 26/15 Q1013=
200806181545 METAR LIRA 181545Z 27009KT 190V310 9999 FEW020 27/15 Q1013=
200806181515 METAR LIRA 181515Z 26011KT 210V320 9999 FEW020 27/15 Q1013=
200806181445 METAR LIRA 181445Z 25008KT 210V310 9999 FEW020 28/15 Q1013=
200806181415 METAR LIRA 181415Z 26008KT 210V310 9999 FEW020 29/15 Q1013=
200806181345 METAR LIRA 181345Z 29010KT 200V330 9999 FEW020 29/15 Q1013=
200806181315 METAR LIRA 181315Z 28009KT 220V310 9999 FEW020 29/15 Q1013=
200806181245 METAR LIRA 181245Z 27011KT 240V330 9999 FEW020 29/16 Q1013=
200806181215 METAR LIRA 181215Z 28009KT 210V310 9999 FEW020 29/14 Q1013=
200806181145 METAR LIRA 181145Z 29009KT 190V320 9999 FEW020 29/13 Q1013=
200806181115 METAR LIRA 181115Z 31005KT 240V350 9999 FEW025 28/13 Q1012=
200806181100 METAR LIRA INTER CB SE=
200806181045 METAR LIRA 181045Z 34007KT 310V040 9999 FEW025 28/14 Q1012=
200806181015 METAR LIRA 181015Z 24003KT 240V320 9999 FEW025 27/14 Q1012=
200806180945 METAR LIRA 180945Z 32004KT 300V060 9999 FEW025 26/15 Q1012=
200806180915 METAR LIRA 180915Z 33007KT 280V010 9999 FEW025 25/15 Q1012=
200806180845 METAR LIRA 180845Z 35006KT 300V030 9999 FEW025 24/16 Q1012=
200806180815 METAR LIRA 180815Z 31006KT 280V360 9999 FEW025 23/16 Q1012=
200806180745 METAR LIRA 180745Z 05004KT CAVOK 22/16 Q1011=
200806180715 METAR LIRA 180715Z 05003KT CAVOK 21/16 Q1011=
200806180645 METAR LIRA 180645Z 03004KT 330V080 CAVOK 20/16 Q1011=
200806180615 METAR LIRA 180615Z 06005KT CAVOK 20/16 Q1011=
200806180545 METAR LIRA 180545Z 05005KT 340V100 CAVOK 18/16 Q1010=
200806180515 METAR LIRA 180515Z 03005KT 360V080 CAVOK 17/15 Q1010=
200806180445 METAR LIRA 180445Z 04006KT 360V090 CAVOK 17/16 Q1010=
200806180415 METAR LIRA 180415Z 05005KT 350V090 CAVOK 17/15 Q1010=
200806180345 METAR LIRA 180345Z 02006KT 330V070 9999 FEW080 17/16 Q1010=
200806180315 METAR LIRA 180315Z 06007KT 350V080 9999 FEW080 17/16 Q1010=
200806180245 METAR LIRA 180245Z 07006KT 9999 FEW022 18/16 Q1010=
200806180215 METAR LIRA 180215Z 06006KT 9999 FEW022 18/16 Q1010=
200806180145 METAR LIRA 180145Z 04005KT 350V090 9999 FEW022 19/16 Q1010=
200806180115 METAR LIRA 180115Z 01006KT 320V050 9999 FEW018 FEW020CB SCT070
                        19/16 Q1010=
200806180045 METAR LIRA 180045Z 35006KT 320V050 9999 FEW018 FEW020CB SCT070
                        19/17 Q1010=
200806180015 METAR LIRA 180015Z 02006KT 340V080 9999 FEW018 FEW020CB SCT080
                        19/17 Q1010=
200806172345 METAR LIRA 172345Z 09007KT 060V130 9999 FEW018 FEW020CB SCT080
                        19/18 Q1011=
200806172315 METAR LIRA 172315Z 24001KT 9999 FEW018 FEW020CB SCT080 20/18
                        Q1012=
200806172245 METAR LIRA 172245Z 31003KT 290V360 9999 FEW018 FEW020CB SCT080
                        20/18 Q1011=
200806172215 METAR LIRA 172215Z 31007KT 250V350 9999 FEW018 FEW020CB SCT070
                        20/17 Q1011=
200806172145 METAR LIRA 172145Z 31004KT 290V350 9999 FEW018 FEW020CB SCT070
                        20/17 Q1011=
200806172115 METAR LIRA 172115Z 13007KT 110V210 9999 -RA FEW016 FEW020CB
                        SCT070 21/18 Q1011=
200806172045 METAR LIRA 172045Z 11012KT 080V170 8000 -RA SCT016 FEW020CB
                        SCT070 21/19 Q1013 RETS=
200806172015 METAR LIRA 172015Z 08005KT 8000 -RA SCT016 FEW020CB SCT070
                        22/17 Q1013 RETS=
200806171945 METAR LIRA 171945Z 06004KT 8000 -TSRA SCT016 FEW020CB SCT070
                        22/16 Q1015=
200806171915 METAR LIRA 171915Z 28004KT 9000 -TSRA SCT016 FEW020CB SCT070
                        23/16 Q1014=
200806171845 METAR LIRA 171845Z 30004KT 9999 TS SCT018 FEW020CB SCT070
                        24/16 Q1013=
200806171815 METAR LIRA 171815Z 07008KT 030V100 9999 SCT018 FEW020CB SCT080
                        24/16 Q1011=
200806171745 METAR LIRA 171745Z 06007KT 030V100 9999 FEW018 FEW020TCU
                        SCT070 25/15 Q1012=
200806171715 METAR LIRA 171715Z 05010KT 360V080 9999 FEW020 SCT080 26/16
                        Q1012=
200806171645 METAR LIRA 171645Z 36003KT 9999 FEW020 SCT080 26/17 Q1012=
200806171615 METAR LIRA 171615Z 07003KT 9999 FEW020 BKN080 26/19 Q1012=
200806171545 METAR LIRA 171545Z 06004KT 9999 FEW020 SCT070 23/18 Q1012=
200806171515 METAR LIRA 171515Z 10006KT 9999 FEW020 SCT030 23/18 Q1013=
200806171445 METAR LIRA 171445Z 12011KT 9999 FEW020 SCT030 BKN070 23/18
                        Q1014=
200806171415 METAR LIRA 171415Z 11010KT 9999 FEW020 BKN070 23/17 Q1014=
200806171345 METAR LIRA 171345Z 13007KT 9999 FEW020 SCT080 23/18 Q1014=
200806171315 METAR LIRA 171315Z 14011KT 9999 -DZ FEW020 SCT080 22/15 Q1014=
200806171245 METAR LIRA 171245Z 17013KT 120V200 9999 -DZ FEW020 SCT080
                        23/16 Q1014=
200806171215 METAR LIRA 171215Z 17011KT 130V220 9999 -DZ FEW020 SCT080
                        25/17 Q1014=
200806171145 METAR LIRA 171145Z 16013KT 150V220 9999 -DZ FEW020 SCT080
                        25/17 Q1013 WS RWY 15=
200806171115 METAR LIRA 171115Z 15013KT 120V210 9999 -DZ FEW020 SCT080
                        24/17 Q1013 WS RWY 15=
200806171045 METAR LIRA 171045Z 22012KT 140V280 9999 -DZ FEW020 SCT080
                        24/17 Q1013=
200806171015 METAR LIRA 171015Z 19011KT 130V220 9999 FEW020 SCT080 25/15
                        Q1013=
200806170945 METAR LIRA 170945Z 19017G27KT 130V220 9999 FEW020 SCT080
                        25/16 Q1012=
200806170915 METAR LIRA 170915Z 17017KT 130V200 9999 FEW070 SCT080 BKN200
                        26/15 Q1012=
200806170845 METAR LIRA 170845Z 17012G22KT 130V220 9999 FEW070 SCT080
                        BKN200 27/16 Q1011=
200806170815 METAR LIRA 170815Z 17020KT 120V190 9999 FEW020 SCT200 26/13
                        Q1011=
200806170745 METAR LIRA 170745Z 16015KT 130V200 9999 FEW080 SCT200 25/11
                        Q1010=
200806170715 METAR LIRA 170715Z 18014G24KT 130V210 9999 FEW080 SCT200
                        26/15 Q1010=
200806170645 METAR LIRA 170645Z 17009KT 9999 FEW080 26/17 Q1010=
200806170615 METAR LIRA 170615Z 01002KT 9999 FEW080 23/14 Q1010=
200806170545 METAR LIRA 170545Z 35003KT 9999 FEW080 22/11 Q1009=
200806170515 METAR LIRA 170515Z 36004KT 9999 FEW080 SCT200 22/07 Q1009=
200806170445 METAR LIRA 170445Z 04002KT 070V180 9999 FEW080 23/07 Q1009=
200806170415 METAR LIRA 170415Z 16012KT 120V230 9999 FEW080 23/07 Q1010=
200806170345 METAR LIRA 170345Z 16012G22KT 9999 FEW020 SCT070 23/06 Q1010=
200806170315 METAR LIRA 170315Z 16012KT 9999 FEW060 22/06 Q1010=
200806170245 METAR LIRA 170245Z 21005KT 130V240 CAVOK 20/09 Q1010=
200806170215 METAR LIRA 170215Z 24005KT CAVOK 18/12 Q1010=
200806170145 METAR LIRA 170145Z 22002KT CAVOK 18/12 Q1010=
200806170115 METAR LIRA 170115Z 28001KT CAVOK 17/13 Q1010=
200806170045 METAR LIRA 170045Z 34003KT CAVOK 18/14 Q1011=
200806170015 METAR LIRA 170015Z 04004KT CAVOK 19/14 Q1011=
200806162345 METAR LIRA 162345Z 05002KT CAVOK 19/08 Q1011=
200806162315 METAR LIRA 162315Z 00000KT CAVOK 20/05 Q1011=
200806162245 METAR LIRA 162245Z 06004KT CAVOK 20/08 Q1011=
200806162215 METAR LIRA 162215Z 15008KT CAVOK 21/14 Q1012=
200806162145 METAR LIRA 162145Z 19007KT 150V220 CAVOK 21/15 Q1011=
200806162115 METAR LIRA 162115Z 18007KT CAVOK 21/15 Q1011=
200806162045 METAR LIRA 162045Z 18008KT CAVOK 20/16 Q1011=
200806162015 METAR LIRA 162015Z 19010KT 150V240 9999 FEW080 20/16 Q1011=
200806161945 METAR LIRA 161945Z 21008KT 170V250 9999 FEW080 20/16 Q1011=
200806161915 METAR LIRA 161915Z 19008KT 170V250 CAVOK 21/16 Q1011=
200806161845 METAR LIRA 161845Z 21008KT 180V250 CAVOK 22/15 Q1011=
200806161815 METAR LIRA 161815Z 19007KT 160V230 CAVOK 23/15 Q1011=
200806161745 METAR LIRA 161745Z 19007KT 150V240 CAVOK 23/14 Q1011=
200806161715 METAR LIRA 161715Z 19012KT 150V230 CAVOK 24/14 Q1011=
200806161645 METAR LIRA 161645Z 18011KT 160V240 CAVOK 24/13 Q1011=
200806161615 METAR LIRA 161615Z 19010KT 140V230 9999 FEW020 SCT200 25/11
                        Q1011=
200806161545 METAR LIRA 161545Z 18012KT 140V220 9999 FEW018 SCT200 25/12
                        Q1011=
200806161515 METAR LIRA 161515Z 18010KT 120V210 9999 FEW018 SCT200 25/12
                        Q1011=
200806161445 METAR LIRA 161445Z 18015KT 120V220 9999 FEW018 SCT200 26/14
                        Q1012=
200806161415 METAR LIRA 161415Z 19015KT 130V220 9999 SCT018 25/13 Q1012=
200806161345 METAR LIRA 161345Z 17015KT 130V200 9999 SCT018 SCT200 25/15
                        Q1012=
200806161315 METAR LIRA 161315Z 18016KT 130V220 9999 SCT018 SCT200 24/14
                        Q1012=
200806161245 METAR LIRA 161245Z 18014KT 160V220 9999 SCT018 SCT200 25/15
                        Q1012=
200806161215 METAR LIRA 161215Z 17015KT 140V230 9999 SCT018 SCT200 25/13
                        Q1012=
200806161145 METAR LIRA 161145Z 17016KT 9999 SCT018 SCT200 25/13 Q1012=
200806161115 METAR LIRA 161115Z 17014KT 120V210 9999 SCT018 SCT200 25/13
                        Q1012=
200806161045 METAR LIRA 161045Z 18012KT 130V220 9999 SCT018 SCT200 25/12
                        Q1012=
200806161015 METAR LIRA 161015Z 19010KT 140V210 9999 FEW018 SCT200 24/13
                        Q1012=
200806160945 METAR LIRA 160945Z 18006KT 130V240 9999 FEW023 SCT200 23/13
                        Q1012=
200806160915 METAR LIRA 160915Z 15008KT 120V220 9999 FEW023 SCT090 23/14
                        Q1012=
200806160845 METAR LIRA 160845Z 15008KT CAVOK 22/13 Q1012=
200806160815 METAR LIRA 160815Z 13011KT 110V180 CAVOK 21/12 Q1013=
200806160745 METAR LIRA 160745Z 18008KT 130V210 9999 FEW023 SCT090 20/12
                        Q1013=
200806160715 METAR LIRA 160715Z 15007KT 090V180 9999 FEW023 SCT090 20/13
                        Q1013=
200806160645 METAR LIRA 160645Z 13006KT 100V180 9999 FEW023 SCT090 19/11
                        Q1013=
200806160615 METAR LIRA 160615Z 17004KT 9999 FEW023 SCT090 17/11 Q1013=
200806160545 METAR LIRA 160545Z 15002KT 9999 FEW023 SCT090 16/11 Q1013=
200806160515 METAR LIRA 160515Z 11005KT 9999 FEW023 SCT090 15/10 Q1013=
200806160445 METAR LIRA 160445Z 12003KT 9999 FEW023 BKN090 15/10 Q1013=
200806160415 METAR LIRA 160415Z 12005KT 9999 FEW023 BKN090 15/09 Q1013=
200806160345 METAR LIRA 160345Z 17001KT 9999 BKN070 15/10 Q1013=
200806160315 METAR LIRA 160315Z 15002KT 9999 BKN070 15/10 Q1013=
200806160245 METAR LIRA 160245Z 13002KT 9999 BKN070 15/12 Q1013=
200806160215 METAR LIRA 160215Z 14002KT 9999 BKN070 15/12 Q1013=
200806160145 METAR LIRA 160145Z 13003KT 9999 BKN070 15/12 Q1013=
200806160115 METAR LIRA 160115Z 13004KT 9999 BKN070 15/12 Q1013=
200806160045 METAR LIRA 160045Z 12004KT 9999 BKN070 15/12 Q1013=
200806160015 METAR LIRA 160015Z 16003KT 9999 BKN070 15/12 Q1013=
200806152345 METAR LIRA 152345Z 19001KT 9999 BKN070 15/11 Q1013=
200806152315 METAR LIRA 152315Z 15003KT 9999 FEW070 15/11 Q1013=
200806152245 METAR LIRA 152245Z 15002KT 9999 FEW070 16/11 Q1013=
200806152215 METAR LIRA 152215Z 13002KT 9999 FEW070 16/12 Q1013=
200806152145 METAR LIRA 152145Z 13002KT 9999 FEW070 17/12 Q1013=
200806152115 METAR LIRA 152115Z 12005KT 9999 FEW070 17/11 Q1013=
200806152045 METAR LIRA 152045Z 20003KT 9999 FEW070 18/12 Q1013=
200806152015 METAR LIRA 152015Z 20003KT 9999 FEW070 18/11 Q1013=
200806151945 METAR LIRA 151945Z 20004KT 9999 FEW070 SCT200 18/11 Q1013=
200806151915 METAR LIRA 151915Z 21003KT 9999 FEW070 SCT200 18/11 Q1013=
200806151845 METAR LIRA 151845Z 19005KT 9999 FEW070 SCT200 18/11 Q1013=
200806151815 METAR LIRA 151815Z 21005KT 9999 FEW020 20/11 Q1013=
200806151745 METAR LIRA 151745Z 22004KT 9999 FEW020 SCT200 20/12 Q1013=
200806151715 METAR LIRA 151715Z 23005KT 9999 FEW020 20/12 Q1013=
200806151645 METAR LIRA 151645Z 22006KT 170V280 9999 FEW020 SCT200 21/12
                        Q1013=
200806151615 METAR LIRA 151615Z 23008KT 190V300 9999 FEW020 SCT200 22/13
                        Q1013=
200806151545 METAR LIRA 151545Z 24008KT 200V310 9999 FEW020 SCT200 23/13
                        Q1013=
200806151515 METAR LIRA 151515Z 23009KT 190V300 9999 FEW020 SCT200 23/12
                        Q1013=
200806151445 METAR LIRA 151445Z 24011KT 180V280 9999 FEW018 SCT200 24/10
                        Q1013=
200806151415 METAR LIRA 151415Z 25011KT 190V300 9999 FEW018 SCT200 24/09
                        Q1013=
200806151345 METAR LIRA 151345Z 22006KT 150V280 9999 FEW018 SCT200 24/09
                        Q1013=
200806151315 METAR LIRA 151315Z 23008KT 150V300 9999 FEW018 SCT200 24/09
                        Q1013=
200806151245 METAR LIRA 151245Z 22006KT 160V290 9999 FEW018 SCT200 24/10
                        Q1013=
200806151215 METAR LIRA 151215Z 23007KT 210V310 9999 FEW018 SCT200 24/11
                        Q1013=
200806151145 METAR LIRA 151145Z 25007G17KT 190V330 9999 SCT018 SCT200
                        24/10 Q1013=
200806151115 METAR LIRA 151115Z 24006KT 200V310 9999 SCT018 SCT200 23/10
                        Q1013=
200806151045 METAR LIRA 151045Z 30007KT 240V320 9999 SCT018 SCT200 23/10
                        Q1013=
200806151015 METAR LIRA 151015Z 32007KT 240V360 9999 SCT018 SCT200 23/10
                        Q1013=
200806150945 METAR LIRA 150945Z 28004KT 210V320 9999 SCT018 22/11 Q1013=
200806150915 METAR LIRA 150915Z 30002KT 9999 FEW018 SCT200 21/11 Q1013=
200806150845 METAR LIRA 150845Z 32004KT 9999 FEW018 SCT200 20/12 Q1013=
200806150815 METAR LIRA 150815Z 27003KT 220V310 9999 FEW018 SCT200 20/12
                        Q1013=
200806150745 METAR LIRA 150745Z 00000KT 9999 FEW018 SCT200 19/13 Q1013=
200806150715 METAR LIRA 150715Z 02002KT 9999 FEW018 SCT200 18/13 Q1013=
200806150645 METAR LIRA 150645Z 02001KT 9999 FEW020 SCT200 16/13 Q1013=
200806150615 METAR LIRA 150615Z 36004KT 9999 FEW020 SCT200 16/12 Q1012=
200806150545 METAR LIRA 150545Z 02001KT 9999 FEW020 SCT200 15/12 Q1012=
200806150515 METAR LIRA 150515Z 04002KT 9999 FEW020 14/12 Q1012=
200806150445 METAR LIRA 150445Z 34001KT 9999 FEW020 15/13 Q1012=
200806150415 METAR LIRA 150415Z 00000KT 9999 FEW020 15/13 Q1012=
200806150345 METAR LIRA 150345Z 35002KT 9999 FEW020 15/13 Q1012=
200806150315 METAR LIRA 150315Z 17004KT 9999 FEW025 15/12 Q1012=
200806150245 METAR LIRA 150245Z 17003KT 9999 FEW025 16/13 Q1012=
200806150215 METAR LIRA 150215Z 16005KT 9999 FEW025 15/13 Q1012=
200806150145 METAR LIRA 150145Z 17003KT 9999 SCT025 15/13 Q1012=
200806150115 METAR LIRA 150115Z 17003KT 9999 FEW025 SCT060 15/13 Q1012=
200806150045 METAR LIRA 150045Z 16005KT 9999 FEW025 16/13 Q1012=
200806150015 METAR LIRA 150015Z 16005KT 9999 FEW025 16/13 Q1012=
200806142350 METAR LIRA 150045Z 16005KT 9999 FEW025 16/13 Q1012=
200806142345 METAR LIRA 142345Z 16004KT 9999 FEW030 16/13 Q1012=
200806142315 METAR LIRA 142315Z 19003KT 9999 FEW030 17/13 Q1013=
200806142245 METAR LIRA 142245Z 19005KT 9999 FEW030 17/12 Q1013=
200806142215 METAR LIRA 142215Z 21003KT 9999 FEW030 17/12 Q1013=
200806142145 METAR LIRA 142145Z 24002KT 200V300 9999 FEW030 18/12 Q1013=
200806142115 METAR LIRA 142115Z 18004KT 9999 FEW030 18/13 Q1012=
200806142045 METAR LIRA 142045Z 18005KT 9999 FEW030 17/11 Q1012=
200806142015 METAR LIRA 142015Z 16007KT 9999 FEW030 18/12 Q1012=
200806141945 METAR LIRA 141945Z 17007KT 9999 FEW025 18/12 Q1012=
200806141915 METAR LIRA 141915Z 17007KT 9999 FEW025 18/11 Q1012=
200806141845 METAR LIRA 141845Z 18006KT 9999 FEW025 19/11 Q1012=
200806141815 METAR LIRA 141815Z 20005KT 160V220 9999 FEW030 19/11 Q1012=
200806141745 METAR LIRA 141745Z 19004KT 150V220 9999 FEW020 SCT200 19/11
                        Q1012=
200806141715 METAR LIRA 141715Z 20006KT 160V260 9999 FEW020 SCT200 19/11
                        Q1011=
200806141645 METAR LIRA 141645Z 20004KT 160V250 9999 SCT020 20/11 Q1011=
200806141615 METAR LIRA 141615Z 23004KT 180V280 9999 SCT020 20/09 Q1011=
200806141545 METAR LIRA 141545Z 21008KT 160V270 9999 FEW018 21/10 Q1011=
200806141515 METAR LIRA 141515Z 22006KT 180V270 9999 FEW018 21/10 Q1011=
200806141445 METAR LIRA 141445Z 25011KT 180V270 9999 FEW018 SCT025 21/10
                        Q1011=
200806141415 METAR LIRA 141415Z 26011KT 190V300 9999 FEW018 SCT025 20/10
                        Q1011=
200806141345 METAR LIRA 141345Z 24011KT 200V280 9999 SCT018 FEW022TCU
                        SCT070 21/11 Q1011=
200806141315 METAR LIRA 141315Z 24009KT 200V300 9999 SCT018 FEW022TCU
                        SCT070 22/12 Q1011=
200806141245 METAR LIRA 141245Z 26010KT 220V340 9999 SCT018 FEW022TCU
                        SCT025 22/12 Q1011=
200806141215 METAR LIRA 141215Z 03012KT 150V300 9999 SCT018 FEW022TCU
                        BKN025 22/14 Q1011=
200806141145 METAR LIRA 141145Z 25013KT 210V310 9999 SCT018 FEW022TCU
                        BKN025 23/15 Q1011=
200806141115 METAR LIRA 141115Z 26011KT 190V290 9999 SCT018 FEW022TCU
                        BKN025 23/15 Q1011=
200806141045 METAR LIRA 141045Z 21009KT 160V270 9999 SCT018 FEW022TCU
                        SCT025 23/15 Q1011=
200806141015 METAR LIRA 141015Z 24011KT 180V270 9999 SCT018 FEW022TCU
                        SCT025 22/15 Q1011=
200806140945 METAR LIRA 140945Z 24011KT 180V300 9999 SCT018 FEW022TCU
                        BKN025 22/15 Q1011=
200806140915 METAR LIRA 140915Z 23008KT 150V300 9999 SCT018 FEW022TCU
                        BKN025 22/15 Q1011=
200806140845 METAR LIRA 140845Z 21007KT 140V270 9999 SCT018 BKN025 22/15
                        Q1011=
200806140815 METAR LIRA 140815Z 20008KT 150V250 9999 SCT018 SCT025 22/15
                        Q1011=
200806140745 METAR LIRA 140745Z 19005KT 130V240 9999 FEW020 SCT025 22/16
                        Q1011=
200806140715 METAR LIRA 140715Z 20007KT 120V230 9999 FEW018 SCT025 20/15
                        Q1010=
200806140645 METAR LIRA 140645Z 00000KT 9999 FEW020 19/16 Q1010=
200806140615 METAR LIRA 140615Z 30001KT 9999 FEW020 18/15 Q1010=
200806140545 METAR LIRA 140545Z 00000KT 9999 FEW020 17/14 Q1010=
200806140515 METAR LIRA 140515Z 00000KT 9999 FEW020 17/14 Q1010=
200806140445 METAR LIRA 140445Z 33002KT 9999 FEW020 BKN025 16/14 Q1010=
200806140415 METAR LIRA 140415Z 00000KT 9999 FEW020 BKN025 16/13 Q1010=
200806140345 METAR LIRA 140345Z 33002KT 9999 BKN025 16/13 Q1010=
200806140315 METAR LIRA 140315Z 35003KT 9999 SCT025 SCT060 16/13 Q1009=
200806140245 METAR LIRA 140245Z 10003KT 9999 FEW030 SCT060 17/13 Q1009=
200806140215 METAR LIRA 140215Z 14003KT 9999 FEW030 SCT060 17/13 Q1010=
200806140145 METAR LIRA 140145Z 15004KT 9999 FEW030 SCT060 18/13 Q1010=
200806140115 METAR LIRA 140115Z 14004KT 9999 SCT030 SCT060 17/13 Q1010=
200806140045 METAR LIRA 140045Z 18002KT 9999 SCT030 SCT060 17/13 Q1010=
200806140015 METAR LIRA 140015Z 16004KT 9999 FEW070 17/12 Q1010=
200806132345 METAR LIRA 132345Z 15006KT 9999 FEW070 18/15 Q1010=
200806132315 METAR LIRA 132315Z 16006KT 9999 FEW025 18/15 Q1010=
200806132245 METAR LIRA 132245Z 15008KT 9999 FEW025 17/14 Q1010=
200806132215 METAR LIRA 132215Z 15008KT CAVOK 18/15 Q1010=
200806132145 METAR LIRA 132145Z 17008KT 9999 FEW080 18/14 Q1010=
200806132115 METAR LIRA 132115Z 17006KT CAVOK 18/15 Q1010=
200806132045 METAR LIRA 132045Z 17007KT 130V210 CAVOK 18/15 Q1010=
200806132015 METAR LIRA 132015Z 18008KT CAVOK 18/14 Q1010=
200806131945 METAR LIRA 131945Z 18006KT 160V220 9999 FEW020 18/14 Q1009=
200806131915 METAR LIRA 131915Z 19006KT 160V220 9999 FEW020 19/14 Q1009=
200806131845 METAR LIRA 131845Z 20006KT 170V240 9999 FEW020 20/13 Q1009=
200806131815 METAR LIRA 131815Z 21006KT 170V260 9999 FEW020 20/13 Q1009=
200806131745 METAR LIRA 131745Z 22006KT 160V270 9999 FEW020 21/14 Q1009=
200806131715 METAR LIRA 131715Z 25010KT 160V280 9999 FEW020 22/14 Q1008=
200806131645 METAR LIRA 131645Z 20009KT 160V250 9999 FEW018 SCT020 22/13
                        Q1008=
200806131615 METAR LIRA 131615Z 18013KT 160V240 9999 FEW018 SCT020 22/14
                        Q1008=
200806131545 METAR LIRA 131545Z 20009KT 160V240 9999 SCT018 FEW020TCU
                        22/14 Q1008=
200806131515 METAR LIRA 131515Z 21012KT 150V250 9999 SCT018 FEW020TCU
                        23/13 Q1008=
200806131445 METAR LIRA 131445Z 24011KT 180V270 9999 SCT018 23/14 Q1008=
200806131415 METAR LIRA 131415Z 20010KT 160V270 9999 SCT018 23/14 Q1008=
200806131345 METAR LIRA 131345Z 20010KT 170V270 9999 SCT018 23/15 Q1008=
200806131315 METAR LIRA 131315Z 23011KT 160V270 9999 SCT018 24/15 Q1008=
200806131245 METAR LIRA 131245Z 23010KT 160V280 9999 SCT018 24/15 Q1009=
200806131215 METAR LIRA 131215Z 24010KT 180V280 9999 SCT018 24/15 Q1009=
200806131145 METAR LIRA 131145Z 23009KT 160V270 9999 SCT018 24/15 Q1009=
200806131115 METAR LIRA 131115Z 23008KT 170V270 9999 SCT018 24/15 Q1009=
200806131045 METAR LIRA 131045Z 23008KT 150V270 9999 SCT018 FEW020TCU
                        23/15 Q1009=
200806131015 METAR LIRA 131015Z 25006KT 9999 SCT018 FEW020TCU 22/14 Q1009=
200806130945 METAR LIRA 130945Z 25008KT 210V330 9999 SCT018 FEW020TCU
                        23/14 Q1009=
200806130915 METAR LIRA 130915Z 33003KT 9999 SCT018 FEW020TCU 22/14 Q1009=
200806130845 METAR LIRA 130845Z 24006KT 200V270 9999 SCT018 FEW020TCU
                        21/14 Q1009=
200806130815 METAR LIRA 130815Z 29003KT 9999 SCT018 FEW020TCU 21/15 Q1008=
200806130745 METAR LIRA 130745Z 30004KT 9999 SCT020 20/14 Q1008=
200806130715 METAR LIRA 130715Z 32001KT 9999 SCT020 20/14 Q1008=
200806130645 METAR LIRA 130645Z 36002KT 9999 FEW020 19/15 Q1008=
200806130615 METAR LIRA 130615Z 00000KT 9999 FEW020 19/15 Q1008=
200806130545 METAR LIRA 130545Z 11001KT CAVOK 17/15 Q1008=
200806130515 METAR LIRA 130515Z 09002KT CAVOK 17/14 Q1008=
200806130445 METAR LIRA 130445Z 16002KT 9999 FEW020 15/14 Q1008=
200806130415 METAR LIRA 130415Z 15002KT 9999 FEW020 15/13 Q1008=
200806130345 METAR LIRA 130345Z 12002KT 9999 FEW020 15/14 Q1008=
200806130315 METAR LIRA 130315Z 00000KT 9999 FEW020 15/14 Q1008=
200806130245 METAR LIRA 130245Z 00000KT 9999 FEW020 15/14 Q1008=
200806130215 METAR LIRA 130215Z 00000KT 9999 FEW020 SCT030 15/13 Q1008=
200806130145 METAR LIRA 130145Z 00000KT 9999 FEW020 15/13 Q1008=
200806130115 METAR LIRA 130115Z 21001KT 9999 FEW020 16/13 Q1008=
200806130045 METAR LIRA 130045Z 18002KT 9999 FEW020 SCT070 16/14 Q1009=
200806130015 METAR LIRA 130015Z 00000KT 9999 FEW020 SCT070 16/15 Q1009=
200806122350 METAR LIRA 130045Z 18002KT 9999 FEW020 SCT070 16/14 Q1009=
200806122345 METAR LIRA 122345Z 00000KT 9999 FEW020 SCT070 17/15 Q1009=
200806122315 METAR LIRA 122315Z 14002KT 9999 FEW020 17/15 Q1009=
200806122245 METAR LIRA 122245Z 00000KT 9999 FEW018 17/15 Q1009=
200806122215 METAR LIRA 122215Z 00000KT 9999 FEW018 18/15 Q1009=
200806122145 METAR LIRA 122145Z 24001KT 9999 SCT015 FEW018TCU 18/15 Q1009=
200806122115 METAR LIRA 122115Z 24001KT 9999 SCT015 FEW018CB 18/15 Q1009=
200806122045 METAR LIRA 122045Z 22002KT 9999 SCT015 FEW018CB 18/15 Q1009=
200806122015 METAR LIRA 122015Z 19003KT 9999 SCT015 FEW018CB 18/15 Q1008=
200806121945 METAR LIRA 121945Z 18002KT 9999 SCT015 FEW018CB 18/14 Q1008=
200806121915 METAR LIRA 121915Z 21003KT 9999 SCT015 FEW018CB 19/15 Q1008=
200806121845 METAR LIRA 121845Z 24004KT 9999 SCT015 FEW018CB 19/15 Q1008=
200806121815 METAR LIRA 121815Z 24003KT 9999 SCT015 FEW018CB 20/15 Q1008=
200806121745 METAR LIRA 121745Z 20005KT 160V240 9999 SCT015 FEW018CB 20/15
                        Q1008=
200806121715 METAR LIRA 121715Z 21008KT 170V270 9999 BKN015 FEW018CB 20/15
                        Q1008=
200806121645 METAR LIRA 121645Z 24008KT 190V280 9999 SCT015 FEW018TCU
                        21/14 Q1008=
200806121615 METAR LIRA 121615Z 24007KT 200V270 9999 SCT015 FEW018TCU
                        21/15 Q1009=
200806121545 METAR LIRA 121545Z 21008KT 160V280 9999 SCT015 FEW018CB SCT080
                        21/16 Q1009=
200806121515 METAR LIRA 121515Z 17009KT 140V220 9999 SCT015 FEW020CB SCT080
                        20/16 Q1009=
200806121445 METAR LIRA 121445Z 21007KT 170V270 9999 SCT015 FEW018CB BKN080
                        20/16 Q1009=
200806121345 METAR LIRA 121345Z 21010KT 9999 7000SE -RA SCT015 FEW018CB
                        SCT070 21/15 Q1010=
200806121315 METAR LIRA 121315Z 21006KT 160V280 9999 -RA SCT015 FEW018CB
                        SCT070 21/15 Q1010=
200806121245 METAR LIRA 121245Z 24009KT 200V300 9999 SCT015 FEW018CB SCT070
                        21/14 Q1010=
200806121215 METAR LIRA 121215Z 24011KT 200V280 9999 SCT015 FEW018CB SCT070
                        21/14 Q1010=
200806121145 METAR LIRA 121145Z 24005KT 200V290 9999 SCT015 FEW018CB SCT070
                        21/14 Q1010=
200806121115 METAR LIRA 121115Z 23005KT 200V260 9999 SCT015 FEW018CB SCT070
                        20/14 Q1011=
200806121045 METAR LIRA 121045Z 30003KT 9999 SCT016 SCT030 20/15 Q1011=
200806121015 METAR LIRA 121015Z 00000KT 9999 SCT017 SCT030 20/16 Q1011=
200806120945 METAR LIRA 120945Z 00000KT 8000 FEW016 SCT030 18/16 Q1011=
200806120915 METAR LIRA 120915Z 00000KT 8000 FEW016 SCT030 18/16 Q1011=
200806120845 METAR LIRA 120845Z 00000KT 8000 FEW016 SCT030 17/16 Q1011=
200806120815 METAR LIRA 120815Z 05003KT 8000 FEW016 SCT030 17/15 Q1011=
200806120745 METAR LIRA 120745Z 05003KT 7000 FEW016 BKN025 16/15 Q1011=
200806120715 METAR LIRA 120715Z 35003KT 7000 FEW016 BKN025 16/15 Q1011=
200806120645 METAR LIRA 120645Z 01001KT 7000 FEW016 BKN025 16/15 Q1011=
200806120615 METAR LIRA 120615Z 36005KT 330V030 6000 FEW015 BKN025 16/15
                        Q1011=
200806120545 METAR LIRA 120545Z 36004KT 6000 -RA FEW017 BKN025 16/15 Q1011=
200806120515 METAR LIRA 120515Z 03002KT 9000 -RA FEW015 SCT025 16/15 Q1011=
200806120445 METAR LIRA 120445Z 05005KT 9000 -RA FEW015 SCT025 16/15 Q1011=
200806120415 METAR LIRA 120415Z 06005KT 6000 -RA FEW015 BKN030 16/15 Q1011=
200806120345 METAR LIRA 120345Z 35003KT 9999 -RA FEW015 SCT030 17/16 Q1011=
200806120315 METAR LIRA 120315Z 02002KT 9999 -RA FEW015 SCT030 18/16 Q1011=
200806120245 METAR LIRA 120245Z 36002KT 9999 -RA FEW015 SCT030 18/17 Q1011=
200806120215 METAR LIRA 120215Z 36002KT 9999 -RA FEW015 SCT030 18/17 Q1012=
200806112315 METAR LIRA 112315Z 00000KT 9999 FEW018 SCT030 19/15 Q1013=
200806112245 METAR LIRA 112245Z 35001KT 9999 FEW018 SCT030 19/16 Q1013=
200806112215 METAR LIRA 112215Z 00000KT 9999 FEW018 SCT030 19/16 Q1014=
200806112145 METAR LIRA 112145Z 29001KT 9999 FEW018 SCT070 20/16 Q1014=
200806112115 METAR LIRA 112115Z 27001KT 9999 FEW018 SCT070 20/17 Q1014=
200806112045 METAR LIRA 112045Z 26002KT 9999 FEW018 SCT070 20/16 Q1014=
200806112015 METAR LIRA 112015Z 28003KT 9999 FEW018 SCT070 20/17 Q1014=
200806111945 METAR LIRA 111945Z 28004KT 9999 FEW018 SCT070 20/16 Q1014=
200806111915 METAR LIRA 111915Z 27003KT 9999 FEW018 SCT070 21/17 Q1014=
200806111845 METAR LIRA 111845Z 23002KT 9999 FEW018 SCT070 21/16 Q1013=
200806111815 METAR LIRA 111815Z 24003KT 9999 FEW018 SCT070 21/15 Q1014=
200806111745 METAR LIRA 111745Z 27004KT 9999 FEW018 SCT070 22/15 Q1014=
200806111715 METAR LIRA 111715Z 26005KT 230V320 9999 SCT018 SCT070 23/14
                        Q1014=
200806111645 METAR LIRA 111645Z 25004KT 210V280 9999 SCT018 SCT070 23/14
                        Q1014=
200806111615 METAR LIRA 111615Z 27007KT 220V320 9999 SCT018 SCT070 23/13
                        Q1014=
200806111545 METAR LIRA 111545Z 24006KT 190V280 9999 SCT018 SCT200 24/15
                        Q1014=
200806111515 METAR LIRA 111515Z 23007KT 150V300 9999 SCT018 SCT200 25/16
                        Q1015=
200806111445 METAR LIRA 111445Z 23008KT 180V290 9999 SCT018 SCT200 25/17
                        Q1015=
200806111415 METAR LIRA 111415Z 23007KT 180V300 9999 SCT017 FEW018TCU
                        SCT200 25/18 Q1015=
200806111345 METAR LIRA 111345Z 23007KT 190V290 9999 FEW017 FEW018TCU
                        SCT200 25/18 Q1016=
200806111315 METAR LIRA 111315Z 24009KT 190V300 9999 SCT017 FEW018TCU
                        SCT200 25/18 Q1016=
200806111245 METAR LIRA 111245Z 24008KT 190V280 9999 SCT017 SCT080 24/17
                        Q1016=
200806111215 METAR LIRA 111215Z 25010KT 9999 SCT017 SCT080 25/18 Q1017=
200806111145 METAR LIRA 111145Z 23006KT 190V280 9999 SCT017 FEW018TCU
                        BKN080 26/17 Q1017=
200806111115 METAR LIRA 111115Z 22006KT 150V270 9999 SCT017 FEW018TCU
                        BKN070 26/16 Q1017=
200806111045 METAR LIRA 111045Z 24008KT 150V270 9999 SCT018 SCT070 BKN200
                        26/17 Q1017=
200806111015 METAR LIRA 111015Z 24005KT 150V290 9999 SCT018 SCT080 BKN200
                        26/18 Q1017=
200806110945 METAR LIRA 110945Z 21003KT 9999 SCT018 SCT080 25/17 Q1017=
200806110915 METAR LIRA 110915Z 00000KT 9999 FEW018 SCT080 25/18 Q1017=
200806110845 METAR LIRA 110845Z 03003KT 9999 FEW018 SCT080 24/18 Q1017=
200806110815 METAR LIRA 110815Z 05002KT 9999 FEW018 SCT080 23/17 Q1017=
200806110745 METAR LIRA 110745Z 12002KT 9999 FEW080 BKN200 21/17 Q1017=
200806110715 METAR LIRA 110715Z 03003KT 9999 FEW080 BKN200 20/16 Q1017=
200806110645 METAR LIRA 110645Z 32002KT 9999 FEW080 BKN200 20/16 Q1017=
200806110615 METAR LIRA 110615Z 31002KT 9999 FEW080 BKN200 19/16 Q1017=
200806110545 METAR LIRA 110545Z 22002KT 9999 FEW080 BKN200 18/16 Q1017=
200806110515 METAR LIRA 110515Z 00000KT 9999 FEW080 BKN200 18/16 Q1016=
200806110445 METAR LIRA 110445Z 05004KT 9999 FEW080 BKN200 16/15 Q1016=
200806110415 METAR LIRA 110415Z 36002KT CAVOK 16/15 Q1017=
200806110345 METAR LIRA 110345Z 00000KT CAVOK 17/15 Q1017=
200806110315 METAR LIRA 110315Z 19002KT CAVOK 17/15 Q1017=
200806110245 METAR LIRA 110245Z 00000KT CAVOK 17/15 Q1017=
200806110215 METAR LIRA 110215Z 02003KT CAVOK 18/15 Q1016=
200806110145 METAR LIRA 110145Z 02003KT CAVOK 18/15 Q1017=
200806110115 METAR LIRA 110115Z 05003KT CAVOK 18/15 Q1017=
200806110045 METAR LIRA 110045Z 06002KT CAVOK 18/16 Q1017=
200806110015 METAR LIRA 110015Z 07002KT CAVOK 19/16 Q1017=
200806102350 METAR LIRA 110045Z 06002KT CAVOK 18/16 Q1017=
200806102345 METAR LIRA 102345Z 06002KT CAVOK 19/16 Q1017=
200806102315 METAR LIRA 102315Z 05002KT CAVOK 19/16 Q1017=
200806102245 METAR LIRA 102245Z 05003KT 9999 FEW080 20/16 Q1017=
200806102215 METAR LIRA 102215Z 04002KT 9999 FEW080 20/16 Q1017=
200806102145 METAR LIRA 102145Z 05004KT 9999 FEW080 20/15 Q1017=
200806102115 METAR LIRA 102115Z 05002KT 9999 SCT080 21/16 Q1018=
200806102045 METAR LIRA 102045Z 00000KT 9999 SCT070 21/15 Q1018=
200806102015 METAR LIRA 102015Z 00000KT 9999 FEW080 SCT200 21/16 Q1018=
200806101945 METAR LIRA 101945Z 00000KT 9999 FEW070 SCT200 22/16 Q1018=
200806101915 METAR LIRA 101915Z 27001KT 9999 FEW030 SCT200 22/16 Q1018=
200806101845 METAR LIRA 101845Z 26003KT 9999 FEW030 SCT200 23/16 Q1018=
200806101815 METAR LIRA 101815Z 25003KT 9999 FEW020TCU SCT030 23/16 Q1018=
200806101745 METAR LIRA 101745Z 32005KT 250V360 9999 FEW020TCU SCT070
                        24/16 Q1018=
200806101715 METAR LIRA 101715Z 27005KT 210V310 9999 FEW020TCU 24/15 Q1018=
200806101645 METAR LIRA 101645Z 24007KT 210V300 9999 FEW020CB 24/15 Q1018=
200806101615 METAR LIRA 101615Z 23008KT 190V290 9999 FEW020CB 25/16 Q1018=
200806101545 METAR LIRA 101545Z 23008KT 190V270 9999 FEW022 FEW024TCU
                        26/15 Q1018=
200806101515 METAR LIRA 101515Z 23006KT 180V290 9999 FEW022 FEW024TCU
                        26/14 Q1018=
200806101445 METAR LIRA 101445Z 25007KT 200V310 9999 FEW022 FEW024TCU
                        26/14 Q1018=
200806101415 METAR LIRA 101415Z 24006KT 180V280 9999 FEW022 26/14 Q1018=
200806101345 METAR LIRA 101345Z 24008KT 180V300 9999 FEW022 SCT200 26/14
                        Q1019=
200806101315 METAR LIRA 101315Z 24009KT 180V300 9999 FEW022 SCT200 26/15
                        Q1019=
200806101245 METAR LIRA 101245Z 20005KT 170V290 9999 FEW022 SCT200 26/16
                        Q1019=
200806101215 METAR LIRA 101215Z 25008KT 180V300 9999 FEW020 BKN200 26/16
                        Q1019=
200806101145 METAR LIRA 101145Z 19008KT 160V260 9999 FEW020 FEW022TCU
                        BKN200 26/16 Q1019=
200806101115 METAR LIRA 101115Z 24009KT 160V260 9999 SCT018 FEW020TCU
                        SCT200 26/16 Q1019=
200806101045 METAR LIRA 101045Z 24006KT 180V300 9999 SCT018 FEW020TCU
                        SCT200 26/16 Q1019=
200806101015 METAR LIRA 101015Z 20006KT 130V260 9999 SCT018 FEW020TCU
                        26/16 Q1019=
200806100945 METAR LIRA 100945Z 28003KT 220V340 9999 SCT020 25/15 Q1019=
200806100915 METAR LIRA 100915Z 00000KT 9999 SCT020 25/15 Q1019=
200806100845 METAR LIRA 100845Z 21003KT 9999 FEW020 24/16 Q1019=
200806100815 METAR LIRA 100815Z 21004KT 9999 FEW020 24/16 Q1019=
200806100800 METAR LIRA CONTUS=
200806100745 METAR LIRA 100745Z 00000KT 9999 FEW020 22/16 Q1019=
200806100715 METAR LIRA 100715Z 35004KT 9999 FEW020 22/16 Q1019=
200806100700 METAR LIRA CONTUS=
200806100645 METAR LIRA 100645Z 03002KT CAVOK 20/16 Q1018=
200806100615 METAR LIRA 100615Z 01002KT CAVOK 19/15 Q1018=
200806100600 METAR LIRA CONTUS=
200806100545 METAR LIRA 100545Z 03002KT CAVOK 18/15 Q1018=
200806100515 METAR LIRA 100515Z 02003KT CAVOK 18/15 Q1018=
200806100445 METAR LIRA 100445Z 05002KT 9999 FEW080 17/15 Q1018=
200806100415 METAR LIRA 100415Z 04002KT 9999 SCT070 17/15 Q1018=
200806100345 METAR LIRA 100345Z 02004KT 9999 SCT030 SCT070 17/15 Q1018=
200806100315 METAR LIRA 100315Z 04002KT 9999 SCT030 SCT070 17/14 Q1018=
200806100245 METAR LIRA 100245Z 02003KT 9999 BKN070 16/14 Q1018=
200806100215 METAR LIRA 100215Z 06004KT 9999 BKN070 17/14 Q1018=
200806100145 METAR LIRA 100145Z 08003KT 9999 BKN070 17/15 Q1019=
200806100115 METAR LIRA 100115Z 06002KT 9999 FEW070 17/14 Q1019=
200806100045 METAR LIRA 100045Z 13002KT 9999 FEW070 17/14 Q1019=
200806100015 METAR LIRA 100015Z 00000KT 9999 FEW070 17/14 Q1019=
200806092345 METAR LIRA 092345Z 00000KT 9999 FEW070 17/14 Q1019=
200806092315 METAR LIRA 092315Z 00000KT 9999 FEW070 17/14 Q1019=
200806092245 METAR LIRA 092245Z 00000KT 9999 FEW025 18/14 Q1019=
200806092215 METAR LIRA 092215Z 00000KT CAVOK 18/14 Q1018=
200806092145 METAR LIRA 092145Z 00000KT 9999 FEW025 18/15 Q1018=
200806092115 METAR LIRA 092115Z 00000KT 9999 FEW070 18/14 Q1018=
200806092045 METAR LIRA 092045Z 21002KT 9999 FEW035 SCT070 19/14 Q1018=
200806092015 METAR LIRA 092015Z 23002KT 9999 FEW035 SCT060 19/14 Q1018=
200806091945 METAR LIRA 091945Z 27001KT 9999 FEW020 SCT035 20/13 Q1018=
200806091915 METAR LIRA 091915Z 34001KT 9999 FEW020 SCT035 20/13 Q1017=
200806091845 METAR LIRA 091845Z 24002KT 9999 FEW020TCU SCT035 21/14 Q1017=
200806091815 METAR LIRA 091815Z 24003KT 9999 FEW020TCU SCT035 21/14 Q1017=
200806091745 METAR LIRA 091745Z 23004KT 9999 FEW020TCU SCT035 22/14 Q1018=
200806091715 METAR LIRA 091715Z 25004KT 210V280 9999 FEW020CB SCT030 22/14
                        Q1017=
200806091645 METAR LIRA 091645Z 25007KT 210V310 9999 FEW020CB SCT030 22/14
                        Q1017=
200806091615 METAR LIRA 091615Z 25008KT 190V280 9999 FEW024CB SCT060 22/15
                        Q1017=
200806091545 METAR LIRA 091545Z 24008KT 200V300 9999 FEW020 FEW024CB 23/14
                        Q1017=
200806091515 METAR LIRA 091515Z 25005KT 190V300 9999 SCT020 FEW024TCU
                        23/14 Q1017=
200806091445 METAR LIRA 091445Z 25007KT 210V300 9999 SCT020 FEW024TCU
                        24/15 Q1017=
200806091415 METAR LIRA 091415Z 27006KT 210V310 9999 SCT020 FEW024TCU
                        24/15 Q1017=
200806091345 METAR LIRA 091345Z 25007KT 200V300 9999 SCT020 FEW024TCU
                        23/15 Q1017=
200806091315 METAR LIRA 091315Z 27006KT 200V310 9999 SCT020 FEW024TCU
                        24/15 Q1017=
200806091245 METAR LIRA 091245Z 26006KT 170V300 9999 SCT020 FEW024TCU
                        23/15 Q1017=
200806091215 METAR LIRA 091215Z 25006KT 180V280 9999 BKN020 FEW024TCU
                        22/14 Q1017=
200806091145 METAR LIRA 091145Z 21007KT 170V270 9999 BKN020 FEW024TCU
                        23/14 Q1017=
200806091115 METAR LIRA 091115Z 21005KT 190V270 9999 BKN020 FEW024TCU
                        23/14 Q1017=
200806091045 METAR LIRA 091045Z 23003KT 9999 SCT020 FEW024TCU 23/14 Q1017=
200806091015 METAR LIRA 091015Z 26005KT 210V290 9999 SCT020 FEW024TCU
                        23/14 Q1017=
200806090945 METAR LIRA 090945Z 27003KT 9999 SCT020 FEW024TCU 23/15 Q1017=
200806090915 METAR LIRA 090915Z 13002KT 9999 SCT020 FEW024TCU 22/14 Q1017=
200806090845 METAR LIRA 090845Z 34002KT 9999 SCT020 FEW024TCU 22/14 Q1016=
200806090815 METAR LIRA 090815Z 18004KT 9999 SCT020 FEW024TCU 20/14 Q1016=
200806090745 METAR LIRA 090745Z 00000KT 9999 SCT020 FEW024TCU 20/14 Q1016=
200806090715 METAR LIRA 090715Z 26001KT 9999 SCT020 FEW024TCU 20/15 Q1016=
200806090645 METAR LIRA 090645Z 14001KT 9999 SCT020 FEW024TCU 20/15 Q1016=
200806090615 METAR LIRA 090615Z 09002KT 9999 FEW020 FEW024TCU 19/16 Q1016=
200806090545 METAR LIRA 090545Z 07002KT 9999 FEW020 FEW024TCU 18/15 Q1015=
200806090515 METAR LIRA 090515Z 14002KT 9999 FEW020 FEW024TCU SCT070 17/14
                        Q1015=
200806090445 METAR LIRA 090445Z 14003KT 9999 FEW020 FEW024TCU SCT070 16/14
                        Q1015=
200806090415 METAR LIRA 090415Z 13003KT 9999 FEW020TCU BKN060 16/14 Q1015=
200806090345 METAR LIRA 090345Z 00000KT 9999 SCT040 SCT060 16/14 Q1014=
200806090315 METAR LIRA 090315Z 15001KT 9999 FEW018 SCT035 16/15 Q1014=
200806090245 METAR LIRA 090245Z 12003KT 9999 SCT040 SCT060 16/16 Q1014=
200806090215 METAR LIRA 090215Z VRB01KT 9999 FEW030 SCT060 17/16 Q1014=
200806090145 METAR LIRA 090145Z 20002KT 9999 SCT030 SCT060 17/16 Q1014=
200806090115 METAR LIRA 090115Z 23001KT 9999 SCT030 SCT060 17/15 Q1015=
200806090045 METAR LIRA 090045Z 22002KT 9999 SCT035 SCT060 17/15 Q1015=
200806090015 METAR LIRA 090015Z 19005KT 9999 BKN030 17/16 Q1015=
200806082345 METAR LIRA 082345Z 17004KT 9999 BKN030 17/16 Q1015=
200806082315 METAR LIRA 082315Z 00000KT 9999 FEW015 SCT030 18/16 Q1015=
200806082245 METAR LIRA 082245Z 00000KT 9999 FEW015 SCT030 18/15 Q1014=
200806082215 METAR LIRA 082215Z 00000KT 9999 FEW015 SCT030 18/16 Q1014=
200806082145 METAR LIRA 082145Z 22001KT 9999 SCT035 SCT070 18/16 Q1014=
200806082115 METAR LIRA 082115Z 21003KT 9999 BKN035 18/16 Q1014=
200806082045 METAR LIRA 082045Z 20003KT 9999 SCT035 SCT070 18/16 Q1014=
200806082015 METAR LIRA 082015Z 21003KT 9999 SCT040 SCT070 18/15 Q1013=
200806081945 METAR LIRA 081945Z 17004KT 9999 SCT020 SCT070 18/15 Q1013=
200806081915 METAR LIRA 081915Z 18003KT 9999 FEW015CB SCT025 18/16 Q1013
                        RETS=
200806081845 METAR LIRA 081845Z 23001KT 9999 TS FEW016CB SCT030 19/16
                        Q1012=
200806081815 METAR LIRA 081815Z 24002KT 9999 TS FEW016CB SCT030 19/15
                        Q1012=
200806081745 METAR LIRA 081745Z 07003KT 050V120 9999 SCT018 FEW020CB SCT060
                        20/14 Q1012=
200806081715 METAR LIRA 081715Z 23003KT 9999 SCT018 FEW020CB SCT070 20/14
                        Q1012=
200806081645 METAR LIRA 081645Z 23004KT 9999 TS FEW018CB SCT020 BKN070
                        20/15 Q1012=
200806081615 METAR LIRA 081615Z 23005KT 9999 FEW015 FEW020CB SCT025 20/14
                        Q1012=
200806081545 METAR LIRA 081545Z 24002KT 9999 FEW016 FEW020CB SCT040 20/14
                        Q1012=
200806081515 METAR LIRA 081515Z 26004KT 9999 SCT016 FEW020CB SCT040 20/14
                        Q1012=
200806081445 METAR LIRA 081445Z 23006KT 180V290 9999 SCT016 FEW020CB SCT070
                        20/13 Q1012=
200806081415 METAR LIRA 081415Z 21007KT 180V270 9999 SCT016 FEW020CB SCT070
                        20/14 Q1012=
200806081345 METAR LIRA 081345Z 21007KT 180V250 9999 FEW016 FEW020CB SCT070
                        20/14 Q1011=
200806081315 METAR LIRA 081315Z 20007KT 150V230 9999 -RA SCT016 FEW020CB
                        SCT040 20/15 Q1011=
200806081245 METAR LIRA 081245Z 23003KT 9999 -RA SCT016 FEW020CB SCT040
                        20/16 Q1011=
200806081215 METAR LIRA 081215Z 28005KT 8000 -RA SCT016 FEW020CB SCT040
                        20/17 Q1011=
200806081145 METAR LIRA 081145Z 29005KT 220V320 9999 -RA SCT016 FEW018TCU
                        FEW020CB SCT070 20/15 Q1012=
200806081115 METAR LIRA 081115Z 27005KT 240V330 9999 SCT016 FEW018TCU
                        SCT070 20/15 Q1012=
200806081045 METAR LIRA 081045Z 27004KT 9999 -RA SCT016 FEW018TCU FEW020CB
                        SCT040 20/15 Q1012=
200806081015 METAR LIRA 081015Z 26003KT 9999 SCT016 FEW018TCU FEW020CB
                        SCT040 20/15 Q1012=
200806080945 METAR LIRA 080945Z 27002KT 9999 SCT016 FEW018TCU FEW020CB
                        SCT070 20/15 Q1012=
200806080915 METAR LIRA 080915Z 24004KT 9999 SCT016 FEW018TCU FEW020CB
                        20/15 Q1012=
200806080845 METAR LIRA 080845Z 18003KT 160V260 9999 SCT016 FEW018TCU
                        FEW020CB 20/15 Q1012=
200806080815 METAR LIRA 080815Z 22004KT 170V270 9999 SCT016 FEW018TCU
                        FEW020CB 20/17 Q1011=
200806080745 METAR LIRA 080745Z 21005KT 170V270 9999 SCT016 FEW018TCU
                        FEW020CB 19/16 Q1011=
200806080715 METAR LIRA 080715Z 22005KT 170V250 9999 FEW016 FEW018TCU
                        FEW020CB SCT070 19/16 Q1011=
200806080645 METAR LIRA 080645Z 22006KT 170V270 9999 SCT016 FEW020TCU
                        SCT070 18/15 Q1011=
200806080615 METAR LIRA 080615Z 21004KT 9999 FEW016 FEW020TCU 17/15 Q1011=
200806080545 METAR LIRA 080545Z 21004KT 9999 FEW015 FEW020TCU 16/14 Q1011=
200806080515 METAR LIRA 080515Z 18003KT 9999 FEW018 FEW020TCU SCT070 15/13
                        Q1011=
200806080445 METAR LIRA 080445Z 18004KT 9999 FEW018 FEW020CB SCT070 15/14
                        Q1011=
200806080415 METAR LIRA 080415Z 12002KT 9999 FEW018 FEW020CB SCT070 15/14
                        Q1010=
200806080345 METAR LIRA 080345Z 00000KT 9999 FEW018 FEW020CB SCT070 15/14
                        Q1010=
200806080315 METAR LIRA 080315Z 12001KT 9999 SCT070 15/14 Q1010=
200806080245 METAR LIRA 080245Z 00000KT 9999 FEW017 15/13 Q1010=
200806080215 METAR LIRA 080215Z 36003KT 9999 FEW030 16/14 Q1010=
200806080145 METAR LIRA 080145Z 10003KT 9999 FEW030 16/14 Q1010=
200806080115 METAR LIRA 080115Z 00000KT 9999 FEW030 16/15 Q1010=
200806080045 METAR LIRA 080045Z 15003KT 9999 FEW030 17/15 Q1011=
200806080015 METAR LIRA 080015Z 15004KT 9999 FEW080 17/15 Q1011=
200806072345 METAR LIRA 072345Z 16003KT 9999 FEW080 17/15 Q1011=
200806072315 METAR LIRA 072315Z 16004KT 9999 FEW080 17/13 Q1011=
200806072245 METAR LIRA 072245Z 15003KT 9999 FEW080 17/13 Q1011=
200806072215 METAR LIRA 072215Z 18003KT 9999 FEW080 17/13 Q1011=
200806072145 METAR LIRA 072145Z 18003KT 9999 FEW080 17/14 Q1011=
200806072115 METAR LIRA 072115Z 18002KT 9999 FEW080 17/15 Q1011=
200806072045 METAR LIRA 072045Z 22003KT 9999 FEW017 17/15 Q1011=
200806072015 METAR LIRA 072015Z 00000KT 9999 FEW017 18/16 Q1010=
200806071945 METAR LIRA 071945Z 00000KT 9999 FEW017 18/16 Q1010=
200806071915 METAR LIRA 071915Z 22002KT 9999 FEW017 FEW018TCU 19/15 Q1010=
200806071845 METAR LIRA 071845Z 22001KT 9999 FEW017 FEW018TCU SCT080 19/14
                        Q1010=
200806071815 METAR LIRA 071815Z 29002KT 9999 FEW017 SCT080 19/14 Q1009=
200806071745 METAR LIRA 071745Z 08002KT 9999 FEW017 SCT080 20/15 Q1009=
200806071715 METAR LIRA 071715Z 02003KT 9999 FEW017 BKN080 20/15 Q1009=
200806071645 METAR LIRA 071645Z 21004KT 9999 FEW017 BKN070 20/15 Q1009=
200806071615 METAR LIRA 071615Z 23004KT 9999 SCT017 FEW018CB BKN070 21/15
                        Q1010=
200806071545 METAR LIRA 071545Z 24007KT 170V270 9999 FEW017CB SCT018 21/14
                        Q1010=
200806071515 METAR LIRA 071515Z 23008KT 160V280 9999 SCT017 FEW018CB SCT070
                        21/14 Q1010=
200806071445 METAR LIRA 071445Z 23009KT 180V280 9999 FEW017CB SCT018 22/14
                        Q1010=
200806071415 METAR LIRA 071415Z 22009KT 180V300 9999 FEW017TCU SCT018
                        22/13 Q1010=
200806071345 METAR LIRA 071345Z 24008KT 160V280 9999 SCT018 SCT200 22/14
                        Q1010=
200806071315 METAR LIRA 071315Z 24011KT 160V280 9999 FEW017TCU SCT018
                        22/14 Q1010=
200806071245 METAR LIRA 071245Z 24009KT 190V300 9999 SCT018 SCT200 22/14
                        Q1010=
200806071215 METAR LIRA 071215Z 23008KT 180V300 9999 FEW018TCU SCT020
                        22/14 Q1010=
200806071145 METAR LIRA 071145Z 25007KT 220V310 9999 FEW018TCU SCT020
                        21/13 Q1010=
200806071115 METAR LIRA 071115Z 29006KT 270V330 9999 FEW018TCU SCT020
                        21/14 Q1010=
200806071045 METAR LIRA 071045Z 30003KT 9999 FEW018TCU SCT020 21/14 Q1010=
200806071015 METAR LIRA 071015Z 23005KT 160V290 9999 FEW017CB FEW018TCU
                        SCT020 21/14 Q1010=
200806070945 METAR LIRA 070945Z 26002KT 9999 FEW017CB SCT018TCU 20/15
                        Q1010=
200806070915 METAR LIRA 070915Z 18002KT 9999 FEW016CB SCT018TCU 20/16
                        Q1010=
200806070845 METAR LIRA 070845Z 24004KT 9999 FEW015CB SCT018TCU 18/15
                        Q1010=
200806070815 METAR LIRA 070815Z 24003KT 9999 FEW015CB SCT018TCU 19/14
                        Q1010=
200806070745 METAR LIRA 070745Z 27001KT 9000 FEW015CB SCT018TCU 18/16
                        Q1010=
200806070715 METAR LIRA 070715Z 03003KT 9000 FEW015CB FEW017TCU 18/15
                        Q1010=
200806070645 METAR LIRA 070645Z 32003KT 8000 FEW015CB FEW017TCU SCT070
                        17/15 Q1010=
200806070615 METAR LIRA 070615Z 30002KT 7000 FEW015CB FEW017TCU SCT070
                        17/15 Q1010=
200806070545 METAR LIRA 070545Z 00000KT 7000 FEW015 FEW017TCU SCT070 16/15
                        Q1010=
200806070515 METAR LIRA 070515Z 00000KT 8000 FEW015 FEW017TCU SCT070 16/14
                        Q1009=
200806070445 METAR LIRA 070445Z 18001KT 9999 FEW015 FEW017TCU SCT070 16/14
                        Q1009=
200806070415 METAR LIRA 070415Z 18002KT 9999 SCT015 SCT070 15/14 Q1009=
200806070345 METAR LIRA 070345Z 00000KT 9999 FEW015 16/14 Q1009=
200806070315 METAR LIRA 070315Z 00000KT 9999 FEW015 16/14 Q1009=
200806070245 METAR LIRA 070245Z 00000KT 9999 SCT015 SCT070 16/14 Q1010=
200806070215 METAR LIRA 070215Z 00000KT 9999 SCT018 SCT070 16/15 Q1010=
200806070145 METAR LIRA 070145Z 00000KT 9999 SCT020 SCT070 16/15 Q1010=
200806070115 METAR LIRA 070115Z 00000KT 9999 SCT018 SCT070 16/14 Q1010=
200806062145 METAR LIRA 062145Z 25001KT 9999 SCT018 FEW020CB 17/14 Q1011=
200806062115 METAR LIRA 062115Z 24002KT 9999 SCT018 FEW020CB 18/15 Q1011=
200806062045 METAR LIRA 062045Z 29002KT 9999 SCT018 FEW020CB 18/14 Q1011=
200806062015 METAR LIRA 062015Z 29002KT 9999 SCT018 FEW020CB 18/14 Q1011=
200806061945 METAR LIRA 061945Z 29002KT 9999 SCT018 FEW020CB 18/15 Q1011=
200806061915 METAR LIRA 061915Z 27003KT 240V300 9999 SCT018 FEW020CB 19/15
                        Q1010=
200806061845 METAR LIRA 061845Z 27004KT 230V310 9999 SCT018 FEW020CB 19/15
                        Q1010=
200806061815 METAR LIRA 061815Z 26005KT 210V310 9999 SCT018 FEW020CB 20/14
                        Q1010=
200806061745 METAR LIRA 061745Z 25007KT 200V290 9999 SCT018 FEW020CB 20/14
                        Q1010=
200806061715 METAR LIRA 061715Z 23008KT 180V280 9999 SCT018 FEW020CB 21/14
                        Q1010=
200806061645 METAR LIRA 061645Z 24008KT 190V290 9999 SCT018 FEW020CB 20/14
                        Q1009=
200806061615 METAR LIRA 061615Z 22007KT 180V270 9999 SCT018 FEW020CB 22/13
                        Q1009=
200806061545 METAR LIRA 061545Z 21010KT 170V270 9999 BKN018 FEW020CB 21/14
                        Q1009=
200806061515 METAR LIRA 061515Z 23011KT 170V290 9999 BKN018 FEW020CB 22/13
                        Q1009=
200806061445 METAR LIRA 061445Z 22009KT 180V270 9999 SCT018 FEW020CB 22/14
                        Q1009=
200806061415 METAR LIRA 061415Z 22007KT 170V300 9999 SCT018 FEW020CB 22/15
                        Q1010=
200806061345 METAR LIRA 061345Z 23012KT 170V270 9999 BKN018 FEW020CB 22/13
                        Q1010=
200806061315 METAR LIRA 061315Z 21011KT 170V250 9999 BKN018 FEW020CB 23/13
                        Q1010=
200806061245 METAR LIRA 061245Z 21012KT 150V260 9999 BKN018 FEW020CB 23/12
                        Q1010=
200806061215 METAR LIRA 061215Z 19010KT 140V250 9999 BKN018 FEW020CB 22/11
                        Q1010=
200806061145 METAR LIRA 061145Z 17010KT 130V250 9999 BKN018 FEW020TCU
                        21/11 Q1010=
200806061115 METAR LIRA 061115Z 20008KT 120V250 9999 SCT018 FEW020TCU
                        21/12 Q1010=
200806061045 METAR LIRA 061045Z 16007KT 120V240 9999 SCT018 FEW020TCU
                        21/12 Q1010=
200806061015 METAR LIRA 061015Z 19008KT 160V250 9999 SCT018 FEW020TCU
                        20/11 Q1010=
200806060945 METAR LIRA 060945Z 18009KT 140V230 9999 SCT018 SCT030 21/12
                        Q1010=
200806060915 METAR LIRA 060915Z 19010KT 160V220 9999 SCT018 SCT030 20/13
                        Q1010=
200806060845 METAR LIRA 060845Z 17011KT 120V210 9999 SCT018 SCT030 20/12
                        Q1010=
200806060815 METAR LIRA 060815Z 18008KT 120V220 9999 SCT018 20/13 Q1010=
200806060745 METAR LIRA 060745Z 18008KT 130V240 9999 SCT018 18/12 Q1010=
200806060715 METAR LIRA 060715Z 16008KT 130V200 9999 FEW020 SCT030 17/12
                        Q1010=
200806060645 METAR LIRA 060645Z 13002KT 9999 FEW020 BKN030 16/12 Q1010=
200806060615 METAR LIRA 060615Z 10002KT 9999 FEW020 BKN030 15/11 Q1010=
200806060545 METAR LIRA 060545Z 10003KT 9999 FEW020 BKN030 15/11 Q1010=
200806060515 METAR LIRA 060515Z 11005KT 9999 FEW020 SCT030 14/11 Q1010=
200806060445 METAR LIRA 060445Z 12002KT 9999 FEW020 14/11 Q1010=
200806060415 METAR LIRA 060415Z 11006KT 9999 FEW020 15/11 Q1010=
200806060345 METAR LIRA 060345Z 11004KT 9999 FEW020 16/12 Q1010=
200806060315 METAR LIRA 060315Z 36001KT 9999 FEW020 SCT070 16/12 Q1010=
200806060245 METAR LIRA 060245Z 14004KT 9999 FEW020 SCT060 16/11 Q1010=
200806060215 METAR LIRA 060215Z 16004KT 9999 FEW020 SCT060 17/12 Q1011=
200806060145 METAR LIRA 060145Z 15006KT 9999 FEW020TCU SCT060 17/12 Q1011=
200806060115 METAR LIRA 060115Z 16005KT 9999 SCT030 SCT070 17/12 Q1011=
200806060045 METAR LIRA 060045Z 18004KT 9999 FEW020TCU BKN060 17/11 Q1011=
200806060015 METAR LIRA 060015Z 16005KT 9999 -DZ FEW020CB SCT030 BKN060
                        17/12 Q1011=
200806052345 METAR LIRA 052345Z 17007KT 9999 FEW020CB SCT030 17/11 Q1011=
200806052315 METAR LIRA 052315Z 18006KT 9999 SCT030 SCT070 17/12 Q1011=
200806052245 METAR LIRA 052245Z 18005KT 140V200 9999 FEW020TCU SCT030
                        17/11 Q1011=
200806052215 METAR LIRA 052215Z 18003KT 9999 FEW020TCU BKN030 17/11 Q1012=
200806052145 METAR LIRA 052145Z 15005KT 9999 FEW020TCU SCT035 17/11 Q1012=
200806052115 METAR LIRA 052115Z 20003KT 9999 FEW020TCU SCT040 17/11 Q1012=
200806052045 METAR LIRA 052045Z 16004KT 9999 FEW020TCU SCT040 BKN060 17/11
                        Q1012=
200806052015 METAR LIRA 052015Z 17004KT 9999 FEW020CB SCT070 17/11 Q1012=
200806051945 METAR LIRA 051945Z 17004KT 9999 FEW018CB SCT070 18/11 Q1012=
200806051915 METAR LIRA 051915Z 18003KT 9999 FEW018CB SCT060 18/11 Q1011=
200806051845 METAR LIRA 051845Z 19003KT 180V240 9999 FEW018CB 19/11 Q1011=
200806051815 METAR LIRA 051815Z 23006KT 180V270 9999 FEW020TCU 20/11 Q1011=
200806051745 METAR LIRA 051745Z 23008KT 170V270 9999 SCT020 20/11 Q1011=
200806051715 METAR LIRA 051715Z 22006KT 160V280 9999 SCT020 20/11 Q1011=
200806051645 METAR LIRA 051645Z 24010KT 190V270 9999 SCT020 21/12 Q1011=
200806051615 METAR LIRA 051615Z 22012KT 180V270 9999 SCT020 21/12 Q1011=
200806051545 METAR LIRA 051545Z 22010KT 170V270 9999 FEW020 20/12 Q1011=
200806051515 METAR LIRA 051515Z 23009KT 190V270 9999 SCT020 21/13 Q1011=
200806051445 METAR LIRA 051445Z 23014KT 180V270 9999 BKN020 21/17 Q1011=
200806051415 METAR LIRA 051415Z 23011KT 170V270 9999 SCT018 SCT030 20/14
                        Q1011=
200806051345 METAR LIRA 051345Z 23012KT 170V270 9999 SCT018 SCT030 22/15
                        Q1011=
200806051315 METAR LIRA 051315Z 22011G22KT 160V270 9999 SCT015 FEW018TCU
                        SCT025 21/16 Q1011=
200806051245 METAR LIRA 051245Z 23011KT 160V270 9999 SCT015 FEW018TCU
                        SCT025 21/15 Q1011=
200806051215 METAR LIRA 051215Z 24012KT 9999 SCT015 FEW018TCU SCT025 21/15
                        Q1011=
200806051145 METAR LIRA 051145Z 21012KT 170V270 9999 SCT015 FEW018TCU
                        SCT025 21/15 Q1011=
200806051115 METAR LIRA 051115Z 22009KT 150V250 9999 SCT016 SCT025 21/15
                        Q1011=
200806051045 METAR LIRA 051045Z 22008KT 150V270 9999 SCT015 SCT025 21/16
                        Q1011=
200806051015 METAR LIRA 051015Z 21010KT 150V280 9999 SCT015 SCT025 20/16
                        Q1011=
200806050945 METAR LIRA 050945Z 22010KT 180V280 9999 SCT016 SCT025 19/16
                        Q1011=
200806050915 METAR LIRA 050915Z 21008KT 180V270 9999 SCT015 SCT025 19/16
                        Q1011=
200806050845 METAR LIRA 050845Z 22007KT 180V270 9999 -RA SCT015 FEW018TCU
                        SCT025 19/16 Q1011=
200806050815 METAR LIRA 050815Z 22007KT 160V270 9999 -RA SCT015 FEW018TCU
                        SCT025 19/14 Q1010=
200806050745 METAR LIRA 050745Z 22005KT 160V270 9999 FEW016 FEW018TCU
                        SCT025 19/16 Q1010=
200806050715 METAR LIRA 050715Z 21004KT 170V270 9000 SCT016 FEW018TCU
                        19/17 Q1010=
200806050645 METAR LIRA 050645Z 22007KT 160V280 9000 SCT016 FEW018TCU
                        SCT025 18/16 Q1010=
200806050615 METAR LIRA 050615Z 18009KT 7000 SCT016 FEW018TCU SCT025 17/16
                        Q1010=
200806050545 METAR LIRA 050545Z 17005KT 120V200 8000 FEW013 FEW018TCU
                        SCT025 17/15 Q1010=
200806050515 METAR LIRA 050515Z 17006KT 140V210 8000 -RA FEW013 FEW018TCU
                        SCT023 17/16 Q1010=
200806050445 METAR LIRA 050445Z 17009KT 140V240 7000 -RA FEW013 FEW018TCU
                        SCT023 17/15 Q1010=
200806050415 METAR LIRA 050415Z 16007KT 130V210 9999 SCT013 FEW018TCU
                        BKN023 17/15 Q1010=
200806050345 METAR LIRA 050345Z 16008KT 9999 -DZ FEW015 FEW018CB BKN020
                        17/15 Q1010=
200806050315 METAR LIRA 050315Z 15008KT 9999 -DZ FEW018 BKN020 17/14 Q1010=
200806050245 METAR LIRA 050245Z 16005KT 130V200 9999 BKN030 17/14 Q1010=
200806050215 METAR LIRA 050215Z 15005KT 9999 BKN030 17/14 Q1011=
200806050145 METAR LIRA 050145Z 17006KT 9999 FEW030 17/15 Q1011=
200806050115 METAR LIRA 050115Z 16006KT 130V200 9999 SCT030 17/15 Q1011=
200806050045 METAR LIRA 050045Z 18006KT 9999 SCT030 18/15 Q1011=
200806050015 METAR LIRA 050015Z 18006KT 150V220 9999 BKN025 18/15 Q1011=
200806042350 METAR LIRA 050045Z 18006KT 9999 SCT030 18/15 Q1011=
200806042345 METAR LIRA 042345Z 18006KT 9999 BKN020 17/16 Q1011=
200806042315 METAR LIRA 042315Z 19005KT 9999 BKN020 17/16 Q1012=
200806042245 METAR LIRA 042245Z 19004KT 9999 SCT020 17/16 Q1012=
200806042215 METAR LIRA 042215Z 19005KT 9999 SCT020 18/16 Q1012=
200806042145 METAR LIRA 042145Z 20005KT 160V230 9999 FEW025 17/15 Q1012=
200806042115 METAR LIRA 042115Z 19007KT 9999 BKN025 17/15 Q1012=
200806042045 METAR LIRA 042045Z 14006KT 9999 FEW018 SCT060 18/15 Q1012=
200806042015 METAR LIRA 042015Z 17006KT 9999 FEW018 18/15 Q1012=
200806041945 METAR LIRA 041945Z 18005KT 9999 FEW018 SCT060 18/15 Q1011=
200806041915 METAR LIRA 041915Z 19005KT 160V220 9999 SCT018 18/15 Q1011=
200806041845 METAR LIRA 041845Z 22004KT 170V250 9999 SCT018 19/15 Q1011=
200806041815 METAR LIRA 041815Z 21006KT 180V260 9999 SCT018 FEW020TCU
                        20/16 Q1011=
200806041745 METAR LIRA 041745Z 22007KT 180V260 9999 SCT018 FEW020TCU
                        20/15 Q1011=
200806041715 METAR LIRA 041715Z 23006KT 160V300 9999 SCT018 FEW020TCU
                        21/14 Q1011=
200806041645 METAR LIRA 041645Z 25009KT 210V280 9999 BKN018 21/14 Q1011=
200806041615 METAR LIRA 041615Z 26010KT 210V330 9999 SCT018 FEW020TCU
                        22/12 Q1011=
200806041545 METAR LIRA 041545Z 25011KT 200V330 9999 SCT018 FEW020CB 22/14
                        Q1011=
200806041515 METAR LIRA 041515Z 24009KT 200V280 9999 SCT018 FEW020CB 23/14
                        Q1011=
200806041445 METAR LIRA 041445Z 25008KT 210V300 9999 SCT018 FEW020CB 23/15
                        Q1011=
200806041415 METAR LIRA 041415Z 25011KT 200V310 9999 SCT018 FEW020CB 23/14
                        Q1011=
200806041345 METAR LIRA 041345Z 27010KT 220V320 9999 FEW018 FEW020TCU
                        SCT200 23/15 Q1011=
200806041315 METAR LIRA 041315Z 27010KT 210V330 9999 FEW018 FEW020TCU
                        SCT200 23/13 Q1011=
200806041245 METAR LIRA 041245Z 26010KT 210V320 9999 FEW018 FEW020TCU
                        23/12 Q1011=
200806041215 METAR LIRA 041215Z 28011KT 220V320 9999 FEW018 FEW020TCU
                        23/13 Q1011=
200806041145 METAR LIRA 041145Z 27010KT 210V330 9999 FEW018 FEW020TCU
                        23/14 Q1011=
200806041115 METAR LIRA 041115Z 27009KT 190V320 9999 FEW018 FEW020TCU
                        23/13 Q1011=
200806041045 METAR LIRA 041045Z 27009KT 220V320 9999 SCT018 23/14 Q1011=
200806041015 METAR LIRA 041015Z 31009KT 240V350 9999 SCT018 23/13 Q1011=
200806040945 METAR LIRA 040945Z 27005KT 260V350 9999 SCT018 23/15 Q1011=
200806040915 METAR LIRA 040915Z 30007KT 280V030 9999 FEW018 21/15 Q1011=
200806040845 METAR LIRA 040845Z 30006KT 270V340 9999 FEW018 21/15 Q1011=
200806040815 METAR LIRA 040815Z 31006KT 230V350 9999 FEW018 20/15 Q1011=
200806040745 METAR LIRA 040745Z 34003KT 9999 FEW018 19/15 Q1011=
200806040715 METAR LIRA 040715Z 01003KT CAVOK 19/15 Q1011=
200806040645 METAR LIRA 040645Z 32002KT CAVOK 18/15 Q1011=
200806040615 METAR LIRA 040615Z 02003KT CAVOK 16/15 Q1011=
200806040545 METAR LIRA 040545Z 05003KT CAVOK 15/14 Q1011=
200806040515 METAR LIRA 040515Z 02002KT CAVOK 15/14 Q1011=
200806040445 METAR LIRA 040445Z 06002KT CAVOK 15/14 Q1011=
200806040415 METAR LIRA 040415Z 03002KT 8000 NSC 15/14 Q1010=
200806040345 METAR LIRA 040345Z 02001KT 8000 SKC 15/14 Q1010=
200806040315 METAR LIRA 040315Z 01002KT 9999 FEW080 15/14 Q1011=
200806040245 METAR LIRA 040245Z 05002KT 9999 FEW080 16/14 Q1011=
200806040215 METAR LIRA 040215Z 05002KT CAVOK 16/14 Q1011=
200806040145 METAR LIRA 040145Z 06003KT CAVOK 16/14 Q1011=
200806040115 METAR LIRA 040115Z 07002KT 9999 FEW080 17/15 Q1012=
200806040045 METAR LIRA 040045Z 04003KT 9999 SCT080 17/15 Q1012=
200806040015 METAR LIRA 040015Z 03002KT 9999 SCT070 17/15 Q1012=
200806032345 METAR LIRA 032345Z 04002KT 9999 SCT070 17/16 Q1012=
200806032315 METAR LIRA 032315Z 06004KT 9000 SCT070 18/16 Q1012=
200806032245 METAR LIRA 032245Z 04002KT 8000 FEW080 18/16 Q1012=
200806032215 METAR LIRA 032215Z 00000KT 7000 NSC 19/17 Q1012=
200806032145 METAR LIRA 032145Z 23002KT 8000 FEW080 18/17 Q1012=
200806032115 METAR LIRA 032115Z 00000KT 9999 SCT080 19/17 Q1011=
200806032045 METAR LIRA 032045Z 00000KT 9999 SCT080 19/17 Q1011=
200806032015 METAR LIRA 032015Z 00000KT 9999 SCT070 20/16 Q1011=
200806031945 METAR LIRA 031945Z 00000KT 9999 SCT070 SCT200 20/16 Q1011=
200806031915 METAR LIRA 031915Z 00000KT 9999 SCT070 SCT200 20/16 Q1011=
200806031845 METAR LIRA 031845Z 28003KT 9999 FEW018 SCT070 21/15 Q1011=
200806031815 METAR LIRA 031815Z 27004KT 9999 FEW017 FEW020TCU SCT070 22/15
                        Q1011=
200806031745 METAR LIRA 031745Z 32006KT 240V330 9999 FEW018 FEW020TCU
                        SCT070 23/14 Q1011=
200806031715 METAR LIRA 031715Z 28007KT 240V320 9999 FEW016 FEW020TCU
                        SCT070 24/12 Q1011=
200806031645 METAR LIRA 031645Z 29010KT 250V330 9999 FEW016 FEW018CB FEW020TCU
                        SCT070 24/14 Q1011 RETS=
200806031615 METAR LIRA 031615Z 32008KT 270V360 9999 TS FEW016 FEW017CB
                        FEW018TCU SCT070 24/14 Q1011=
200806031545 METAR LIRA 031545Z 28003KT 260V360 9999 SCT018 FEW022TCU
                        25/13 Q1011=
200806031515 METAR LIRA 031515Z 30008KT 160V010 9999 SCT025 25/12 Q1011=
200806031445 METAR LIRA 031445Z 34009KT 300V020 9999 FEW025 25/13 Q1011=
200806031415 METAR LIRA 031415Z 04003KT 360V080 9999 FEW025 25/12 Q1011=
200806031345 METAR LIRA 031345Z 34005KT 280V020 9999 FEW024 SCT070 24/14
                        Q1011=
200806031315 METAR LIRA 031315Z 03006KT 330V090 9999 FEW024 SCT070 24/13
                        Q1012=
200806031245 METAR LIRA 031245Z 03006KT 330V090 9999 FEW035 SCT070 23/15
                        Q1012=
200806031215 METAR LIRA 031215Z 07007KT 350V120 9999 FEW035 SCT070 23/15
                        Q1012=
200806031145 METAR LIRA 031145Z 06007KT 340V090 9999 FEW035 BKN070 22/15
                        Q1012=
200806031115 METAR LIRA 031115Z 04008KT 330V090 9999 FEW035 BKN070 21/16
                        Q1012=
200806031045 METAR LIRA 031045Z 04008KT 340V090 9999 FEW020 BKN070 20/16
                        Q1013=
200806031015 METAR LIRA 031015Z 03007KT 330V110 9999 FEW020 BKN070 19/16
                        Q1013=
200806030945 METAR LIRA 030945Z 02007KT 320V050 9999 -RA FEW018 SCT060
                        BKN090 18/15 Q1013=
200806030915 METAR LIRA 030915Z 35006KT 300V030 9000 -RA FEW018 SCT060
                        BKN090 17/15 Q1013=
200806030845 METAR LIRA 030845Z 03004KT 9000 -RA FEW015 SCT060 BKN090
                        17/16 Q1013=
200806030815 METAR LIRA 030815Z 05005KT 8000 -RA FEW015 FEW020CB BKN070
                        17/16 Q1013=
200806030745 METAR LIRA 030745Z 09005KT 040V130 8000 -RA FEW015 FEW020CB
                        BKN070 17/16 Q1013=
200806030715 METAR LIRA 030715Z 10004KT 8000 -RA FEW015 FEW020CB BKN070
                        17/16 Q1012=
200806030645 METAR LIRA 030645Z 15007KT 8000 -RA FEW015 FEW020CB BKN070
                        18/16 Q1012=
200806030615 METAR LIRA 030615Z 20005KT 8000 -RA FEW018 FEW020CB BKN070
                        18/17 Q1012=
200806030545 METAR LIRA 030545Z 24002KT 8000 -RA FEW018 FEW020CB BKN030
                        18/14 Q1012=
200806030515 METAR LIRA 030515Z 16006KT 120V230 8000 -RA FEW018 FEW020CB
                        BKN030 18/14 Q1011=
200806030445 METAR LIRA 030445Z 07005KT 9999 FEW018 FEW020CB SCT030 17/15
                        Q1011=
200806030415 METAR LIRA 030415Z 06007KT 020V110 9999 FEW018 FEW020CB SCT030
                        17/15 Q1010=
200806030345 METAR LIRA 030345Z 08004KT 9999 -RA FEW018 FEW020CB SCT030
                        18/15 Q1011=
200806030315 METAR LIRA 030315Z 02005KT 350V050 9999 -RA FEW018 SCT030
                        18/15 Q1011=
200806030245 METAR LIRA 030245Z 02004KT 9999 FEW018 SCT070 18/15 Q1011=
200806030215 METAR LIRA 030215Z 04004KT 9999 FEW018 SCT070 18/14 Q1011=
200806030145 METAR LIRA 030145Z 01004KT 9999 FEW018 SCT070 18/15 Q1011=
200806030115 METAR LIRA 030115Z 30003KT 9999 FEW022 SCT070 18/14 Q1011=
200806030045 METAR LIRA 030045Z 35002KT 9999 FEW022 BKN070 18/15 Q1011=
200806030015 METAR LIRA 030015Z 06006KT 020V110 9999 FEW022 BKN070 18/15
                        Q1011=
200806022345 METAR LIRA 022345Z 06008KT 010V100 9999 FEW022 BKN070 18/15
                        Q1011=
200806022315 METAR LIRA 022315Z 06007KT 030V090 9999 FEW022 BKN070 18/15
                        Q1011=
200806022245 METAR LIRA 022245Z 04006KT 9999 -RA FEW022 SCT025 BKN070
                        18/15 Q1011=
200806022215 METAR LIRA 022215Z 02004KT 9999 -RA FEW022 SCT025 BKN070
                        19/15 Q1011=
200806022145 METAR LIRA 022145Z 06004KT 9999 FEW022 SCT030 BKN070 19/15
                        Q1011=
200806022115 METAR LIRA 022115Z 34004KT 9999 FEW030 BKN070 19/15 Q1012=
200806022045 METAR LIRA 022045Z 05003KT 9999 FEW030 SCT070 19/14 Q1012=
200806022015 METAR LIRA 022015Z 05003KT 9999 FEW030 SCT070 19/14 Q1012=
200806021945 METAR LIRA 021945Z 04003KT 9999 FEW030 SCT070 20/13 Q1011=
200806021915 METAR LIRA 021915Z 03004KT 340V070 9999 FEW030 SCT070 21/13
                        Q1011=
200806021845 METAR LIRA 021845Z 02007KT 320V050 9999 FEW030 SCT070 22/13
                        Q1011=
200806021815 METAR LIRA 021815Z 36006KT 310V040 9999 SCT030 SCT070 22/13
                        Q1011=
200806021745 METAR LIRA 021745Z 01006KT 330V060 9999 SCT030 SCT070 23/13
                        Q1011=
200806021715 METAR LIRA 021715Z 01004KT 320V060 9999 SCT030 SCT070 24/15
                        Q1011=
200806021645 METAR LIRA 021645Z 01008KT 290V050 9999 SCT030 SCT070 24/14
                        Q1011=
200806021615 METAR LIRA 021615Z 01006KT 310V070 9999 SCT030 SCT080 23/15
                        Q1011=
200806021545 METAR LIRA 021545Z 03007KT 320V100 9999 SCT030 SCT080 23/15
                        Q1011=
200806021515 METAR LIRA 021515Z 04009KT 340V080 9999 FEW018CB SCT030 22/16
                        Q1012=
200806021445 METAR LIRA 021445Z 03008KT 350V090 9999 FEW017 FEW018CB SCT030
                        21/17 Q1012=
200806021415 METAR LIRA 021415Z 05010KT 010V100 9000 FEW020 SCT030 BKN080
                        21/18 Q1013=
200806021345 METAR LIRA 021345Z 03008KT 350V080 9000 -RA FEW017 BKN030
                        21/17 Q1013=
200806021315 METAR LIRA 021315Z 04010KT 320V090 9000 -RA FEW017 SCT030
                        BKN080 21/16 Q1013=
200806021245 METAR LIRA 021245Z 01011KT 320V060 9000 -RA FEW016 SCT030
                        BKN080 20/17 Q1013=
200806021215 METAR LIRA 021215Z 36007KT 320V100 9000 -RA FEW018 SCT025
                        BKN080 20/18 Q1013=
200806021145 METAR LIRA 021145Z 06013KT 360V090 9000 -RA FEW018 SCT030
                        BKN070 19/18 Q1013=
200806021115 METAR LIRA 021115Z 04010KT 010V090 8000 -RA FEW015 SCT030
                        BKN070 19/18 Q1014=
200806021045 METAR LIRA 021045Z 05007KT 020V100 7000 -RA FEW018 SCT025
                        BKN070 19/18 Q1014=
200806021015 METAR LIRA 021015Z 03009KT 320V090 7000 -RA FEW016 SCT025
                        BKN070 19/18 Q1014=
200806020945 METAR LIRA 020945Z 03005KT 020V090 6000 -RA FEW015 BKN025
                        19/17 Q1015=
200806020915 METAR LIRA 020915Z 31004KT 260V330 5000 -RA BR FEW015 BKN025
                        19/17 Q1015=
200806020845 METAR LIRA 020845Z 27006KT 220V300 5000 -RA BR FEW015 BKN025
                        20/17 Q1015=
200806020815 METAR LIRA 020815Z 29002KT 8000 -RA SCT030 BKN070 20/17 Q1014=
200806020745 METAR LIRA 020745Z 27003KT 230V330 8000 -RA SCT030 BKN070
                        19/17 Q1014=
200806020715 METAR LIRA 020715Z 00000KT 9000 -RA FEW015 SCT030 BKN070
                        19/16 Q1014=
200806020645 METAR LIRA 020645Z 03003KT 9999 SCT025 BKN070 19/16 Q1013=
200806020615 METAR LIRA 020615Z 05004KT 350V080 9999 SCT025 BKN070 19/16
                        Q1013=
200806020545 METAR LIRA 020545Z 03004KT 9999 SCT025 BKN070 18/16 Q1013=
200806020515 METAR LIRA 020515Z 04003KT 9999 SCT025 BKN070 18/16 Q1013=
200806020445 METAR LIRA 020445Z 06004KT 9999 FEW030 BKN070 17/15 Q1013=
200806020415 METAR LIRA 020415Z 05004KT 9999 SCT070 BKN200 17/15 Q1013=
200806020345 METAR LIRA 020345Z 03004KT 9999 FEW070 18/14 Q1012=
200806020315 METAR LIRA 020315Z 04003KT 9999 FEW070 18/15 Q1013=
200806020245 METAR LIRA 020245Z 02003KT 9999 FEW070 18/13 Q1013=
200806020215 METAR LIRA 020215Z 04003KT CAVOK 18/13 Q1013=
200806020145 METAR LIRA 020145Z 03004KT CAVOK 18/13 Q1013=
200806020115 METAR LIRA 020115Z 03003KT CAVOK 18/13 Q1013=
200806020015 METAR LIRA 020015Z 08004KT 9999 FEW070 18/15 Q1014=
200806012345 METAR LIRA 012345Z 08004KT 9999 SCT070 SCT200 19/16 Q1014=
200806012315 METAR LIRA 012315Z 09001KT 9999 SCT070 SCT200 19/16 Q1014=
200806012245 METAR LIRA 012245Z 08001KT 9999 SCT070 SCT200 20/16 Q1014=
200806012215 METAR LIRA 012215Z 17004KT 9999 SCT070 SCT200 21/17 Q1015=
200806011945 METAR LIRA 011945Z 21002KT CAVOK 22/17 Q1014=
200806011915 METAR LIRA 011915Z 23003KT CAVOK 22/17 Q1014=
200806011845 METAR LIRA 011845Z 24001KT 9999 SCT070 SCT200 23/17 Q1014=
200806011815 METAR LIRA 011815Z 23003KT 9999 SCT070 SCT200 23/16 Q1014=
200806011745 METAR LIRA 011745Z 25004KT 9999 SCT070 SCT200 24/13 Q1014=
200806011715 METAR LIRA 011715Z 24004KT 220V310 9999 SCT070 SCT200 28/14
                        Q1014=
200806011645 METAR LIRA 011645Z 28005KT 240V310 9999 SCT070 SCT200 28/15
                        Q1014=
200806011615 METAR LIRA 011615Z 28008KT 240V310 9999 SCT070 SCT200 28/15
                        Q1014=
200806011545 METAR LIRA 011545Z 32005KT 280V350 9999 SCT080 SCT200 28/15
                        Q1014=
200806011515 METAR LIRA 011515Z 33003KT 9999 SCT080 SCT200 27/16 Q1015=
200806011445 METAR LIRA 011445Z 32003KT 300V010 9999 SCT080 SCT200 27/17
                        Q1015=
200806011415 METAR LIRA 011415Z 33003KT 9999 FEW030 BKN080 26/17 Q1015=
200806011345 METAR LIRA 011345Z 29002KT 9999 FEW030 BKN080 26/17 Q1016=
200806011315 METAR LIRA 011315Z 27003KT 9999 FEW030 BKN080 25/17 Q1016=
200806011245 METAR LIRA 011245Z 26003KT 9999 FEW030 BKN080 25/18 Q1016=
200806011215 METAR LIRA 011215Z 21004KT 160V230 9999 FEW030 BKN080 24/13
                        Q1017=
200806011145 METAR LIRA 011145Z 23007KT 170V270 9999 FEW030 BKN080 27/12
                        Q1017=
200806011115 METAR LIRA 011115Z 23006KT 200V310 9999 FEW020 BKN080 26/13
                        Q1017=
200806011045 METAR LIRA 011045Z 21002KT 9999 FEW020 SCT200 25/14 Q1017=
200806011015 METAR LIRA 011015Z 18003KT 9999 FEW020 SCT200 24/14 Q1017=
200806010945 METAR LIRA 010945Z 33004KT CAVOK 24/15 Q1017=
200806010915 METAR LIRA 010915Z 35004KT CAVOK 23/16 Q1017=
200806010845 METAR LIRA 010845Z 03002KT CAVOK 23/17 Q1017=
200806010815 METAR LIRA 010815Z 02003KT CAVOK 21/16 Q1017=
200806010745 METAR LIRA 010745Z 05004KT CAVOK 19/14 Q1017=
200806010715 METAR LIRA 010715Z 02003KT CAVOK 18/14 Q1017=
200806010645 METAR LIRA 010645Z 03003KT 9999 FEW080 SCT200 18/15 Q1017=
200806010615 METAR LIRA 010615Z 03004KT 9999 FEW080 SCT200 17/14 Q1017=
200806010545 METAR LIRA 010545Z 04003KT 9999 FEW080 SCT200 16/13 Q1017=
200806010515 METAR LIRA 010515Z 04003KT 9999 FEW070 SCT200 15/12 Q1017=
200806010445 METAR LIRA 010445Z 05002KT 9999 FEW070 15/11 Q1017=
200806010415 METAR LIRA 010415Z 32001KT 9999 FEW070 15/11 Q1017=
200806010345 METAR LIRA 010345Z 10002KT 9999 FEW070 15/11 Q1017=
200806010315 METAR LIRA 010315Z 06003KT CAVOK 15/12 Q1017=
200806010245 METAR LIRA 010245Z 03003KT CAVOK 15/11 Q1016=
200806010215 METAR LIRA 010215Z 04003KT CAVOK 16/11 Q1016=
200806010145 METAR LIRA 010145Z 06003KT CAVOK 16/11 Q1016=
200806010115 METAR LIRA 010115Z 05003KT CAVOK 16/11 Q1017=
200806010045 METAR LIRA 010045Z 04003KT CAVOK 17/12 Q1017=
200806010015 METAR LIRA 010015Z 04003KT CAVOK 17/12 Q1018=

</pre>

</body>
</html>
