##########################################################
# Query made at 11/10/2014 15:37:35 UTC
# Time interval: from 06/01/2010 00:00  to 07/01/2010 23:59  UTC
##########################################################

##########################################################
# LIRA, Roma / Ciampino (Italy)
# WMO index: 16239
# Latitude 41-47N. Longitude 012-35E. Altitude 129 m.
##########################################################

###################################
#  METAR/SPECI from LIRA
###################################
201007012350 METAR LIRA 020045Z 11001KT CAVOK 22/19 Q1015=
201007012345 METAR LIRA 012345Z 11001KT CAVOK 22/19 Q1015=
201007012315 METAR LIRA 012315Z 11005KT CAVOK 22/19 Q1015=
201007012245 METAR LIRA 012245Z 34001KT CAVOK 23/20 Q1015=
201007012215 METAR LIRA 012215Z 23001KT CAVOK 23/20 Q1015=
201007012145 METAR LIRA 012145Z 13001KT CAVOK 23/21 Q1015=
201007012115 METAR LIRA 012115Z 00000KT 9999 FEW045 23/21 Q1015=
201007012045 METAR LIRA 012045Z 28001KT 9999 FEW040 24/22 Q1015=
201007012015 METAR LIRA 012015Z 17004KT 9999 FEW030 25/22 Q1015=
201007011945 METAR LIRA 011945Z 21003KT 9999 FEW020TCU SCT080 25/22 Q1014=
201007011915 METAR LIRA 011915Z 22003KT 9999 FEW020TCU SCT080 25/22 Q1014=
201007011845 METAR LIRA 011845Z 25003KT 9999 FEW018CB SCT035 26/22 Q1014=
201007011815 METAR LIRA 011815Z 21005KT 150V240 9999 FEW018 FEW020CB SCT080
                        27/21 Q1014=
201007011745 METAR LIRA 011745Z 22006KT 180V260 9999 FEW018 FEW020CB SCT080
                        28/20 Q1014=
201007011715 METAR LIRA 011715Z 23007KT 180V290 9999 FEW018CB SCT030 29/19
                        Q1014=
201007011645 METAR LIRA 011645Z 21008KT 160V260 9999 FEW018CB SCT030 29/16
                        Q1014=
201007011615 METAR LIRA 011615Z 23007KT 190V260 9999 FEW018CB SCT025 30/17
                        Q1014=
201007011545 METAR LIRA 011545Z 22007KT 160V260 9999 FEW018 FEW020CB 30/17
                        Q1014=
201007011515 METAR LIRA 011515Z 22008KT 160V310 9999 FEW018 FEW020CB 30/16
                        Q1014=
201007011445 METAR LIRA 011445Z 23007KT 180V320 9999 FEW020 FEW022CB 30/15
                        Q1014=
201007011415 METAR LIRA 011415Z 23008KT 180V270 9999 SCT020 FEW024TCU
                        30/15 Q1015=
201007011345 METAR LIRA 011345Z 22007KT 160V280 9999 SCT020 FEW024TCU
                        30/15 Q1015=
201007011315 METAR LIRA 011315Z 23009KT 180V290 9999 BKN020 31/16 Q1015=
201007011245 METAR LIRA 011245Z 23008KT 170V260 9999 SCT020 31/17 Q1015=
201007011215 METAR LIRA 011215Z 24007KT 190V310 9999 BKN020 30/18 Q1015=
201007011145 METAR LIRA 011145Z 16004KT 170V290 9999 BKN020 31/18 Q1015=
201007011115 METAR LIRA 011115Z 17005KT 100V220 9999 SCT020 31/15 Q1015=
201007011045 METAR LIRA 011045Z 18006KT 060V250 9999 SCT020 30/15 Q1015=
201007011015 METAR LIRA 011015Z 20004KT 100V200 9999 FEW022 30/15 Q1015=
201007010945 METAR LIRA 010945Z 16003KT 9999 FEW022 30/16 Q1015=
201007010915 METAR LIRA 010915Z 16004KT 010V120 9999 FEW020 30/17 Q1015=
201007010900 METAR LIRA CONTUS/CB NW=
201007010845 METAR LIRA 010845Z 01002KT 9999 FEW020 28/17 Q1015=
201007010815 METAR LIRA 010815Z 26002KT 9999 FEW022 27/17 Q1015=
201007010800 METAR LIRA CONTUS/CB ALQUADS=
201007010745 METAR LIRA 010745Z 31003KT 9999 FEW080 27/18 Q1015=
201007010715 METAR LIRA 010715Z 33002KT 9999 FEW080 25/18 Q1015=
201007010700 METAR LIRA CONTUS CB AQ=
201007010645 METAR LIRA 010645Z 31002KT 9999 FEW080 24/18 Q1015=
201007010615 METAR LIRA 010615Z 01003KT 9999 FEW080 23/18 Q1015=
201007010545 METAR LIRA 010545Z 36003KT 9999 FEW080 22/19 Q1015=
201007010515 METAR LIRA 010515Z 33002KT 9999 FEW080 21/18 Q1015=
201007010445 METAR LIRA 010445Z 16001KT 9999 FEW080 20/18 Q1014=
201007010415 METAR LIRA 010415Z 34003KT 9999 FEW080 20/17 Q1014=
201007010345 METAR LIRA 010345Z 12001KT 9999 FEW080 19/17 Q1015=
201007010315 METAR LIRA 010315Z 08003KT 9999 FEW080 20/17 Q1014=
201007010245 METAR LIRA 010245Z 09002KT CAVOK 20/17 Q1014=
201007010215 METAR LIRA 010215Z 11002KT 9999 FEW080 20/16 Q1014=
201007010145 METAR LIRA 010145Z 11002KT 9999 FEW070 20/16 Q1014=
201007010115 METAR LIRA 010115Z 27002KT CAVOK 20/16 Q1015=
201007010045 METAR LIRA 010045Z 07002KT 9999 FEW025 20/15 Q1015=
201007010015 METAR LIRA 010015Z 14002KT 9999 FEW010 21/17 Q1015=
201006302350 METAR LIRA 010045Z 07002KT 9999 FEW025 20/15 Q1015=
201006302345 METAR LIRA 302345Z 15005KT 9999 FEW025 22/20 Q1015=
201006302315 METAR LIRA 302315Z 16005KT 9999 FEW060 22/21 Q1015=
201006302245 METAR LIRA 302245Z 22003KT 9999 FEW060 22/19 Q1015=
201006302215 METAR LIRA 302215Z 23003KT 9999 FEW060 23/17 Q1015=
201006302145 METAR LIRA 302145Z 21002KT 9999 FEW070 24/17 Q1015=
201006302115 METAR LIRA 302115Z 18003KT CAVOK 25/17 Q1015=
201006302045 METAR LIRA 302045Z 17005KT 130V230 CAVOK 25/17 Q1015=
201006302015 METAR LIRA 302015Z 17005KT 9999 FEW080 24/19 Q1015=
201006301945 METAR LIRA 301945Z 17005KT 9999 FEW020 25/20 Q1014=
201006301915 METAR LIRA 301915Z 18005KT 9999 FEW080 25/20 Q1014=
201006301845 METAR LIRA 301845Z 20004KT 9999 FEW030 SCT080 26/20 Q1015=
201006301815 METAR LIRA 301815Z 23005KT 200V260 9999 FEW020 27/19 Q1014=
201006301745 METAR LIRA 301745Z 22005KT 180V260 9999 FEW018TCU 28/20 Q1014=
201006301715 METAR LIRA 301715Z 22006KT 180V250 9999 FEW018TCU 28/20 Q1014=
201006301645 METAR LIRA 301645Z 21005KT 180V250 9999 FEW018CB 29/19 Q1014=
201006301615 METAR LIRA 301615Z 22007KT 170V270 9999 FEW018TCU 29/18 Q1014=
201006301545 METAR LIRA 301545Z 22008KT 180V290 9999 FEW018 30/19 Q1014=
201006301515 METAR LIRA 301515Z 23008KT 190V310 9999 FEW018 30/18 Q1015=
201006301445 METAR LIRA 301445Z 22007KT 160V280 9999 FEW018 FEW020TCU
                        30/19 Q1015=
201006301415 METAR LIRA 301415Z 24007KT 170V280 9999 FEW018 FEW020TCU
                        29/18 Q1015=
201006301345 METAR LIRA 301345Z 22008KT 160V260 9999 FEW018 FEW020TCU
                        29/17 Q1015=
201006301315 METAR LIRA 301315Z 22008KT 170V270 9999 FEW018 FEW020TCU
                        30/18 Q1015=
201006301245 METAR LIRA 301245Z 22009KT 160V270 9999 FEW018 FEW020TCU
                        30/18 Q1015=
201006301215 METAR LIRA 301215Z 22010KT 150V290 9999 FEW018 FEW020TCU
                        30/20 Q1015=
201006301145 METAR LIRA 301145Z 22008KT 160V280 9999 SCT020 31/20 Q1015=
201006301115 METAR LIRA 301115Z 23007KT 160V270 9999 SCT020 30/18 Q1015=
201006301045 METAR LIRA 301045Z 30005KT 270V340 9999 FEW020 31/14 Q1015=
201006301015 METAR LIRA 301015Z 22004KT 140V260 9999 FEW020 30/15 Q1015=
201006300945 METAR LIRA 300945Z 10003KT 9999 FEW022 30/15 Q1015=
201006300915 METAR LIRA 300915Z 11003KT 9999 FEW022 30/15 Q1015=
201006300845 METAR LIRA 300845Z 05003KT 9999 FEW022 28/15 Q1015=
201006300815 METAR LIRA 300815Z 25003KT CAVOK 28/17 Q1015=
201006300745 METAR LIRA 300745Z 20003KT CAVOK 27/18 Q1015=
201006300715 METAR LIRA 300715Z 23003KT CAVOK 25/19 Q1015=
201006300645 METAR LIRA 300645Z 10003KT CAVOK 24/18 Q1015=
201006300615 METAR LIRA 300615Z 33001KT CAVOK 23/18 Q1015=
201006300545 METAR LIRA 300545Z 35002KT CAVOK 22/18 Q1015=
201006300515 METAR LIRA 300515Z 04002KT 9999 FEW080 21/18 Q1014=
201006300445 METAR LIRA 300445Z 04001KT 9999 FEW035 20/18 Q1014=
201006300415 METAR LIRA 300415Z 02002KT 9999 FEW035 19/17 Q1014=
201006300345 METAR LIRA 300345Z 00000KT CAVOK 19/17 Q1014=
201006300315 METAR LIRA 300315Z 05003KT 9999 FEW070 20/18 Q1014=
201006300245 METAR LIRA 300245Z 03002KT CAVOK 20/17 Q1014=
201006300215 METAR LIRA 300215Z 05003KT 9999 FEW030 20/17 Q1015=
201006300145 METAR LIRA 300145Z 03002KT 9999 SCT060 21/17 Q1015=
201006300115 METAR LIRA 300115Z 00000KT 9999 FEW060 21/17 Q1015=
201006300045 METAR LIRA 300045Z 00000KT 9999 FEW060 21/17 Q1015=
201006300015 METAR LIRA 300015Z 14003KT 9999 SCT060 21/17 Q1015=
201006292350 METAR LIRA 300045Z 00000KT 9999 FEW060 21/17 Q1015=
201006292345 METAR LIRA 292345Z 14002KT 9999 SCT060 22/17 Q1015=
201006292315 METAR LIRA 292315Z 03003KT CAVOK 22/16 Q1015=
201006292245 METAR LIRA 292245Z 03002KT CAVOK 22/17 Q1015=
201006292215 METAR LIRA 292215Z 15002KT CAVOK 22/18 Q1015=
201006292145 METAR LIRA 292145Z 14006KT CAVOK 22/20 Q1015=
201006292115 METAR LIRA 292115Z 16006KT CAVOK 23/20 Q1015=
201006292045 METAR LIRA 292045Z 17008KT CAVOK 23/20 Q1015=
201006292015 METAR LIRA 292015Z 17006KT 140V210 CAVOK 24/20 Q1014=
201006291945 METAR LIRA 291945Z 17007KT CAVOK 24/19 Q1014=
201006291915 METAR LIRA 291915Z 18008KT 140V210 CAVOK 25/18 Q1014=
201006291845 METAR LIRA 291845Z 19007KT 150V230 CAVOK 26/18 Q1014=
201006291815 METAR LIRA 291815Z 19006KT 150V240 CAVOK 27/16 Q1014=
201006291745 METAR LIRA 291745Z 20005KT 170V240 CAVOK 28/16 Q1014=
201006291715 METAR LIRA 291715Z 22007KT 190V260 CAVOK 28/15 Q1014=
201006291645 METAR LIRA 291645Z 22005KT 170V310 CAVOK 29/18 Q1014=
201006291615 METAR LIRA 291615Z 21006KT 160V290 9999 FEW020 29/19 Q1014=
201006291545 METAR LIRA 291545Z 22007KT 150V260 9999 FEW020 29/19 Q1014=
201006291515 METAR LIRA 291515Z 22007KT 170V270 9999 FEW018 29/18 Q1015=
201006291445 METAR LIRA 291445Z 23008KT 180V280 9999 FEW018 29/16 Q1015=
201006291415 METAR LIRA 291415Z 21009KT 170V260 9999 FEW018 29/17 Q1015=
201006291345 METAR LIRA 291345Z 22009KT 160V270 9999 FEW018 29/17 Q1015=
201006291315 METAR LIRA 291315Z 23008KT 180V290 9999 FEW018 29/18 Q1015=
201006291245 METAR LIRA 291245Z 22009KT 160V270 9999 FEW018 30/17 Q1015=
201006291215 METAR LIRA 291215Z 20009KT 150V250 9999 FEW018 30/17 Q1015=
201006291145 METAR LIRA 291145Z 21009KT 160V270 9999 FEW018 30/17 Q1015=
201006291115 METAR LIRA 291115Z 19003KT 150V250 9999 FEW018 30/12 Q1015=
201006291045 METAR LIRA 291045Z 36003KT 9999 FEW022 30/12 Q1015=
201006291015 METAR LIRA 291015Z 33004KT 300V040 9999 FEW022 30/12 Q1015=
201006290945 METAR LIRA 290945Z 05002KT 9999 FEW022 28/13 Q1015=
201006290915 METAR LIRA 290915Z 33004KT 9999 FEW022 27/13 Q1015=
201006290845 METAR LIRA 290845Z 35001KT CAVOK 26/13 Q1015=
201006290815 METAR LIRA 290815Z 31006KT 280V360 9999 FEW035 25/13 Q1015=
201006290745 METAR LIRA 290745Z 35005KT 280V040 9999 FEW035 25/15 Q1015=
201006290715 METAR LIRA 290715Z 34005KT 300V060 9999 FEW035 24/16 Q1015=
201006290645 METAR LIRA 290645Z 01004KT 9999 FEW022 24/16 Q1015=
201006290615 METAR LIRA 290615Z 01003KT 9999 FEW022 23/16 Q1015=
201006290545 METAR LIRA 290545Z 01003KT 9999 FEW022 21/17 Q1015=
201006290515 METAR LIRA 290515Z 34004KT 9999 FEW022 19/16 Q1015=
201006290445 METAR LIRA 290445Z 03004KT 9999 FEW022 19/15 Q1015=
201006290415 METAR LIRA 290415Z 03004KT 9999 FEW022 18/15 Q1015=
201006290345 METAR LIRA 290345Z 02004KT 9999 FEW022 18/14 Q1015=
201006290315 METAR LIRA 290315Z 04004KT 9999 FEW022 18/14 Q1015=
201006290245 METAR LIRA 290245Z 03004KT 9999 FEW022 18/14 Q1015=
201006290215 METAR LIRA 290215Z 05005KT 010V080 9999 FEW080 18/15 Q1015=
201006290145 METAR LIRA 290145Z 02003KT 9999 FEW080 18/14 Q1015=
201006290115 METAR LIRA 290115Z 04005KT 9999 FEW080 19/15 Q1015=
201006290045 METAR LIRA 290045Z 05003KT 9999 FEW070 19/16 Q1015=
201006290015 METAR LIRA 290015Z 08004KT 9999 FEW020 SCT070 20/16 Q1015=
201006282350 METAR LIRA 290045Z 05003KT 9999 FEW070 19/16 Q1015=
201006282345 METAR LIRA 282345Z 11002KT 9999 FEW020 SCT070 20/18 Q1015=
201006282315 METAR LIRA 282315Z 15003KT 9999 FEW022 SCT070 21/19 Q1015=
201006282245 METAR LIRA 282245Z 15004KT 9999 FEW022 SCT070 22/19 Q1015=
201006282215 METAR LIRA 282215Z 16005KT 9999 FEW022 22/18 Q1015=
201006282145 METAR LIRA 282145Z 17005KT 9999 FEW022 22/18 Q1015=
201006282115 METAR LIRA 282115Z 17004KT 9999 FEW070 23/18 Q1015=
201006282045 METAR LIRA 282045Z 17006KT 160V230 9999 FEW070 23/16 Q1015=
201006282015 METAR LIRA 282015Z 18006KT 9999 FEW070 23/16 Q1015=
201006281945 METAR LIRA 281945Z 17008KT 9999 FEW022 23/15 Q1015=
201006281915 METAR LIRA 281915Z 17007KT 9999 FEW022 24/13 Q1015=
201006281845 METAR LIRA 281845Z 18006KT 9999 FEW070 25/13 Q1015=
201006281815 METAR LIRA 281815Z 20005KT 160V260 9999 FEW020 26/13 Q1015=
201006281745 METAR LIRA 281745Z 23006KT 180V260 9999 FEW020 26/12 Q1015=
201006281715 METAR LIRA 281715Z 22007KT 190V260 9999 FEW020 27/13 Q1014=
201006281645 METAR LIRA 281645Z 23008KT 180V270 9999 FEW020 27/13 Q1014=
201006281615 METAR LIRA 281615Z 23009KT 180V290 9999 FEW020 28/15 Q1014=
201006281545 METAR LIRA 281545Z 22008KT 170V280 9999 FEW020 28/14 Q1014=
201006281515 METAR LIRA 281515Z 22010KT 170V260 9999 FEW020 29/13 Q1014=
201006281445 METAR LIRA 281445Z 23009KT 180V300 9999 FEW020 29/13 Q1014=
201006281415 METAR LIRA 281415Z 22007KT 160V300 9999 FEW020 30/14 Q1014=
201006281345 METAR LIRA 281345Z 23008KT 180V280 9999 FEW020 30/13 Q1014=
201006281315 METAR LIRA 281315Z 24008KT 190V300 9999 FEW020 30/13 Q1015=
201006281245 METAR LIRA 281245Z 31006KT 250V070 9999 FEW020 30/11 Q1015=
201006281215 METAR LIRA 281215Z 32006KT 180V010 9999 FEW020 30/11 Q1015=
201006281145 METAR LIRA 281145Z 30005KT 240V360 9999 FEW020 30/12 Q1015=
201006281115 METAR LIRA 281115Z 01003KT 9999 FEW020 29/12 Q1015=
201006281045 METAR LIRA 281045Z 36004KT 310V030 9999 FEW020 29/12 Q1015=
201006281015 METAR LIRA 281015Z 32005KT 290V010 9999 FEW020 28/12 Q1015=
201006280945 METAR LIRA 280945Z 32005KT 280V340 9999 FEW020 28/12 Q1015=
201006280915 METAR LIRA 280915Z 35002KT 9999 FEW020 27/13 Q1015=
201006280845 METAR LIRA 280845Z 06003KT CAVOK 27/14 Q1015=
201006280815 METAR LIRA 280815Z 34003KT CAVOK 25/13 Q1016=
201006280745 METAR LIRA 280745Z 01003KT CAVOK 25/13 Q1016=
201006280715 METAR LIRA 280715Z 04005KT 360V090 CAVOK 24/15 Q1016=
201006280645 METAR LIRA 280645Z 02004KT 350V070 CAVOK 22/15 Q1016=
201006280615 METAR LIRA 280615Z 03002KT CAVOK 20/15 Q1015=
201006280545 METAR LIRA 280545Z 03004KT 350V090 CAVOK 19/15 Q1015=
201006280515 METAR LIRA 280515Z 01003KT CAVOK 18/15 Q1015=
201006280445 METAR LIRA 280445Z 35003KT CAVOK 17/15 Q1015=
201006280415 METAR LIRA 280415Z 03002KT CAVOK 16/15 Q1014=
201006280345 METAR LIRA 280345Z 06001KT CAVOK 16/15 Q1014=
201006280315 METAR LIRA 280315Z 04004KT CAVOK 16/15 Q1014=
201006280245 METAR LIRA 280245Z 06001KT CAVOK 17/16 Q1014=
201006280215 METAR LIRA 280215Z 19001KT CAVOK 17/16 Q1014=
201006280145 METAR LIRA 280145Z 32001KT CAVOK 17/16 Q1014=
201006280115 METAR LIRA 280115Z 29001KT CAVOK 18/16 Q1015=
201006280045 METAR LIRA 280045Z 03001KT CAVOK 18/16 Q1015=
201006280015 METAR LIRA 280015Z 11002KT 9999 FEW080 19/17 Q1015=
201006272350 METAR LIRA 280045Z 03001KT CAVOK 18/16 Q1015=
201006272345 METAR LIRA 272345Z 02003KT 9999 FEW080 19/17 Q1015=
201006272315 METAR LIRA 272315Z 00000KT 9999 FEW080 20/17 Q1015=
201006272245 METAR LIRA 272245Z 28001KT 9999 FEW080 20/17 Q1015=
201006272215 METAR LIRA 272215Z 08002KT 9999 FEW080 20/17 Q1015=
201006272145 METAR LIRA 272145Z 13004KT 9999 FEW080 20/17 Q1015=
201006272115 METAR LIRA 272115Z 17002KT 9999 FEW022 22/17 Q1015=
201006272045 METAR LIRA 272045Z 17003KT 9999 FEW022 22/18 Q1015=
201006272015 METAR LIRA 272015Z 16003KT 9999 FEW022 23/19 Q1015=
201006271945 METAR LIRA 271945Z 15009KT 9999 FEW022 SCT070 23/19 Q1014=
201006271915 METAR LIRA 271915Z 17008KT 130V200 9999 FEW022 SCT070 23/19
                        Q1014=
201006271845 METAR LIRA 271845Z 19007KT 160V230 9999 FEW022 FEW024TCU
                        SCT070 24/18 Q1014=
201006271815 METAR LIRA 271815Z 17010KT 150V210 9999 FEW022 FEW024TCU
                        SCT070 25/17 Q1014=
201006271745 METAR LIRA 271745Z 18010KT 140V220 9999 FEW022 FEW024TCU
                        SCT070 25/17 Q1014=
201006271715 METAR LIRA 271715Z 18010KT 150V260 9999 FEW022 FEW024TCU
                        SCT070 25/18 Q1013=
201006271645 METAR LIRA 271645Z 19009KT 160V230 9999 SCT018 FEW022TCU
                        SCT070 26/17 Q1013=
201006271615 METAR LIRA 271615Z 20012KT 150V250 9999 SCT018 FEW022TCU
                        SCT070 26/16 Q1013=
201006271545 METAR LIRA 271545Z 19010KT 150V240 9999 SCT020 27/15 Q1014=
201006271515 METAR LIRA 271515Z 19010KT 140V220 9999 SCT020 27/14 Q1014=
201006271445 METAR LIRA 271445Z 19010KT 150V240 9999 SCT020 27/15 Q1014=
201006271415 METAR LIRA 271415Z 20007KT 130V240 9999 SCT020 27/14 Q1014=
201006271345 METAR LIRA 271345Z 17008KT 130V210 9999 SCT020 28/14 Q1014=
201006271315 METAR LIRA 271315Z 19008KT 120V230 9999 SCT020 29/14 Q1014=
201006271245 METAR LIRA 271245Z 04005KT 230V090 9999 SCT020 29/11 Q1014=
201006271215 METAR LIRA 271215Z 32006KT 280V130 9999 SCT020 29/11 Q1014=
201006271145 METAR LIRA 271145Z 11006KT 260V100 9999 SCT020 28/10 Q1014=
201006271115 METAR LIRA 271115Z 02009KT 330V060 9999 SCT020 28/11 Q1014=
201006271045 METAR LIRA 271045Z 33007KT 270V020 9999 FEW020 SCT200 27/11
                        Q1014=
201006271015 METAR LIRA 271015Z 04005KT 300V100 9999 FEW020 SCT200 26/11
                        Q1014=
201006270945 METAR LIRA 270945Z 34009KT 280V030 9999 FEW020 SCT200 26/13
                        Q1014=
201006270915 METAR LIRA 270915Z 07004KT 9999 FEW020 SCT200 25/16 Q1014=
201006270845 METAR LIRA 270845Z 04004KT 310V090 9999 FEW080 24/16 Q1014=
201006270815 METAR LIRA 270815Z 36008KT 310V060 9999 FEW080 23/15 Q1014=
201006270745 METAR LIRA 270745Z 34007KT 300V070 9999 FEW080 21/15 Q1014=
201006270715 METAR LIRA 270715Z 03007KT 330V080 9999 FEW080 20/16 Q1014=
201006270645 METAR LIRA 270645Z 03006KT 340V080 9999 FEW080 19/16 Q1014=
201006270545 METAR LIRA 270545Z 03005KT 330V080 9999 FEW080 18/16 Q1014=
201006270515 METAR LIRA 270515Z 04002KT 9999 FEW080 18/17 Q1014=
201006270445 METAR LIRA 270445Z 03003KT 9999 SCT070 15/14 Q1014=
201006270415 METAR LIRA 270415Z 04003KT 9999 SCT080 15/14 Q1014=
201006262345 METAR LIRA 262345Z 01003KT 360V060 9999 FEW070 16/15 Q1014=
201006262315 METAR LIRA 262315Z 01003KT 9999 FEW080 16/15 Q1014=
201006262245 METAR LIRA 262245Z 36001KT CAVOK 16/15 Q1014=
201006262215 METAR LIRA 262215Z 07005KT CAVOK 16/15 Q1014=
201006262145 METAR LIRA 262145Z 04004KT CAVOK 16/15 Q1014=
201006262115 METAR LIRA 262115Z 32001KT CAVOK 17/16 Q1014=
201006262045 METAR LIRA 262045Z 26003KT 9999 FEW070 17/16 Q1013=
201006262015 METAR LIRA 262015Z 01001KT 9999 FEW030 18/16 Q1013=
201006261945 METAR LIRA 261945Z 33003KT 9999 FEW020 18/16 Q1013=
201006261915 METAR LIRA 261915Z 30001KT 9999 FEW020 SCT060 18/16 Q1013=
201006261845 METAR LIRA 261845Z 03003KT 330V040 9999 FEW017 FEW022TCU
                        SCT080 18/16 Q1014=
201006261815 METAR LIRA 261815Z 34005KT 310V030 9999 FEW015 FEW020CB SCT035
                        19/17 Q1014=
201006261745 METAR LIRA 261745Z 02005KT 330V090 9999 FEW015 FEW020CB SCT035
                        19/18 Q1013 RETS RERA=
201006261715 METAR LIRA 261715Z 10006KT 9999 FEW015 FEW020CB SCT030 19/17
                        Q1013 RETS RERA=
201006261645 METAR LIRA 261645Z 16013KT 7000 -TSRA FEW015 SCT020CB 18/18
                        Q1013=
201006261615 METAR LIRA 261615Z 19008KT 060V200 6000 -TSRA FEW015 SCT020CB
                        18/17 Q1014=
201006261545 METAR LIRA 261545Z 02017G30KT 010V120 7000 -TSRA FEW015 SCT020CB
                        22/15 Q1013=
201006261515 METAR LIRA 261515Z 19008KT 120V240 9999 -TS SCT015 FEW020CB
                        SCT070 25/18 Q1012=
201006261445 METAR LIRA 261445Z 22008KT 170V290 9999 SCT018 FEW022CB SCT030
                        27/18 Q1012=
201006261415 METAR LIRA 261415Z 12007KT 200V290 9999 SCT018 FEW022CB 28/18
                        Q1012=
201006261345 METAR LIRA 261345Z 22006KT 140V340 9999 SCT018 FEW022CB 27/17
                        Q1012=
201006261315 METAR LIRA 261315Z 21008KT 170V270 9999 SCT018 FEW022CB 27/18
                        Q1012=
201006261245 METAR LIRA 261245Z 22010KT 180V270 9999 SCT018 FEW022CB 28/19
                        Q1012=
201006261215 METAR LIRA 261215Z 02004KT 150V340 9999 SCT018 28/18 Q1012=
201006261145 METAR LIRA 261145Z 22009KT 200V360 9999 SCT018 28/17 Q1012=
201006261115 METAR LIRA 261115Z 28005KT 210V010 9999 FEW018 28/12 Q1012=
201006261045 METAR LIRA 261045Z 36005KT 290V070 9999 FEW018 SCT200 27/13
                        Q1012=
201006261015 METAR LIRA 261015Z 34004KT 9999 FEW018 27/13 Q1012=
201006260945 METAR LIRA 260945Z 01004KT 9999 FEW018 26/14 Q1012=
201006260915 METAR LIRA 260915Z 22004KT 9999 FEW020 SCT200 25/14 Q1012=
201006260845 METAR LIRA 260845Z 36003KT 9999 FEW018 SCT200 25/14 Q1012=
201006260815 METAR LIRA 260815Z 33005KT 9999 SCT070 BKN200 23/16 Q1012=
201006260745 METAR LIRA 260745Z 04002KT 9999 SCT070 BKN200 23/16 Q1012=
201006260715 METAR LIRA 260715Z 30002KT 9999 FEW070 BKN200 22/16 Q1012=
201006260645 METAR LIRA 260645Z 23003KT 9999 FEW070 BKN200 21/17 Q1012=
201006260615 METAR LIRA 260615Z 13001KT 9999 FEW070 BKN200 19/15 Q1012=
201006260545 METAR LIRA 260545Z 02003KT 9999 FEW070 SCT200 19/15 Q1012=
201006260515 METAR LIRA 260515Z 02002KT 9999 FEW070 SCT200 18/15 Q1012=
201006260445 METAR LIRA 260445Z 02001KT 9999 FEW070 SCT200 17/14 Q1011=
201006260415 METAR LIRA 260415Z 00000KT 9999 FEW070 SCT200 16/14 Q1011=
201006260345 METAR LIRA 260345Z 13001KT CAVOK 16/13 Q1012=
201006260315 METAR LIRA 260315Z 00000KT CAVOK 17/14 Q1012=
201006260245 METAR LIRA 260245Z 00000KT CAVOK 17/14 Q1012=
201006260215 METAR LIRA 260215Z 08004KT CAVOK 17/14 Q1012=
201006260145 METAR LIRA 260145Z 08003KT CAVOK 17/15 Q1012=
201006260115 METAR LIRA 260115Z 10002KT CAVOK 18/15 Q1012=
201006260045 METAR LIRA 260045Z 13003KT CAVOK 18/15 Q1012=
201006260015 METAR LIRA 260015Z 16004KT CAVOK 18/17 Q1012=
201006252350 METAR LIRA 260045Z 13003KT CAVOK 18/15 Q1012=
201006252345 METAR LIRA 252345Z 10001KT CAVOK 19/18 Q1013=
201006252315 METAR LIRA 252315Z 14005KT CAVOK 19/18 Q1013=
201006252245 METAR LIRA 252245Z 13004KT CAVOK 19/18 Q1012=
201006252215 METAR LIRA 252215Z 15005KT CAVOK 20/18 Q1012=
201006252145 METAR LIRA 252145Z 16005KT CAVOK 20/18 Q1012=
201006252115 METAR LIRA 252115Z 18006KT CAVOK 20/18 Q1012=
201006252045 METAR LIRA 252045Z 17005KT CAVOK 20/19 Q1012=
201006252015 METAR LIRA 252015Z 20004KT 160V230 CAVOK 20/19 Q1012=
201006251945 METAR LIRA 251945Z 19006KT 150V230 CAVOK 20/18 Q1012=
201006251915 METAR LIRA 251915Z 18007KT CAVOK 22/18 Q1012=
201006251845 METAR LIRA 251845Z 19007KT 150V220 CAVOK 23/17 Q1012=
201006251815 METAR LIRA 251815Z 23005KT 200V260 CAVOK 23/14 Q1012=
201006251745 METAR LIRA 251745Z 23005KT 190V260 CAVOK 25/15 Q1012=
201006251715 METAR LIRA 251715Z 27006KT 180V330 CAVOK 26/14 Q1012=
201006251645 METAR LIRA 251645Z 24009KT 200V310 CAVOK 26/14 Q1012=
201006251615 METAR LIRA 251615Z 23008KT 180V300 9999 FEW020 26/14 Q1012=
201006251545 METAR LIRA 251545Z 25008KT 190V270 9999 FEW020 27/14 Q1012=
201006251515 METAR LIRA 251515Z 22008KT 170V260 9999 FEW020 27/16 Q1012=
201006251445 METAR LIRA 251445Z 28007KT 150V280 9999 FEW020 27/16 Q1012=
201006251415 METAR LIRA 251415Z 23007KT 150V290 9999 SCT020 27/16 Q1012=
201006251345 METAR LIRA 251345Z 22018KT 140V270 9999 SCT020 27/16 Q1012=
201006251315 METAR LIRA 251315Z 22007KT 160V270 9999 SCT020 27/16 Q1012=
201006251245 METAR LIRA 251245Z 20006KT 130V260 9999 SCT020 26/16 Q1013=
201006251215 METAR LIRA 251215Z 27006KT 200V330 9999 SCT020 27/16 Q1013=
201006251145 METAR LIRA 251145Z 23008KT 180V300 9999 SCT020 27/17 Q1013=
201006251115 METAR LIRA 251115Z 20008KT 140V270 9999 SCT020 27/13 Q1013=
201006251045 METAR LIRA 251045Z 34006KT 280V030 9999 SCT020 27/10 Q1013=
201006251015 METAR LIRA 251015Z 25005KT 210V310 9999 FEW020 26/10 Q1013=
201006250945 METAR LIRA 250945Z 30006KT 230V330 9999 FEW020 26/10 Q1013=
201006250915 METAR LIRA 250915Z 30003KT 9999 FEW023 26/14 Q1013=
201006250900 METAR LIRA INT=
201006250845 METAR LIRA 250845Z 23004KT 9999 FEW025 25/14 Q1013=
201006250815 METAR LIRA 250815Z 26004KT 210V300 9999 FEW025 24/14 Q1013=
201006250800 METAR LIRA INT=
201006250745 METAR LIRA 250745Z 18002KT 9999 FEW025 23/15 Q1013=
201006250715 METAR LIRA 250715Z 08001KT CAVOK 21/14 Q1013=
201006250645 METAR LIRA 250645Z 00000KT CAVOK 20/14 Q1013=
201006250615 METAR LIRA 250615Z 02003KT CAVOK 19/15 Q1013=
201006250545 METAR LIRA 250545Z 36003KT CAVOK 18/15 Q1013=
201006250515 METAR LIRA 250515Z 03004KT 9999 FEW025 16/14 Q1013=
201006250500 METAR LIRA CONTUS=
201006250445 METAR LIRA 250445Z 03004KT 9999 FEW025 16/14 Q1013=
201006250415 METAR LIRA 250415Z 02004KT 350V060 CAVOK 16/12 Q1013=
201006250345 METAR LIRA 250345Z 04002KT CAVOK 16/14 Q1013=
201006250315 METAR LIRA 250315Z 06001KT CAVOK 16/14 Q1013=
201006250245 METAR LIRA 250245Z 06003KT CAVOK 16/14 Q1013=
201006250215 METAR LIRA 250215Z 05004KT CAVOK 16/15 Q1013=
201006250145 METAR LIRA 250145Z 05005KT 360V060 CAVOK 16/15 Q1013=
201006250115 METAR LIRA 250115Z 01004KT CAVOK 16/15 Q1013=
201006250045 METAR LIRA 250045Z 04004KT CAVOK 17/15 Q1013=
201006250015 METAR LIRA 250015Z 02002KT CAVOK 18/15 Q1013=
201006242350 METAR LIRA 250045Z 04004KT CAVOK 17/15 Q1013=
201006242345 METAR LIRA 242345Z 11002KT CAVOK 18/15 Q1013=
201006242315 METAR LIRA 242315Z 11001KT CAVOK 18/15 Q1013=
201006242245 METAR LIRA 242245Z 15002KT CAVOK 19/16 Q1013=
201006242215 METAR LIRA 242215Z 16002KT CAVOK 19/16 Q1013=
201006242145 METAR LIRA 242145Z 15004KT CAVOK 20/17 Q1013=
201006242115 METAR LIRA 242115Z 18004KT CAVOK 20/17 Q1013=
201006242045 METAR LIRA 242045Z 18005KT CAVOK 20/16 Q1013=
201006242015 METAR LIRA 242015Z 18005KT CAVOK 21/17 Q1013=
201006241945 METAR LIRA 241945Z 17005KT 150V210 CAVOK 21/16 Q1013=
201006241915 METAR LIRA 241915Z 21004KT CAVOK 21/17 Q1013=
201006241845 METAR LIRA 241845Z 19005KT 160V250 CAVOK 22/16 Q1013=
201006241815 METAR LIRA 241815Z 24005KT 180V300 CAVOK 23/15 Q1013=
201006241745 METAR LIRA 241745Z 26007KT 200V310 9999 FEW020 24/14 Q1013=
201006241715 METAR LIRA 241715Z 27009KT 190V290 9999 FEW020 24/14 Q1013=
201006241645 METAR LIRA 241645Z 25008KT 210V340 9999 FEW020 24/14 Q1014=
201006241615 METAR LIRA 241615Z 26010KT 180V330 9999 FEW020 24/14 Q1014=
201006241545 METAR LIRA 241545Z 25008KT 200V300 9999 FEW020 SCT200 25/13
                        Q1014=
201006241515 METAR LIRA 241515Z 27012KT 210V310 9999 FEW020 SCT200 26/12
                        Q1014=
201006241445 METAR LIRA 241445Z 24009KT 190V310 9999 FEW020 26/13 Q1014=
201006241415 METAR LIRA 241415Z 24010KT 190V300 9999 FEW020 27/13 Q1014=
201006241345 METAR LIRA 241345Z 23010KT 180V280 9999 SCT020 27/11 Q1014=
201006241315 METAR LIRA 241315Z 23011KT 180V300 9999 FEW020 27/10 Q1014=
201006241245 METAR LIRA 241245Z 25002KT 260V030 9999 FEW020 27/08 Q1014=
201006241215 METAR LIRA 241215Z 09003KT 9999 FEW020 26/09 Q1014=
201006241145 METAR LIRA 241145Z 19006KT 160V250 9999 FEW020 26/09 Q1014=
201006241115 METAR LIRA 241115Z 33003KT 250V350 9999 FEW020 26/09 Q1014=
201006241045 METAR LIRA 241045Z 31005KT 260V340 9999 FEW020 25/10 Q1014=
201006241015 METAR LIRA 241015Z 33007KT 290V030 9999 FEW020 25/10 Q1015=
201006240945 METAR LIRA 240945Z 30005KT 250V010 9999 FEW020 25/09 Q1015=
201006240915 METAR LIRA 240915Z 32007KT 270V020 9999 FEW023 24/09 Q1015=
201006240845 METAR LIRA 240845Z 29005KT 9999 FEW023 24/09 Q1015=
201006240815 METAR LIRA 240815Z 24002KT 9999 FEW023 23/11 Q1015=
201006240745 METAR LIRA 240745Z 35002KT 9999 FEW023 22/11 Q1015=
201006240715 METAR LIRA 240715Z 02003KT CAVOK 21/12 Q1015=
201006240645 METAR LIRA 240645Z 36004KT CAVOK 20/12 Q1014=
201006240615 METAR LIRA 240615Z 05004KT CAVOK 19/12 Q1014=
201006240545 METAR LIRA 240545Z 36004KT CAVOK 18/12 Q1014=
201006240515 METAR LIRA 240515Z 36003KT 9999 FEW030 18/13 Q1014=
201006240445 METAR LIRA 240445Z 34002KT 9999 FEW030 17/12 Q1014=
201006240415 METAR LIRA 240415Z 05002KT 9999 FEW030 SCT070 16/14 Q1014=
201006240345 METAR LIRA 240345Z 03003KT 9999 FEW030 SCT080 16/14 Q1014=
201006240315 METAR LIRA 240315Z 02001KT 9999 FEW030 SCT080 16/14 Q1014=
201006240245 METAR LIRA 240245Z 36001KT 9999 FEW080 16/14 Q1014=
201006240215 METAR LIRA 240215Z 27001KT 9999 FEW080 16/14 Q1014=
201006240145 METAR LIRA 240145Z 36001KT 9999 FEW080 16/13 Q1014=
201006240115 METAR LIRA 240115Z 03003KT 9999 FEW080 16/13 Q1014=
201006240045 METAR LIRA 240045Z 03004KT 9999 FEW080 16/13 Q1014=
201006240015 METAR LIRA 240015Z 06003KT 9999 FEW080 17/13 Q1014=
201006232350 METAR LIRA 240045Z 03004KT 9999 FEW080 16/13 Q1014=
201006232345 METAR LIRA 232345Z 07003KT 9999 FEW080 17/13 Q1014=
201006232315 METAR LIRA 232315Z 09002KT 9999 FEW080 17/13 Q1014=
201006232245 METAR LIRA 232245Z 10002KT 9999 FEW010 17/14 Q1014=
201006232215 METAR LIRA 232215Z 14001KT 9999 FEW080 18/14 Q1014=
201006232145 METAR LIRA 232145Z 13004KT 9999 FEW080 18/15 Q1014=
201006232115 METAR LIRA 232115Z 16004KT 9999 FEW080 19/15 Q1014=
201006232045 METAR LIRA 232045Z 15003KT 9999 FEW080 19/15 Q1014=
201006232015 METAR LIRA 232015Z 17004KT 9999 FEW070 20/14 Q1014=
201006231945 METAR LIRA 231945Z 23003KT 9999 FEW070 21/14 Q1014=
201006231915 METAR LIRA 231915Z 19003KT 120V180 9999 FEW080 22/14 Q1014=
201006231845 METAR LIRA 231845Z 14005KT 090V180 9999 FEW022 SCT070 22/14
                        Q1014=
201006231815 METAR LIRA 231815Z 16006KT 140V210 9999 FEW020 SCT070 23/13
                        Q1014=
201006231745 METAR LIRA 231745Z 18007KT 130V220 9999 FEW020 FEW023TCU
                        SCT070 23/12 Q1014=
201006231715 METAR LIRA 231715Z 19008KT 150V220 9999 FEW020 FEW023TCU
                        SCT070 23/12 Q1014=
201006231645 METAR LIRA 231645Z 19005KT 9999 FEW020 FEW023TCU SCT070 24/12
                        Q1014=
201006231615 METAR LIRA 231615Z 19007KT 140V240 9999 FEW020 FEW023TCU
                        SCT070 24/11 Q1014=
201006231545 METAR LIRA 231545Z 16007KT 120V210 9999 FEW020TCU SCT021
                        24/11 Q1014=
201006231515 METAR LIRA 231515Z 16005KT 150V220 9999 FEW020TCU SCT021
                        25/10 Q1014=
201006231445 METAR LIRA 231445Z 36005KT 300V070 9999 SCT020 SCT022 26/09
                        Q1014=
201006231415 METAR LIRA 231415Z 32006KT 260V010 9999 SCT020 27/09 Q1014=
201006231345 METAR LIRA 231345Z 34006KT 260V030 9999 SCT020 26/08 Q1014=
201006231315 METAR LIRA 231315Z 02003KT 9999 SCT020 25/08 Q1014=
201006231245 METAR LIRA 231245Z 32007KT 270V360 9999 SCT020 25/08 Q1014=
201006231215 METAR LIRA 231215Z 35006KT 280V100 9999 SCT020 26/09 Q1014=
201006231145 METAR LIRA 231145Z 02006KT 310V150 9999 SCT020 26/09 Q1014=
201006231115 METAR LIRA 231115Z 34009KT 300V050 9999 FEW020 26/09 Q1014=
201006231045 METAR LIRA 231045Z 01007KT 280V090 9999 FEW020 25/09 Q1015=
201006231015 METAR LIRA 231015Z 34008KT 290V090 9999 FEW020 24/09 Q1015=
201006230945 METAR LIRA 230945Z 34010KT 280V060 CAVOK 24/09 Q1015=
201006230915 METAR LIRA 230915Z 35008KT 290V080 CAVOK 23/10 Q1015=
201006230845 METAR LIRA 230845Z 34009KT 290V030 CAVOK 22/10 Q1015=
201006230815 METAR LIRA 230815Z 35010KT 310V040 CAVOK 21/10 Q1015=
201006230745 METAR LIRA 230745Z 34011KT 300V010 CAVOK 20/11 Q1015=
201006230715 METAR LIRA 230715Z 01007KT 310V060 CAVOK 19/12 Q1015=
201006230645 METAR LIRA 230645Z 02005KT 330V070 CAVOK 18/12 Q1014=
201006230615 METAR LIRA 230615Z 36005KT 310V060 CAVOK 16/12 Q1014=
201006230545 METAR LIRA 230545Z 05004KT CAVOK 17/13 Q1014=
201006230515 METAR LIRA 230515Z 02002KT CAVOK 15/13 Q1014=
201006230445 METAR LIRA 230445Z 36005KT 320V020 CAVOK 14/13 Q1014=
201006230415 METAR LIRA 230415Z 34003KT CAVOK 14/13 Q1014=
201006230345 METAR LIRA 230345Z 01002KT 9999 FEW070 SCT200 14/13 Q1014=
201006230315 METAR LIRA 230315Z 34004KT 9999 FEW010 SCT200 14/13 Q1014=
201006230245 METAR LIRA 230245Z 32004KT 9999 FEW010 SCT200 14/13 Q1014=
201006230215 METAR LIRA 230215Z 32003KT 9999 FEW010 14/13 Q1014=
201006230145 METAR LIRA 230145Z 05004KT 9999 FEW010 14/13 Q1014=
201006230115 METAR LIRA 230115Z 06004KT 8000 FEW010 14/13 Q1014=
201006230045 METAR LIRA 230045Z 06004KT 7000 FEW010 SCT200 14/13 Q1014=
201006230015 METAR LIRA 230015Z 05003KT 7000 FEW010 15/14 Q1014=
201006222350 METAR LIRA 230045Z 06004KT 7000 FEW010 SCT200 14/13 Q1014=
201006222345 METAR LIRA 222345Z 01001KT 7000 FEW010 SCT200 15/15 Q1014=
201006222315 METAR LIRA 222315Z 14001KT 9999 FEW070 SCT200 16/15 Q1014=
201006222245 METAR LIRA 222245Z 08002KT 9999 SCT070 SCT200 16/15 Q1014=
201006222215 METAR LIRA 222215Z 07002KT 9999 SCT070 SCT200 16/16 Q1014=
201006222145 METAR LIRA 222145Z 00000KT 9999 FEW033 SCT070 17/16 Q1014=
201006222115 METAR LIRA 222115Z 00000KT 9999 FEW010 SCT070 17/16 Q1014=
201006222045 METAR LIRA 222045Z 00000KT 9999 FEW010 SCT070 18/16 Q1014=
201006222015 METAR LIRA 222015Z 20001KT 9999 FEW018 BKN070 18/16 Q1014=
201006221945 METAR LIRA 221945Z 20001KT 9999 FEW018 BKN070 18/16 Q1013=
201006221915 METAR LIRA 221915Z 20001KT 9999 FEW018 BKN070 18/16 Q1013=
201006221845 METAR LIRA 221845Z 23002KT 9999 FEW018 SCT033 BKN070 18/17
                        Q1013=
201006221815 METAR LIRA 221815Z 23001KT 9999 FEW018 SCT033 BKN070 18/16
                        Q1013=
201006221745 METAR LIRA 221745Z 18004KT 9999 FEW018 SCT033 BKN070 18/17
                        Q1013=
201006221715 METAR LIRA 221715Z 24002KT 9000 -RA FEW018 BKN033 19/17 Q1013=
201006221645 METAR LIRA 221645Z 28001KT 9999 -RA FEW018 BKN033 19/16 Q1013=
201006221615 METAR LIRA 221615Z 29003KT 9000 -RA FEW018 BKN033 20/17 Q1013=
201006221545 METAR LIRA 221545Z 24002KT 9999 -RA FEW018 SCT030 20/16 Q1013=
201006221515 METAR LIRA 221515Z 25003KT 9999 -RA FEW018 SCT030 20/16 Q1012=
201006221445 METAR LIRA 221445Z 21004KT 9999 FEW018 SCT030 21/14 Q1012=
201006221415 METAR LIRA 221415Z 18006KT 130V230 9999 FEW018 SCT030 21/15
                        Q1012=
201006221345 METAR LIRA 221345Z 16006KT 130V200 9999 SCT018 SCT030 20/15
                        Q1012=
201006221315 METAR LIRA 221315Z 17009KT 140V210 9999 SCT018 SCT070 20/15
                        Q1012=
201006221245 METAR LIRA 221245Z 18008KT 150V220 9999 SCT018 SCT070 21/15
                        Q1012=
201006221215 METAR LIRA 221215Z 19008KT 150V240 9999 SCT018 FEW022TCU
                        SCT070 21/16 Q1012=
201006221145 METAR LIRA 221145Z 19007KT 150V270 9999 SCT018 FEW022TCU
                        SCT070 21/16 Q1012=
201006221115 METAR LIRA 221115Z 20008KT 150V250 9999 SCT018 FEW022TCU
                        SCT030 21/16 Q1012=
201006221045 METAR LIRA 221045Z 22009KT 160V250 9999 SCT018 FEW022TCU
                        SCT030 21/15 Q1011=
201006221015 METAR LIRA 221015Z 02003KT 9999 SCT018 FEW022TCU 23/11 Q1011=
201006220945 METAR LIRA 220945Z 33003KT 310V020 9999 FEW018 23/12 Q1011=
201006220915 METAR LIRA 220915Z 05004KT 030V100 9999 FEW018 23/13 Q1011=
201006220845 METAR LIRA 220845Z 30003KT 9999 FEW018 21/12 Q1011=
201006220815 METAR LIRA 220815Z 29003KT 9999 FEW018 20/12 Q1011=
201006220745 METAR LIRA 220745Z 35005KT 310V120 9999 FEW018 20/13 Q1011=
201006220715 METAR LIRA 220715Z 02005KT 290V100 9999 FEW018 19/13 Q1011=
201006220645 METAR LIRA 220645Z 02005KT 340V080 9999 FEW018 18/13 Q1011=
201006220615 METAR LIRA 220615Z 01005KT 320V080 9999 FEW080 16/12 Q1010=
201006220545 METAR LIRA 220545Z 03005KT 360V070 9999 FEW080 16/14 Q1010=
201006220515 METAR LIRA 220515Z 04006KT 010V070 9999 FEW080 15/13 Q1010=
201006220445 METAR LIRA 220445Z 04003KT 9999 FEW080 14/13 Q1010=
201006220415 METAR LIRA 220415Z 03003KT 9999 FEW080 13/12 Q1010=
201006220345 METAR LIRA 220345Z 03004KT 9999 FEW080 13/12 Q1010=
201006220315 METAR LIRA 220315Z 03003KT 9999 FEW080 13/12 Q1010=
201006220245 METAR LIRA 220245Z 04003KT 9999 FEW080 13/12 Q1010=
201006220215 METAR LIRA 220215Z 02003KT CAVOK 14/13 Q1010=
201006220145 METAR LIRA 220145Z 02003KT CAVOK 14/13 Q1009=
201006220115 METAR LIRA 220115Z 06004KT CAVOK 14/13 Q1009=
201006220045 METAR LIRA 220045Z 05006KT 020V090 CAVOK 14/13 Q1009=
201006220015 METAR LIRA 220015Z 04004KT CAVOK 15/14 Q1009=
201006212350 METAR LIRA 220045Z 05006KT 020V090 CAVOK 14/13 Q1009=
201006212345 METAR LIRA 212345Z 03004KT CAVOK 15/13 Q1009=
201006212315 METAR LIRA 212315Z 04004KT 9999 FEW060 15/13 Q1009=
201006212245 METAR LIRA 212245Z 01004KT CAVOK 16/14 Q1009=
201006212215 METAR LIRA 212215Z 01004KT 9999 FEW060 16/14 Q1009=
201006212145 METAR LIRA 212145Z 35005KT 300V030 9999 FEW070 16/14 Q1009=
201006212115 METAR LIRA 212115Z 35005KT 320V040 9999 FEW035 SCT070 16/14
                        Q1009=
201006212045 METAR LIRA 212045Z 35005KT 310V020 9999 FEW030 SCT070 17/14
                        Q1008=
201006212015 METAR LIRA 212015Z 33006KT 300V030 9999 FEW030 SCT080 17/13
                        Q1008=
201006211945 METAR LIRA 211945Z 34009KT 300V030 9999 FEW020 SCT030 18/13
                        Q1008=
201006211915 METAR LIRA 211915Z 33011KT 290V360 9999 FEW020 SCT030 18/13
                        Q1007=
201006211845 METAR LIRA 211845Z 33012KT 310V010 9999 SCT030 SCT080 19/13
                        Q1007=
201006211815 METAR LIRA 211815Z 34012KT 300V010 9999 FEW017 SCT030 19/13
                        Q1007=
201006211745 METAR LIRA 211745Z 35011KT 290V050 9999 FEW016 BKN030 20/14
                        Q1006=
201006211715 METAR LIRA 211715Z 34010KT 300V030 9999 FEW016 FEW020CB BKN030
                        20/14 Q1006=
201006211645 METAR LIRA 211645Z 34011KT 300V030 9999 FEW016 FEW020CB BKN030
                        21/14 Q1006=
201006211615 METAR LIRA 211615Z 34010KT 290V020 9999 FEW016 FEW020CB BKN030
                        21/14 Q1006=
201006211545 METAR LIRA 211545Z 33014KT 290V030 9999 FEW018 FEW020TCU
                        BKN030 21/13 Q1005=
201006211515 METAR LIRA 211515Z 21010KT 300V040 9999 FEW018 FEW020TCU
                        BKN030 21/13 Q1005=
201006211445 METAR LIRA 211445Z 32008KT 270V060 9999 FEW018 BKN030 21/14
                        Q1005=
201006211415 METAR LIRA 211415Z 29007KT 240V320 9999 FEW018 BKN025 19/12
                        Q1005=
201006211345 METAR LIRA 211345Z 29007KT 240V330 9999 FEW018 BKN030 19/12
                        Q1005=
201006211315 METAR LIRA 211315Z 30005KT 260V330 9999 FEW018 BKN030 19/13
                        Q1005=
201006211245 METAR LIRA 211245Z 33005KT 290V030 9999 FEW018 BKN030 19/12
                        Q1004=
201006211215 METAR LIRA 211215Z 04007KT 330V100 9999 FEW018 SCT030 BKN070
                        19/14 Q1004=
201006211145 METAR LIRA 211145Z 02008KT 290V070 9999 -RA FEW018 SCT025
                        18/14 Q1004=
201006211115 METAR LIRA 211115Z 36010KT 310V040 9999 -RA FEW018 SCT025
                        18/13 Q1004=
201006211045 METAR LIRA 211045Z 33008KT 270V020 9999 FEW018 SCT025 20/11
                        Q1004=
201006211015 METAR LIRA 211015Z 31007KT 290V070 9999 FEW018 BKN025 20/10
                        Q1004=
201006210945 METAR LIRA 210945Z 33006KT 260V020 9999 FEW018 SCT025 20/11
                        Q1004=
201006210915 METAR LIRA 210915Z 36007KT 270V080 9999 FEW018 SCT070 19/10
                        Q1003=
201006210845 METAR LIRA 210845Z 02006KT 310V070 9999 FEW018 SCT070 18/11
                        Q1003=
201006210815 METAR LIRA 210815Z 35006KT 250V060 9999 FEW018 FEW020CB SCT025
                        17/12 Q1003=
201006210745 METAR LIRA 210745Z 34006KT 290V020 9999 FEW018 FEW020CB SCT025
                        17/11 Q1003=
201006210715 METAR LIRA 210715Z 05003KT 9999 FEW018 FEW020CB SCT025 17/11
                        Q1003=
201006210645 METAR LIRA 210645Z 16005KT 100V210 9999 FEW018 FEW020CB SCT025
                        17/11 Q1003=
201006210615 METAR LIRA 210615Z 17005KT 130V210 9999 FEW018 FEW020CB SCT070
                        16/11 Q1002=
201006210545 METAR LIRA 210545Z 22003KT 9999 FEW018 FEW020CB SCT025 16/12
                        Q1002=
201006210515 METAR LIRA 210515Z 10002KT 9999 FEW018 FEW020CB SCT070 15/12
                        Q1002=
201006210445 METAR LIRA 210445Z 12004KT 9999 FEW018 SCT070 14/11 Q1002=
201006210415 METAR LIRA 210415Z 11005KT 9999 FEW020 SCT070 14/11 Q1002=
201006210345 METAR LIRA 210345Z 10006KT 9999 FEW020 SCT040 14/12 Q1002=
201006210315 METAR LIRA 210315Z 09004KT 9999 FEW020 SCT040 14/12 Q1002=
201006210245 METAR LIRA 210245Z 08003KT 9999 FEW020 SCT040 14/12 Q1002=
201006210215 METAR LIRA 210215Z 00000KT 9999 FEW020 SCT040 15/12 Q1002=
201006210145 METAR LIRA 210145Z 14002KT 9999 FEW020 SCT040 15/12 Q1002=
201006210115 METAR LIRA 210115Z 16003KT 9999 FEW020 SCT080 15/12 Q1002=
201006210045 METAR LIRA 210045Z 18004KT 9999 FEW020 SCT035 16/12 Q1003=
201006210015 METAR LIRA 210015Z 17004KT 9999 FEW020 SCT035 15/12 Q1003=
201006202350 METAR LIRA 210045Z 18004KT 9999 FEW020 SCT035 16/12 Q1003=
201006202345 METAR LIRA 202345Z 17005KT 9999 FEW020 SCT035 15/12 Q1003=
201006202315 METAR LIRA 202315Z 19005KT 160V230 9999 FEW020 SCT035 15/11
                        Q1003=
201006202245 METAR LIRA 202245Z 20004KT 9999 FEW018TCU SCT030 15/12 Q1003=
201006202215 METAR LIRA 202215Z 18003KT 9999 FEW018 SCT030 16/12 Q1003=
201006202145 METAR LIRA 202145Z 11003KT 9999 FEW018 SCT030 15/12 Q1003=
201006202115 METAR LIRA 202115Z 08004KT 9999 FEW020 SCT035 15/12 Q1003=
201006202045 METAR LIRA 202045Z 04003KT 9999 SCT030 SCT080 15/13 Q1003=
201006202015 METAR LIRA 202015Z 08004KT 9999 FEW018 SCT030 15/13 Q1003=
201006201945 METAR LIRA 201945Z 34003KT 9999 FEW018 SCT030 16/11 Q1003=
201006201915 METAR LIRA 201915Z 31004KT 270V300 9999 FEW018 SCT030 17/11
                        Q1003=
201006201845 METAR LIRA 201845Z 29003KT 9999 FEW017TCU BKN030 17/12 Q1003=
201006201815 METAR LIRA 201815Z 31003KT 9999 FEW017TCU BKN030 17/12 Q1003=
201006201745 METAR LIRA 201745Z 30004KT 250V320 9999 -RA FEW016 BKN030
                        17/12 Q1003=
201006201715 METAR LIRA 201715Z 25003KT 9999 -RA FEW016 BKN030 18/11 Q1003=
201006201645 METAR LIRA 201645Z 26004KT 230V300 9999 FEW016 BKN030 18/12
                        Q1003=
201006201615 METAR LIRA 201615Z 26005KT 210V310 9999 FEW017 BKN030 18/11
                        Q1003=
201006201545 METAR LIRA 201545Z 25006KT 200V300 9999 FEW018 SCT030 BKN070
                        19/12 Q1003=
201006201515 METAR LIRA 201515Z 25009KT 200V300 9999 FEW018 SCT030 BKN070
                        19/11 Q1003=
201006201445 METAR LIRA 201445Z 23007KT 180V280 9999 FEW018 SCT030 BKN070
                        20/11 Q1003=
201006201415 METAR LIRA 201415Z 23009KT 190V290 9999 FEW018 SCT030 BKN070
                        20/11 Q1003=
201006201345 METAR LIRA 201345Z 25009KT 190V290 9999 FEW018 SCT030 BKN070
                        20/11 Q1003=
201006201315 METAR LIRA 201315Z 21009KT 160V260 9999 FEW015 SCT025 20/13
                        Q1003=
201006201245 METAR LIRA 201245Z 21010KT 150V260 9999 -RA FEW015 FEW020CB
                        SCT030 18/14 Q1002=
201006201215 METAR LIRA 201215Z 22010KT 170V270 9000 -RA FEW014 FEW019CB
                        SCT025 18/14 Q1002 RERA=
201006201145 METAR LIRA 201145Z 24011KT 190V290 5000 2000N -RA BR SCT009
                        FEW018TCU BKN025 17/15 Q1002 RERA=
201006201115 METAR LIRA 201115Z 21010KT 170V250 9999 -RA SCT014 FEW018TCU
                        BKN025 19/15 Q1002=
201006201045 METAR LIRA 201045Z 21009KT 170V270 9999 -RA SCT014 FEW018CB
                        BKN025 20/16 Q1002=
201006201015 METAR LIRA 201015Z 22008KT 180V270 9999 FEW014 FEW018CB BKN025
                        19/16 Q1002=
201006200945 METAR LIRA 200945Z 21006KT 160V250 9999 -RA FEW009 FEW018CB
                        BKN025 18/17 Q1002 RERA=
201006200915 METAR LIRA 200915Z 20012G22KT 160V260 6000 -RA SCT009 FEW018CB
                        BKN023 18/16 Q1002 RERA=
201006200845 METAR LIRA 200845Z 21008KT 170V270 9999 -RA FEW015 FEW020TCU
                        BKN025 19/15 Q1001=
201006200815 METAR LIRA 200815Z 22011KT 170V260 9999 -RA FEW015 FEW018TCU
                        BKN023 19/15 Q1001=
201006200745 METAR LIRA 200745Z 21009KT 160V260 9999 -RA FEW015 FEW018TCU
                        BKN023 19/16 Q1001=
201006200715 METAR LIRA 200715Z 22007KT 170V270 9999 SCT015 FEW018TCU
                        SCT023 19/15 Q1001=
201006200645 METAR LIRA 200645Z 22009KT 150V260 9999 FEW015 FEW018TCU
                        SCT023 19/15 Q1000=
201006200615 METAR LIRA 200615Z 21009KT 160V260 9999 FEW015 FEW018TCU
                        SCT023 19/15 Q1000=
201006200545 METAR LIRA 200545Z 20007KT 150V270 9999 FEW015 SCT023 19/15
                        Q1000=
201006200515 METAR LIRA 200515Z 19007KT 150V250 8000 FEW015 FEW018CB 18/17
                        Q1000=
201006200445 METAR LIRA 200445Z 21006KT 170V260 6000 FEW015 FEW018CB 18/17
                        Q0999=
201006200415 METAR LIRA 200415Z 21008KT 170V270 6000 SCT015 FEW018CB SCT020
                        18/17 Q0999 RERA=
201006192315 METAR LIRA 192315Z 22007KT 180V260 9999 -SHRA SCT017 FEW020TCU
                        SCT025 19/16 Q1002=
201006192245 METAR LIRA 192245Z 21006KT 170V250 9999 FEW018 FEW020TCU
                        SCT025 19/15 Q1002=
201006192215 METAR LIRA 192215Z 20005KT 170V260 9999 FEW018 FEW020TCU
                        SCT030 19/15 Q1002=
201006192145 METAR LIRA 192145Z 21005KT 180V250 9999 FEW018 FEW020TCU
                        19/16 Q1002=
201006192115 METAR LIRA 192115Z 19006KT 150V230 9999 SCT018 FEW020TCU
                        19/16 Q1002=
201006192045 METAR LIRA 192045Z 21006KT 150V270 9999 SCT018 FEW020TCU
                        20/16 Q1003=
201006192015 METAR LIRA 192015Z 21006KT 150V250 9999 FEW018 FEW020CB SCT022TCU
                        20/15 Q1002=
201006191945 METAR LIRA 191945Z 22007KT 190V260 9999 FEW015 FEW017CB SCT020TCU
                        20/16 Q1002=
201006191915 METAR LIRA 191915Z 22007KT 170V260 9999 FEW015 FEW017CB FEW020TCU
                        21/16 Q1002=
201006191815 METAR LIRA 191815Z 23012KT 190V300 9999 FEW015 FEW018CB FEW020TCU
                        21/16 Q1003=
201006191745 METAR LIRA 191745Z 23012KT 170V290 9999 SCT017 FEW020CB 22/16
                        Q1003=
201006191715 METAR LIRA 191715Z 23010KT 180V270 9999 SCT017 FEW020CB 22/16
                        Q1003=
201006191645 METAR LIRA 191645Z 23012KT 200V300 9999 SCT017 FEW020CB 22/16
                        Q1003=
201006191615 METAR LIRA 191615Z 23011KT 180V300 9999 SCT018 FEW020CB 23/16
                        Q1003=
201006191545 METAR LIRA 191545Z 24013KT 190V280 9999 FEW018 FEW020CB 23/15
                        Q1003=
201006191515 METAR LIRA 191515Z 26012KT 200V310 9999 SCT018 FEW020CB 24/16
                        Q1003=
201006191445 METAR LIRA 191445Z 24012KT 180V280 9999 SCT018 FEW020CB 23/17
                        Q1003=
201006191415 METAR LIRA 191415Z 25012KT 190V300 9999 SCT018 FEW020CB 24/17
                        Q1003=
201006191345 METAR LIRA 191345Z 24009KT 180V280 9999 SCT018 FEW020CB 25/16
                        Q1003=
201006191315 METAR LIRA 191315Z 24013KT 170V280 9999 SCT018 FEW020CB 24/16
                        Q1003=
201006191245 METAR LIRA 191245Z 23013KT 180V270 9999 SCT018 FEW020CB 24/15
                        Q1004=
201006191215 METAR LIRA 191215Z 23013KT 180V280 9999 SCT018 FEW020TCU
                        24/16 Q1004=
201006191145 METAR LIRA 191145Z 22010KT 180V280 9999 SCT018 FEW020TCU
                        24/15 Q1004=
201006191115 METAR LIRA 191115Z 23009KT 160V270 9999 SCT018 FEW020TCU
                        24/16 Q1004=
201006191100 METAR LIRA INTER CB N-NE=
201006191045 METAR LIRA 191045Z 23008KT 170V280 9999 SCT018 SCT030 23/15
                        Q1004=
201006191015 METAR LIRA 191015Z 20008KT 160V250 9999 SCT018 SCT030 23/15
                        Q1005=
201006190945 METAR LIRA 190945Z 19007KT 140V250 9999 SCT018 SCT030 22/16
                        Q1005=
201006190915 METAR LIRA 190915Z 19008KT 150V240 9999 SCT018 SCT030 23/17
                        Q1005=
201006190845 METAR LIRA 190845Z 21009KT 150V280 9999 SCT018 SCT030 23/16
                        Q1005=
201006190815 METAR LIRA 190815Z 21005KT 9999 SCT018 SCT030 22/16 Q1005=
201006190745 METAR LIRA 190745Z 22006KT 9999 FEW018 SCT030 21/16 Q1005=
201006190715 METAR LIRA 190715Z 19004KT 9999 FEW018 SCT030 21/14 Q1005=
201006190645 METAR LIRA 190645Z 18002KT 9999 FEW018 SCT030 20/13 Q1005=
201006190615 METAR LIRA 190615Z 04001KT 9999 FEW020 SCT080 19/13 Q1005=
201006190545 METAR LIRA 190545Z 01002KT 9999 FEW020 SCT080 18/13 Q1006=
201006190515 METAR LIRA 190515Z 15002KT 9999 FEW020 SCT080 17/13 Q1006=
201006190445 METAR LIRA 190445Z 13002KT 9999 FEW020 16/13 Q1006=
201006190415 METAR LIRA 190415Z 20004KT 9999 FEW020 16/12 Q1006=
201006190345 METAR LIRA 190345Z 17003KT CAVOK 15/13 Q1006=
201006190315 METAR LIRA 190315Z 21002KT CAVOK 16/13 Q1006=
201006190245 METAR LIRA 190245Z 19001KT CAVOK 16/13 Q1007=
201006190215 METAR LIRA 190215Z 19001KT CAVOK 16/13 Q1007=
201006190145 METAR LIRA 190145Z 25001KT CAVOK 16/14 Q1007=
201006190115 METAR LIRA 190115Z 25001KT CAVOK 17/14 Q1007=
201006190045 METAR LIRA 190045Z 23001KT CAVOK 17/15 Q1007=
201006190015 METAR LIRA 190015Z 23001KT CAVOK 17/15 Q1007=
201006182350 METAR LIRA 190045Z 23001KT CAVOK 17/15 Q1007=
201006182345 METAR LIRA 182345Z 19002KT CAVOK 18/15 Q1007=
201006182315 METAR LIRA 182315Z 20002KT 9999 FEW010 18/15 Q1008=
201006182245 METAR LIRA 182245Z 22003KT CAVOK 18/15 Q1008=
201006182215 METAR LIRA 182215Z 20002KT CAVOK 19/15 Q1008=
201006182145 METAR LIRA 182145Z 21002KT CAVOK 19/15 Q1008=
201006182115 METAR LIRA 182115Z 22002KT CAVOK 20/15 Q1008=
201006182045 METAR LIRA 182045Z 19003KT CAVOK 20/15 Q1008=
201006182015 METAR LIRA 182015Z 20003KT CAVOK 20/15 Q1008=
201006181945 METAR LIRA 181945Z 22003KT CAVOK 21/15 Q1008=
201006181915 METAR LIRA 181915Z 23004KT CAVOK 21/15 Q1008=
201006181845 METAR LIRA 181845Z 23004KT 210V280 9999 FEW020 21/15 Q1008=
201006181815 METAR LIRA 181815Z 24006KT 190V290 9999 FEW020 22/16 Q1009=
201006181745 METAR LIRA 181745Z 25007KT 200V320 9999 FEW020 24/13 Q1009=
201006181715 METAR LIRA 181715Z 26008KT 210V310 9999 FEW020 24/12 Q1009=
201006181645 METAR LIRA 181645Z 26008KT 190V350 9999 FEW020 24/12 Q1009=
201006181615 METAR LIRA 181615Z 25009KT 180V320 9999 FEW020 25/12 Q1009=
201006181545 METAR LIRA 181545Z 26010KT 200V320 CAVOK 26/12 Q1009=
201006181515 METAR LIRA 181515Z 27010KT 210V320 CAVOK 26/13 Q1009=
201006181445 METAR LIRA 181445Z 25009KT 200V310 9999 FEW018 26/13 Q1009=
201006181415 METAR LIRA 181415Z 24008KT 180V320 9999 FEW018 27/15 Q1010=
201006181345 METAR LIRA 181345Z 26007KT 210V330 9999 FEW018 27/14 Q1010=
201006181315 METAR LIRA 181315Z 26007KT 180V320 9999 FEW018 27/15 Q1010=
201006181245 METAR LIRA 181245Z 25006KT 200V320 9999 FEW018 27/16 Q1010=
201006181215 METAR LIRA 181215Z 26006KT 180V350 9999 SCT018 27/17 Q1010=
201006181145 METAR LIRA 181145Z 24005KT 110V360 9999 SCT018 26/17 Q1010=
201006181115 METAR LIRA 181115Z 24007KT 180V310 9999 SCT017 27/17 Q1011=
201006181045 METAR LIRA 181045Z 22007KT 150V320 9999 SCT017 26/16 Q1011=
201006181015 METAR LIRA 181015Z 20005KT 190V250 9999 FEW020 25/16 Q1011=
201006180945 METAR LIRA 180945Z 24004KT 9999 FEW020 SCT060 24/18 Q1011=
201006180915 METAR LIRA 180915Z 21002KT 9999 FEW020 SCT060 23/18 Q1011=
201006180845 METAR LIRA 180845Z 28003KT 9999 FEW020 SCT080 23/18 Q1011=
201006180815 METAR LIRA 180815Z 25003KT 9999 FEW020 SCT080 23/18 Q1011=
201006180745 METAR LIRA 180745Z 33003KT 310V030 9999 FEW020 SCT080 22/19
                        Q1011=
201006180715 METAR LIRA 180715Z 24003KT 9999 FEW020 SCT080 22/19 Q1011=
201006180645 METAR LIRA 180645Z 24002KT 9999 FEW020 SCT070 22/19 Q1011=
201006180615 METAR LIRA 180615Z 00000KT 9999 FEW020 SCT070 21/19 Q1012=
201006180545 METAR LIRA 180545Z 32003KT 9999 FEW020 SCT070 21/19 Q1012=
201006180515 METAR LIRA 180515Z 23002KT 9999 FEW020 SCT080 20/17 Q1012=
201006180445 METAR LIRA 180445Z 00000KT 9999 FEW018 19/17 Q1012=
201006180415 METAR LIRA 180415Z 04004KT 010V080 9999 FEW018 SCT025 19/16
                        Q1012=
201006180345 METAR LIRA 180345Z 15001KT 9999 FEW018 SCT025 19/16 Q1012=
201006180315 METAR LIRA 180315Z 15002KT 9999 FEW020 SCT025 19/17 Q1012=
201006180245 METAR LIRA 180245Z 13002KT 9999 FEW030 SCT070 19/18 Q1012=
201006180215 METAR LIRA 180215Z 12002KT 9999 SCT070 19/18 Q1012=
201006180145 METAR LIRA 180145Z 23002KT 9999 SCT070 19/18 Q1012=
201006180115 METAR LIRA 180115Z 26004KT 9999 SCT070 20/18 Q1012=
201006180045 METAR LIRA 180045Z 30005KT 9999 SCT070 20/18 Q1011=
201006180015 METAR LIRA 180015Z 04002KT 9999 FEW030 SCT070 21/19 Q1012=
201006172350 METAR LIRA 180045Z 30005KT 9999 SCT070 20/18 Q1011=
201006172345 METAR LIRA 172345Z 29002KT 9999 FEW030 SCT070 21/19 Q1013=
201006172315 METAR LIRA 172315Z 09001KT 9999 FEW030 SCT070 21/19 Q1013=
201006172245 METAR LIRA 172245Z 28002KT 9999 FEW030 SCT070 21/19 Q1013=
201006172215 METAR LIRA 172215Z 21003KT 9999 FEW030 SCT070 21/19 Q1013=
201006172145 METAR LIRA 172145Z 21003KT 9999 FEW030 SCT070 22/19 Q1013=
201006172115 METAR LIRA 172115Z 20003KT 9999 FEW030 22/20 Q1013=
201006172045 METAR LIRA 172045Z 18003KT 9999 FEW030 22/20 Q1013=
201006172015 METAR LIRA 172015Z 19004KT 9999 FEW020 SCT030 22/20 Q1012=
201006171945 METAR LIRA 171945Z 21004KT 9999 FEW020 SCT030 22/20 Q1012=
201006171915 METAR LIRA 171915Z 23004KT 9999 FEW020 SCT030 23/18 Q1012=
201006171845 METAR LIRA 171845Z 24003KT 9999 FEW020 SCT030 24/19 Q1012=
201006171815 METAR LIRA 171815Z 22004KT 180V260 9999 FEW020 SCT070 24/19
                        Q1013=
201006171745 METAR LIRA 171745Z 23006KT 180V260 9999 FEW020 SCT070 25/18
                        Q1013=
201006171715 METAR LIRA 171715Z 18007KT 150V240 9999 FEW070 27/12 Q1013=
201006171645 METAR LIRA 171645Z 20007KT 150V240 9999 FEW020 27/12 Q1013=
201006171615 METAR LIRA 171615Z 20006KT 120V280 9999 FEW020 27/12 Q1013=
201006171545 METAR LIRA 171545Z 19010KT 140V240 9999 FEW018 27/12 Q1013=
201006171515 METAR LIRA 171515Z 19009KT 150V250 9999 FEW020 28/12 Q1013=
201006171445 METAR LIRA 171445Z 21010KT 140V260 9999 FEW020 28/13 Q1013=
201006171415 METAR LIRA 171415Z 20008KT 150V260 9999 FEW020 28/14 Q1013=
201006171345 METAR LIRA 171345Z 19011KT 140V250 9999 FEW020 27/15 Q1014=
201006171315 METAR LIRA 171315Z 19011KT 150V250 9999 FEW020 28/16 Q1014=
201006171245 METAR LIRA 171245Z 20011KT 150V250 9999 FEW020 28/15 Q1014=
201006171215 METAR LIRA 171215Z 20011KT 160V250 9999 FEW020 28/15 Q1014=
201006171145 METAR LIRA 171145Z 21011KT 150V270 9999 FEW020 29/17 Q1014=
201006171115 METAR LIRA 171115Z 23010KT 180V280 9999 FEW020 29/17 Q1014=
201006171045 METAR LIRA 171045Z 24007KT 170V270 9999 FEW020 30/16 Q1014=
201006171015 METAR LIRA 171015Z 33004KT 9999 FEW020 29/14 Q1014=
201006170945 METAR LIRA 170945Z 01003KT 9999 FEW020 29/14 Q1014=
201006170915 METAR LIRA 170915Z 08003KT 9999 FEW020 28/15 Q1014=
201006170845 METAR LIRA 170845Z 33002KT 9999 FEW080 27/16 Q1014=
201006170815 METAR LIRA 170815Z 34004KT 250V010 9999 SCT080 26/16 Q1014=
201006170745 METAR LIRA 170745Z 32005KT 290V010 9999 SCT070 26/16 Q1014=
201006170715 METAR LIRA 170715Z 30002KT 9999 SCT070 25/16 Q1014=
201006170645 METAR LIRA 170645Z 18003KT 9999 FEW040 SCT070 24/15 Q1014=
201006170615 METAR LIRA 170615Z 24001KT 9999 FEW035 SCT070 22/15 Q1014=
201006170545 METAR LIRA 170545Z 36002KT 9999 SCT035 SCT070 21/15 Q1014=
201006170515 METAR LIRA 170515Z 03004KT 360V090 9999 SCT035 SCT080 20/14
                        Q1014=
201006170445 METAR LIRA 170445Z 06005KT 030V100 9999 SCT030 SCT070 19/15
                        Q1014=
201006170415 METAR LIRA 170415Z 04005KT 9999 SCT030 SCT070 17/14 Q1014=
201006170345 METAR LIRA 170345Z 36002KT 9999 SCT030 SCT070 17/14 Q1014=
201006170315 METAR LIRA 170315Z 03003KT 9999 SCT040 SCT080 17/15 Q1015=
201006170245 METAR LIRA 170245Z 31004KT 9999 SCT040 SCT070 17/14 Q1015=
201006170215 METAR LIRA 170215Z 08005KT 9999 FEW040 SCT080 16/14 Q1015=
201006170145 METAR LIRA 170145Z 09003KT 9999 SCT080 16/14 Q1016=
201006170115 METAR LIRA 170115Z 27003KT 9999 FEW080 17/15 Q1016=
201006170045 METAR LIRA 170045Z 36002KT 9999 FEW080 17/15 Q1015=
201006170015 METAR LIRA 170015Z 34002KT CAVOK 17/14 Q1015=
201006162350 METAR LIRA 170045Z 36002KT 9999 FEW080 17/15 Q1015=
201006162345 METAR LIRA 162345Z 34003KT CAVOK 18/15 Q1015=
201006162315 METAR LIRA 162315Z 07003KT CAVOK 17/15 Q1015=
201006162245 METAR LIRA 162245Z 07004KT CAVOK 18/14 Q1015=
201006162215 METAR LIRA 162215Z 35002KT CAVOK 19/15 Q1015=
201006162145 METAR LIRA 162145Z 33002KT CAVOK 19/15 Q1015=
201006162115 METAR LIRA 162115Z 36001KT CAVOK 19/15 Q1015=
201006162045 METAR LIRA 162045Z 32002KT CAVOK 20/15 Q1015=
201006162015 METAR LIRA 162015Z 31001KT CAVOK 21/15 Q1015=
201006161945 METAR LIRA 161945Z 29003KT CAVOK 21/15 Q1014=
201006161915 METAR LIRA 161915Z 28003KT CAVOK 22/15 Q1014=
201006161845 METAR LIRA 161845Z 29004KT CAVOK 23/15 Q1014=
201006161815 METAR LIRA 161815Z 26004KT CAVOK 23/13 Q1014=
201006161715 METAR LIRA 161715Z 28006KT 180V330 CAVOK 25/13 Q1014=
201006161645 METAR LIRA 161645Z 24007KT 210V320 CAVOK 24/13 Q1014=
201006161615 METAR LIRA 161615Z 27008KT 210V330 9999 FEW020 25/14 Q1014=
201006161545 METAR LIRA 161545Z 29010KT 210V340 9999 FEW020 25/14 Q1015=
201006161515 METAR LIRA 161515Z 27009KT 190V310 9999 FEW020 26/14 Q1015=
201006161445 METAR LIRA 161445Z 25006KT 190V320 9999 FEW022 26/16 Q1015=
201006161415 METAR LIRA 161415Z 22009KT 180V320 9999 SCT020 26/16 Q1015=
201006161345 METAR LIRA 161345Z 27006KT 130V310 9999 SCT020 26/17 Q1015=
201006161315 METAR LIRA 161315Z 23009KT 150V310 9999 SCT020 26/16 Q1015=
201006161245 METAR LIRA 161245Z 15007KT 180V330 9999 SCT020 26/16 Q1014=
201006161215 METAR LIRA 161215Z 28010KT 220V320 9999 SCT020 26/17 Q1014=
201006161145 METAR LIRA 161145Z 29008KT 220V350 9999 SCT020 26/17 Q1014=
201006161115 METAR LIRA 161115Z 25008KT 160V300 9999 SCT020 26/17 Q1014=
201006161045 METAR LIRA 161045Z VRB05KT 110V360 9999 SCT020 26/16 Q1014=
201006161015 METAR LIRA 161015Z 21009KT 180V330 9999 SCT020 25/16 Q1013=
201006160945 METAR LIRA 160945Z 24005KT 170V300 9999 SCT020 26/17 Q1014=
201006160915 METAR LIRA 160915Z 24005KT 170V270 9999 SCT020 25/16 Q1013=
201006160845 METAR LIRA 160845Z 21005KT 160V350 9999 SCT020 25/16 Q1013=
201006160815 METAR LIRA 160815Z 22006KT 170V280 9999 SCT020 24/15 Q1013=
201006160745 METAR LIRA 160745Z 22004KT 200V270 9999 SCT020 24/17 Q1013=
201006160715 METAR LIRA 160715Z 28004KT 9999 FEW020 23/17 Q1013=
201006160645 METAR LIRA 160645Z 24004KT 9999 FEW020 22/17 Q1012=
201006160615 METAR LIRA 160615Z 31002KT 060V200 9999 FEW020 22/17 Q1012=
201006160545 METAR LIRA 160545Z 22002KT 9999 FEW020 SCT030 21/17 Q1012=
201006160515 METAR LIRA 160515Z 02003KT 9999 SCT015 21/18 Q1012=
201006160445 METAR LIRA 160445Z 14003KT 9999 SCT015 21/19 Q1012=
201006160415 METAR LIRA 160415Z 19003KT 9999 SCT015 21/20 Q1011=
201006160345 METAR LIRA 160345Z 22002KT 9999 FEW015 SCT025 21/21 Q1011=
201006160315 METAR LIRA 160315Z 22004KT 150V250 9000 -RA FEW020CB SCT025
                        22/20 Q1011=
201006160245 METAR LIRA 160245Z 18006KT 9999 FEW025 SCT060 22/20 Q1011=
201006160215 METAR LIRA 160215Z 15006KT 130V190 9999 FEW025 SCT035 22/20
                        Q1011=
201006160145 METAR LIRA 160145Z 15007KT 9999 FEW025 SCT060 22/20 Q1011=
201006160115 METAR LIRA 160115Z 16008KT 120V190 9999 BKN060 22/20 Q1011=
201006160045 METAR LIRA 160045Z 16007KT 120V190 9999 FEW060 23/20 Q1010=
201006160015 METAR LIRA 160015Z 15008KT 110V180 9999 FEW060 23/20 Q1010=
201006152350 METAR LIRA 160045Z 16007KT 120V190 9999 FEW060 23/20 Q1010=
201006152345 METAR LIRA 152345Z 17008KT 140V200 9999 FEW060 23/20 Q1010=
201006152315 METAR LIRA 152315Z 17009KT 9999 FEW060 24/20 Q1010=
201006152245 METAR LIRA 152245Z 16012KT 130V200 9999 FEW025 24/18 Q1009=
201006152215 METAR LIRA 152215Z 16015KT 130V190 CAVOK 25/16 Q1009=
201006152145 METAR LIRA 152145Z 23003KT 9999 FEW035 SCT060 22/19 Q1009=
201006152115 METAR LIRA 152115Z 29001KT 9999 FEW060 22/19 Q1009=
201006152045 METAR LIRA 152045Z 26003KT 9999 SCT070 22/18 Q1009=
201006152015 METAR LIRA 152015Z 02006KT 320V110 9999 FEW030 22/18 Q1009=
201006151945 METAR LIRA 151945Z 02010KT 330V070 9999 FEW030 SCT080 23/18
                        Q1009=
201006151915 METAR LIRA 151915Z 04006KT 360V090 9999 FEW022TCU BKN030
                        23/19 Q1009=
201006151845 METAR LIRA 151845Z 09007KT 040V120 9999 FEW022TCU BKN030
                        24/19 Q1009=
201006151815 METAR LIRA 151815Z 17005KT 140V210 8000 -RA FEW022TCU BKN030
                        25/19 Q1011=
201006151745 METAR LIRA 151745Z 19003KT 9999 -RA FEW022TCU BKN030 27/17
                        Q1011=
201006151715 METAR LIRA 151715Z 22003KT 9999 FEW022TCU BKN030 27/17 Q1011=
201006151645 METAR LIRA 151645Z 21005KT 150V250 9999 FEW022TCU SCT035
                        27/17 Q1011=
201006151615 METAR LIRA 151615Z 31003KT 9999 -RA FEW022TCU SCT035 27/15
                        Q1011=
201006151545 METAR LIRA 151545Z 24002KT 9999 -RA SCT035 28/15 Q1012=
201006151515 METAR LIRA 151515Z 22006KT 180V270 9999 SCT032 SCT070 28/14
                        Q1012=
201006151445 METAR LIRA 151445Z 20005KT 150V250 9999 SCT032 SCT070 29/13
                        Q1012=
201006151415 METAR LIRA 151415Z 17009KT 120V220 9999 SCT032 SCT070 29/13
                        Q1012=
201006151345 METAR LIRA 151345Z 17011KT 140V240 9999 SCT032 SCT070 30/14
                        Q1011=
201006151315 METAR LIRA 151315Z 15010KT 100V180 9999 SCT080 31/15 Q1011=
201006151245 METAR LIRA 151245Z 16011KT 110V210 9999 SCT080 31/15 Q1011=
201006151215 METAR LIRA 151215Z 13011KT 080V180 9999 FEW080 31/15 Q1011=
201006151145 METAR LIRA 151145Z 13011KT 070V170 9999 FEW080 30/17 Q1011=
201006151115 METAR LIRA 151115Z 14013KT 9999 FEW040 SCT080 29/17 Q1012=
201006151045 METAR LIRA 151045Z 13006KT 100V180 9999 FEW040 29/20 Q1013=
201006151015 METAR LIRA 151015Z 04002KT 9999 FEW035 SCT080 26/21 Q1013=
201006150945 METAR LIRA 150945Z 24002KT 9999 SCT035 SCT080 24/21 Q1013=
201006150915 METAR LIRA 150915Z 11004KT 9000 -RA SCT035 BKN080 23/21 Q1013=
201006150845 METAR LIRA 150845Z 17007KT 130V220 6000 -RA SCT035 BKN080
                        24/22 Q1014=
201006150815 METAR LIRA 150815Z 20007KT 150V250 8000 -RA SCT035 BKN080
                        24/20 Q1014=
201006150745 METAR LIRA 150745Z 18012KT 140V230 9999 -RA FEW050 BKN080
                        25/19 Q1014=
201006150715 METAR LIRA 150715Z 26005KT 180V300 9999 BKN080 25/18 Q1013=
201006150645 METAR LIRA 150645Z 30003KT 9999 FEW080 24/18 Q1013=
201006150615 METAR LIRA 150615Z 28006KT 240V310 9999 FEW080 24/18 Q1013=
201006150545 METAR LIRA 150545Z 34003KT 9999 FEW080 23/17 Q1013=
201006150515 METAR LIRA 150515Z 04004KT 350V070 9999 SCT070 22/17 Q1014=
201006150445 METAR LIRA 150445Z 06004KT 9999 SCT070 20/17 Q1014=
201006150415 METAR LIRA 150415Z 05001KT 9999 SCT080 19/17 Q1014=
201006150345 METAR LIRA 150345Z 05004KT 9999 FEW080 19/17 Q1014=
201006150315 METAR LIRA 150315Z 04001KT 9999 FEW080 20/18 Q1014=
201006150245 METAR LIRA 150245Z 09003KT 9999 FEW080 19/18 Q1014=
201006150215 METAR LIRA 150215Z 05002KT CAVOK 20/18 Q1014=
201006150145 METAR LIRA 150145Z 35003KT CAVOK 20/18 Q1014=
201006150115 METAR LIRA 150115Z 33004KT CAVOK 20/18 Q1014=
201006150045 METAR LIRA 150045Z 07003KT CAVOK 20/18 Q1014=
201006150015 METAR LIRA 150015Z 04001KT CAVOK 20/17 Q1014=
201006142350 METAR LIRA 150045Z 07003KT CAVOK 20/18 Q1014=
201006142345 METAR LIRA 142345Z 03005KT CAVOK 20/17 Q1014=
201006142315 METAR LIRA 142315Z 04007KT CAVOK 20/17 Q1014=
201006142245 METAR LIRA 142245Z 04006KT CAVOK 20/18 Q1014=
201006142215 METAR LIRA 142215Z 03005KT CAVOK 20/18 Q1014=
201006142145 METAR LIRA 142145Z 07004KT CAVOK 20/18 Q1015=
201006142115 METAR LIRA 142115Z 05002KT CAVOK 21/19 Q1015=
201006142045 METAR LIRA 142045Z 23002KT CAVOK 22/19 Q1015=
201006142015 METAR LIRA 142015Z 32001KT CAVOK 22/19 Q1013=
201006141945 METAR LIRA 141945Z 33002KT CAVOK 23/19 Q1013=
201006141915 METAR LIRA 141915Z 26002KT CAVOK 23/19 Q1013=
201006141845 METAR LIRA 141845Z 21004KT 9999 FEW025 23/19 Q1013=
201006141815 METAR LIRA 141815Z 21005KT 170V260 9999 FEW025 24/18 Q1013=
201006141745 METAR LIRA 141745Z 21007KT 160V250 9999 FEW025 25/18 Q1013=
201006141715 METAR LIRA 141715Z 21008KT 160V260 9999 FEW025 25/17 Q1013=
201006141645 METAR LIRA 141645Z 22007KT 170V280 CAVOK 25/16 Q1013=
201006141615 METAR LIRA 141615Z 20008KT 140V240 9999 FEW025 SCT200 26/16
                        Q1013=
201006141545 METAR LIRA 141545Z 21007KT 150V260 9999 FEW025 27/14 Q1013=
201006141515 METAR LIRA 141515Z 23009KT 9999 FEW022 28/18 Q1013=
201006141445 METAR LIRA 141445Z 21005KT 180V270 9999 FEW020 28/16 Q1014=
201006141415 METAR LIRA 141415Z 23006KT 180V270 9999 FEW020 29/16 Q1014=
201006141345 METAR LIRA 141345Z 21007KT 150V270 9999 FEW022 29/16 Q1014=
201006141315 METAR LIRA 141315Z 26007KT 210V320 9999 FEW022 29/16 Q1014=
201006141245 METAR LIRA 141245Z 27005KT 220V330 9999 FEW022 29/16 Q1014=
201006141215 METAR LIRA 141215Z 27005KT 210V330 9999 FEW022 29/16 Q1014=
201006141145 METAR LIRA 141145Z 02003KT 9999 FEW022 29/17 Q1014=
201006141115 METAR LIRA 141115Z 19004KT 150V240 9999 FEW022 28/16 Q1015=
201006141045 METAR LIRA 141045Z 16003KT 9999 FEW022 28/16 Q1015=
201006141015 METAR LIRA 141015Z 18004KT 9999 SCT020 27/15 Q1015=
201006140945 METAR LIRA 140945Z 29003KT 9999 FEW020 27/16 Q1015=
201006140915 METAR LIRA 140915Z 20004KT 9999 FEW020 26/16 Q1014=
201006140845 METAR LIRA 140845Z 16004KT 9999 FEW020 25/15 Q1014=
201006140815 METAR LIRA 140815Z 21003KT 170V240 9999 FEW020 25/16 Q1014=
201006140745 METAR LIRA 140745Z 16003KT 9999 FEW020 24/16 Q1014=
201006140715 METAR LIRA 140715Z 21004KT 9999 FEW020 23/16 Q1014=
201006140645 METAR LIRA 140645Z 23004KT 180V280 9999 FEW020 23/16 Q1014=
201006140615 METAR LIRA 140615Z 18006KT 150V250 CAVOK 22/17 Q1013=
201006140545 METAR LIRA 140545Z 16007KT 120V210 CAVOK 21/18 Q1013=
201006140515 METAR LIRA 140515Z 16006KT CAVOK 21/18 Q1013=
201006140445 METAR LIRA 140445Z 17005KT 9999 FEW060 20/18 Q1012=
201006140415 METAR LIRA 140415Z 17004KT 9999 FEW018 20/18 Q1012=
201006140345 METAR LIRA 140345Z 17004KT CAVOK 20/18 Q1012=
201006140315 METAR LIRA 140315Z 15005KT CAVOK 20/18 Q1012=
201006140245 METAR LIRA 140245Z 18005KT CAVOK 21/20 Q1012=
201006140215 METAR LIRA 140215Z 17005KT CAVOK 21/19 Q1012=
201006140145 METAR LIRA 140145Z 19005KT CAVOK 21/17 Q1012=
201006140115 METAR LIRA 140115Z 19005KT CAVOK 21/17 Q1012=
201006140045 METAR LIRA 140045Z 16004KT CAVOK 21/18 Q1012=
201006140015 METAR LIRA 140015Z 18004KT CAVOK 21/19 Q1012=
201006132350 METAR LIRA 140045Z 16004KT CAVOK 21/18 Q1012=
201006132345 METAR LIRA 132345Z 15004KT 9999 FEW017 21/19 Q1011=
201006132315 METAR LIRA 132315Z 15005KT 9999 FEW017 21/19 Q1011=
201006132245 METAR LIRA 132245Z 16005KT 9999 FEW017 21/20 Q1011=
201006132215 METAR LIRA 132215Z 18004KT 9999 FEW008 21/20 Q1011=
201006132145 METAR LIRA 132145Z 19006KT 160V240 9999 SCT008 22/20 Q1011=
201006132115 METAR LIRA 132115Z 19005KT 150V240 9999 FEW080 22/20 Q1011=
201006132045 METAR LIRA 132045Z 18008KT 9999 FEW080 23/20 Q1011=
201006132015 METAR LIRA 132015Z 19006KT 160V220 9999 FEW080 23/20 Q1011=
201006131945 METAR LIRA 131945Z 19005KT 140V230 9999 FEW070 24/20 Q1010=
201006131915 METAR LIRA 131915Z 19005KT 9999 FEW070 24/20 Q1010=
201006131845 METAR LIRA 131845Z 18004KT 9999 FEW022 SCT070 24/20 Q1010=
201006131815 METAR LIRA 131815Z 19004KT 9999 FEW022 SCT070 24/19 Q1011=
201006131745 METAR LIRA 131745Z 23004KT 9999 FEW022 SCT070 25/20 Q1011=
201006131715 METAR LIRA 131715Z 23006KT 180V270 9999 FEW022 SCT070 25/20
                        Q1011=
201006131645 METAR LIRA 131645Z 24006KT 200V330 9999 FEW018 SCT060 25/20
                        Q1011=
201006131615 METAR LIRA 131615Z 23006KT 190V270 9999 FEW018 SCT060 25/20
                        Q1011=
201006131545 METAR LIRA 131545Z 26006KT 190V330 9999 FEW018 SCT060 25/20
                        Q1011=
201006131515 METAR LIRA 131515Z 25007KT 180V320 9999 FEW018 SCT060 26/20
                        Q1011=
201006131445 METAR LIRA 131445Z 22009KT 180V260 9999 FEW018 SCT060 26/19
                        Q1012=
201006131415 METAR LIRA 131415Z 22010KT 160V280 9999 FEW018 27/20 Q1011=
201006131345 METAR LIRA 131345Z 20009KT 160V270 9999 FEW018 28/20 Q1011=
201006131315 METAR LIRA 131315Z 22010KT 170V260 9999 FEW018 28/20 Q1011=
201006131245 METAR LIRA 131245Z 26010KT 200V320 9999 FEW018 29/20 Q1011=
201006131215 METAR LIRA 131215Z 24007KT 200V290 9999 FEW018 29/19 Q1011=
201006131145 METAR LIRA 131145Z 20007KT 120V250 9999 FEW018 29/18 Q1011=
201006131115 METAR LIRA 131115Z 21009KT 130V280 9999 FEW018 29/16 Q1012=
201006131045 METAR LIRA 131045Z 20005KT 130V250 9999 FEW018 29/17 Q1012=
201006131015 METAR LIRA 131015Z 18008KT 140V240 9999 FEW060 29/15 Q1012=
201006130945 METAR LIRA 130945Z 18006KT 100V230 CAVOK 28/14 Q1012=
201006130915 METAR LIRA 130915Z 08003KT CAVOK 27/16 Q1012=
201006130845 METAR LIRA 130845Z 32003KT CAVOK 26/17 Q1012=
201006130815 METAR LIRA 130815Z 23002KT 9000 NSC 25/17 Q1012=
201006130745 METAR LIRA 130745Z 31003KT 8000 NSC 24/17 Q1012=
201006130715 METAR LIRA 130715Z 36004KT 330V080 8000 NSC 23/18 Q1012=
201006130645 METAR LIRA 130645Z 35005KT 310V030 8000 NSC 22/18 Q1012=
201006130615 METAR LIRA 130615Z 03004KT 7000 NSC 22/18 Q1012=
201006130545 METAR LIRA 130545Z 01003KT 7000 NSC 21/18 Q1012=
201006130515 METAR LIRA 130515Z 03002KT 7000 FEW012 20/18 Q1011=
201006130445 METAR LIRA 130445Z 04002KT 7000 FEW012 19/18 Q1011=
201006130415 METAR LIRA 130415Z 01002KT 6000 FEW011 19/18 Q1011=
201006130345 METAR LIRA 130345Z 02003KT 8000 FEW020 SCT025 19/17 Q1011=
201006130315 METAR LIRA 130315Z 05002KT 9999 FEW020 SCT025 19/17 Q1011=
201006130245 METAR LIRA 130245Z 06003KT 9999 FEW020 20/17 Q1012=
201006130215 METAR LIRA 130215Z 36002KT 9999 FEW020 SCT070 20/19 Q1012=
201006130145 METAR LIRA 130145Z 01001KT 9999 FEW020 SCT070 20/18 Q1012=
201006130115 METAR LIRA 130115Z 00000KT 9999 FEW018 SCT070 20/19 Q1012=
201006130045 METAR LIRA 130045Z 15001KT 9999 FEW018 SCT070 21/19 Q1012=
201006130015 METAR LIRA 130015Z 00000KT 9999 FEW018 SCT070 21/18 Q1012=
201006122350 METAR LIRA 130045Z 15001KT 9999 FEW018 SCT070 21/19 Q1012=
201006122345 METAR LIRA 122345Z 18004KT 9999 FEW018 SCT070 21/18 Q1012=
201006122245 METAR LIRA 122245Z 20005KT 9999 FEW018 SCT070 22/17 Q1012=
201006122215 METAR LIRA 122215Z 20002KT 9999 FEW020 SCT070 22/17 Q1012=
201006122145 METAR LIRA 122145Z 18003KT 9999 FEW020 SCT070 23/18 Q1012=
201006122115 METAR LIRA 122115Z 20004KT 9999 FEW020 SCT070 23/18 Q1011=
201006122045 METAR LIRA 122045Z 19005KT 9999 FEW020 SCT070 23/18 Q1011=
201006122015 METAR LIRA 122015Z 18004KT 9999 FEW020 SCT070 23/18 Q1011=
201006121945 METAR LIRA 121945Z 22006KT 170V230 9999 FEW020 SCT070 23/18
                        Q1011=
201006121915 METAR LIRA 121915Z 21005KT 180V260 9999 FEW020 SCT070 23/17
                        Q1011=
201006121845 METAR LIRA 121845Z 21005KT 9999 FEW020 SCT070 24/17 Q1011=
201006121815 METAR LIRA 121815Z 22005KT 170V240 9999 FEW020 SCT070 25/17
                        Q1011=
201006121745 METAR LIRA 121745Z 18005KT 150V240 9999 FEW020 SCT070 25/16
                        Q1011=
201006121715 METAR LIRA 121715Z 19006KT 160V220 9999 FEW020 FEW022TCU
                        SCT070 25/17 Q1012=
201006121645 METAR LIRA 121645Z 20004KT 150V230 9999 FEW020 FEW022TCU
                        26/18 Q1012=
201006121615 METAR LIRA 121615Z 23006KT 180V260 9999 FEW020 FEW022TCU
                        SCT080 26/17 Q1012=
201006121545 METAR LIRA 121545Z 22007KT 160V260 9999 FEW024 SCT080 26/17
                        Q1013=
201006121515 METAR LIRA 121515Z 19006KT 140V220 9999 FEW024 SCT080 27/18
                        Q1013=
201006121445 METAR LIRA 121445Z 18008KT 150V240 9999 FEW024 SCT080 27/16
                        Q1013=
201006121415 METAR LIRA 121415Z 20010KT 150V240 9999 FEW024 SCT080 27/16
                        Q1013=
201006121345 METAR LIRA 121345Z 21010KT 160V260 9999 FEW024 SCT080 27/15
                        Q1013=
201006121315 METAR LIRA 121315Z 19011KT 140V250 9999 FEW024 SCT080 28/15
                        Q1013=
201006121245 METAR LIRA 121245Z 19013KT 140V240 9999 FEW024 BKN080 28/14
                        Q1013=
201006121215 METAR LIRA 121215Z 18012KT 130V220 9999 FEW024 BKN080 27/14
                        Q1012=
201006121145 METAR LIRA 121145Z 19009KT 130V230 9999 FEW024 BKN080 29/13
                        Q1012=
201006121115 METAR LIRA 121115Z 16014KT 130V190 9999 FEW024 BKN080 29/14
                        Q1012=
201006121045 METAR LIRA 121045Z 17015KT 140V240 9999 FEW024 BKN080 28/15
                        Q1012=
201006121015 METAR LIRA 121015Z 19014KT 150V240 9999 FEW022 BKN080 27/15
                        Q1012 WS RWY 15=
201006120945 METAR LIRA 120945Z 29012KT 250V070 9999 FEW022 BKN080 27/13
                        Q1011=
201006120915 METAR LIRA 120915Z 12013KT 090V210 9999 FEW022 BKN080 26/13
                        Q1012=
201006120845 METAR LIRA 120845Z 17011KT 140V200 9999 FEW022 BKN080 27/15
                        Q1013=
201006120815 METAR LIRA 120815Z 18007KT 130V250 9999 -RA FEW022 BKN080
                        26/15 Q1012=
201006120745 METAR LIRA 120745Z 16011KT 110V200 9999 FEW022 SCT080 25/16
                        Q1012=
201006120715 METAR LIRA 120715Z 34002KT 9999 FEW022 SCT080 23/16 Q1012=
201006120645 METAR LIRA 120645Z 29004KT 9999 FEW022 SCT080 21/17 Q1012=
201006120615 METAR LIRA 120615Z 32004KT 9999 FEW022 21/17 Q1012=
201006120545 METAR LIRA 120545Z 35002KT 9999 FEW018 FEW022TCU 20/16 Q1012=
201006120515 METAR LIRA 120515Z 32003KT 9999 FEW018 FEW022TCU SCT070 19/16
                        Q1012=
201006120445 METAR LIRA 120445Z 34003KT 9999 FEW018 FEW022TCU SCT070 19/16
                        Q1012=
201006120415 METAR LIRA 120415Z 24002KT 9999 FEW018 FEW022TCU SCT070 18/16
                        Q1011=
201006120345 METAR LIRA 120345Z 34004KT 9999 FEW022TCU SCT025 18/16 Q1012=
201006120315 METAR LIRA 120315Z 02002KT 9999 SCT025 18/15 Q1012=
201006120245 METAR LIRA 120245Z 03002KT 9999 SCT070 18/14 Q1012=
201006120215 METAR LIRA 120215Z 04002KT 9999 SCT070 18/15 Q1012=
201006120145 METAR LIRA 120145Z 02002KT 9999 FEW020 19/15 Q1012=
201006120115 METAR LIRA 120115Z 03001KT 9999 FEW070 19/15 Q1013=
201006120045 METAR LIRA 120045Z 05003KT 9999 FEW070 19/15 Q1013=
201006120015 METAR LIRA 120015Z 04002KT CAVOK 19/15 Q1013=
201006112350 METAR LIRA 120045Z 05003KT 9999 FEW070 19/15 Q1013=
201006112345 METAR LIRA 112345Z 06002KT CAVOK 19/15 Q1013=
201006112315 METAR LIRA 112315Z 05002KT CAVOK 20/15 Q1013=
201006112245 METAR LIRA 112245Z 06001KT CAVOK 20/15 Q1013=
201006112215 METAR LIRA 112215Z 35001KT CAVOK 20/15 Q1013=
201006112145 METAR LIRA 112145Z 02002KT CAVOK 21/14 Q1013=
201006112115 METAR LIRA 112115Z 07002KT CAVOK 21/14 Q1013=
201006112045 METAR LIRA 112045Z 06003KT CAVOK 22/16 Q1013=
201006112015 METAR LIRA 112015Z 00000KT CAVOK 23/15 Q1013=
201006111945 METAR LIRA 111945Z 27002KT CAVOK 23/15 Q1013=
201006111915 METAR LIRA 111915Z 27002KT CAVOK 24/16 Q1012=
201006111845 METAR LIRA 111845Z 28003KT CAVOK 24/14 Q1012=
201006111815 METAR LIRA 111815Z 25003KT CAVOK 26/13 Q1012=
201006111745 METAR LIRA 111745Z 25003KT CAVOK 27/13 Q1012=
201006111715 METAR LIRA 111715Z 27004KT 240V330 CAVOK 27/12 Q1012=
201006111645 METAR LIRA 111645Z 25005KT 210V310 CAVOK 27/11 Q1012=
201006111615 METAR LIRA 111615Z 22006KT 180V270 CAVOK 27/11 Q1012=
201006111545 METAR LIRA 111545Z 24007KT 190V300 CAVOK 28/11 Q1013=
201006111515 METAR LIRA 111515Z 25007KT 200V320 CAVOK 28/11 Q1013=
201006111445 METAR LIRA 111445Z 24008KT 190V330 CAVOK 28/11 Q1013=
201006111415 METAR LIRA 111415Z 23009KT 180V320 CAVOK 29/11 Q1013=
201006111345 METAR LIRA 111345Z 22010KT 150V260 CAVOK 29/11 Q1013=
201006111315 METAR LIRA 111315Z 21009KT 150V280 CAVOK 29/10 Q1013=
201006111245 METAR LIRA 111245Z 19008KT 120V240 CAVOK 29/12 Q1014=
201006111215 METAR LIRA 111215Z 19007KT 120V240 CAVOK 30/12 Q1014=
201006111145 METAR LIRA 111145Z 19012KT 150V230 CAVOK 29/11 Q1013=
201006111115 METAR LIRA 111115Z 19011KT 160V240 CAVOK 28/13 Q1013=
201006111045 METAR LIRA 111045Z 19013KT 150V220 CAVOK 30/12 Q1013=
201006111015 METAR LIRA 111015Z 17013KT 130V240 9999 FEW070 30/11 Q1013=
201006110945 METAR LIRA 110945Z 17014KT 140V220 9999 FEW070 30/11 Q1013=
201006110915 METAR LIRA 110915Z 16013KT 130V200 9999 FEW070 30/11 Q1013=
201006110845 METAR LIRA 110845Z 15015KT 110V190 9999 FEW070 29/11 Q1013=
201006110815 METAR LIRA 110815Z 16011KT 120V200 9999 FEW070 29/11 Q1013=
201006110745 METAR LIRA 110745Z 12009KT 090V160 9999 FEW070 28/13 Q1013=
201006110715 METAR LIRA 110715Z 12012KT 160V090 9999 FEW070 27/14 Q1013=
201006110645 METAR LIRA 110645Z 13011KT 9999 FEW030 SCT070 26/16 Q1013=
201006110615 METAR LIRA 110615Z 10005KT 9999 FEW030 SCT070 25/17 Q1013=
201006110545 METAR LIRA 110545Z 14005KT 9999 FEW030 SCT070 24/17 Q1013=
201006110515 METAR LIRA 110515Z 15007KT 110V180 9999 FEW030 SCT070 24/15
                        Q1013=
201006110445 METAR LIRA 110445Z 16005KT 9999 FEW030 SCT070 21/14 Q1013=
201006110415 METAR LIRA 110415Z 13005KT 9999 FEW030 SCT070 19/13 Q1013=
201006110345 METAR LIRA 110345Z 26003KT 9999 SCT025 19/14 Q1013=
201006110315 METAR LIRA 110315Z 01005KT 010V090 9999 FEW025 SCT070 19/13
                        Q1013=
201006110245 METAR LIRA 110245Z 21002KT 9999 FEW025 SCT070 19/13 Q1013=
201006110215 METAR LIRA 110215Z 06002KT 9999 FEW025 SCT070 19/13 Q1013=
201006110145 METAR LIRA 110145Z 00000KT 9999 FEW025 20/14 Q1013=
201006110115 METAR LIRA 110115Z 36002KT 9999 FEW025 20/14 Q1013=
201006110045 METAR LIRA 110045Z 00000KT 9999 FEW025 21/13 Q1013=
201006110015 METAR LIRA 110015Z 11003KT 9999 FEW025 SCT070 22/13 Q1013=
201006102350 METAR LIRA 110045Z 00000KT 9999 FEW025 21/13 Q1013=
201006102345 METAR LIRA 102345Z 03001KT 9999 FEW025 SCT070 22/12 Q1013=
201006102315 METAR LIRA 102315Z 02001KT 9999 FEW025 SCT060 22/12 Q1013=
201006102245 METAR LIRA 102245Z 08003KT 9999 FEW025 SCT070 22/12 Q1013=
201006102215 METAR LIRA 102215Z 05005KT 010V080 9999 SCT060 22/11 Q1013=
201006102145 METAR LIRA 102145Z 08004KT 9999 SCT060 23/08 Q1013=
201006102115 METAR LIRA 102115Z 15006KT 9999 FEW030 25/06 Q1013=
201006102045 METAR LIRA 102045Z 13005KT 9999 FEW025 SCT060 25/07 Q1013=
201006102015 METAR LIRA 102015Z 11007KT 9999 FEW025 SCT070 25/08 Q1013=
201006101945 METAR LIRA 101945Z 15007KT 120V180 9999 SCT030 26/09 Q1012=
201006101915 METAR LIRA 101915Z 17009KT 140V200 9999 SCT030 26/09 Q1012=
201006101845 METAR LIRA 101845Z 18012KT 150V210 9999 FEW030 26/09 Q1012=
201006101815 METAR LIRA 101815Z 18011KT 150V220 9999 FEW070 27/10 Q1012=
201006101745 METAR LIRA 101745Z 18011KT 150V230 CAVOK 28/10 Q1012=
201006101715 METAR LIRA 101715Z 17011KT 140V200 CAVOK 29/10 Q1011=
201006101645 METAR LIRA 101645Z 17012KT 140V200 CAVOK 29/10 Q1012=
201006101615 METAR LIRA 101615Z 17013KT 120V200 CAVOK 30/10 Q1012=
201006101545 METAR LIRA 101545Z 17014KT CAVOK 30/12 Q1012=
201006101515 METAR LIRA 101515Z 17016KT 130V210 CAVOK 30/13 Q1012=
201006101445 METAR LIRA 101445Z 17016KT CAVOK 31/11 Q1012=
201006101415 METAR LIRA 101415Z 16014KT 120V210 CAVOK 31/12 Q1012=
201006101345 METAR LIRA 101345Z 17014KT 130V220 CAVOK 32/12 Q1012=
201006101315 METAR LIRA 101315Z 17013KT 130V220 CAVOK 33/11 Q1012=
201006101245 METAR LIRA 101245Z 17014KT 110V210 CAVOK 33/10 Q1012=
201006101215 METAR LIRA 101215Z 14012KT 090V190 CAVOK 33/11 Q1012=
201006101145 METAR LIRA 101145Z 12012KT 080V160 CAVOK 32/14 Q1012=
201006101115 METAR LIRA 101115Z 14010KT 100V190 CAVOK 32/14 Q1012=
201006101045 METAR LIRA 101045Z 11012KT 060V150 CAVOK 31/14 Q1013=
201006101015 METAR LIRA 101015Z 13010KT CAVOK 31/14 Q1013=
201006100945 METAR LIRA 100945Z 12010KT 090V180 CAVOK 30/13 Q1013=
201006100915 METAR LIRA 100915Z 15009KT 100V190 CAVOK 30/13 Q1013=
201006100845 METAR LIRA 100845Z 14009KT 090V180 CAVOK 29/13 Q1013=
201006100815 METAR LIRA 100815Z 05002KT CAVOK 27/13 Q1013=
201006100745 METAR LIRA 100745Z 35004KT CAVOK 26/16 Q1013=
201006100715 METAR LIRA 100715Z 30004KT 9999 FEW040 24/16 Q1013=
201006100645 METAR LIRA 100645Z 34003KT 9999 FEW040 23/16 Q1013=
201006100615 METAR LIRA 100615Z 36002KT 9999 FEW040 21/16 Q1013=
201006100545 METAR LIRA 100545Z 35002KT CAVOK 20/16 Q1013=
201006100515 METAR LIRA 100515Z 01002KT CAVOK 20/16 Q1012=
201006100445 METAR LIRA 100445Z 07002KT CAVOK 19/15 Q1012=
201006100415 METAR LIRA 100415Z 06002KT CAVOK 18/15 Q1012=
201006100345 METAR LIRA 100345Z 14002KT CAVOK 18/15 Q1012=
201006100315 METAR LIRA 100315Z 07002KT CAVOK 18/16 Q1012=
201006100245 METAR LIRA 100245Z 16002KT CAVOK 18/16 Q1012=
201006100215 METAR LIRA 100215Z 20002KT CAVOK 18/17 Q1011=
201006100145 METAR LIRA 100145Z 23003KT CAVOK 19/17 Q1011=
201006100115 METAR LIRA 100115Z 22003KT CAVOK 19/17 Q1011=
201006100045 METAR LIRA 100045Z 15003KT CAVOK 19/16 Q1011=
201006100015 METAR LIRA 100015Z 24001KT CAVOK 20/17 Q1011=
201006092350 METAR LIRA 100045Z 15003KT CAVOK 19/16 Q1011=
201006092345 METAR LIRA 092345Z 31002KT CAVOK 20/18 Q1011=
201006092315 METAR LIRA 092315Z 04002KT CAVOK 20/18 Q1012=
201006092245 METAR LIRA 092245Z 06004KT CAVOK 21/18 Q1012=
201006092215 METAR LIRA 092215Z 07004KT CAVOK 21/18 Q1012=
201006092145 METAR LIRA 092145Z 06004KT CAVOK 21/19 Q1012=
201006092115 METAR LIRA 092115Z 05004KT CAVOK 22/19 Q1012=
201006092045 METAR LIRA 092045Z 04003KT CAVOK 22/19 Q1012=
201006092015 METAR LIRA 092015Z 00000KT CAVOK 22/19 Q1012=
201006091945 METAR LIRA 091945Z 30003KT CAVOK 23/19 Q1012=
201006091915 METAR LIRA 091915Z 33004KT CAVOK 23/19 Q1011=
201006091845 METAR LIRA 091845Z 22005KT CAVOK 24/20 Q1011=
201006091815 METAR LIRA 091815Z 21006KT 180V250 CAVOK 25/19 Q1011=
201006091745 METAR LIRA 091745Z 22006KT 190V250 CAVOK 25/19 Q1011=
201006091715 METAR LIRA 091715Z 23006KT 200V270 CAVOK 26/19 Q1011=
201006091645 METAR LIRA 091645Z 21006KT 160V260 CAVOK 28/18 Q1011=
201006091615 METAR LIRA 091615Z 21007KT 130V280 9999 FEW018 28/18 Q1011=
201006091545 METAR LIRA 091545Z 19008KT 180V240 9999 FEW018 28/18 Q1011=
201006091515 METAR LIRA 091515Z 21007KT 160V260 9999 FEW018 28/18 Q1012=
201006091445 METAR LIRA 091445Z 23010KT 190V270 9999 FEW018 28/17 Q1012=
201006091415 METAR LIRA 091415Z 18009KT 120V220 9999 FEW018 29/16 Q1012=
201006091345 METAR LIRA 091345Z 20007KT 170V270 9999 FEW018 29/17 Q1012=
201006091315 METAR LIRA 091315Z 20007KT 130V270 9999 FEW018 30/17 Q1012=
201006091245 METAR LIRA 091245Z 16009KT 110V220 9999 FEW018 30/14 Q1012=
201006091215 METAR LIRA 091215Z 19009KT 140V270 9999 FEW020 29/14 Q1012=
201006091145 METAR LIRA 091145Z 18008KT 140V240 9999 FEW020 29/16 Q1012=
201006091115 METAR LIRA 091115Z 22008KT 170V270 9999 FEW020 29/17 Q1013=
201006091045 METAR LIRA 091045Z 21006KT 180V260 CAVOK 28/19 Q1013=
201006091015 METAR LIRA 091015Z 24008KT 180V300 9999 FEW020 28/19 Q1013=
201006090945 METAR LIRA 090945Z 24004KT 190V260 CAVOK 28/15 Q1012=
201006090915 METAR LIRA 090915Z 24004KT CAVOK 28/15 Q1013=
201006090845 METAR LIRA 090845Z 31002KT CAVOK 27/16 Q1012=
201006090815 METAR LIRA 090815Z 07003KT CAVOK 26/16 Q1012=
201006090745 METAR LIRA 090745Z 02003KT CAVOK 25/16 Q1012=
201006090715 METAR LIRA 090715Z 03005KT CAVOK 23/15 Q1012=
201006090645 METAR LIRA 090645Z 34002KT CAVOK 22/16 Q1012=
201006090615 METAR LIRA 090615Z 01003KT CAVOK 20/15 Q1012=
201006090545 METAR LIRA 090545Z 36002KT CAVOK 19/15 Q1012=
201006090515 METAR LIRA 090515Z 03003KT CAVOK 19/16 Q1012=
201006090445 METAR LIRA 090445Z 03003KT CAVOK 18/15 Q1012=
201006090415 METAR LIRA 090415Z 03003KT CAVOK 16/15 Q1012=
201006090345 METAR LIRA 090345Z 03001KT 9999 FEW080 17/15 Q1012=
201006090315 METAR LIRA 090315Z 01002KT 9999 FEW080 17/15 Q1012=
201006090245 METAR LIRA 090245Z 02003KT 9999 FEW080 17/15 Q1012=
201006090215 METAR LIRA 090215Z 01001KT 9999 FEW080 17/14 Q1012=
201006090145 METAR LIRA 090145Z 07003KT 9999 FEW080 17/14 Q1012=
201006090115 METAR LIRA 090115Z 08004KT CAVOK 17/15 Q1012=
201006090045 METAR LIRA 090045Z 09001KT CAVOK 17/15 Q1012=
201006090015 METAR LIRA 090015Z 09001KT CAVOK 17/15 Q1012=
201006082350 METAR LIRA 090045Z 09001KT CAVOK 17/15 Q1012=
201006082345 METAR LIRA 082345Z 07001KT CAVOK 18/15 Q1012=
201006082315 METAR LIRA 082315Z 10002KT CAVOK 18/16 Q1012=
201006082245 METAR LIRA 082245Z 10001KT CAVOK 18/16 Q1012=
201006082215 METAR LIRA 082215Z 00000KT CAVOK 18/16 Q1012=
201006082145 METAR LIRA 082145Z 00000KT CAVOK 18/16 Q1012=
201006082115 METAR LIRA 082115Z 21001KT CAVOK 19/16 Q1012=
201006082045 METAR LIRA 082045Z 23004KT CAVOK 20/16 Q1012=
201006082015 METAR LIRA 082015Z 21001KT CAVOK 20/16 Q1012=
201006081945 METAR LIRA 081945Z 23002KT CAVOK 21/17 Q1012=
201006081915 METAR LIRA 081915Z 23002KT 9999 FEW020 22/17 Q1012=
201006081845 METAR LIRA 081845Z 20003KT 9999 FEW020 23/16 Q1012=
201006081815 METAR LIRA 081815Z 23005KT 9999 FEW020TCU 23/16 Q1012=
201006081745 METAR LIRA 081745Z 23004KT 9999 FEW020TCU 24/15 Q1012=
201006081715 METAR LIRA 081715Z 23004KT 200V260 9999 FEW020TCU 25/15 Q1012=
201006081645 METAR LIRA 081645Z 22006KT 140V290 9999 FEW020TCU 25/15 Q1012=
201006081615 METAR LIRA 081615Z 23008KT 190V280 9999 FEW020TCU 26/15 Q1012=
201006081545 METAR LIRA 081545Z 23006KT 120V300 9999 FEW020TCU 26/15 Q1012=
201006081515 METAR LIRA 081515Z 23007KT 180V270 9999 FEW020TCU 26/15 Q1012=
201006081445 METAR LIRA 081445Z 23007KT 190V300 9999 FEW020TCU 27/15 Q1013=
201006081415 METAR LIRA 081415Z 22007KT 170V290 9999 FEW020TCU 27/16 Q1013=
201006081345 METAR LIRA 081345Z 22007KT 180V260 9999 FEW020TCU 27/16 Q1013=
201006081315 METAR LIRA 081315Z 24007KT 190V300 9999 FEW020TCU 27/15 Q1013=
201006081245 METAR LIRA 081245Z 23007KT 180V290 9999 FEW020TCU 27/15 Q1013=
201006081215 METAR LIRA 081215Z 22007KT 150V280 9999 FEW020TCU 27/16 Q1013=
201006081145 METAR LIRA 081145Z 22007KT 170V290 9999 FEW020TCU 27/16 Q1013=
201006081115 METAR LIRA 081115Z 24007KT 190V300 9999 FEW020 27/16 Q1013=
201006081045 METAR LIRA 081045Z 19005KT 110V270 9999 FEW020 27/16 Q1013=
201006081015 METAR LIRA 081015Z 23004KT 190V250 9999 FEW020 27/16 Q1013=
201006080945 METAR LIRA 080945Z 19004KT 150V230 9999 FEW020 26/15 Q1013=
201006080915 METAR LIRA 080915Z 15005KT 080V190 CAVOK 26/16 Q1013=
201006080845 METAR LIRA 080845Z 24004KT 150V300 CAVOK 25/15 Q1013=
201006080815 METAR LIRA 080815Z 19004KT 150V260 CAVOK 24/15 Q1013=
201006080745 METAR LIRA 080745Z 20003KT CAVOK 23/16 Q1013=
201006080715 METAR LIRA 080715Z 17003KT CAVOK 22/16 Q1013=
201006080645 METAR LIRA 080645Z 24003KT CAVOK 21/16 Q1013=
201006080615 METAR LIRA 080615Z 24002KT CAVOK 20/15 Q1013=
201006080545 METAR LIRA 080545Z 25001KT CAVOK 19/15 Q1013=
201006080515 METAR LIRA 080515Z 30001KT CAVOK 18/13 Q1012=
201006080445 METAR LIRA 080445Z 14002KT CAVOK 17/13 Q1012=
201006080415 METAR LIRA 080415Z 12002KT CAVOK 16/13 Q1012=
201006080345 METAR LIRA 080345Z 09002KT 9999 FEW070 15/12 Q1012=
201006080315 METAR LIRA 080315Z 10004KT 9999 FEW070 15/12 Q1012=
201006080245 METAR LIRA 080245Z 11002KT CAVOK 16/12 Q1012=
201006080215 METAR LIRA 080215Z 11001KT CAVOK 16/12 Q1012=
201006080145 METAR LIRA 080145Z 10001KT 9999 FEW020 16/12 Q1012=
201006080115 METAR LIRA 080115Z 12003KT 9999 FEW020 16/12 Q1013=
201006080045 METAR LIRA 080045Z 16002KT 9999 FEW020 16/13 Q1013=
201006080015 METAR LIRA 080015Z 09002KT 9999 FEW020 16/13 Q1013=
201006072350 METAR LIRA 080045Z 16002KT 9999 FEW020 16/13 Q1013=
201006072345 METAR LIRA 072345Z 11002KT 9999 FEW020 17/13 Q1013=
201006072315 METAR LIRA 072315Z 31001KT 9999 FEW020 18/14 Q1013=
201006072245 METAR LIRA 072245Z 14001KT 9999 FEW070 18/14 Q1013=
201006072215 METAR LIRA 072215Z 14002KT 9999 FEW070 19/16 Q1013=
201006072145 METAR LIRA 072145Z 18004KT 9999 FEW070 20/17 Q1013=
201006072115 METAR LIRA 072115Z 16003KT 9999 FEW080 20/18 Q1013=
201006072045 METAR LIRA 072045Z 16004KT 9999 FEW080 20/18 Q1013=
201006072015 METAR LIRA 072015Z 18004KT 9999 FEW018 SCT070 19/18 Q1013=
201006071945 METAR LIRA 071945Z 19004KT 9999 FEW070 19/18 Q1013=
201006071915 METAR LIRA 071915Z 22004KT 9999 FEW080 20/18 Q1013=
201006071845 METAR LIRA 071845Z 22004KT 9999 FEW018 SCT070 20/18 Q1013=
201006071815 METAR LIRA 071815Z 22006KT 190V260 9999 FEW017 22/18 Q1013=
201006071745 METAR LIRA 071745Z 17006KT 150V220 9999 FEW015 FEW018TCU
                        23/18 Q1013=
201006071715 METAR LIRA 071715Z 20006KT 140V230 9999 FEW015 FEW020TCU
                        SCT200 24/18 Q1013=
201006071645 METAR LIRA 071645Z 21007KT 140V250 9999 FEW015 FEW020TCU
                        SCT200 24/17 Q1013=
201006071615 METAR LIRA 071615Z 19008KT 150V250 9999 FEW015 FEW020TCU
                        SCT200 24/17 Q1013=
201006071545 METAR LIRA 071545Z 19007KT 150V260 9999 FEW015 FEW017TCU
                        23/14 Q1013=
201006071515 METAR LIRA 071515Z 20007KT 150V260 9999 FEW015 FEW017TCU
                        24/13 Q1013=
201006071445 METAR LIRA 071445Z 20007KT 150V270 9999 FEW015 FEW017TCU
                        25/14 Q1013=
201006071415 METAR LIRA 071415Z 22012KT 160V270 9999 FEW015 FEW017TCU
                        25/13 Q1013=
201006071345 METAR LIRA 071345Z 21010KT 180V270 9999 FEW015 FEW017TCU
                        26/12 Q1013=
201006071315 METAR LIRA 071315Z 24010KT 160V260 9999 FEW015 FEW017TCU
                        27/13 Q1013=
201006071245 METAR LIRA 071245Z 23009KT 200V330 9999 FEW015 27/12 Q1013=
201006071215 METAR LIRA 071215Z 23007KT 120V280 9999 FEW015 27/11 Q1013=
201006071145 METAR LIRA 071145Z 24007KT 150V300 9999 FEW015 27/11 Q1014=
201006071115 METAR LIRA 071115Z 18005KT 130V250 9999 FEW015 27/11 Q1014=
201006071045 METAR LIRA 071045Z 18007KT 120V300 9999 FEW015 26/11 Q1014=
201006071015 METAR LIRA 071015Z 22008KT 150V310 9999 FEW015 26/13 Q1014=
201006070945 METAR LIRA 070945Z 22006KT 160V280 9999 FEW015 26/13 Q1014=
201006070915 METAR LIRA 070915Z 24004KT 120V290 9999 FEW015 25/14 Q1014=
201006070845 METAR LIRA 070845Z 19004KT 9999 FEW080 25/14 Q1015=
201006070815 METAR LIRA 070815Z 17005KT 230V140 9999 FEW080 24/14 Q1015=
201006070745 METAR LIRA 070745Z 23003KT 9999 FEW080 23/16 Q1015=
201006070715 METAR LIRA 070715Z 22002KT 9999 FEW080 22/17 Q1015=
201006070645 METAR LIRA 070645Z 23003KT 9999 FEW008 21/18 Q1015=
201006070615 METAR LIRA 070615Z 36001KT 9999 FEW008 21/16 Q1014=
201006070545 METAR LIRA 070545Z 02001KT 9999 FEW080 20/15 Q1014=
201006070515 METAR LIRA 070515Z 01001KT CAVOK 18/14 Q1014=
201006070445 METAR LIRA 070445Z 07003KT CAVOK 18/14 Q1014=
201006070415 METAR LIRA 070415Z 14002KT CAVOK 17/16 Q1014=
201006070345 METAR LIRA 070345Z 14004KT 9999 7000N SKC 17/15 Q1014=
201006070315 METAR LIRA 070315Z 15004KT CAVOK 17/16 Q1014=
201006070245 METAR LIRA 070245Z 15003KT 9000 FEW010 17/17 Q1014=
201006070215 METAR LIRA 070215Z 18004KT 9999 SCT010 18/16 Q1015=
201006070145 METAR LIRA 070145Z 15005KT CAVOK 18/16 Q1015=
201006070115 METAR LIRA 070115Z 16003KT CAVOK 19/17 Q1015=
201006070045 METAR LIRA 070045Z 13005KT CAVOK 18/17 Q1015=
201006070015 METAR LIRA 070015Z 14005KT CAVOK 19/17 Q1015=
201006062350 METAR LIRA 070045Z 13005KT CAVOK 18/17 Q1015=
201006062345 METAR LIRA 062345Z 16004KT CAVOK 19/17 Q1015=
201006062315 METAR LIRA 062315Z 15005KT CAVOK 19/17 Q1016=
201006062245 METAR LIRA 062245Z 18006KT CAVOK 20/18 Q1015=
201006062215 METAR LIRA 062215Z 18005KT CAVOK 20/17 Q1016=
201006062145 METAR LIRA 062145Z 18006KT CAVOK 20/16 Q1016=
201006062115 METAR LIRA 062115Z 18004KT CAVOK 21/16 Q1016=
201006062045 METAR LIRA 062045Z 18005KT CAVOK 21/16 Q1016=
201006062015 METAR LIRA 062015Z 17005KT CAVOK 21/17 Q1015=
201006061945 METAR LIRA 061945Z 19004KT CAVOK 21/15 Q1015=
201006061915 METAR LIRA 061915Z 18004KT 9999 FEW020 23/14 Q1015=
201006061845 METAR LIRA 061845Z 20003KT 9999 FEW080 23/14 Q1015=
201006061815 METAR LIRA 061815Z 23004KT 150V240 9999 FEW020 SCT080 24/13
                        Q1015=
201006061745 METAR LIRA 061745Z 23006KT 180V290 9999 FEW020 25/12 Q1015=
201006061715 METAR LIRA 061715Z 23007KT 200V300 9999 FEW020TCU 25/10 Q1015=
201006061645 METAR LIRA 061645Z 24007KT 190V330 9999 FEW020TCU 26/11 Q1015=
201006061615 METAR LIRA 061615Z 23006KT 180V310 9999 FEW020TCU 27/17 Q1015=
201006061545 METAR LIRA 061545Z 23006KT 160V280 9999 FEW020 27/19 Q1016=
201006061515 METAR LIRA 061515Z 21007KT 140V260 9999 FEW020 26/19 Q1016=
201006061445 METAR LIRA 061445Z 23009KT 190V290 9999 FEW020 26/19 Q1016=
201006061415 METAR LIRA 061415Z 21008KT 150V300 9999 FEW020 27/19 Q1016=
201006061345 METAR LIRA 061345Z 23008KT 170V280 9999 FEW020 27/19 Q1016=
201006061315 METAR LIRA 061315Z 22007KT 170V280 9999 FEW020 27/19 Q1016=
201006061245 METAR LIRA 061245Z 21008KT 140V280 9999 FEW020 27/20 Q1016=
201006061215 METAR LIRA 061215Z 21008KT 150V270 9999 SCT020 27/20 Q1016=
201006061145 METAR LIRA 061145Z 23007KT 160V330 9999 SCT020 27/20 Q1016=
201006061115 METAR LIRA 061115Z 24007KT 190V300 9999 FEW020 27/20 Q1017=
201006061045 METAR LIRA 061045Z 21005KT 150V270 9999 FEW020 27/17 Q1017=
201006061015 METAR LIRA 061015Z 22004KT 180V250 9999 FEW020 27/15 Q1017=
201006060945 METAR LIRA 060945Z 25002KT 9999 FEW020 26/16 Q1017=
201006060915 METAR LIRA 060915Z 28003KT 9999 FEW020 25/17 Q1017=
201006060845 METAR LIRA 060845Z 27003KT 9999 FEW020 24/16 Q1017=
201006060815 METAR LIRA 060815Z 34002KT CAVOK 24/17 Q1017=
201006060745 METAR LIRA 060745Z 33001KT CAVOK 23/17 Q1017=
201006060715 METAR LIRA 060715Z 06003KT CAVOK 22/16 Q1017=
201006060645 METAR LIRA 060645Z 01004KT 320V030 CAVOK 21/16 Q1017=
201006060615 METAR LIRA 060615Z 36002KT CAVOK 19/16 Q1017=
201006060545 METAR LIRA 060545Z 02002KT CAVOK 19/16 Q1017=
201006060515 METAR LIRA 060515Z 02002KT CAVOK 18/15 Q1017=
201006060445 METAR LIRA 060445Z 04002KT CAVOK 17/15 Q1017=
201006060415 METAR LIRA 060415Z 07002KT 9999 FEW060 16/14 Q1017=
201006060345 METAR LIRA 060345Z 08003KT 9999 FEW070 16/14 Q1017=
201006060315 METAR LIRA 060315Z 10001KT 9999 FEW070 16/14 Q1017=
201006060245 METAR LIRA 060245Z 14001KT 9999 FEW070 16/14 Q1017=
201006060215 METAR LIRA 060215Z 15002KT CAVOK 16/14 Q1017=
201006060145 METAR LIRA 060145Z 13002KT CAVOK 16/14 Q1017=
201006060115 METAR LIRA 060115Z 13003KT CAVOK 17/15 Q1017=
201006060045 METAR LIRA 060045Z 14003KT CAVOK 17/14 Q1018=
201006060015 METAR LIRA 060015Z 09001KT CAVOK 18/15 Q1018=
201006052350 METAR LIRA 060045Z 14003KT CAVOK 17/14 Q1018=
201006052345 METAR LIRA 052345Z 13003KT CAVOK 17/15 Q1018=
201006052315 METAR LIRA 052315Z 16002KT CAVOK 17/15 Q1018=
201006052245 METAR LIRA 052245Z 00000KT CAVOK 18/15 Q1018=
201006052215 METAR LIRA 052215Z 22003KT CAVOK 19/15 Q1018=
201006052145 METAR LIRA 052145Z 22002KT CAVOK 19/15 Q1018=
201006052115 METAR LIRA 052115Z 17003KT CAVOK 19/15 Q1018=
201006052045 METAR LIRA 052045Z 15004KT CAVOK 19/15 Q1018=
201006052015 METAR LIRA 052015Z 17004KT CAVOK 20/14 Q1018=
201006051945 METAR LIRA 051945Z 17005KT CAVOK 21/12 Q1018=
201006051915 METAR LIRA 051915Z 18004KT CAVOK 21/14 Q1017=
201006051845 METAR LIRA 051845Z 18005KT 9999 FEW030 22/15 Q1017=
201006051815 METAR LIRA 051815Z 19005KT 160V220 9999 FEW025 23/15 Q1017=
201006051745 METAR LIRA 051745Z 20004KT 150V230 9999 FEW020 23/15 Q1017=
201006051715 METAR LIRA 051715Z 20005KT 150V260 9999 FEW020 24/15 Q1017=
201006051645 METAR LIRA 051645Z 22007KT 180V270 9999 FEW020 24/15 Q1017=
201006051615 METAR LIRA 051615Z 22007KT 160V250 9999 FEW020 24/15 Q1017=
201006051545 METAR LIRA 051545Z 22007KT 150V260 9999 FEW020 25/15 Q1018=
201006051515 METAR LIRA 051515Z 22007KT 130V260 9999 FEW020 25/15 Q1018=
201006051445 METAR LIRA 051445Z 22007KT 160V290 9999 FEW020 25/16 Q1018=
201006051415 METAR LIRA 051415Z 22006KT 150V270 9999 FEW020 25/16 Q1018=
201006051345 METAR LIRA 051345Z 23007KT 160V310 9999 SCT020 25/16 Q1018=
201006051315 METAR LIRA 051315Z 24008KT 190V280 9999 SCT020 25/16 Q1018=
201006051245 METAR LIRA 051245Z 23008KT 180V300 9999 SCT020 25/17 Q1018=
201006051215 METAR LIRA 051215Z 23007KT 150V290 9999 SCT020 26/17 Q1018=
201006051145 METAR LIRA 051145Z 33005KT 210V060 9999 FEW020 26/13 Q1018=
201006051115 METAR LIRA 051115Z 25004KT 9999 FEW020 25/12 Q1018=
201006051045 METAR LIRA 051045Z 28004KT 240V340 9999 FEW020 25/13 Q1018=
201006051015 METAR LIRA 051015Z 26004KT 9999 FEW020 25/14 Q1018=
201006050945 METAR LIRA 050945Z 34002KT 9999 FEW020 24/14 Q1018=
201006050915 METAR LIRA 050915Z 18002KT 9999 FEW020 23/14 Q1018=
201006050845 METAR LIRA 050845Z 02004KT 9999 FEW020 23/13 Q1018=
201006050815 METAR LIRA 050815Z 30004KT 9999 FEW080 22/14 Q1018=
201006050745 METAR LIRA 050745Z 08002KT 9999 FEW080 21/14 Q1018=
201006050715 METAR LIRA 050715Z 03004KT 9999 FEW080 21/15 Q1018=
201006050645 METAR LIRA 050645Z 04005KT 340V080 9999 FEW080 20/14 Q1018=
201006050615 METAR LIRA 050615Z 03004KT 9999 FEW080 19/14 Q1018=
201006050545 METAR LIRA 050545Z 02004KT 9999 FEW080 17/15 Q1018=
201006050515 METAR LIRA 050515Z 01003KT 9999 FEW080 16/14 Q1018=
201006050445 METAR LIRA 050445Z 03002KT 9999 FEW080 15/14 Q1017=
201006050415 METAR LIRA 050415Z 07003KT 9999 FEW080 14/13 Q1017=
201006050345 METAR LIRA 050345Z 01002KT CAVOK 15/14 Q1017=
201006050315 METAR LIRA 050315Z 09001KT CAVOK 15/14 Q1017=
201006050245 METAR LIRA 050245Z 33004KT CAVOK 15/14 Q1017=
201006050215 METAR LIRA 050215Z 00000KT CAVOK 15/14 Q1017=
201006050145 METAR LIRA 050145Z 02003KT CAVOK 15/14 Q1017=
201006050115 METAR LIRA 050115Z 05001KT CAVOK 16/14 Q1017=
201006050045 METAR LIRA 050045Z 06002KT CAVOK 16/14 Q1017=
201006050015 METAR LIRA 050015Z 05002KT CAVOK 16/14 Q1017=
201006042350 METAR LIRA 050045Z 06002KT CAVOK 16/14 Q1017=
201006042345 METAR LIRA 042345Z 05004KT CAVOK 16/15 Q1017=
201006042315 METAR LIRA 042315Z 09003KT CAVOK 17/15 Q1017=
201006042245 METAR LIRA 042245Z 21004KT CAVOK 17/15 Q1017=
201006042215 METAR LIRA 042215Z 16003KT CAVOK 17/15 Q1017=
201006042145 METAR LIRA 042145Z 15005KT CAVOK 18/16 Q1017=
201006042115 METAR LIRA 042115Z 16005KT 9999 FEW060 18/16 Q1017=
201006042045 METAR LIRA 042045Z 16007KT 9999 FEW030 19/16 Q1016=
201006042015 METAR LIRA 042015Z 16006KT 9999 FEW030 19/16 Q1016=
201006041945 METAR LIRA 041945Z 17007KT 9999 FEW030 SCT060 19/16 Q1016=
201006041915 METAR LIRA 041915Z 20007KT 160V230 9999 SCT030 19/16 Q1016=
201006041845 METAR LIRA 041845Z 18006KT 140V200 9999 FEW018 SCT030 20/15
                        Q1015=
201006041815 METAR LIRA 041815Z 18006KT 150V220 9999 FEW018 SCT030 21/15
                        Q1015=
201006041745 METAR LIRA 041745Z 20005KT 150V260 9999 FEW018 SCT030 21/14
                        Q1015=
201006041715 METAR LIRA 041715Z 24007KT 190V310 9999 FEW018 SCT070 21/14
                        Q1015=
201006041645 METAR LIRA 041645Z 24009KT 200V310 9999 FEW020 SCT080 22/15
                        Q1015=
201006041615 METAR LIRA 041615Z 27010KT 230V330 9999 FEW020 23/13 Q1015=
201006041545 METAR LIRA 041545Z 23008KT 160V280 9999 FEW018 23/13 Q1015=
201006041515 METAR LIRA 041515Z 21007KT 150V260 9999 FEW018 23/13 Q1015=
201006041445 METAR LIRA 041445Z 23009KT 190V280 9999 FEW018 23/13 Q1015=
201006041415 METAR LIRA 041415Z 23008KT 180V270 9999 FEW018 23/14 Q1015=
201006041345 METAR LIRA 041345Z 21008KT 160V260 9999 FEW018 SCT030 22/13
                        Q1015=
201006041315 METAR LIRA 041315Z 23007KT 190V300 9999 FEW018 SCT030 23/14
                        Q1014=
201006041245 METAR LIRA 041245Z 23007KT 150V260 9999 SCT018 SCT030 23/13
                        Q1014=
201006041215 METAR LIRA 041215Z 23007KT 180V260 9999 SCT018 SCT030 21/13
                        Q1014=
201006041145 METAR LIRA 041145Z 22005KT 180V260 9999 SCT018 SCT030 22/11
                        Q1014=
201006041115 METAR LIRA 041115Z 02003KT 320V060 9999 SCT018 22/11 Q1014=
201006041045 METAR LIRA 041045Z 33003KT 9999 SCT018 22/11 Q1014=
201006041015 METAR LIRA 041015Z 30006KT 240V350 9999 FEW018 21/12 Q1013=
201006040945 METAR LIRA 040945Z 19002KT 9999 FEW018 21/13 Q1013=
201006040915 METAR LIRA 040915Z 13002KT 9999 FEW018 20/12 Q1013=
201006040845 METAR LIRA 040845Z 01006KT 330V060 9999 FEW018 20/13 Q1013=
201006040815 METAR LIRA 040815Z 01004KT 9999 FEW020 19/13 Q1013=
201006040745 METAR LIRA 040745Z 03006KT 330V090 9999 FEW020 18/13 Q1012=
201006040715 METAR LIRA 040715Z 02006KT 320V070 9999 FEW020 17/14 Q1012=
201006040645 METAR LIRA 040645Z 36007KT 300V060 9999 FEW020 16/13 Q1012=
201006040615 METAR LIRA 040615Z 35005KT 290V040 9999 FEW060 15/14 Q1012=
201006040545 METAR LIRA 040545Z 36005KT 280V040 9999 FEW060 15/14 Q1011=
201006040515 METAR LIRA 040515Z 02005KT 320V060 9999 FEW070 14/13 Q1011=
201006040445 METAR LIRA 040445Z 02005KT 320V060 9999 FEW007 14/13 Q1011=
201006040415 METAR LIRA 040415Z 02005KT 320V070 9999 FEW007 13/12 Q1011=
201006040345 METAR LIRA 040345Z 01004KT 350V060 8000 FEW008 14/13 Q1011=
201006040315 METAR LIRA 040315Z 36004KT 9999 FEW030 14/13 Q1011=
201006040245 METAR LIRA 040245Z 36004KT 9999 FEW030 14/13 Q1011=
201006040215 METAR LIRA 040215Z 02004KT 9999 FEW030 SCT070 14/13 Q1011=
201006040145 METAR LIRA 040145Z 01004KT 9999 FEW030 SCT070 14/13 Q1011=
201006040115 METAR LIRA 040115Z 36004KT 9999 FEW030 SCT070 15/14 Q1011=
201006040045 METAR LIRA 040045Z 35005KT 9999 FEW030 SCT070 15/14 Q1011=
201006040015 METAR LIRA 040015Z 06004KT 9999 FEW030 SCT070 15/14 Q1011=
201006032350 METAR LIRA 040045Z 35005KT 9999 FEW030 SCT070 15/14 Q1011=
201006032345 METAR LIRA 032345Z 04004KT 9999 FEW015 BKN027 15/14 Q1011=
201006032315 METAR LIRA 032315Z 01002KT 9999 FEW015 BKN027 15/14 Q1011=
201006032245 METAR LIRA 032245Z 05004KT 9999 FEW015 BKN027 15/14 Q1011=
201006032215 METAR LIRA 032215Z 03003KT 9999 FEW015 BKN027 15/14 Q1011=
201006032145 METAR LIRA 032145Z 01002KT 9999 FEW015 BKN027 15/15 Q1011=
201006032115 METAR LIRA 032115Z 05002KT 9999 FEW015 BKN027 16/15 Q1011=
201006032045 METAR LIRA 032045Z 35002KT 9999 FEW015 BKN027 16/15 Q1011=
201006032015 METAR LIRA 032015Z 33004KT 9999 FEW015 SCT025 BKN070 16/15
                        Q1010=
201006031945 METAR LIRA 031945Z 07004KT 050V130 9999 FEW015 BKN070 16/15
                        Q1010=
201006031915 METAR LIRA 031915Z 04004KT 9999 FEW015 SCT025 BKN070 16/15
                        Q1010=
201006031845 METAR LIRA 031845Z 01004KT 9999 FEW015 SCT025 BKN070 16/15
                        Q1010=
201006031815 METAR LIRA 031815Z 04004KT 9999 SCT015 FEW017CB BKN025 16/15
                        Q1010=
201006031745 METAR LIRA 031745Z 08006KT 040V120 9999 FEW015 FEW017CB SCT025
                        16/15 Q1010 RETS=
201006031715 METAR LIRA 031715Z 01005KT 310V070 9999 SCT015 FEW017CB SCT025
                        16/15 Q1010 RETS=
201006031645 METAR LIRA 031645Z 34013KT 300V360 3000 -TSRA SCT008 SCT012CB
                        BKN023 16/15 Q1010=
201006031615 METAR LIRA 031615Z 01005KT 330V060 7000 -TSRA SCT015 SCT017CB
                        21/13 Q1009=
201006031545 METAR LIRA 031545Z 33005KT 9999 FEW017CB FEW018TCU SCT070
                        21/14 Q1009=
201006031515 METAR LIRA 031515Z 28003KT 9999 FEW017CB SCT070 21/12 Q1009=
201006031445 METAR LIRA 031445Z 18001KT 9999 FEW017CB SCT070 21/12 Q1009=
201006031415 METAR LIRA 031415Z 03002KT 9999 FEW017TCU 20/12 Q1010=
201006031345 METAR LIRA 031345Z 01005KT 300V070 9999 -RA FEW017TCU 19/13
                        Q1009=
201006031315 METAR LIRA 031315Z 33006KT 230V360 9999 -RA FEW017TCU 21/15
                        Q1009=
201006031245 METAR LIRA 031245Z 31004KT 9999 FEW017TCU 22/11 Q1009=
201006031215 METAR LIRA 031215Z 31005KT 270V360 9999 FEW018 SCT040 21/11
                        Q1009=
201006031145 METAR LIRA 031145Z 33004KT 300V010 9999 FEW018 SCT040 21/12
                        Q1009=
201006031115 METAR LIRA 031115Z 33005KT 290V360 9999 FEW018 SCT040 BKN070
                        21/12 Q1009=
201006031045 METAR LIRA 031045Z 36003KT 9999 FEW018 SCT040 BKN070 21/10
                        Q1008=
201006031015 METAR LIRA 031015Z 03004KT 330V040 9999 FEW018 SCT070 21/11
                        Q1008=
201006030945 METAR LIRA 030945Z 04004KT 330V070 9999 FEW040 BKN070 21/12
                        Q1008=
201006030915 METAR LIRA 030915Z 34005KT 290V040 9999 FEW040 SCT060 20/12
                        Q1008=
201006030845 METAR LIRA 030845Z 04005KT 350V070 9999 FEW040 SCT080 19/12
                        Q1008=
201006030815 METAR LIRA 030815Z 04006KT 330V080 9999 FEW040 SCT060 18/12
                        Q1008=
201006030745 METAR LIRA 030745Z 02005KT 350V050 9999 FEW040 SCT060 17/11
                        Q1008=
201006030715 METAR LIRA 030715Z 03004KT 9999 SCT060 17/12 Q1008=
201006030645 METAR LIRA 030645Z 01004KT 9999 SCT060 SCT080 16/12 Q1008=
201006030615 METAR LIRA 030615Z 03005KT 9999 SCT080 15/11 Q1008=
201006030545 METAR LIRA 030545Z 01005KT 340V050 9999 FEW080 14/11 Q1008=
201006030515 METAR LIRA 030515Z 04004KT 360V070 9999 FEW080 13/12 Q1007=
201006030445 METAR LIRA 030445Z 02004KT 360V080 CAVOK 13/12 Q1007=
201006030415 METAR LIRA 030415Z 36001KT CAVOK 11/11 Q1006=
201006030345 METAR LIRA 030345Z 35001KT 9999 SCT070 11/10 Q1006=
201006030315 METAR LIRA 030315Z 35002KT 9999 SCT070 12/11 Q1006=
201006030245 METAR LIRA 030245Z 35003KT 9999 SCT070 12/11 Q1006=
201006030215 METAR LIRA 030215Z 02002KT CAVOK 12/11 Q1006=
201006030145 METAR LIRA 030145Z 05002KT CAVOK 12/11 Q1006=
201006030115 METAR LIRA 030115Z 04005KT CAVOK 12/11 Q1006=
201006030045 METAR LIRA 030045Z 02003KT CAVOK 13/12 Q1006=
201006030015 METAR LIRA 030015Z 03002KT CAVOK 13/12 Q1006=
201006022350 METAR LIRA 030045Z 02003KT CAVOK 13/12 Q1006=
201006022345 METAR LIRA 022345Z 04003KT CAVOK 14/13 Q1006=
201006022315 METAR LIRA 022315Z 04004KT CAVOK 14/13 Q1006=
201006022245 METAR LIRA 022245Z 05005KT CAVOK 14/13 Q1006=
201006022215 METAR LIRA 022215Z 03004KT CAVOK 15/13 Q1006=
201006022145 METAR LIRA 022145Z 03005KT CAVOK 15/13 Q1006=
201006022115 METAR LIRA 022115Z 02004KT CAVOK 15/13 Q1006=
201006022045 METAR LIRA 022045Z 01005KT 9999 FEW070 15/13 Q1006=
201006022015 METAR LIRA 022015Z 01004KT 9999 FEW020 SCT070 15/13 Q1006=
201006021945 METAR LIRA 021945Z 05005KT 9999 FEW020 SCT070 15/13 Q1005=
201006021915 METAR LIRA 021915Z 03006KT 9999 FEW020 SCT070 16/14 Q1005=
201006021845 METAR LIRA 021845Z 33006KT 9999 FEW017 FEW020CB 16/14 Q1005=
201006021815 METAR LIRA 021815Z 36006KT 310V040 9999 FEW017 FEW020CB 17/15
                        Q1005=
201006021745 METAR LIRA 021745Z 03006KT 310V090 9999 FEW017 FEW020CB 17/14
                        Q1005=
201006021715 METAR LIRA 021715Z 03006KT 9999 SCT017 FEW020CB 17/15 Q1005=
201006021645 METAR LIRA 021645Z 03008KT 310V080 9999 SCT017 FEW020CB SCT025
                        17/13 Q1005=
201006021615 METAR LIRA 021615Z 02008KT 330V090 9999 SCT017 FEW020CB SCT025
                        18/13 Q1005=
201006021545 METAR LIRA 021545Z 01006KT 320V080 9999 SCT017 FEW018CB SCT025
                        18/14 Q1004=
201006021515 METAR LIRA 021515Z 36009KT 290V060 9999 SCT017 FEW018CB SCT025
                        20/15 Q1004=
201006021445 METAR LIRA 021445Z 23007KT 200V300 9999 FEW018 FEW020CB SCT025
                        22/15 Q1004=
201006021415 METAR LIRA 021415Z 23008KT 170V270 9999 FEW018 FEW020CB BKN025
                        21/15 Q1004=
201006021345 METAR LIRA 021345Z 20010KT 130V250 9999 SCT018 FEW020TCU
                        FEW022CB 21/16 Q1004=
201006021315 METAR LIRA 021315Z 19008KT 150V240 9999 -RA SCT018 FEW020TCU
                        FEW022CB 20/17 Q1004=
201006021245 METAR LIRA 021245Z 22012KT 160V260 9999 SCT018 FEW020TCU
                        FEW022CB 21/15 Q1003=
201006021215 METAR LIRA 021215Z 19011KT 130V240 9999 SCT018 FEW020TCU
                        FEW022CB 22/14 Q1003=
201006021145 METAR LIRA 021145Z 20015KT 150V240 9999 SCT018 FEW020TCU
                        22/14 Q1003=
201006021115 METAR LIRA 021115Z 21010KT 150V250 9999 SCT018 FEW020TCU
                        22/16 Q1004=
201006021045 METAR LIRA 021045Z 18010KT 130V220 9999 SCT018 FEW020TCU
                        23/13 Q1004=
201006021015 METAR LIRA 021015Z 16011KT 100V220 9999 SCT018 FEW020TCU
                        22/13 Q1004=
201006020945 METAR LIRA 020945Z 16012KT 120V210 9999 SCT018 FEW020TCU
                        23/14 Q1004=
201006020915 METAR LIRA 020915Z 18012KT 130V220 9999 SCT018 FEW020TCU
                        23/15 Q1005=
201006020845 METAR LIRA 020845Z 16010KT 120V210 9999 SCT018 22/14 Q1005=
201006020815 METAR LIRA 020815Z 19012KT 120V220 9999 SCT020 21/13 Q1005=
201006020745 METAR LIRA 020745Z 19007KT 140V240 9999 FEW020 SCT070 21/13
                        Q1005=
201006020715 METAR LIRA 020715Z 20002KT 9999 FEW020 SCT070 20/15 Q1005=
201006020645 METAR LIRA 020645Z 33003KT 9999 FEW023 SCT070 19/14 Q1006=
201006020615 METAR LIRA 020615Z 00000KT 9999 FEW025 SCT060 18/13 Q1006=
201006020545 METAR LIRA 020545Z 11002KT 9999 FEW025 SCT060 18/15 Q1006=
201006020515 METAR LIRA 020515Z 10005KT 9999 SCT025 SCT060 17/15 Q1006=
201006020445 METAR LIRA 020445Z 13005KT 9999 SCT025 SCT060 17/15 Q1006=
201006020415 METAR LIRA 020415Z 00000KT 9999 FEW025 BKN060 16/13 Q1006=
201006020345 METAR LIRA 020345Z 00000KT 9999 FEW025 BKN060 16/13 Q1006=
201006020315 METAR LIRA 020315Z 10002KT 9999 FEW025 BKN060 16/12 Q1006=
201006020245 METAR LIRA 020245Z 14003KT 9999 FEW020 BKN060 16/13 Q1006=
201006020215 METAR LIRA 020215Z 15002KT 9999 FEW020 BKN060 16/13 Q1007=
201006020145 METAR LIRA 020145Z 11004KT 9999 BKN060 16/14 Q1007=
201006020115 METAR LIRA 020115Z 11003KT 9999 FEW018 BKN060 16/14 Q1007=
201006020045 METAR LIRA 020045Z 13004KT 9999 FEW018 SCT060 16/15 Q1008=
201006020015 METAR LIRA 020015Z 15003KT 9999 FEW020 SCT060 16/15 Q1008=
201006012350 METAR LIRA 020045Z 13004KT 9999 FEW018 SCT060 16/15 Q1008=
201006012345 METAR LIRA 012345Z 13004KT 9999 FEW020 SCT060 16/15 Q1008=
201006012315 METAR LIRA 012315Z 13003KT 9999 FEW025 SCT060 16/15 Q1009=
201006012245 METAR LIRA 012245Z 18003KT 9999 FEW015 SCT060 16/15 Q1009=
201006012215 METAR LIRA 012215Z 16004KT 9999 FEW015 SCT080 16/15 Q1009=
201006012145 METAR LIRA 012145Z 16003KT 9999 FEW015 SCT080 17/16 Q1009=
201006012115 METAR LIRA 012115Z 18004KT 9999 FEW015 SCT080 17/15 Q1009=
201006012045 METAR LIRA 012045Z 16003KT 9999 FEW015 SCT080 17/15 Q1009=
201006012015 METAR LIRA 012015Z 18005KT 9999 FEW080 17/15 Q1009=
201006011945 METAR LIRA 011945Z 19004KT 9999 FEW080 18/15 Q1009=
201006011915 METAR LIRA 011915Z 19004KT 9999 FEW080 18/15 Q1009=
201006011845 METAR LIRA 011845Z 21003KT 9999 FEW080 19/16 Q1009=
201006011815 METAR LIRA 011815Z 22004KT 9999 FEW080 20/16 Q1009=
201006011745 METAR LIRA 011745Z 22004KT 9999 FEW080 20/15 Q1009=
201006011715 METAR LIRA 011715Z 21005KT 170V250 9999 FEW020 20/14 Q1009=
201006011645 METAR LIRA 011645Z 20005KT 160V270 9999 FEW020 20/14 Q1009=
201006011615 METAR LIRA 011615Z 22007KT 150V290 9999 FEW017 22/13 Q1009=
201006011545 METAR LIRA 011545Z 21007KT 160V250 9999 FEW017 21/12 Q1009=
201006011515 METAR LIRA 011515Z 19008KT 160V270 9999 FEW017 SCT200 21/11
                        Q1009=
201006011445 METAR LIRA 011445Z 23009KT 180V270 9999 FEW015 SCT200 22/10
                        Q1009=
201006011415 METAR LIRA 011415Z 22007KT 180V300 9999 FEW017 SCT200 22/11
                        Q1009=
201006011345 METAR LIRA 011345Z 23009KT 120V310 9999 FEW015 23/10 Q1009=
201006011315 METAR LIRA 011315Z 23009KT 170V300 9999 FEW015 22/09 Q1009=
201006011245 METAR LIRA 011245Z 23011KT 160V260 9999 FEW017 SCT200 23/09
                        Q1009=
201006011215 METAR LIRA 011215Z 22011KT 150V270 9999 FEW017 23/08 Q1009=
201006011145 METAR LIRA 011145Z 20009KT 160V270 9999 FEW017 23/07 Q1009=
201006011115 METAR LIRA 011115Z 23008KT 160V310 9999 FEW017 23/08 Q1009=
201006011045 METAR LIRA 011045Z 22007KT 130V290 9999 SCT017 22/07 Q1009=
201006011015 METAR LIRA 011015Z 21008KT 140V290 9999 FEW017 22/10 Q1009=
201006010945 METAR LIRA 010945Z 26007KT 180V310 9999 FEW017 22/10 Q1009=
201006010915 METAR LIRA 010915Z 22007KT 180V270 9999 SCT017 22/10 Q1009=
201006010845 METAR LIRA 010845Z 20006KT 140V230 9999 SCT017 22/12 Q1009=
201006010815 METAR LIRA 010815Z 18005KT 9999 FEW017 20/12 Q1009=
201006010745 METAR LIRA 010745Z 36003KT 9999 FEW017 20/13 Q1009=
201006010715 METAR LIRA 010715Z 35002KT 9999 FEW017 18/13 Q1008=
201006010645 METAR LIRA 010645Z 35002KT 9999 FEW017 17/11 Q1008=
201006010615 METAR LIRA 010615Z 36002KT 9999 FEW017 16/12 Q1008=
201006010545 METAR LIRA 010545Z 04002KT 9999 FEW017 15/13 Q1008=
201006010515 METAR LIRA 010515Z 05003KT 9999 SCT017 14/13 Q1008=
201006010445 METAR LIRA 010445Z 03003KT 9999 FEW017 13/12 Q1007=
201006010415 METAR LIRA 010415Z 36004KT 9999 FEW070 13/12 Q1007=
201006010345 METAR LIRA 010345Z 05003KT 9999 FEW060 13/12 Q1007=
201006010315 METAR LIRA 010315Z 36002KT CAVOK 13/12 Q1007=
201006010245 METAR LIRA 010245Z 03001KT CAVOK 14/13 Q1007=
201006010215 METAR LIRA 010215Z 05001KT CAVOK 14/13 Q1006=
201006010145 METAR LIRA 010145Z 03005KT CAVOK 13/12 Q1006=
201006010115 METAR LIRA 010115Z 03004KT CAVOK 14/13 Q1006=
201006010045 METAR LIRA 010045Z 32002KT CAVOK 14/12 Q1006=
201006010015 METAR LIRA 010015Z 08004KT CAVOK 14/13 Q1006=

</pre>

</body>
</html>
