##########################################################
# Query made at 11/10/2014 16:16:20 UTC
# Time interval: from 06/01/2011 00:00  to 07/01/2011 23:59  UTC
##########################################################

##########################################################
# LIRA, Roma / Ciampino (Italy)
# WMO index: 16239
# Latitude 41-47N. Longitude 012-35E. Altitude 129 m.
##########################################################

###################################
#  METAR/SPECI from LIRA
###################################
201107012350 METAR LIRA 020045Z 18005KT 9999 FEW020 20/18 Q1010=
201107012345 METAR LIRA 012345Z 18004KT 9999 FEW010 20/18 Q1011=
201107012315 METAR LIRA 012315Z 19003KT 9999 FEW010 20/18 Q1011=
201107012245 METAR LIRA 012245Z 19004KT 9999 FEW010 20/18 Q1011=
201107012215 METAR LIRA 012215Z 16004KT 9999 FEW010 20/18 Q1011=
201107012145 METAR LIRA 012145Z 17004KT 9999 FEW010 20/18 Q1011=
201107012115 METAR LIRA 012115Z 18004KT 9999 FEW010 20/18 Q1011=
201107012045 METAR LIRA 012045Z 20005KT 9999 FEW010 20/18 Q1011=
201107012015 METAR LIRA 012015Z 20005KT 9999 FEW010 20/18 Q1011=
201107011945 METAR LIRA 011945Z 22004KT 9999 FEW030 21/18 Q1011=
201107011915 METAR LIRA 011915Z 23003KT 9999 FEW030 21/17 Q1011=
201107011845 METAR LIRA 011845Z 23004KT 9999 FEW030 22/15 Q1011=
201107011815 METAR LIRA 011815Z 22005KT 9999 FEW030 23/15 Q1011=
201107011745 METAR LIRA 011745Z 23006KT 9999 FEW020 24/16 Q1011=
201107011715 METAR LIRA 011715Z 22008KT 180V250 9999 FEW015 25/14 Q1011=
201107011645 METAR LIRA 011645Z 23005KT 190V270 9999 FEW015 SCT025 25/15
                        Q1010=
201107011615 METAR LIRA 011615Z 21007KT 180V250 9999 SCT025 BKN070 24/18
                        Q1011=
201107011545 METAR LIRA 011545Z 23009KT 210V280 9999 SCT015 SCT070 25/18
                        Q1011=
201107011515 METAR LIRA 011515Z 24008KT 190V270 9999 SCT015 SCT070 25/18
                        Q1011=
201107011445 METAR LIRA 011445Z 22009KT 180V250 9999 SCT015 26/19 Q1011=
201107011415 METAR LIRA 011415Z 23010KT 170V280 9999 SCT015 SCT025 26/19
                        Q1011=
201107011345 METAR LIRA 011345Z 22009KT 200V270 9999 SCT015 27/19 Q1011=
201107011315 METAR LIRA 011315Z 23010KT 9999 SCT015 27/19 Q1011=
201107011245 METAR LIRA 011245Z 23010KT 9999 SCT015 27/19 Q1011=
201107011215 METAR LIRA 011215Z 23008KT 100V260 9999 SCT015 27/19 Q1012=
201107011145 METAR LIRA 011145Z 23008KT 190V260 9999 SCT015 26/19 Q1012=
201107011115 METAR LIRA 011115Z 22006KT 180V270 9999 SCT015 SCT025 26/19
                        Q1012=
201107011045 METAR LIRA 011045Z 23007KT 180V290 9999 SCT015 SCT025 25/20
                        Q1012=
201107011015 METAR LIRA 011015Z 26005KT 220V310 9999 SCT015 SCT025 25/20
                        Q1012=
201107010945 METAR LIRA 010945Z 22005KT 180V260 9999 SCT015 BKN025 26/21
                        Q1012=
201107010915 METAR LIRA 010915Z 22005KT 160V250 9999 SCT015 BKN025 26/21
                        Q1012=
201107010845 METAR LIRA 010845Z 19007KT 170V250 9999 SCT015 BKN025 24/20
                        Q1012=
201107010815 METAR LIRA 010815Z 20005KT 130V230 9999 SCT015 BKN025 24/20
                        Q1012=
201107010745 METAR LIRA 010745Z 22006KT 8000 SCT015 BKN025 24/19 Q1011=
201107010715 METAR LIRA 010715Z 20005KT 160V240 8000 FEW010 SCT025 24/20
                        Q1011=
201107010645 METAR LIRA 010645Z 20004KT 8000 FEW010 SCT025 23/19 Q1011=
201107010615 METAR LIRA 010615Z 20003KT 8000 SCT010 SCT025 23/19 Q1011=
201107010545 METAR LIRA 010545Z 22002KT 8000 BKN010 SCT015 22/19 Q1011=
201107010515 METAR LIRA 010515Z 19003KT 8000 BKN010 SCT015 22/19 Q1011=
201107010445 METAR LIRA 010445Z 18002KT 8000 BKN010 SCT015 22/20 Q1011=
201107010415 METAR LIRA 010415Z 23001KT 8000 SCT010 SCT015 22/20 Q1011=
201107010345 METAR LIRA 010345Z 24002KT 7000 FEW010 BKN014 22/20 Q1011=
201107010315 METAR LIRA 010315Z 23004KT 7000 FEW010 SCT015 22/20 Q1011=
201107010245 METAR LIRA 010245Z 20002KT 8000 FEW010 SCT016 22/20 Q1011=
201107010215 METAR LIRA 010215Z 22002KT 8000 FEW010 SCT018 22/20 Q1011=
201107010145 METAR LIRA 010145Z 22002KT 8000 FEW010 SCT018 21/19 Q1011=
201107010115 METAR LIRA 010115Z 19003KT 8000 FEW010 SCT018 22/20 Q1011=
201107010045 METAR LIRA 010045Z 18003KT 9999 FEW010 SCT020 BKN070 22/20
                        Q1012=
201107010015 METAR LIRA 010015Z 19003KT 9999 FEW010 SCT025 BKN070 22/20
                        Q1012=
201106302350 METAR LIRA 010045Z 18003KT 9999 FEW010 SCT020 BKN070 22/20
                        Q1012=
201106302345 METAR LIRA 302345Z 20003KT 9999 FEW010 SCT025 BKN070 22/20
                        Q1012=
201106302315 METAR LIRA 302315Z 20004KT 9999 FEW010 SCT025 BKN070 22/20
                        Q1012=
201106302245 METAR LIRA 302245Z 16004KT 9999 FEW010 SCT025 BKN070 22/20
                        Q1012=
201106302215 METAR LIRA 302215Z 16003KT 9999 FEW010 SCT030 BKN070 22/20
                        Q1011=
201106302145 METAR LIRA 302145Z 19003KT 9999 FEW010 SCT080 22/20 Q1011=
201106302115 METAR LIRA 302115Z 20005KT 9999 FEW010 SCT080 22/20 Q1011=
201106302045 METAR LIRA 302045Z 20004KT 9999 FEW007 22/20 Q1011=
201106302015 METAR LIRA 302015Z 18004KT 9999 FEW007 23/21 Q1011=
201106301945 METAR LIRA 301945Z 20004KT 9999 FEW020 FEW022CB 23/21 Q1011=
201106301915 METAR LIRA 301915Z 25004KT 9999 FEW020 FEW022CB 24/21 Q1011=
201106301845 METAR LIRA 301845Z 23004KT 9999 FEW020 FEW022CB 24/21 Q1011=
201106301745 METAR LIRA 301745Z 23006KT 200V270 9999 FEW020 25/21 Q1010=
201106301715 METAR LIRA 301715Z 21007KT 190V260 9999 FEW020 25/20 Q1010=
201106301645 METAR LIRA 301645Z 21008KT 160V260 9999 FEW020 26/20 Q1010=
201106301615 METAR LIRA 301615Z 20009KT 170V240 9999 FEW020 26/20 Q1010=
201106301545 METAR LIRA 301545Z 20009KT 150V250 9999 FEW016 26/20 Q1010=
201106301515 METAR LIRA 301515Z 20006KT 160V240 9999 FEW016 26/20 Q1011=
201106301445 METAR LIRA 301445Z 19006KT 150V220 9999 FEW012 27/21 Q1011=
201106301415 METAR LIRA 301415Z 19009KT 140V230 9999 FEW012 27/21 Q1011=
201106301345 METAR LIRA 301345Z 21008KT 170V260 9999 FEW012 27/21 Q1011=
201106301315 METAR LIRA 301315Z 21009KT 140V250 9999 FEW012 SCT016 26/20
                        Q1011=
201106301245 METAR LIRA 301245Z 21010KT 180V260 9999 SCT010 SCT016 27/21
                        Q1011=
201106301215 METAR LIRA 301215Z 21010KT 180V250 9999 SCT010 SCT015 26/20
                        Q1011=
201106301145 METAR LIRA 301145Z 16011KT 9999 SCT010 SCT016 27/21 Q1011=
201106301115 METAR LIRA 301115Z 16008KT 130V210 9999 FEW010 SCT020 BKN025
                        27/20 Q1012=
201106301045 METAR LIRA 301045Z 20008KT 160V260 9999 FEW010 SCT020 BKN025
                        26/20 Q1012=
201106301015 METAR LIRA 301015Z 20010KT 160V230 9999 FEW010 SCT020 BKN025
                        26/20 Q1012=
201106300945 METAR LIRA 300945Z 20008KT 160V260 9999 FEW010 SCT020 BKN025
                        26/20 Q1012=
201106300915 METAR LIRA 300915Z 19008KT 140V220 9999 FEW010 SCT020 BKN025
                        25/20 Q1012=
201106300845 METAR LIRA 300845Z 21007KT 9999 FEW010 SCT020 BKN025 25/20
                        Q1012=
201106300815 METAR LIRA 300815Z 21006KT 160V260 9999 FEW010 SCT020 BKN025
                        26/20 Q1012=
201106300745 METAR LIRA 300745Z 20007KT 160V230 9999 FEW010 SCT020 26/20
                        Q1012=
201106300715 METAR LIRA 300715Z 19005KT 160V250 9999 SCT010 25/20 Q1012=
201106300645 METAR LIRA 300645Z 27005KT 240V310 9999 SCT010 25/20 Q1012=
201106300615 METAR LIRA 300615Z 35001KT 9999 SCT010 24/19 Q1011=
201106300545 METAR LIRA 300545Z 09002KT CAVOK 23/19 Q1011=
201106300515 METAR LIRA 300515Z 00000KT CAVOK 22/19 Q1011=
201106300445 METAR LIRA 300445Z 10003KT CAVOK 21/18 Q1011=
201106300415 METAR LIRA 300415Z 14002KT CAVOK 21/19 Q1011=
201106300345 METAR LIRA 300345Z 18001KT CAVOK 21/19 Q1011=
201106300315 METAR LIRA 300315Z 14002KT CAVOK 21/19 Q1012=
201106300245 METAR LIRA 300245Z 24002KT 9999 FEW010 21/19 Q1012=
201106300215 METAR LIRA 300215Z 00000KT CAVOK 21/19 Q1012=
201106300145 METAR LIRA 300145Z 00000KT CAVOK 22/20 Q1012=
201106300115 METAR LIRA 300115Z 00000KT CAVOK 22/20 Q1012=
201106300045 METAR LIRA 300045Z 22001KT CAVOK 22/20 Q1012=
201106300015 METAR LIRA 300015Z 21002KT CAVOK 22/20 Q1012=
201106292350 METAR LIRA 300045Z 22001KT CAVOK 22/20 Q1012=
201106292345 METAR LIRA 292345Z 16001KT CAVOK 23/20 Q1012=
201106292315 METAR LIRA 292315Z 19001KT CAVOK 23/20 Q1012=
201106292245 METAR LIRA 292245Z 24003KT CAVOK 23/19 Q1012=
201106292215 METAR LIRA 292215Z 21003KT CAVOK 23/19 Q1012=
201106292145 METAR LIRA 292145Z 18003KT CAVOK 23/19 Q1012=
201106292115 METAR LIRA 292115Z 20004KT CAVOK 24/18 Q1012=
201106292045 METAR LIRA 292045Z 19004KT CAVOK 25/17 Q1012=
201106292015 METAR LIRA 292015Z 21003KT CAVOK 25/17 Q1012=
201106291945 METAR LIRA 291945Z 16004KT CAVOK 25/17 Q1011=
201106291915 METAR LIRA 291915Z 22004KT CAVOK 26/17 Q1011=
201106291845 METAR LIRA 291845Z 23005KT 9999 FEW035 27/16 Q1011=
201106291815 METAR LIRA 291815Z 23005KT 9999 FEW030 28/15 Q1011=
201106291745 METAR LIRA 291745Z 24004KT 9999 FEW030 29/16 Q1011=
201106291715 METAR LIRA 291715Z 25005KT CAVOK 29/16 Q1011=
201106291645 METAR LIRA 291645Z 24006KT 200V280 9999 FEW080 29/17 Q1010=
201106291615 METAR LIRA 291615Z 24009KT 210V280 9999 FEW080 30/18 Q1011=
201106291545 METAR LIRA 291545Z 24008KT 200V270 9999 FEW025 FEW030TCU
                        30/18 Q1011=
201106291515 METAR LIRA 291515Z 24007KT 200V300 9999 FEW030 31/19 Q1011=
201106291445 METAR LIRA 291445Z 25006KT 210V290 9999 FEW030 31/19 Q1011=
201106291415 METAR LIRA 291415Z 22007KT 150V270 9999 FEW030 31/19 Q1011=
201106291345 METAR LIRA 291345Z 21007KT 150V260 9999 FEW030 32/19 Q1011=
201106291315 METAR LIRA 291315Z 24007KT 200V280 9999 FEW025 31/18 Q1011=
201106291245 METAR LIRA 291245Z 24007KT 180V280 9999 FEW025 32/18 Q1011=
201106291215 METAR LIRA 291215Z 26008KT 220V300 9999 FEW025 31/16 Q1011=
201106291145 METAR LIRA 291145Z 23009KT 180V280 9999 FEW025 32/16 Q1011=
201106291115 METAR LIRA 291115Z 23008KT 150V280 9999 FEW025 32/15 Q1011=
201106291045 METAR LIRA 291045Z 26007KT 210V300 9999 FEW023 32/15 Q1012=
201106291015 METAR LIRA 291015Z 19007G21KT 120V240 9999 FEW023 32/15 Q1012=
201106290945 METAR LIRA 290945Z 18007KT 150V260 9999 FEW023 31/15 Q1012=
201106290915 METAR LIRA 290915Z 21006KT 160V240 9999 FEW023 30/14 Q1012=
201106290845 METAR LIRA 290845Z 20005KT 160V240 CAVOK 30/15 Q1012=
201106290815 METAR LIRA 290815Z 23004KT CAVOK 29/14 Q1012=
201106290745 METAR LIRA 290745Z 32002KT CAVOK 28/18 Q1012=
201106290715 METAR LIRA 290715Z 28003KT CAVOK 27/19 Q1012=
201106290645 METAR LIRA 290645Z 36001KT CAVOK 25/20 Q1012=
201106290615 METAR LIRA 290615Z 00000KT CAVOK 25/20 Q1012=
201106290545 METAR LIRA 290545Z 00000KT CAVOK 23/20 Q1012=
201106290515 METAR LIRA 290515Z 02002KT CAVOK 22/19 Q1012=
201106290445 METAR LIRA 290445Z 36001KT CAVOK 21/19 Q1012=
201106290415 METAR LIRA 290415Z 00000KT CAVOK 20/18 Q1012=
201106290345 METAR LIRA 290345Z 00000KT CAVOK 20/18 Q1011=
201106290315 METAR LIRA 290315Z 00000KT CAVOK 20/18 Q1011=
201106290245 METAR LIRA 290245Z 34002KT CAVOK 21/19 Q1011=
201106290215 METAR LIRA 290215Z 05001KT CAVOK 21/19 Q1011=
201106290145 METAR LIRA 290145Z 05003KT CAVOK 21/18 Q1011=
201106290115 METAR LIRA 290115Z 06002KT CAVOK 21/18 Q1011=
201106290045 METAR LIRA 290045Z 05002KT CAVOK 21/19 Q1011=
201106290015 METAR LIRA 290015Z 05002KT CAVOK 22/19 Q1011=
201106282350 METAR LIRA 290045Z 05002KT CAVOK 21/19 Q1011=
201106282345 METAR LIRA 282345Z 11001KT CAVOK 22/19 Q1011=
201106282315 METAR LIRA 282315Z 15001KT CAVOK 22/20 Q1011=
201106282245 METAR LIRA 282245Z 17003KT CAVOK 22/20 Q1011=
201106282215 METAR LIRA 282215Z 19005KT CAVOK 23/20 Q1011=
201106282145 METAR LIRA 282145Z 17004KT CAVOK 23/20 Q1011=
201106282115 METAR LIRA 282115Z 17006KT 9999 FEW080 23/20 Q1011=
201106282045 METAR LIRA 282045Z 20005KT 170V230 9999 FEW080 23/19 Q1011=
201106282015 METAR LIRA 282015Z 18005KT 9999 FEW080 23/20 Q1011=
201106281945 METAR LIRA 281945Z 20007KT 180V240 9999 FEW080 23/19 Q1011=
201106281915 METAR LIRA 281915Z 19006KT 160V230 9999 FEW018 24/19 Q1011=
201106281845 METAR LIRA 281845Z 21005KT 9999 FEW018 25/18 Q1011=
201106281815 METAR LIRA 281815Z 23007KT 180V260 9999 FEW018 FEW020CB 26/18
                        Q1011=
201106281745 METAR LIRA 281745Z 24007KT 9999 FEW018 FEW020CB 27/17 Q1011=
201106281715 METAR LIRA 281715Z 24006KT 210V300 9999 FEW018 FEW020CB 28/16
                        Q1011=
201106281645 METAR LIRA 281645Z 27009KT 230V320 9999 FEW018 FEW020CB 28/16
                        Q1011=
201106281615 METAR LIRA 281615Z 27011KT 220V300 9999 FEW018 29/16 Q1011=
201106281545 METAR LIRA 281545Z 27010KT 230V320 CAVOK 31/16 Q1011=
201106281515 METAR LIRA 281515Z 27011KT 240V310 CAVOK 31/15 Q1011=
201106281445 METAR LIRA 281445Z 28013KT 240V310 CAVOK 31/15 Q1011=
201106281415 METAR LIRA 281415Z 28012KT CAVOK 31/15 Q1012=
201106281345 METAR LIRA 281345Z 29011KT 250V330 CAVOK 32/15 Q1012=
201106281315 METAR LIRA 281315Z 26011KT 220V300 CAVOK 32/14 Q1012=
201106281245 METAR LIRA 281245Z 29011G21KT 250V310 CAVOK 32/14 Q1012=
201106281215 METAR LIRA 281215Z 26010KT 200V320 CAVOK 32/13 Q1013=
201106281145 METAR LIRA 281145Z 27009KT 230V300 CAVOK 32/12 Q1013=
201106281115 METAR LIRA 281115Z 27007KT 230V310 CAVOK 32/12 Q1013=
201106281045 METAR LIRA 281045Z 32006KT 200V020 CAVOK 32/13 Q1014=
201106281015 METAR LIRA 281015Z 33005KT CAVOK 31/13 Q1014=
201106280945 METAR LIRA 280945Z 02005KT 330V040 CAVOK 30/13 Q1014=
201106280915 METAR LIRA 280915Z 35006KT 320V040 CAVOK 30/13 Q1014=
201106280845 METAR LIRA 280845Z 36004KT 330V030 CAVOK 29/13 Q1014=
201106280815 METAR LIRA 280815Z 33003KT CAVOK 28/14 Q1015=
201106280745 METAR LIRA 280745Z 33004KT CAVOK 27/15 Q1015=
201106280715 METAR LIRA 280715Z 02003KT CAVOK 27/16 Q1015=
201106280645 METAR LIRA 280645Z 36002KT CAVOK 25/18 Q1015=
201106280615 METAR LIRA 280615Z 00000KT CAVOK 23/18 Q1016=
201106280545 METAR LIRA 280545Z 25001KT CAVOK 23/20 Q1016=
201106280515 METAR LIRA 280515Z 22001KT CAVOK 22/19 Q1016=
201106280445 METAR LIRA 280445Z 34001KT CAVOK 20/18 Q1016=
201106280415 METAR LIRA 280415Z 04002KT CAVOK 20/17 Q1016=
201106280345 METAR LIRA 280345Z 02002KT CAVOK 20/17 Q1016=
201106280315 METAR LIRA 280315Z 06002KT CAVOK 20/17 Q1016=
201106280245 METAR LIRA 280245Z 05003KT CAVOK 20/17 Q1016=
201106280215 METAR LIRA 280215Z 04003KT CAVOK 20/17 Q1016=
201106280145 METAR LIRA 280145Z 02001KT CAVOK 21/17 Q1016=
201106280115 METAR LIRA 280115Z 32001KT CAVOK 21/17 Q1016=
201106280045 METAR LIRA 280045Z 08003KT CAVOK 22/17 Q1017=
201106280015 METAR LIRA 280015Z 16002KT CAVOK 22/18 Q1017=
201106272350 METAR LIRA 280045Z 08003KT CAVOK 22/17 Q1017=
201106272345 METAR LIRA 272345Z 16003KT CAVOK 22/18 Q1017=
201106272315 METAR LIRA 272315Z 19003KT CAVOK 22/18 Q1017=
201106272245 METAR LIRA 272245Z 18004KT CAVOK 22/18 Q1017=
201106272215 METAR LIRA 272215Z 17004KT CAVOK 23/18 Q1017=
201106272145 METAR LIRA 272145Z 18005KT CAVOK 23/18 Q1017=
201106272115 METAR LIRA 272115Z 18006KT CAVOK 23/18 Q1017=
201106272045 METAR LIRA 272045Z 18006KT CAVOK 23/18 Q1017=
201106272015 METAR LIRA 272015Z 19006KT CAVOK 24/18 Q1017=
201106271945 METAR LIRA 271945Z 18005KT CAVOK 24/18 Q1017=
201106271915 METAR LIRA 271915Z 20007KT CAVOK 25/17 Q1017=
201106271845 METAR LIRA 271845Z 19006KT CAVOK 26/16 Q1017=
201106271815 METAR LIRA 271815Z 21005KT 170V230 CAVOK 27/16 Q1017=
201106271745 METAR LIRA 271745Z 24007KT CAVOK 28/15 Q1017=
201106271715 METAR LIRA 271715Z 25008KT 220V290 CAVOK 28/14 Q1017=
201106271645 METAR LIRA 271645Z 24007KT 210V280 CAVOK 30/15 Q1017=
201106271615 METAR LIRA 271615Z 26007KT 210V310 9999 FEW020 30/15 Q1018=
201106271545 METAR LIRA 271545Z 24007KT 200V280 9999 FEW020 30/17 Q1018=
201106271515 METAR LIRA 271515Z 25008KT 210V290 9999 FEW020 31/18 Q1018=
201106271445 METAR LIRA 271445Z 24008KT 180V270 9999 FEW020 30/17 Q1017=
201106271415 METAR LIRA 271415Z 25008KT 240V300 9999 FEW020 31/17 Q1018=
201106271345 METAR LIRA 271345Z 23007KT 190V260 9999 FEW020 30/18 Q1018=
201106271315 METAR LIRA 271315Z 25008KT 200V300 9999 FEW020 31/18 Q1019=
201106271245 METAR LIRA 271245Z 23009KT 190V260 9999 FEW020 31/18 Q1019=
201106271215 METAR LIRA 271215Z 23007KT 180V280 9999 FEW020 31/19 Q1019=
201106271145 METAR LIRA 271145Z 23005KT 140V280 9999 FEW020 31/18 Q1019=
201106271115 METAR LIRA 271115Z 24005KT 200V300 9999 FEW018 30/17 Q1019=
201106271045 METAR LIRA 271045Z 26006KT 220V310 9999 FEW020 30/16 Q1019=
201106271015 METAR LIRA 271015Z 21004KT 9999 FEW020 30/14 Q1019=
201106270945 METAR LIRA 270945Z 19005KT CAVOK 30/14 Q1020=
201106270915 METAR LIRA 270915Z 19005KT CAVOK 29/13 Q1020=
201106270845 METAR LIRA 270845Z 22005KT 170V230 CAVOK 29/15 Q1020=
201106270815 METAR LIRA 270815Z 30003KT CAVOK 27/17 Q1020=
201106270745 METAR LIRA 270745Z 03002KT CAVOK 25/16 Q1020=
201106270715 METAR LIRA 270715Z 31001KT CAVOK 25/17 Q1020=
201106270645 METAR LIRA 270645Z 08001KT CAVOK 23/16 Q1020=
201106270615 METAR LIRA 270615Z 34002KT CAVOK 22/18 Q1020=
201106270545 METAR LIRA 270545Z 02002KT CAVOK 21/18 Q1020=
201106270515 METAR LIRA 270515Z 03003KT 9999 FEW080 20/18 Q1020=
201106270445 METAR LIRA 270445Z 04001KT 9999 FEW080 20/18 Q1020=
201106270415 METAR LIRA 270415Z 08002KT 9999 FEW080 19/18 Q1020=
201106270345 METAR LIRA 270345Z 09002KT 9999 FEW070 19/17 Q1020=
201106270315 METAR LIRA 270315Z 05001KT 9999 FEW018 19/18 Q1020=
201106270245 METAR LIRA 270245Z 04001KT 9999 FEW018 19/17 Q1020=
201106270215 METAR LIRA 270215Z 15003KT 9999 SCT010 SCT015 20/19 Q1021=
201106270145 METAR LIRA 270145Z 14002KT 9999 SCT009 SCT015 20/19 Q1021=
201106270115 METAR LIRA 270115Z 16002KT 9999 SCT009 SCT015 20/19 Q1021=
201106270045 METAR LIRA 270045Z 15002KT 9999 SCT007 SCT015 20/20 Q1021=
201106270015 METAR LIRA 270015Z 21002KT 9999 SCT007 SCT015 21/20 Q1021=
201106262350 METAR LIRA 270045Z 15002KT 9999 SCT007 SCT015 20/20 Q1021=
201106262345 METAR LIRA 262345Z 18002KT 9999 SCT007 SCT015 21/19 Q1021=
201106262315 METAR LIRA 262315Z 21002KT 9999 FEW007 SCT015 21/19 Q1021=
201106262245 METAR LIRA 262245Z 19003KT 9999 FEW007 21/19 Q1021=
201106262215 METAR LIRA 262215Z 19002KT 9999 FEW010 21/20 Q1021=
201106262145 METAR LIRA 262145Z 19003KT 9999 FEW070 21/19 Q1021=
201106262115 METAR LIRA 262115Z 20003KT 9999 FEW070 21/20 Q1021=
201106262045 METAR LIRA 262045Z 19004KT 9999 FEW070 21/19 Q1021=
201106262015 METAR LIRA 262015Z 21003KT 9999 FEW070 22/19 Q1020=
201106261945 METAR LIRA 261945Z 20004KT CAVOK 22/20 Q1020=
201106261915 METAR LIRA 261915Z 23004KT CAVOK 22/18 Q1020=
201106261845 METAR LIRA 261845Z 24004KT CAVOK 23/18 Q1020=
201106261815 METAR LIRA 261815Z 24005KT CAVOK 24/18 Q1020=
201106261745 METAR LIRA 261745Z 24007KT 220V330 CAVOK 24/18 Q1020=
201106261715 METAR LIRA 261715Z 25008KT 220V290 9999 FEW020 25/18 Q1020=
201106261645 METAR LIRA 261645Z 27009KT 220V310 CAVOK 26/17 Q1020=
201106261615 METAR LIRA 261615Z 26007KT 210V290 CAVOK 27/18 Q1020=
201106261545 METAR LIRA 261545Z 25008KT 220V290 9999 FEW018 26/17 Q1020=
201106261515 METAR LIRA 261515Z 25009KT 220V300 9999 FEW018 26/16 Q1020=
201106261445 METAR LIRA 261445Z 25009KT 9999 FEW018 27/15 Q1020=
201106261415 METAR LIRA 261415Z 28011KT 230V330 9999 FEW018 27/14 Q1020=
201106261345 METAR LIRA 261345Z 27010KT 220V310 9999 FEW018 27/14 Q1020=
201106261315 METAR LIRA 261315Z 27011KT 220V300 9999 FEW018 27/14 Q1020=
201106261245 METAR LIRA 261245Z 25012KT 220V290 9999 FEW018 27/14 Q1020=
201106261215 METAR LIRA 261215Z 28012KT 230V340 9999 FEW018 28/14 Q1020=
201106261145 METAR LIRA 261145Z 26010KT 220V330 9999 FEW018 28/12 Q1020=
201106261115 METAR LIRA 261115Z 28011KT 240V330 9999 FEW018 28/11 Q1020=
201106261045 METAR LIRA 261045Z 33006G18KT 280V060 9999 FEW018 29/08 Q1020=
201106261015 METAR LIRA 261015Z 33005KT 270V010 CAVOK 28/08 Q1021=
201106260945 METAR LIRA 260945Z 33006KT 280V020 CAVOK 27/09 Q1021=
201106260915 METAR LIRA 260915Z 34005KT CAVOK 26/09 Q1021=
201106260845 METAR LIRA 260845Z 36004KT 320V050 CAVOK 26/10 Q1021=
201106260815 METAR LIRA 260815Z 33005KT 280V360 CAVOK 25/10 Q1021=
201106260745 METAR LIRA 260745Z 33004KT 310V030 CAVOK 24/10 Q1021=
201106260715 METAR LIRA 260715Z 01004KT CAVOK 23/10 Q1020=
201106260645 METAR LIRA 260645Z 36005KT CAVOK 22/10 Q1021=
201106260615 METAR LIRA 260615Z 35004KT CAVOK 22/09 Q1020=
201106260545 METAR LIRA 260545Z 34004KT CAVOK 21/09 Q1020=
201106260515 METAR LIRA 260515Z 35004KT CAVOK 20/09 Q1020=
201106260445 METAR LIRA 260445Z 36002KT CAVOK 19/10 Q1020=
201106260415 METAR LIRA 260415Z 04003KT CAVOK 18/10 Q1020=
201106260345 METAR LIRA 260345Z 36002KT CAVOK 18/10 Q1019=
201106260315 METAR LIRA 260315Z 34002KT CAVOK 19/11 Q1019=
201106260245 METAR LIRA 260245Z 34002KT CAVOK 19/11 Q1019=
201106260215 METAR LIRA 260215Z 02001KT CAVOK 20/11 Q1019=
201106260145 METAR LIRA 260145Z 35003KT CAVOK 21/10 Q1019=
201106260115 METAR LIRA 260115Z 34003KT CAVOK 21/10 Q1019=
201106260045 METAR LIRA 260045Z 01004KT CAVOK 21/10 Q1019=
201106260015 METAR LIRA 260015Z 01003KT CAVOK 22/11 Q1019=
201106252350 METAR LIRA 260045Z 01004KT CAVOK 21/10 Q1019=
201106252345 METAR LIRA 252345Z 36004KT CAVOK 22/11 Q1018=
201106252315 METAR LIRA 252315Z 03004KT 340V050 CAVOK 23/10 Q1018=
201106252245 METAR LIRA 252245Z 36006KT 320V040 CAVOK 23/10 Q1018=
201106252215 METAR LIRA 252215Z 02006KT 340V050 CAVOK 23/12 Q1018=
201106252145 METAR LIRA 252145Z 04006KT 360V070 CAVOK 24/11 Q1018=
201106252115 METAR LIRA 252115Z 01002KT CAVOK 24/09 Q1018=
201106252045 METAR LIRA 252045Z 36006KT CAVOK 25/09 Q1018=
201106252015 METAR LIRA 252015Z 01007KT 330V030 CAVOK 25/09 Q1018=
201106251945 METAR LIRA 251945Z 36007KT 320V050 CAVOK 26/09 Q1017=
201106251915 METAR LIRA 251915Z 34009KT 310V020 CAVOK 27/10 Q1017=
201106251845 METAR LIRA 251845Z 33010KT CAVOK 27/09 Q1017=
201106251815 METAR LIRA 251815Z 34011KT CAVOK 28/10 Q1016=
201106251745 METAR LIRA 251745Z 35010KT 310V020 CAVOK 29/10 Q1016=
201106251715 METAR LIRA 251715Z 34012KT CAVOK 30/10 Q1016=
201106251645 METAR LIRA 251645Z 34011KT 9999 FEW020 31/11 Q1016=
201106251615 METAR LIRA 251615Z 33012G22KT 300V010 9999 FEW018 31/11 Q1016
                        WS RWY 15=
201106251545 METAR LIRA 251545Z 20006KT 150V270 9999 FEW023 31/15 Q1017
                        RMK WS RWY 15=
201106251515 METAR LIRA 251515Z 20010KT 180V250 9999 FEW023 30/15 Q1017=
201106251445 METAR LIRA 251445Z 19012KT 150V220 9999 FEW023 30/16 Q1017=
201106251415 METAR LIRA 251415Z 19013KT 9999 FEW022 30/16 Q1017=
201106251345 METAR LIRA 251345Z 20012KT 140V240 9999 FEW022 29/16 Q1017=
201106251315 METAR LIRA 251315Z 21009KT 140V260 9999 FEW022 30/17 Q1017=
201106251245 METAR LIRA 251245Z 20011KT 160V240 9999 SCT022 29/17 Q1017=
201106251215 METAR LIRA 251215Z 21011G22KT 160V250 9999 SCT022 30/15 Q1017=
201106251145 METAR LIRA 251145Z 16003KT 9999 SCT022 30/15 Q1017=
201106251115 METAR LIRA 251115Z 33006KT 260V020 9999 SCT022 30/15 Q1017=
201106251045 METAR LIRA 251045Z 24003KT 9999 SCT022 30/16 Q1017=
201106251015 METAR LIRA 251015Z 09004KT 9999 FEW022 29/17 Q1017=
201106250945 METAR LIRA 250945Z 35004KT 310V040 9999 FEW022 28/17 Q1017=
201106250915 METAR LIRA 250915Z 35003KT 9999 FEW022 27/17 Q1017=
201106250845 METAR LIRA 250845Z 01002KT 9999 FEW022 26/18 Q1017=
201106250815 METAR LIRA 250815Z 36003KT 9999 FEW022 25/18 Q1017=
201106250745 METAR LIRA 250745Z 35006KT 320V060 9999 FEW022 25/18 Q1017=
201106250715 METAR LIRA 250715Z 34004KT 9000 NSC 24/19 Q1017=
201106250645 METAR LIRA 250645Z 35004KT 8000 NSC 23/19 Q1017=
201106250615 METAR LIRA 250615Z 36004KT 7000 NSC 22/19 Q1016=
201106250545 METAR LIRA 250545Z 35006KT 6000 FEW012 21/19 Q1016=
201106250515 METAR LIRA 250515Z 35003KT 6000 FEW010 20/19 Q1016=
201106250445 METAR LIRA 250445Z 36002KT 6000 SCT010 20/19 Q1016=
201106250415 METAR LIRA 250415Z 03002KT 6000 BKN010 19/18 Q1015=
201106250345 METAR LIRA 250345Z 04002KT 7000 FEW015 19/18 Q1015=
201106250315 METAR LIRA 250315Z 36003KT 8000 FEW015 20/18 Q1015=
201106250245 METAR LIRA 250245Z 36004KT 9999 FEW018 20/18 Q1015=
201106250215 METAR LIRA 250215Z 04002KT 9999 FEW018 20/18 Q1015=
201106250145 METAR LIRA 250145Z 03002KT 9999 FEW018 SCT070 20/18 Q1015=
201106250115 METAR LIRA 250115Z 34001KT 9999 SCT018 SCT070 21/19 Q1015=
201106250045 METAR LIRA 250045Z 00000KT 9999 SCT018 SCT070 20/18 Q1015=
201106250015 METAR LIRA 250015Z 00000KT 9999 SCT018 SCT070 20/18 Q1015=
201106242350 METAR LIRA 250045Z 00000KT 9999 SCT018 SCT070 20/18 Q1015=
201106242345 METAR LIRA 242345Z 16001KT 9999 SCT018 19/18 Q1015=
201106242315 METAR LIRA 242315Z 00000KT 9999 FEW020 20/18 Q1015=
201106242245 METAR LIRA 242245Z 18003KT 9999 SCT018 20/18 Q1015=
201106242215 METAR LIRA 242215Z 19003KT 9999 SCT018 21/19 Q1015=
201106242145 METAR LIRA 242145Z 19004KT 9999 SCT018 21/19 Q1015=
201106242115 METAR LIRA 242115Z 20005KT 9999 SCT018 21/19 Q1015=
201106242045 METAR LIRA 242045Z 19005KT 9999 SCT018 21/19 Q1015=
201106242015 METAR LIRA 242015Z 19004KT 9999 SCT018 21/19 Q1014=
201106241945 METAR LIRA 241945Z 21004KT 9999 SCT020 22/20 Q1014=
201106241915 METAR LIRA 241915Z 23005KT 9999 SCT020 22/20 Q1014=
201106241845 METAR LIRA 241845Z 23005KT 9999 FEW025 23/20 Q1014=
201106241815 METAR LIRA 241815Z 22005KT 9999 FEW025 24/20 Q1014=
201106241745 METAR LIRA 241745Z 25005KT 220V290 9999 SCT025 24/20 Q1014=
201106241715 METAR LIRA 241715Z 25006KT 210V290 9999 SCT025 25/20 Q1014=
201106241645 METAR LIRA 241645Z 21006KT 160V260 9999 SCT025 25/20 Q1014=
201106241615 METAR LIRA 241615Z 21007KT 150V250 9999 SCT025 25/20 Q1014=
201106241545 METAR LIRA 241545Z 21008KT 180V250 9999 FEW023 25/20 Q1014=
201106241515 METAR LIRA 241515Z 21009KT 170V250 9999 FEW023 26/20 Q1014=
201106241445 METAR LIRA 241445Z 22009KT 180V270 9999 FEW023 26/21 Q1014=
201106241415 METAR LIRA 241415Z 22011KT 180V270 9999 FEW023 27/19 Q1014=
201106241345 METAR LIRA 241345Z 19012KT 160V240 9999 FEW023 27/21 Q1014=
201106241315 METAR LIRA 241315Z 20012KT 170V250 9999 FEW023 27/20 Q1015=
201106241245 METAR LIRA 241245Z 19011KT 9999 FEW022 28/19 Q1015=
201106241215 METAR LIRA 241215Z 23009KT 190V270 9999 FEW022 29/21 Q1015=
201106241145 METAR LIRA 241145Z 20010KT 170V240 9999 FEW080 29/20 Q1015=
201106241115 METAR LIRA 241115Z 22010KT 180V260 9999 FEW080 30/18 Q1015=
201106241045 METAR LIRA 241045Z 19009KT 150V240 9999 FEW070 28/16 Q1015=
201106241015 METAR LIRA 241015Z 22009KT 190V260 9999 FEW070 29/19 Q1015=
201106240945 METAR LIRA 240945Z 21008KT 160V260 9999 FEW080 29/19 Q1015=
201106240915 METAR LIRA 240915Z 21008KT 180V250 9999 FEW080 29/17 Q1015=
201106240845 METAR LIRA 240845Z 18008KT 9999 FEW080 28/17 Q1016=
201106240815 METAR LIRA 240815Z 18009KT 9999 FEW080 27/17 Q1016=
201106240745 METAR LIRA 240745Z 20006KT 170V240 9999 FEW080 26/19 Q1016=
201106240715 METAR LIRA 240715Z 23007KT 200V270 9999 FEW080 26/18 Q1016=
201106240645 METAR LIRA 240645Z 23006KT 210V270 9999 FEW080 25/17 Q1016=
201106240615 METAR LIRA 240615Z 22002KT 9999 FEW080 23/15 Q1016=
201106240545 METAR LIRA 240545Z 00000KT 9999 FEW080 22/14 Q1016=
201106240515 METAR LIRA 240515Z 33003KT 9999 FEW080 21/14 Q1015=
201106240445 METAR LIRA 240445Z 16003KT 9999 FEW080 20/13 Q1015=
201106240415 METAR LIRA 240415Z 15002KT 9999 FEW080 18/12 Q1015=
201106240345 METAR LIRA 240345Z 12001KT 9999 FEW080 18/11 Q1015=
201106240315 METAR LIRA 240315Z 12002KT 9999 FEW080 19/11 Q1015=
201106240245 METAR LIRA 240245Z 10002KT 9999 FEW080 19/11 Q1015=
201106240215 METAR LIRA 240215Z 00000KT CAVOK 20/12 Q1016=
201106240145 METAR LIRA 240145Z 11001KT CAVOK 20/12 Q1016=
201106240115 METAR LIRA 240115Z 11001KT CAVOK 20/12 Q1016=
201106240045 METAR LIRA 240045Z 10002KT CAVOK 20/13 Q1016=
201106240015 METAR LIRA 240015Z 13003KT CAVOK 20/13 Q1016=
201106232350 METAR LIRA 240045Z 10002KT CAVOK 20/13 Q1016=
201106232345 METAR LIRA 232345Z 15003KT CAVOK 20/13 Q1017=
201106232315 METAR LIRA 232315Z 11005KT CAVOK 20/13 Q1017=
201106232245 METAR LIRA 232245Z 10004KT CAVOK 21/13 Q1017=
201106232215 METAR LIRA 232215Z 10002KT CAVOK 21/16 Q1017=
201106232145 METAR LIRA 232145Z 09002KT CAVOK 21/17 Q1016=
201106232115 METAR LIRA 232115Z 16002KT CAVOK 22/19 Q1016=
201106232045 METAR LIRA 232045Z 22003KT CAVOK 23/20 Q1016=
201106232015 METAR LIRA 232015Z 21003KT CAVOK 23/19 Q1016=
201106231945 METAR LIRA 231945Z 22004KT 9999 FEW080 24/19 Q1016=
201106231915 METAR LIRA 231915Z 22003KT 9999 FEW080 24/18 Q1016=
201106231845 METAR LIRA 231845Z 23005KT CAVOK 25/16 Q1016=
201106231815 METAR LIRA 231815Z 23005KT CAVOK 26/14 Q1016=
201106231745 METAR LIRA 231745Z 23006KT CAVOK 28/13 Q1016=
201106231715 METAR LIRA 231715Z 24006KT 200V280 CAVOK 28/13 Q1016=
201106231645 METAR LIRA 231645Z 23007KT CAVOK 29/13 Q1016=
201106231615 METAR LIRA 231615Z 25006KT 210V280 CAVOK 30/13 Q1016=
201106231545 METAR LIRA 231545Z 23007KT CAVOK 30/12 Q1016=
201106231515 METAR LIRA 231515Z 23007KT 190V280 CAVOK 30/11 Q1016=
201106231445 METAR LIRA 231445Z 24007KT 200V300 CAVOK 30/11 Q1017=
201106231415 METAR LIRA 231415Z 23007KT 190V270 CAVOK 30/11 Q1017=
201106231345 METAR LIRA 231345Z 24007KT 200V270 CAVOK 30/11 Q1017=
201106231315 METAR LIRA 231315Z 23007KT 170V280 CAVOK 31/11 Q1017=
201106231245 METAR LIRA 231245Z 23008KT 200V290 CAVOK 31/13 Q1017=
201106231215 METAR LIRA 231215Z 23006KT 170V310 CAVOK 31/12 Q1017=
201106231145 METAR LIRA 231145Z 24006KT 170V280 CAVOK 31/12 Q1017=
201106231115 METAR LIRA 231115Z 20006KT 160V250 CAVOK 31/12 Q1017=
201106231045 METAR LIRA 231045Z 24005KT 200V330 CAVOK 31/13 Q1017=
201106231015 METAR LIRA 231015Z 24005KT 200V270 CAVOK 30/14 Q1017=
201106230945 METAR LIRA 230945Z 25003KT CAVOK 29/13 Q1017=
201106230915 METAR LIRA 230915Z 24005KT 220V290 CAVOK 29/13 Q1018=
201106230845 METAR LIRA 230845Z 20004KT CAVOK 28/14 Q1017=
201106230815 METAR LIRA 230815Z 01003KT CAVOK 28/15 Q1018=
201106230745 METAR LIRA 230745Z 02002KT CAVOK 27/14 Q1018=
201106230715 METAR LIRA 230715Z 27001KT CAVOK 24/15 Q1018=
201106230645 METAR LIRA 230645Z 01001KT CAVOK 23/16 Q1018=
201106230615 METAR LIRA 230615Z 03002KT CAVOK 21/15 Q1018=
201106230545 METAR LIRA 230545Z 01001KT CAVOK 20/13 Q1017=
201106230515 METAR LIRA 230515Z 34001KT CAVOK 18/11 Q1017=
201106230445 METAR LIRA 230445Z 10001KT 9999 FEW080 18/09 Q1017=
201106230415 METAR LIRA 230415Z 11002KT 9999 FEW080 17/08 Q1017=
201106230345 METAR LIRA 230345Z 09003KT 9999 FEW080 16/07 Q1017=
201106230315 METAR LIRA 230315Z 09003KT 9999 FEW080 16/07 Q1017=
201106230245 METAR LIRA 230245Z 08002KT 9999 FEW080 17/08 Q1017=
201106230215 METAR LIRA 230215Z 09003KT 9999 FEW080 17/08 Q1017=
201106230145 METAR LIRA 230145Z 12003KT 9999 FEW008 17/09 Q1018=
201106230115 METAR LIRA 230115Z 12003KT 9999 FEW008 18/09 Q1018=
201106230045 METAR LIRA 230045Z 12003KT 9999 FEW008 18/11 Q1018=
201106230015 METAR LIRA 230015Z 06002KT 9999 FEW008 18/14 Q1018=
201106222350 METAR LIRA 230045Z 12003KT 9999 FEW008 18/11 Q1018=
201106222345 METAR LIRA 222345Z 00000KT 9999 FEW008 18/13 Q1018=
201106222315 METAR LIRA 222315Z 00000KT 9999 FEW008 19/15 Q1018=
201106222245 METAR LIRA 222245Z 00000KT 9999 FEW008 20/15 Q1018=
201106222215 METAR LIRA 222215Z 15002KT 9999 FEW008 20/17 Q1018=
201106222145 METAR LIRA 222145Z 19002KT 9999 FEW080 21/18 Q1018=
201106222115 METAR LIRA 222115Z 17002KT 9999 FEW080 21/18 Q1018=
201106222045 METAR LIRA 222045Z 20003KT 9999 FEW080 22/19 Q1018=
201106222015 METAR LIRA 222015Z 22004KT 9999 FEW080 22/18 Q1018=
201106221945 METAR LIRA 221945Z 22003KT 9999 FEW080 22/19 Q1018=
201106221915 METAR LIRA 221915Z 24003KT 9999 FEW080 23/18 Q1018=
201106221845 METAR LIRA 221845Z 24003KT 9999 FEW080 24/18 Q1018=
201106221815 METAR LIRA 221815Z 23004KT 9999 FEW020 25/17 Q1018=
201106221745 METAR LIRA 221745Z 23007KT 9999 FEW018 25/16 Q1018=
201106221715 METAR LIRA 221715Z 24009KT 9999 FEW018 26/15 Q1018=
201106221645 METAR LIRA 221645Z 23006KT 180V270 9999 FEW018 28/15 Q1018=
201106221615 METAR LIRA 221615Z 21007KT 170V260 9999 FEW018 28/15 Q1018=
201106221545 METAR LIRA 221545Z 22008KT 180V250 9999 FEW018 29/15 Q1018=
201106221515 METAR LIRA 221515Z 22008KT 160V270 9999 FEW018 29/14 Q1018=
201106221445 METAR LIRA 221445Z 23008KT 190V260 9999 FEW018 29/14 Q1018=
201106221415 METAR LIRA 221415Z 24008KT 200V290 9999 FEW018 30/13 Q1019=
201106221345 METAR LIRA 221345Z 23007KT 200V280 9999 FEW018CB 30/13 Q1019=
201106221315 METAR LIRA 221315Z 23009KT 180V290 9999 FEW018CB 31/14 Q1019=
201106221245 METAR LIRA 221245Z 26009KT 220V300 9999 FEW018 31/14 Q1019=
201106221215 METAR LIRA 221215Z 21006KT 150V270 9999 FEW018 31/11 Q1019=
201106221145 METAR LIRA 221145Z 23008KT 190V280 9999 FEW018 30/12 Q1019=
201106221115 METAR LIRA 221115Z 23008KT 190V280 9999 FEW018 29/11 Q1019=
201106221045 METAR LIRA 221045Z 24009KT 210V300 CAVOK 30/10 Q1019=
201106221015 METAR LIRA 221015Z 23008KT 190V260 CAVOK 30/11 Q1019=
201106220945 METAR LIRA 220945Z 19006KT 140V270 CAVOK 29/12 Q1019=
201106220915 METAR LIRA 220915Z 19006KT CAVOK 29/08 Q1019=
201106220845 METAR LIRA 220845Z 18004KT CAVOK 28/11 Q1020=
201106220815 METAR LIRA 220815Z 23003KT CAVOK 27/14 Q1020=
201106220745 METAR LIRA 220745Z 22003KT CAVOK 25/15 Q1020=
201106220715 METAR LIRA 220715Z 24003KT CAVOK 24/17 Q1020=
201106220645 METAR LIRA 220645Z 25003KT CAVOK 23/17 Q1020=
201106220615 METAR LIRA 220615Z 34001KT CAVOK 22/16 Q1020=
201106220545 METAR LIRA 220545Z 35002KT CAVOK 21/16 Q1020=
201106220515 METAR LIRA 220515Z 02002KT CAVOK 20/16 Q1019=
201106220445 METAR LIRA 220445Z 04001KT CAVOK 18/15 Q1019=
201106220415 METAR LIRA 220415Z 07002KT CAVOK 18/17 Q1019=
201106220345 METAR LIRA 220345Z 08002KT CAVOK 18/16 Q1019=
201106220315 METAR LIRA 220315Z 00000KT CAVOK 18/17 Q1019=
201106220245 METAR LIRA 220245Z 00000KT CAVOK 18/16 Q1019=
201106220215 METAR LIRA 220215Z 26001KT CAVOK 18/16 Q1019=
201106220145 METAR LIRA 220145Z 33001KT CAVOK 19/16 Q1019=
201106220115 METAR LIRA 220115Z 04002KT CAVOK 19/16 Q1019=
201106220045 METAR LIRA 220045Z 04002KT CAVOK 19/17 Q1019=
201106220015 METAR LIRA 220015Z 03001KT CAVOK 20/18 Q1020=
201106212350 METAR LIRA 220045Z 04002KT CAVOK 19/17 Q1019=
201106212345 METAR LIRA 212345Z 01001KT CAVOK 20/18 Q1020=
201106212315 METAR LIRA 212315Z 00000KT CAVOK 20/17 Q1020=
201106212245 METAR LIRA 212245Z 00000KT CAVOK 20/17 Q1020=
201106212215 METAR LIRA 212215Z 22001KT CAVOK 20/17 Q1020=
201106212145 METAR LIRA 212145Z 22001KT CAVOK 20/17 Q1020=
201106212115 METAR LIRA 212115Z 22004KT CAVOK 22/17 Q1020=
201106212045 METAR LIRA 212045Z 22004KT CAVOK 22/16 Q1020=
201106212015 METAR LIRA 212015Z 21004KT CAVOK 23/16 Q1020=
201106211945 METAR LIRA 211945Z 21003KT CAVOK 23/16 Q1020=
201106211915 METAR LIRA 211915Z 22003KT CAVOK 23/16 Q1019=
201106211845 METAR LIRA 211845Z 23003KT CAVOK 24/15 Q1019=
201106211815 METAR LIRA 211815Z 23004KT CAVOK 24/14 Q1019=
201106211745 METAR LIRA 211745Z 23005KT CAVOK 25/13 Q1019=
201106211715 METAR LIRA 211715Z 22006KT 180V250 CAVOK 25/13 Q1019=
201106211645 METAR LIRA 211645Z 23006KT 190V260 CAVOK 26/13 Q1019=
201106211615 METAR LIRA 211615Z 23008KT 180V260 CAVOK 26/13 Q1019=
201106211545 METAR LIRA 211545Z 23007KT 9999 FEW020 27/14 Q1019=
201106211515 METAR LIRA 211515Z 23007KT 190V260 9999 FEW020 27/14 Q1019=
201106211445 METAR LIRA 211445Z 21007KT 210V320 9999 FEW020 28/15 Q1019=
201106211415 METAR LIRA 211415Z 24007KT 200V280 9999 FEW020 28/13 Q1019=
201106211345 METAR LIRA 211345Z 24008KT 9999 FEW020 28/13 Q1019=
201106211315 METAR LIRA 211315Z 23007KT 180V280 9999 FEW020 28/13 Q1019=
201106211245 METAR LIRA 211245Z 25008KT 180V280 9999 FEW020 28/13 Q1019=
201106211215 METAR LIRA 211215Z 24007KT 180V330 9999 FEW020 28/14 Q1019=
201106211200 METAR LIRA CONTUS DIST LGTNG E=
201106211145 METAR LIRA 211145Z 25008KT 190V280 9999 FEW020 28/13 Q1019=
201106211115 METAR LIRA 211115Z 25007KT 190V300 9999 FEW020 28/13 Q1019=
201106211045 METAR LIRA 211045Z 24008KT 190V300 9999 FEW020 28/15 Q1019=
201106211015 METAR LIRA 211015Z 25008KT 210V300 9999 FEW020 28/15 Q1019=
201106210945 METAR LIRA 210945Z 21006KT 150V270 9999 FEW020 27/16 Q1019=
201106210915 METAR LIRA 210915Z 17007KT 130V210 9999 FEW020 27/17 Q1019=
201106210845 METAR LIRA 210845Z 20005KT 170V250 9999 FEW020 26/16 Q1019=
201106210815 METAR LIRA 210815Z 17005KT 110V210 9999 FEW020 26/16 Q1019=
201106210745 METAR LIRA 210745Z 18003KT 9999 FEW025 24/17 Q1019=
201106210715 METAR LIRA 210715Z 34002KT 9999 FEW008 22/17 Q1019=
201106210645 METAR LIRA 210645Z 11001KT 9999 FEW008 22/17 Q1019=
201106210615 METAR LIRA 210615Z 33002KT 9999 FEW008 21/17 Q1019=
201106210545 METAR LIRA 210545Z 06002KT 9999 FEW008 20/17 Q1018=
201106210515 METAR LIRA 210515Z 22002KT 9999 FEW010 19/17 Q1018=
201106210445 METAR LIRA 210445Z 17002KT 9999 FEW010 19/17 Q1018=
201106210415 METAR LIRA 210415Z 18002KT CAVOK 18/16 Q1018=
201106210345 METAR LIRA 210345Z 17002KT CAVOK 17/16 Q1018=
201106210315 METAR LIRA 210315Z 17002KT CAVOK 17/15 Q1017=
201106210245 METAR LIRA 210245Z 17002KT CAVOK 17/16 Q1017=
201106210215 METAR LIRA 210215Z 22001KT CAVOK 17/15 Q1017=
201106210145 METAR LIRA 210145Z 17001KT CAVOK 17/13 Q1017=
201106210115 METAR LIRA 210115Z 22001KT CAVOK 18/14 Q1017=
201106210045 METAR LIRA 210045Z 18001KT CAVOK 18/14 Q1017=
201106210015 METAR LIRA 210015Z 00000KT CAVOK 19/14 Q1017=
201106202350 METAR LIRA 210045Z 18001KT CAVOK 18/14 Q1017=
201106202345 METAR LIRA 202345Z 08001KT CAVOK 19/15 Q1017=
201106202315 METAR LIRA 202315Z 11001KT CAVOK 19/16 Q1017=
201106202245 METAR LIRA 202245Z 16002KT CAVOK 20/17 Q1017=
201106202215 METAR LIRA 202215Z 19002KT CAVOK 20/17 Q1017=
201106202145 METAR LIRA 202145Z 23001KT CAVOK 21/17 Q1017=
201106202115 METAR LIRA 202115Z 19003KT CAVOK 21/15 Q1017=
201106202045 METAR LIRA 202045Z 20003KT CAVOK 21/14 Q1017=
201106202015 METAR LIRA 202015Z 22003KT CAVOK 22/13 Q1017=
201106201945 METAR LIRA 201945Z 23004KT CAVOK 22/11 Q1017=
201106201915 METAR LIRA 201915Z 22003KT CAVOK 23/11 Q1016=
201106201845 METAR LIRA 201845Z 25003KT CAVOK 25/12 Q1016=
201106201815 METAR LIRA 201815Z 23005KT CAVOK 25/12 Q1016=
201106201745 METAR LIRA 201745Z 24006KT 220V280 CAVOK 26/11 Q1015=
201106201715 METAR LIRA 201715Z 24008KT CAVOK 27/11 Q1016=
201106201645 METAR LIRA 201645Z 25007KT 200V290 CAVOK 27/11 Q1015=
201106201615 METAR LIRA 201615Z 26006KT 210V320 CAVOK 28/11 Q1015=
201106201545 METAR LIRA 201545Z 25007KT 220V290 9999 FEW018 28/13 Q1016=
201106201515 METAR LIRA 201515Z 24007KT 200V280 9999 FEW018 29/13 Q1016=
201106201445 METAR LIRA 201445Z 25007KT 220V290 9999 FEW018 29/14 Q1016=
201106201415 METAR LIRA 201415Z 28007KT 220V310 9999 FEW018 29/14 Q1016=
201106201345 METAR LIRA 201345Z 27008KT 230V310 9999 FEW018 29/14 Q1016=
201106201315 METAR LIRA 201315Z 27007KT 230V310 9999 FEW018 29/14 Q1016=
201106201245 METAR LIRA 201245Z 24008KT 210V300 9999 FEW018 29/14 Q1016=
201106201215 METAR LIRA 201215Z 24008KT 210V300 9999 FEW018 29/14 Q1016=
201106201145 METAR LIRA 201145Z 25009KT 230V300 9999 FEW018 28/13 Q1015=
201106201115 METAR LIRA 201115Z 26009KT 180V300 9999 FEW018 28/15 Q1015=
201106201045 METAR LIRA 201045Z 31005KT 280V010 9999 FEW018 29/12 Q1015=
201106201015 METAR LIRA 201015Z 20004KT 9999 FEW018 28/12 Q1015=
201106200945 METAR LIRA 200945Z 15002KT 9999 FEW018 26/13 Q1015=
201106200915 METAR LIRA 200915Z 30003KT 9999 FEW018 26/15 Q1015=
201106200845 METAR LIRA 200845Z 01003KT 9999 FEW018 25/16 Q1015=
201106200815 METAR LIRA 200815Z 31003KT 9999 FEW018 24/16 Q1015=
201106200745 METAR LIRA 200745Z 02003KT CAVOK 23/16 Q1015=
201106200715 METAR LIRA 200715Z 36004KT CAVOK 22/15 Q1015=
201106200645 METAR LIRA 200645Z 01003KT CAVOK 21/16 Q1015=
201106200615 METAR LIRA 200615Z 04004KT CAVOK 20/16 Q1015=
201106200545 METAR LIRA 200545Z 04006KT 330V070 CAVOK 19/17 Q1014=
201106200515 METAR LIRA 200515Z 03005KT 360V070 CAVOK 18/17 Q1014=
201106200445 METAR LIRA 200445Z 01002KT CAVOK 17/16 Q1014=
201106200415 METAR LIRA 200415Z 05003KT CAVOK 17/16 Q1014=
201106200345 METAR LIRA 200345Z 05003KT CAVOK 17/16 Q1014=
201106200315 METAR LIRA 200315Z 03002KT CAVOK 17/16 Q1014=
201106200245 METAR LIRA 200245Z 03002KT CAVOK 17/15 Q1014=
201106200215 METAR LIRA 200215Z 00000KT CAVOK 17/15 Q1014=
201106200145 METAR LIRA 200145Z 01002KT CAVOK 17/15 Q1014=
201106200115 METAR LIRA 200115Z 10005KT CAVOK 17/15 Q1014=
201106200045 METAR LIRA 200045Z 11004KT CAVOK 19/16 Q1014=
201106200015 METAR LIRA 200015Z 14004KT CAVOK 19/16 Q1014=
201106192350 METAR LIRA 200045Z 11004KT CAVOK 19/16 Q1014=
201106192345 METAR LIRA 192345Z 17003KT CAVOK 19/16 Q1014=
201106192315 METAR LIRA 192315Z 16004KT CAVOK 19/16 Q1014=
201106192245 METAR LIRA 192245Z 17003KT CAVOK 19/17 Q1014=
201106192215 METAR LIRA 192215Z 15005KT CAVOK 20/17 Q1014=
201106192145 METAR LIRA 192145Z 17005KT CAVOK 20/18 Q1014=
201106192115 METAR LIRA 192115Z 18004KT CAVOK 20/18 Q1014=
201106192045 METAR LIRA 192045Z 17005KT CAVOK 20/18 Q1014=
201106192015 METAR LIRA 192015Z 18005KT 150V210 9999 FEW025 20/18 Q1013=
201106191945 METAR LIRA 191945Z 20005KT 9999 FEW025 21/17 Q1013=
201106191915 METAR LIRA 191915Z 23005KT 9999 FEW025 22/17 Q1013=
201106191845 METAR LIRA 191845Z 26004KT 240V310 9999 FEW025 22/16 Q1012=
201106191815 METAR LIRA 191815Z 25005KT 9999 FEW025 23/17 Q1012=
201106191745 METAR LIRA 191745Z 24008KT 220V290 9999 FEW025 24/19 Q1012=
201106191715 METAR LIRA 191715Z 27008KT 220V320 9999 FEW025 24/19 Q1012=
201106191645 METAR LIRA 191645Z 25008KT 220V280 9999 FEW025 25/19 Q1011=
201106191615 METAR LIRA 191615Z 22008KT 190V260 9999 FEW025 25/18 Q1011=
201106191545 METAR LIRA 191545Z 23009KT 200V270 9999 FEW023 25/18 Q1011=
201106191515 METAR LIRA 191515Z 22008KT 180V260 9999 FEW035 26/13 Q1011=
201106191445 METAR LIRA 191445Z 21010KT 160V250 9999 FEW023 26/13 Q1011=
201106191415 METAR LIRA 191415Z 20010KT 9999 FEW023 26/12 Q1011=
201106191345 METAR LIRA 191345Z 19011KT 150V230 9999 FEW023 26/12 Q1011=
201106191315 METAR LIRA 191315Z 19011KT 150V240 9999 FEW023 26/13 Q1011=
201106191245 METAR LIRA 191245Z 19010KT 120V210 9999 FEW023 27/15 Q1012=
201106191215 METAR LIRA 191215Z 18011KT 150V220 9999 FEW023 26/14 Q1012=
201106191145 METAR LIRA 191145Z 17010KT 130V220 9999 FEW023 26/15 Q1012=
201106191115 METAR LIRA 191115Z 20010KT 160V250 9999 FEW020 25/15 Q1011=
201106191045 METAR LIRA 191045Z 18011KT 140V230 9999 FEW018 25/15 Q1011=
201106191015 METAR LIRA 191015Z 19012KT 150V240 9999 FEW017 25/15 Q1011=
201106190945 METAR LIRA 190945Z 20011KT 170V260 9999 FEW017 24/15 Q1011=
201106190915 METAR LIRA 190915Z 20012KT 170V240 9999 FEW016 24/15 Q1011=
201106190845 METAR LIRA 190845Z 20011KT 9999 FEW016 24/16 Q1011=
201106190815 METAR LIRA 190815Z 18010KT 130V250 9999 FEW016 24/19 Q1011=
201106190745 METAR LIRA 190745Z 16012KT 120V210 9999 FEW015 SCT025 24/19
                        Q1011=
201106190715 METAR LIRA 190715Z 17013KT 9999 FEW015 SCT025 23/19 Q1011=
201106190645 METAR LIRA 190645Z 17012KT 9999 FEW015 SCT025 23/19 Q1011=
201106190615 METAR LIRA 190615Z 16012KT 9999 SCT013 SCT025 22/19 Q1011=
201106190545 METAR LIRA 190545Z 16011KT 9999 SCT013 SCT025 22/19 Q1011=
201106190515 METAR LIRA 190515Z 16011KT 120V190 9999 SCT013 SCT025 21/19
                        Q1011=
201106190445 METAR LIRA 190445Z 16010KT 9999 SCT016 SCT025 21/18 Q1011=
201106190415 METAR LIRA 190415Z 15011KT 9999 FEW016 SCT025 21/17 Q1011=
201106190345 METAR LIRA 190345Z 15013KT 9999 FEW017 SCT025 21/17 Q1011=
201106190315 METAR LIRA 190315Z 16009KT 9999 SCT030 SCT070 21/16 Q1011=
201106190245 METAR LIRA 190245Z 18009KT 9999 SCT030 SCT070 21/16 Q1011=
201106190215 METAR LIRA 190215Z 14012KT 9999 FEW030 SCT070 21/15 Q1012=
201106190145 METAR LIRA 190145Z 16013KT 9999 FEW030 SCT070 22/13 Q1012=
201106190115 METAR LIRA 190115Z 16012KT 9999 FEW030 SCT070 22/13 Q1012=
201106190045 METAR LIRA 190045Z 17009KT 9999 FEW030 SCT070 22/13 Q1012=
201106190015 METAR LIRA 190015Z 18009KT 9999 FEW030 SCT070 22/12 Q1012=
201106182350 METAR LIRA 190045Z 17009KT 9999 FEW030 SCT070 22/13 Q1012=
201106182345 METAR LIRA 182345Z 17008KT 9999 FEW070 22/12 Q1012=
201106182315 METAR LIRA 182315Z 17009KT 9999 FEW070 22/12 Q1012=
201106182245 METAR LIRA 182245Z 17009KT 9999 FEW070 22/11 Q1012=
201106182215 METAR LIRA 182215Z 15010KT 9999 FEW070 22/11 Q1013=
201106182145 METAR LIRA 182145Z 16009KT 9999 FEW070 22/12 Q1013=
201106182115 METAR LIRA 182115Z 16008KT 9999 FEW070 22/11 Q1013=
201106182045 METAR LIRA 182045Z 17007KT 9999 FEW070 22/13 Q1013=
201106182015 METAR LIRA 182015Z 19006KT 9999 FEW070 22/16 Q1013=
201106181945 METAR LIRA 181945Z 17008KT 9999 FEW070 23/14 Q1012=
201106181915 METAR LIRA 181915Z 17009KT 9999 FEW070 23/13 Q1012=
201106181845 METAR LIRA 181845Z 17011KT 9999 FEW030 23/14 Q1012=
201106181815 METAR LIRA 181815Z 16012KT 9999 FEW030 24/15 Q1012=
201106181745 METAR LIRA 181745Z 17016KT 9999 FEW030 24/15 Q1012=
201106181715 METAR LIRA 181715Z 17014KT 9999 FEW030 26/15 Q1013=
201106181645 METAR LIRA 181645Z 16013KT 9999 FEW030 26/15 Q1013=
201106181615 METAR LIRA 181615Z 16014KT CAVOK 27/14 Q1013=
201106181545 METAR LIRA 181545Z 16012KT CAVOK 27/11 Q1013=
201106181515 METAR LIRA 181515Z 18014KT 160V220 CAVOK 27/10 Q1014=
201106181445 METAR LIRA 181445Z 19012KT 150V230 CAVOK 28/11 Q1014=
201106181415 METAR LIRA 181415Z 19013KT 150V220 CAVOK 28/11 Q1014=
201106181345 METAR LIRA 181345Z 18012KT 150V210 CAVOK 28/11 Q1014=
201106181315 METAR LIRA 181315Z 18013KT 140V210 CAVOK 28/12 Q1015=
201106181245 METAR LIRA 181245Z 18012KT 140V220 CAVOK 28/11 Q1015=
201106181215 METAR LIRA 181215Z 18011KT 140V230 9999 FEW040 28/11 Q1015=
201106181145 METAR LIRA 181145Z 20013KT 9999 FEW040 27/12 Q1015=
201106181115 METAR LIRA 181115Z 18012KT 140V220 9999 FEW040 28/13 Q1015=
201106181045 METAR LIRA 181045Z 17011KT 140V210 9999 FEW040 27/13 Q1015=
201106181015 METAR LIRA 181015Z 17011KT 140V220 CAVOK 27/14 Q1015=
201106180945 METAR LIRA 180945Z 17010KT 150V210 CAVOK 27/15 Q1016=
201106180915 METAR LIRA 180915Z 18011KT CAVOK 26/14 Q1016=
201106180845 METAR LIRA 180845Z 17011KT 120V190 CAVOK 25/13 Q1016=
201106180815 METAR LIRA 180815Z 16011KT 120V190 CAVOK 25/13 Q1016=
201106180745 METAR LIRA 180745Z 16011KT CAVOK 24/14 Q1016=
201106180715 METAR LIRA 180715Z 17010KT 140V210 CAVOK 23/15 Q1016=
201106180645 METAR LIRA 180645Z 18006KT 150V210 CAVOK 23/17 Q1016=
201106180615 METAR LIRA 180615Z 13002KT CAVOK 21/16 Q1016=
201106180545 METAR LIRA 180545Z 07003KT CAVOK 20/15 Q1016=
201106180515 METAR LIRA 180515Z 04001KT CAVOK 18/13 Q1016=
201106180445 METAR LIRA 180445Z 09003KT CAVOK 18/13 Q1016=
201106180415 METAR LIRA 180415Z 15004KT CAVOK 18/12 Q1016=
201106180345 METAR LIRA 180345Z 17001KT CAVOK 17/12 Q1016=
201106180315 METAR LIRA 180315Z 17001KT CAVOK 17/13 Q1016=
201106180245 METAR LIRA 180245Z 00000KT CAVOK 17/14 Q1016=
201106180215 METAR LIRA 180215Z 10001KT CAVOK 17/13 Q1016=
201106180145 METAR LIRA 180145Z 10002KT CAVOK 18/13 Q1016=
201106180115 METAR LIRA 180115Z 00000KT CAVOK 18/15 Q1016=
201106180045 METAR LIRA 180045Z 00000KT CAVOK 19/15 Q1017=
201106180015 METAR LIRA 180015Z 11002KT CAVOK 19/14 Q1017=
201106172350 METAR LIRA 180045Z 00000KT CAVOK 19/15 Q1017=
201106172345 METAR LIRA 172345Z 13003KT CAVOK 19/16 Q1017=
201106172315 METAR LIRA 172315Z 16004KT CAVOK 20/18 Q1017=
201106172245 METAR LIRA 172245Z 17004KT CAVOK 20/18 Q1017=
201106172215 METAR LIRA 172215Z 18004KT CAVOK 20/18 Q1017=
201106172145 METAR LIRA 172145Z 16005KT CAVOK 20/18 Q1017=
201106172115 METAR LIRA 172115Z 18004KT CAVOK 21/19 Q1017=
201106172045 METAR LIRA 172045Z 17005KT CAVOK 21/19 Q1017=
201106172015 METAR LIRA 172015Z 19004KT CAVOK 20/18 Q1017=
201106171945 METAR LIRA 171945Z 22003KT CAVOK 21/18 Q1017=
201106171915 METAR LIRA 171915Z 22004KT CAVOK 21/18 Q1017=
201106171845 METAR LIRA 171845Z 20006KT CAVOK 22/18 Q1017=
201106171815 METAR LIRA 171815Z 21006KT 170V280 CAVOK 23/17 Q1017=
201106171745 METAR LIRA 171745Z 23006KT 200V270 CAVOK 24/16 Q1017=
201106171715 METAR LIRA 171715Z 22007KT CAVOK 25/16 Q1017=
201106171645 METAR LIRA 171645Z 21006KT 170V250 CAVOK 25/15 Q1017=
201106171615 METAR LIRA 171615Z 22007KT 190V270 CAVOK 26/14 Q1017=
201106171545 METAR LIRA 171545Z 22006KT 180V250 9999 FEW020 27/14 Q1018=
201106171515 METAR LIRA 171515Z 23006KT 190V290 9999 FEW020 27/14 Q1018=
201106171445 METAR LIRA 171445Z 25007KT 200V310 9999 FEW020 27/14 Q1018=
201106171415 METAR LIRA 171415Z 23007KT 180V290 9999 FEW020 27/14 Q1018=
201106171345 METAR LIRA 171345Z 26006KT 220V320 9999 FEW020 27/13 Q1018=
201106171315 METAR LIRA 171315Z 25008KT 200V270 9999 FEW020 27/14 Q1018=
201106171245 METAR LIRA 171245Z 23009KT 150V260 9999 FEW020 27/13 Q1018=
201106171215 METAR LIRA 171215Z 26009KT 200V310 9999 FEW020 27/14 Q1018=
201106171145 METAR LIRA 171145Z 23009KT 200V270 9999 FEW020 27/14 Q1018=
201106171115 METAR LIRA 171115Z 22009KT 200V310 9999 FEW020 27/14 Q1018=
201106171045 METAR LIRA 171045Z 24007KT 160V270 9999 FEW020 27/14 Q1018=
201106171015 METAR LIRA 171015Z 21006KT 130V280 9999 FEW020 27/15 Q1018=
201106170945 METAR LIRA 170945Z 18005KT 160V230 9999 FEW020 26/16 Q1018=
201106170915 METAR LIRA 170915Z 18006KT 120V230 9999 FEW020 25/16 Q1018=
201106170845 METAR LIRA 170845Z 24005KT 180V300 9999 FEW020 SCT200 25/15
                        Q1018=
201106170815 METAR LIRA 170815Z 28004KT 230V310 9999 FEW020 25/13 Q1018=
201106170745 METAR LIRA 170745Z 27004KT 220V300 9999 FEW020 25/12 Q1018=
201106170715 METAR LIRA 170715Z 30001KT 9999 FEW020 24/15 Q1018=
201106170645 METAR LIRA 170645Z 05003KT 9999 FEW020 23/16 Q1018=
201106170615 METAR LIRA 170615Z 03002KT 9999 FEW020 21/17 Q1018=
201106170545 METAR LIRA 170545Z 07006KT 9999 FEW030 20/17 Q1018=
201106170515 METAR LIRA 170515Z 03003KT 9999 FEW025 19/16 Q1018=
201106170500 METAR LIRA INTER CB S=
201106170445 METAR LIRA 170445Z 06001KT 9999 FEW025 18/15 Q1018=
201106170415 METAR LIRA 170415Z 09004KT 9999 FEW010 16/13 Q1018=
201106170345 METAR LIRA 170345Z 11002KT 9999 FEW025 17/13 Q1018=
201106170315 METAR LIRA 170315Z 11002KT 9999 FEW080 17/13 Q1018=
201106170245 METAR LIRA 170245Z 11002KT 9999 FEW080 17/15 Q1018=
201106170215 METAR LIRA 170215Z 11003KT 8000 FEW010 17/15 Q1018=
201106170145 METAR LIRA 170145Z 10004KT 8000 FEW010 18/16 Q1018=
201106170115 METAR LIRA 170115Z 09003KT 8000 SCT006 18/17 Q1019=
201106170045 METAR LIRA 170045Z 11002KT 8000 SCT006 19/17 Q1019=
201106170015 METAR LIRA 170015Z 15003KT 9999 FEW010 19/17 Q1019=
201106162350 METAR LIRA 170045Z 11002KT 8000 SCT006 19/17 Q1019=
201106162345 METAR LIRA 162345Z 16002KT 9999 FEW020 19/18 Q1019=
201106162315 METAR LIRA 162315Z 17003KT 9999 FEW007 19/18 Q1019=
201106162245 METAR LIRA 162245Z 16003KT 9999 FEW007 20/18 Q1019=
201106162215 METAR LIRA 162215Z 19002KT 9999 FEW020 20/18 Q1019=
201106162145 METAR LIRA 162145Z 19004KT 9999 FEW020 20/18 Q1019=
201106162115 METAR LIRA 162115Z 19004KT 9999 FEW020 20/18 Q1019=
201106162045 METAR LIRA 162045Z 19004KT 9999 FEW020 20/18 Q1019=
201106162015 METAR LIRA 162015Z 22004KT 9999 FEW020 20/18 Q1018=
201106161945 METAR LIRA 161945Z 22004KT 9999 FEW020 21/18 Q1018=
201106161915 METAR LIRA 161915Z 20004KT 9999 FEW020 22/17 Q1017=
201106161845 METAR LIRA 161845Z 23004KT 9999 FEW020 23/16 Q1017=
201106161815 METAR LIRA 161815Z 27003KT 9999 FEW020 24/14 Q1017=
201106161745 METAR LIRA 161745Z 28006KT 250V310 9999 FEW020 25/14 Q1017=
201106161715 METAR LIRA 161715Z 26005KT 220V280 9999 FEW020 25/14 Q1017=
201106161645 METAR LIRA 161645Z 26008KT 230V320 9999 FEW020 26/15 Q1017=
201106161615 METAR LIRA 161615Z 24010KT 220V300 9999 FEW020 26/15 Q1017=
201106161545 METAR LIRA 161545Z 28007KT 210V330 9999 FEW020 SCT080 26/15
                        Q1017=
201106161515 METAR LIRA 161515Z 27007KT 210V310 9999 FEW020 FEW022CB SCT080
                        26/16 Q1017=
201106161445 METAR LIRA 161445Z 23009KT 170V280 9999 FEW020 FEW022CB SCT080
                        26/16 Q1016=
201106161415 METAR LIRA 161415Z 24008KT 210V300 9999 FEW020 SCT080 26/16
                        Q1017=
201106161345 METAR LIRA 161345Z 23009KT 190V270 9999 FEW020 SCT080 27/16
                        Q1017=
201106161315 METAR LIRA 161315Z 23008KT 190V280 9999 FEW020 27/15 Q1017=
201106161245 METAR LIRA 161245Z 23008KT 190V280 9999 FEW020 27/15 Q1017=
201106161215 METAR LIRA 161215Z 24008KT 200V280 9999 FEW020 FEW022TCU
                        27/15 Q1017=
201106161145 METAR LIRA 161145Z 23010KT 200V280 9999 SCT020 FEW022TCU
                        27/15 Q1017=
201106161115 METAR LIRA 161115Z 22007KT 170V260 9999 SCT020 FEW022TCU
                        27/16 Q1017=
201106161045 METAR LIRA 161045Z 26008KT 200V310 9999 SCT020 FEW022TCU
                        27/16 Q1017=
201106161015 METAR LIRA 161015Z VRB05KT 110V310 9999 SCT020 FEW022TCU
                        27/15 Q1017=
201106160945 METAR LIRA 160945Z 20004KT 9999 SCT020 26/16 Q1017=
201106160915 METAR LIRA 160915Z 35003KT 9999 FEW020 26/17 Q1017=
201106160845 METAR LIRA 160845Z 18004KT 160V220 9999 FEW020 25/16 Q1017=
201106160815 METAR LIRA 160815Z 27003KT 9999 FEW020 24/16 Q1017=
201106160745 METAR LIRA 160745Z 24003KT 9999 FEW020 23/17 Q1017=
201106160715 METAR LIRA 160715Z 30002KT 9999 FEW020 23/17 Q1017=
201106160645 METAR LIRA 160645Z 18002KT 9999 FEW015 22/17 Q1017=
201106160615 METAR LIRA 160615Z 04001KT 9999 FEW013 21/17 Q1017=
201106160545 METAR LIRA 160545Z 00000KT 9999 FEW013 20/17 Q1017=
201106160515 METAR LIRA 160515Z 00000KT CAVOK 19/16 Q1017=
201106160445 METAR LIRA 160445Z 00000KT 9999 FEW012 18/15 Q1017=
201106160415 METAR LIRA 160415Z 19002KT 9999 FEW012 18/15 Q1017=
201106160345 METAR LIRA 160345Z 12002KT 9999 FEW070 17/15 Q1017=
201106160315 METAR LIRA 160315Z 11003KT CAVOK 17/16 Q1017=
201106160245 METAR LIRA 160245Z 13002KT CAVOK 18/16 Q1017=
201106160215 METAR LIRA 160215Z 14004KT 9999 FEW070 18/16 Q1017=
201106160145 METAR LIRA 160145Z 17001KT CAVOK 18/16 Q1017=
201106160115 METAR LIRA 160115Z 13001KT CAVOK 18/16 Q1017=
201106160045 METAR LIRA 160045Z 16002KT CAVOK 18/16 Q1017=
201106160015 METAR LIRA 160015Z 22002KT CAVOK 19/16 Q1017=
201106152350 METAR LIRA 160045Z 16002KT CAVOK 18/16 Q1017=
201106152345 METAR LIRA 152345Z 22001KT CAVOK 19/15 Q1017=
201106152315 METAR LIRA 152315Z 26001KT 9999 FEW018 19/15 Q1017=
201106152245 METAR LIRA 152245Z 00000KT 9999 FEW018 SCT025 20/15 Q1017=
201106152215 METAR LIRA 152215Z 16001KT 9999 FEW018 SCT025 21/15 Q1017=
201106152145 METAR LIRA 152145Z 15004KT 9999 FEW018 SCT025 21/16 Q1017=
201106152115 METAR LIRA 152115Z 15004KT 9999 FEW018 SCT025 21/16 Q1017=
201106152045 METAR LIRA 152045Z 15003KT 9999 FEW018 SCT025 22/16 Q1017=
201106152015 METAR LIRA 152015Z 17004KT 9999 FEW018 SCT025 22/16 Q1017=
201106151945 METAR LIRA 151945Z 19003KT 9999 FEW018 SCT025 22/16 Q1017=
201106151915 METAR LIRA 151915Z 22003KT 9999 FEW018 SCT070 22/16 Q1016=
201106151845 METAR LIRA 151845Z 23003KT 9999 FEW018 SCT070 22/16 Q1016=
201106151815 METAR LIRA 151815Z 25004KT 9999 FEW018 SCT070 23/15 Q1016=
201106151745 METAR LIRA 151745Z 21004KT 9999 FEW018 SCT070 24/15 Q1016=
201106151715 METAR LIRA 151715Z 23006KT 9999 FEW018 FEW020CB 24/14 Q1016=
201106151645 METAR LIRA 151645Z 23006KT 200V290 9999 FEW018 FEW020CB 25/15
                        Q1016 RETS=
201106151615 METAR LIRA 151615Z 24004KT 9999 FEW018 FEW020CB 25/16 Q1016
                        RETS=
201106151545 METAR LIRA 151545Z 25005KT 190V300 9999 -TSRA SCT018 FEW020CB
                        26/17 Q1016=
201106151515 METAR LIRA 151515Z 27007KT 210V290 9999 SCT018 FEW020CB 26/13
                        Q1016=
201106151445 METAR LIRA 151445Z 24008KT 220V340 9999 SCT018 FEW020CB 26/13
                        Q1016=
201106151415 METAR LIRA 151415Z 24008KT 9999 SCT018 FEW020CB 26/13 Q1016=
201106151345 METAR LIRA 151345Z 22008KT 180V250 9999 SCT018 FEW020CB 26/14
                        Q1016=
201106151315 METAR LIRA 151315Z 24007KT 210V270 9999 SCT018 FEW020CB 24/13
                        Q1016=
201106151245 METAR LIRA 151245Z 21007KT 9999 SCT018 FEW020CB 25/13 Q1016=
201106151215 METAR LIRA 151215Z 23008KT 180V270 9999 SCT018 FEW020CB 26/14
                        Q1016=
201106151145 METAR LIRA 151145Z 25004KT 220V290 9999 SCT018 FEW020CB 26/12
                        Q1016=
201106151115 METAR LIRA 151115Z 28005KT 230V340 9999 SCT018 FEW020CB 26/15
                        Q1016=
201106151045 METAR LIRA 151045Z 24005KT 220V280 9999 SCT018 FEW020TCU
                        27/15 Q1016=
201106151015 METAR LIRA 151015Z 15004KT 9999 SCT020 27/13 Q1016=
201106150945 METAR LIRA 150945Z 26001KT 9999 SCT020 26/13 Q1016=
201106150915 METAR LIRA 150915Z 17004KT 9999 FEW023 25/13 Q1016=
201106150845 METAR LIRA 150845Z 34002KT 9999 FEW023 25/13 Q1016=
201106150815 METAR LIRA 150815Z 03003KT 9999 FEW023 24/15 Q1016=
201106150745 METAR LIRA 150745Z 01003KT 9999 FEW023 23/15 Q1016=
201106150715 METAR LIRA 150715Z 01004KT 9999 FEW023 22/15 Q1016=
201106150645 METAR LIRA 150645Z 02004KT CAVOK 21/16 Q1016=
201106150615 METAR LIRA 150615Z 36003KT 9999 FEW070 20/16 Q1016=
201106150545 METAR LIRA 150545Z 02003KT 9999 FEW070 19/16 Q1016=
201106150515 METAR LIRA 150515Z 03004KT 9999 FEW070 18/16 Q1016=
201106150445 METAR LIRA 150445Z 00000KT 9999 FEW030 17/15 Q1016=
201106150415 METAR LIRA 150415Z 06001KT 9999 FEW030 16/14 Q1016=
201106150345 METAR LIRA 150345Z 00000KT 9999 FEW025 16/14 Q1016=
201106150315 METAR LIRA 150315Z 08003KT 9999 FEW025 17/14 Q1016=
201106150245 METAR LIRA 150245Z 09002KT 8000 FEW015 17/15 Q1016=
201106150215 METAR LIRA 150215Z 12001KT 8000 FEW015 SCT022 18/17 Q1016=
201106150145 METAR LIRA 150145Z 18002KT 8000 FEW015 SCT022 19/17 Q1016=
201106150115 METAR LIRA 150115Z 16002KT 8000 FEW015 SCT022 19/17 Q1016=
201106150045 METAR LIRA 150045Z 17004KT 8000 FEW015 SCT022 19/17 Q1016=
201106150015 METAR LIRA 150015Z 18004KT 8000 FEW015 SCT022 BKN070 19/17
                        Q1016=
201106142350 METAR LIRA 150045Z 17004KT 8000 FEW015 SCT022 19/17 Q1016=
201106142345 METAR LIRA 142345Z 18004KT 8000 FEW015 SCT070 19/17 Q1016=
201106142315 METAR LIRA 142315Z 19003KT 9999 FEW022 SCT070 19/17 Q1016=
201106142245 METAR LIRA 142245Z 20004KT 9999 FEW022 BKN070 19/17 Q1016=
201106142215 METAR LIRA 142215Z 20003KT 9999 FEW022 BKN070 19/17 Q1016=
201106142145 METAR LIRA 142145Z 21002KT 9999 FEW022 BKN070 19/17 Q1016=
201106142115 METAR LIRA 142115Z 17003KT 9999 FEW022 BKN070 20/18 Q1016=
201106142045 METAR LIRA 142045Z 21002KT 9999 FEW022 BKN070 20/18 Q1016=
201106142015 METAR LIRA 142015Z 18003KT 9999 FEW022 SCT070 20/18 Q1015=
201106141945 METAR LIRA 141945Z 19001KT 9999 FEW022 SCT070 21/17 Q1015=
201106141915 METAR LIRA 141915Z 25002KT 9999 FEW022 SCT070 21/17 Q1015=
201106141845 METAR LIRA 141845Z 27004KT 9999 FEW022 SCT070 22/17 Q1015=
201106141815 METAR LIRA 141815Z 27004KT 9999 FEW022 SCT070 22/18 Q1014=
201106141745 METAR LIRA 141745Z 26004KT 9999 FEW022 SCT025 23/16 Q1014
                        RETS=
201106141715 METAR LIRA 141715Z 25003KT 9999 FEW022 SCT025 22/16 Q1014
                        RETS=
201106141645 METAR LIRA 141645Z 22004KT 9999 TS SCT022 FEW023CB SCT025
                        22/16 Q1014=
201106141615 METAR LIRA 141615Z 26006KT 240V310 9999 TS SCT022 FEW023CB
                        SCT025 22/16 Q1014=
201106141545 METAR LIRA 141545Z 27008KT 230V330 9999 TS SCT022 FEW023CB
                        SCT025 23/16 Q1014=
201106141515 METAR LIRA 141515Z 23005KT 170V270 9999 TS SCT022 FEW023CB
                        SCT025 25/15 Q1014=
201106141445 METAR LIRA 141445Z 24003KT 170V300 9999 SCT022 FEW023CB 24/15
                        Q1014=
201106141415 METAR LIRA 141415Z 29005KT 220V300 9999 SCT022 FEW023CB 24/14
                        Q1014=
201106141345 METAR LIRA 141345Z 29007KT 240V330 9999 SCT022 FEW023CB 25/15
                        Q1014=
201106141315 METAR LIRA 141315Z 23005KT 180V290 9999 SCT022 FEW023CB 25/14
                        Q1014=
201106141245 METAR LIRA 141245Z 26007KT 180V290 9999 SCT022 FEW023CB 26/14
                        Q1014=
201106141215 METAR LIRA 141215Z 24006KT 200V290 9999 SCT022 FEW023CB 26/13
                        Q1014=
201106141145 METAR LIRA 141145Z 25008KT 200V300 9999 SCT023 25/15 Q1014=
201106141115 METAR LIRA 141115Z 24009KT 180V300 9999 SCT023 24/14 Q1014=
201106141045 METAR LIRA 141045Z 21005KT 140V270 9999 SCT023 26/12 Q1014=
201106141015 METAR LIRA 141015Z 21009KT 170V270 9999 SCT023 25/13 Q1014=
201106140945 METAR LIRA 140945Z 24007KT 190V300 9999 FEW023 25/13 Q1014=
201106140915 METAR LIRA 140915Z 28006KT 220V310 9999 FEW023 24/11 Q1014=
201106140845 METAR LIRA 140845Z 21005KT 170V270 9999 FEW023 24/11 Q1014=
201106140815 METAR LIRA 140815Z 30007KT CAVOK 23/11 Q1014=
201106140745 METAR LIRA 140745Z 09003KT CAVOK 22/13 Q1014=
201106140715 METAR LIRA 140715Z 35001KT CAVOK 21/13 Q1014=
201106140645 METAR LIRA 140645Z 02001KT CAVOK 20/13 Q1014=
201106140615 METAR LIRA 140615Z 02004KT CAVOK 18/12 Q1014=
201106140545 METAR LIRA 140545Z 33003KT 9999 FEW080 18/15 Q1014=
201106140515 METAR LIRA 140515Z 33003KT 9999 FEW080 17/14 Q1014=
201106140445 METAR LIRA 140445Z 00000KT 9999 FEW080 16/14 Q1014=
201106140415 METAR LIRA 140415Z 16002KT 9999 FEW080 15/12 Q1014=
201106140345 METAR LIRA 140345Z 00000KT 9999 FEW007 15/13 Q1014=
201106140315 METAR LIRA 140315Z 00000KT CAVOK 16/13 Q1014=
201106140245 METAR LIRA 140245Z 02002KT CAVOK 16/14 Q1014=
201106140215 METAR LIRA 140215Z 10003KT CAVOK 16/15 Q1014=
201106140145 METAR LIRA 140145Z 11003KT 9999 FEW007 17/16 Q1014=
201106140115 METAR LIRA 140115Z 17003KT 9999 SCT007 18/16 Q1014=
201106140045 METAR LIRA 140045Z 18003KT 9999 FEW007 18/16 Q1014=
201106140015 METAR LIRA 140015Z 17004KT 9999 FEW007 18/16 Q1015=
201106132350 METAR LIRA 140045Z 18003KT 9999 FEW007 18/16 Q1014=
201106132345 METAR LIRA 132345Z 18005KT 9999 FEW007 18/16 Q1015=
201106132315 METAR LIRA 132315Z 19005KT CAVOK 18/16 Q1015=
201106132245 METAR LIRA 132245Z 17005KT 9999 FEW018 18/16 Q1015=
201106132215 METAR LIRA 132215Z 16005KT 9999 FEW018 18/16 Q1015=
201106132145 METAR LIRA 132145Z 16004KT 9999 FEW018 18/16 Q1015=
201106132115 METAR LIRA 132115Z 20005KT 9999 FEW018 18/17 Q1015=
201106132045 METAR LIRA 132045Z 20005KT 9999 FEW018 19/17 Q1015=
201106132015 METAR LIRA 132015Z 19004KT 9999 FEW018 19/17 Q1015=
201106131945 METAR LIRA 131945Z 20005KT 9999 FEW018 19/16 Q1015=
201106131915 METAR LIRA 131915Z 22005KT 9999 FEW018 20/16 Q1015=
201106131845 METAR LIRA 131845Z 22004KT 9999 FEW018 FEW020TCU 21/16 Q1014=
201106131815 METAR LIRA 131815Z 21004KT 9999 FEW018 FEW020TCU 22/16 Q1014=
201106131745 METAR LIRA 131745Z 24006KT 9999 FEW018 FEW020CB 23/16 Q1014=
201106131715 METAR LIRA 131715Z 27005KT 220V320 9999 FEW018 FEW020CB 23/14
                        Q1014=
201106131645 METAR LIRA 131645Z 27008KT 210V310 9999 FEW018 FEW020CB 24/12
                        Q1014=
201106131615 METAR LIRA 131615Z 27008KT 220V300 9999 FEW018 FEW020CB 24/12
                        Q1014=
201106131545 METAR LIRA 131545Z 28007KT 220V310 9999 FEW018 25/15 Q1014=
201106131515 METAR LIRA 131515Z 27007KT 210V320 9999 FEW018 25/16 Q1014=
201106131445 METAR LIRA 131445Z 23005KT 150V310 9999 FEW018 25/17 Q1014=
201106131415 METAR LIRA 131415Z 24006KT 190V340 9999 FEW018 25/17 Q1014=
201106131345 METAR LIRA 131345Z 22006KT 160V300 9999 FEW018 25/18 Q1014=
201106131315 METAR LIRA 131315Z 21008KT 150V270 9999 FEW018 FEW020CB 25/18
                        Q1015=
201106131245 METAR LIRA 131245Z 23010KT 200V270 9999 FEW018 FEW020CB 25/18
                        Q1015=
201106131215 METAR LIRA 131215Z 23008KT 200V300 9999 FEW018 FEW020TCU
                        25/17 Q1015=
201106131145 METAR LIRA 131145Z 24008KT 210V280 9999 SCT018 FEW020TCU
                        25/16 Q1015=
201106131115 METAR LIRA 131115Z 21005KT 170V260 9999 SCT018 FEW020TCU
                        26/17 Q1015=
201106131045 METAR LIRA 131045Z 23006KT 180V290 9999 SCT018 FEW020TCU
                        25/16 Q1015=
201106131015 METAR LIRA 131015Z 20003KT 9999 SCT018 FEW020TCU 25/16 Q1015=
201106130945 METAR LIRA 130945Z 19003KT 190V270 9999 FEW018 FEW020TCU
                        25/15 Q1015=
201106130915 METAR LIRA 130915Z 21004KT 170V270 9999 FEW018 25/15 Q1015=
201106130900 METAR LIRA CONTUS=
201106130845 METAR LIRA 130845Z 14003KT 9999 FEW018 24/16 Q1015=
201106130815 METAR LIRA 130815Z 19002KT 9999 FEW018 23/16 Q1015=
201106130745 METAR LIRA 130745Z 32003KT CAVOK 22/17 Q1015=
201106130715 METAR LIRA 130715Z 33002KT CAVOK 21/17 Q1015=
201106130645 METAR LIRA 130645Z 33002KT CAVOK 20/16 Q1015=
201106130615 METAR LIRA 130615Z 24001KT CAVOK 19/16 Q1015=
201106130545 METAR LIRA 130545Z 34001KT CAVOK 18/16 Q1015=
201106130515 METAR LIRA 130515Z 34001KT CAVOK 18/15 Q1015=
201106130445 METAR LIRA 130445Z 03001KT CAVOK 17/15 Q1015=
201106130415 METAR LIRA 130415Z 00000KT CAVOK 16/15 Q1015=
201106130345 METAR LIRA 130345Z 00000KT CAVOK 16/15 Q1015=
201106130315 METAR LIRA 130315Z 10003KT CAVOK 16/15 Q1015=
201106130245 METAR LIRA 130245Z 10003KT CAVOK 16/15 Q1015=
201106130215 METAR LIRA 130215Z 13002KT CAVOK 17/16 Q1015=
201106130145 METAR LIRA 130145Z 17003KT 9999 FEW018 17/16 Q1015=
201106130115 METAR LIRA 130115Z 18003KT 9999 FEW018 17/16 Q1015=
201106130045 METAR LIRA 130045Z 16002KT 9999 FEW018 17/16 Q1015=
201106130015 METAR LIRA 130015Z 18003KT 9999 FEW018 18/17 Q1016=
201106122350 METAR LIRA 130045Z 16002KT 9999 FEW018 17/16 Q1015=
201106122345 METAR LIRA 122345Z 18004KT 9999 FEW018 18/17 Q1016=
201106122315 METAR LIRA 122315Z 18003KT 9999 FEW018 18/17 Q1016=
201106122245 METAR LIRA 122245Z 17003KT 9999 FEW018 18/17 Q1016=
201106122215 METAR LIRA 122215Z 18003KT 9999 FEW018 23/22 Q1016=
201106122145 METAR LIRA 122145Z 22003KT 9999 FEW018 18/17 Q1016=
201106122115 METAR LIRA 122115Z 20005KT 9999 FEW018 19/17 Q1016=
201106122045 METAR LIRA 122045Z 19003KT 9999 FEW018 19/17 Q1016=
201106122015 METAR LIRA 122015Z 19004KT 9999 FEW018 SCT200 19/17 Q1015=
201106121945 METAR LIRA 121945Z 19004KT 9999 FEW030 19/16 Q1015=
201106121915 METAR LIRA 121915Z 23003KT 9999 FEW018 20/16 Q1015=
201106121845 METAR LIRA 121845Z 23004KT 9999 FEW030 20/15 Q1015=
201106121815 METAR LIRA 121815Z 25005KT 9999 FEW018 22/13 Q1015=
201106121745 METAR LIRA 121745Z 28010KT 240V310 9999 FEW018 23/13 Q1014=
201106121715 METAR LIRA 121715Z 26009KT 230V300 9999 FEW018 23/13 Q1014=
201106121645 METAR LIRA 121645Z 28010KT 240V320 9999 SCT018 24/12 Q1014=
201106121615 METAR LIRA 121615Z 27016KT 240V320 9999 SCT018 FEW022TCU
                        24/10 Q1014=
201106121545 METAR LIRA 121545Z 27010G23KT 230V300 9999 SCT018 FEW022TCU
                        26/11 Q1014=
201106121515 METAR LIRA 121515Z 27011KT 9999 SCT018 FEW022TCU 26/11 Q1014=
201106121445 METAR LIRA 121445Z 26009KT 240V310 9999 SCT018 FEW022TCU
                        26/11 Q1015=
201106121415 METAR LIRA 121415Z 28012KT 240V310 9999 SCT018 FEW022TCU
                        26/11 Q1015=
201106121345 METAR LIRA 121345Z 27010KT 240V310 9999 SCT018 FEW022TCU
                        26/12 Q1015=
201106121315 METAR LIRA 121315Z 26008KT 230V310 9999 SCT018 FEW022TCU
                        26/13 Q1015=
201106121245 METAR LIRA 121245Z 26011KT 210V300 9999 SCT018 27/14 Q1015=
201106121215 METAR LIRA 121215Z 27010KT 9999 SCT018 27/13 Q1015=
201106121145 METAR LIRA 121145Z 29007KT 220V340 9999 SCT018 27/11 Q1015=
201106121115 METAR LIRA 121115Z 27008KT 9999 FEW018 26/11 Q1015=
201106121045 METAR LIRA 121045Z 34005KT 310V020 9999 FEW018 26/11 Q1015=
201106121015 METAR LIRA 121015Z 33007KT 9999 FEW018 25/10 Q1015=
201106120945 METAR LIRA 120945Z 33005KT 240V340 9999 FEW018 25/11 Q1015=
201106120915 METAR LIRA 120915Z 32006KT 290V020 9999 FEW018 24/12 Q1015=
201106120845 METAR LIRA 120845Z 34004KT 9999 FEW018 23/14 Q1015=
201106120815 METAR LIRA 120815Z 01005KT 350V070 9999 FEW018 22/14 Q1015=
201106120745 METAR LIRA 120745Z 36005KT 310V020 CAVOK 20/14 Q1015=
201106120715 METAR LIRA 120715Z 36005KT CAVOK 19/15 Q1015=
201106120645 METAR LIRA 120645Z 01004KT CAVOK 19/15 Q1015=
201106120615 METAR LIRA 120615Z 01005KT CAVOK 18/16 Q1015=
201106120545 METAR LIRA 120545Z 04005KT 010V070 CAVOK 17/16 Q1015=
201106120515 METAR LIRA 120515Z 01004KT CAVOK 16/15 Q1015=
201106120445 METAR LIRA 120445Z 04003KT CAVOK 15/15 Q1014=
201106120415 METAR LIRA 120415Z 04003KT CAVOK 15/14 Q1014=
201106120400 METAR LIRA CB E S=
201106120345 METAR LIRA 120345Z 02003KT CAVOK 15/15 Q1014=
201106120315 METAR LIRA 120315Z 01003KT CAVOK 16/15 Q1014=
201106120245 METAR LIRA 120245Z 01003KT CAVOK 16/15 Q1014=
201106120215 METAR LIRA 120215Z 01003KT CAVOK 16/15 Q1014=
201106120200 METAR LIRA INT=
201106120145 METAR LIRA 120145Z 04004KT CAVOK 17/16 Q1014=
201106120115 METAR LIRA 120115Z 36002KT CAVOK 17/16 Q1014=
201106120100 METAR LIRA INT=
201106120045 METAR LIRA 120045Z 01002KT CAVOK 17/16 Q1014=
201106120015 METAR LIRA 120015Z 01002KT CAVOK 17/17 Q1014=
201106120000 METAR LIRA INT CB E=
201106112350 METAR LIRA 120045Z 01002KT CAVOK 17/16 Q1014=
201106112345 METAR LIRA 112345Z 10003KT CAVOK 18/17 Q1014=
201106112315 METAR LIRA 112315Z 10002KT CAVOK 18/17 Q1014=
201106112245 METAR LIRA 112245Z 00000KT CAVOK 18/17 Q1014=
201106112215 METAR LIRA 112215Z 14002KT CAVOK 18/17 Q1014=
201106112145 METAR LIRA 112145Z 24003KT CAVOK 18/17 Q1014=
201106112115 METAR LIRA 112115Z 22003KT 9999 FEW030 19/18 Q1014=
201106112045 METAR LIRA 112045Z 19004KT 9999 FEW030 19/18 Q1014=
201106112015 METAR LIRA 112015Z 20003KT 9999 FEW030 20/18 Q1014=
201106111945 METAR LIRA 111945Z 22002KT 9999 FEW018 FEW020CB SCT030 20/18
                        Q1014=
201106111915 METAR LIRA 111915Z 22004KT 9999 FEW018 FEW020CB 20/18 Q1014=
201106111845 METAR LIRA 111845Z 23003KT 9999 FEW018 FEW020CB SCT070 21/18
                        Q1014=
201106111815 METAR LIRA 111815Z 26003KT 9999 FEW018 FEW020CB SCT070 22/17
                        Q1014=
201106111745 METAR LIRA 111745Z 27005KT 240V320 9999 FEW018 FEW020CB SCT080
                        22/17 Q1013=
201106111715 METAR LIRA 111715Z 24007KT 220V300 9999 FEW018 FEW020CB SCT080
                        23/16 Q1013=
201106111645 METAR LIRA 111645Z 29008KT 250V340 9999 FEW018 FEW020CB 23/14
                        Q1012=
201106111615 METAR LIRA 111615Z 27009KT 230V300 9999 FEW018 FEW020CB 24/13
                        Q1012=
201106111545 METAR LIRA 111545Z 27009KT 250V310 9999 FEW018 FEW020CB 24/12
                        Q1013=
201106111515 METAR LIRA 111515Z 26010KT 230V300 9999 FEW018 FEW020CB SCT030
                        24/11 Q1013=
201106111445 METAR LIRA 111445Z 27010KT 220V340 9999 FEW018 FEW020CB SCT080
                        25/11 Q1013=
201106111415 METAR LIRA 111415Z 28008KT 230V350 9999 FEW018 FEW020CB SCT080
                        25/12 Q1013=
201106111345 METAR LIRA 111345Z 26011G21KT 210V310 9999 FEW018 FEW020CB
                        SCT200 25/12 Q1013=
201106111315 METAR LIRA 111315Z 29004KT 9999 FEW018 FEW020TCU SCT070 24/14
                        Q1013=
201106111245 METAR LIRA 111245Z 26003KT 9999 FEW018 SCT070 23/14 Q1013=
201106111215 METAR LIRA 111215Z 03003KT 9999 FEW018 SCT070 23/15 Q1014=
201106111145 METAR LIRA 111145Z 19002KT 9999 FEW018 SCT070 22/15 Q1014=
201106111115 METAR LIRA 111115Z 03002KT 9999 FEW018 BKN070 22/15 Q1014=
201106111045 METAR LIRA 111045Z 32002KT 9999 FEW030 BKN070 20/14 Q1014=
201106111015 METAR LIRA 111015Z 27002KT 9999 FEW030 BKN070 20/15 Q1014=
201106110945 METAR LIRA 110945Z 31002KT 9999 FEW030 BKN070 20/15 Q1014=
201106110915 METAR LIRA 110915Z 00000KT 9999 FEW030 BKN070 19/15 Q1014=
201106110845 METAR LIRA 110845Z 34004KT 9999 FEW030 BKN070 18/15 Q1014=
201106110815 METAR LIRA 110815Z 35002KT 9999 FEW030 BKN070 18/15 Q1014=
201106110745 METAR LIRA 110745Z 35003KT 9999 -DZ SCT030 BKN070 18/15 Q1014=
201106110715 METAR LIRA 110715Z 05006KT 010V070 9999 -DZ SCT030 BKN070
                        18/15 Q1014=
201106110645 METAR LIRA 110645Z 36005KT 9999 -DZ SCT030 BKN070 18/15 Q1014=
201106110615 METAR LIRA 110615Z 36006KT 9999 FEW030 BKN070 18/13 Q1013=
201106110545 METAR LIRA 110545Z 35006KT 9999 FEW030 BKN070 18/15 Q1013=
201106110515 METAR LIRA 110515Z 04003KT 9999 FEW030 BKN070 17/15 Q1013=
201106110445 METAR LIRA 110445Z 03003KT 9999 FEW030 BKN070 17/15 Q1013=
201106110415 METAR LIRA 110415Z 01003KT 9999 FEW025 BKN070 17/15 Q1013=
201106110400 METAR LIRA CONTUS=
201106110345 METAR LIRA 110345Z 06004KT 9999 FEW025 BKN070 17/15 Q1013=
201106110315 METAR LIRA 110315Z 05003KT 9999 FEW025 BKN070 17/15 Q1013=
201106110245 METAR LIRA 110245Z 00000KT 9999 FEW025 BKN070 17/14 Q1013=
201106110215 METAR LIRA 110215Z 00000KT 9999 FEW025 BKN070 17/15 Q1013=
201106110145 METAR LIRA 110145Z 00000KT 9999 FEW025 BKN070 17/15 Q1013=
201106110115 METAR LIRA 110115Z 00000KT 9999 FEW025 BKN070 17/15 Q1013=
201106110045 METAR LIRA 110045Z 00000KT 9999 FEW025 SCT070 18/15 Q1014=
201106110015 METAR LIRA 110015Z 11001KT 9999 FEW025 SCT070 18/15 Q1014=
201106102350 METAR LIRA 110045Z 00000KT 9999 FEW025 SCT070 18/15 Q1014=
201106102345 METAR LIRA 102345Z 20002KT 9999 FEW025 SCT070 18/14 Q1014=
201106102315 METAR LIRA 102315Z 22001KT 9999 FEW025 SCT070 17/13 Q1014=
201106102245 METAR LIRA 102245Z 25002KT 9999 FEW025 SCT070 18/13 Q1014=
201106102215 METAR LIRA 102215Z 24003KT 9999 FEW025 SCT070 18/13 Q1014=
201106102145 METAR LIRA 102145Z 24002KT 9999 FEW025 18/13 Q1014=
201106102115 METAR LIRA 102115Z 24003KT 9999 FEW025 19/14 Q1013=
201106102045 METAR LIRA 102045Z 14002KT 9999 FEW025 19/14 Q1013=
201106102015 METAR LIRA 102015Z 25003KT 9999 FEW025 19/13 Q1013=
201106101945 METAR LIRA 101945Z 26003KT 9999 FEW025 20/14 Q1012=
201106101915 METAR LIRA 101915Z 28003KT 9999 FEW025 21/13 Q1012=
201106101845 METAR LIRA 101845Z 27006KT 230V290 9999 FEW025 22/13 Q1012=
201106101815 METAR LIRA 101815Z 28007KT 240V300 9999 FEW025 22/12 Q1012=
201106101745 METAR LIRA 101745Z 28008KT 250V320 9999 SCT025 23/12 Q1012=
201106101715 METAR LIRA 101715Z 27009KT 250V330 9999 SCT025 24/12 Q1012=
201106101645 METAR LIRA 101645Z 28009KT 230V310 9999 SCT025 24/13 Q1012=
201106101615 METAR LIRA 101615Z 18010KT 240V330 9999 SCT025 25/13 Q1012=
201106101545 METAR LIRA 101545Z 27011KT 240V340 9999 SCT025 25/12 Q1012=
201106101515 METAR LIRA 101515Z 29012KT 240V350 9999 SCT025 25/11 Q1012=
201106101445 METAR LIRA 101445Z 28013KT 220V310 9999 SCT025 26/11 Q1013=
201106101415 METAR LIRA 101415Z 28012KT 240V330 9999 SCT025 27/11 Q1013=
201106101345 METAR LIRA 101345Z 34007KT 300V020 9999 SCT025 27/10 Q1013=
201106101315 METAR LIRA 101315Z 35006KT 320V060 9999 SCT025 27/10 Q1013=
201106101245 METAR LIRA 101245Z 32007KT 280V020 9999 SCT023 26/09 Q1013=
201106101215 METAR LIRA 101215Z 36005KT 310V050 9999 SCT023 25/09 Q1013=
201106101145 METAR LIRA 101145Z 32009KT 270V360 9999 SCT023 26/10 Q1013=
201106101115 METAR LIRA 101115Z 28005KT 9999 SCT023 25/10 Q1013=
201106101045 METAR LIRA 101045Z 32005KT 270V020 9999 FEW023 25/10 Q1013=
201106101015 METAR LIRA 101015Z 23007KT 300V030 9999 FEW023 25/12 Q1013=
201106100945 METAR LIRA 100945Z 33007KT 280V020 9999 FEW023 24/15 Q1013=
201106100915 METAR LIRA 100915Z 35005KT 320V030 9999 FEW023 24/16 Q1013=
201106100845 METAR LIRA 100845Z 02005KT 340V060 9999 FEW023 23/16 Q1014=
201106100815 METAR LIRA 100815Z 03006KT 310V060 9999 FEW023 22/15 Q1014=
201106100745 METAR LIRA 100745Z 36005KT 320V030 9999 FEW023 21/15 Q1014=
201106100715 METAR LIRA 100715Z 03005KT 9999 FEW023 20/15 Q1014=
201106100645 METAR LIRA 100645Z 02005KT 250V060 9999 FEW023 19/15 Q1014=
201106100615 METAR LIRA 100615Z 03005KT CAVOK 18/16 Q1014=
201106100545 METAR LIRA 100545Z 02005KT 330V060 CAVOK 17/16 Q1013=
201106100515 METAR LIRA 100515Z 36004KT CAVOK 17/16 Q1013=
201106100445 METAR LIRA 100445Z 02005KT CAVOK 16/15 Q1013=
201106100415 METAR LIRA 100415Z 04003KT CAVOK 14/13 Q1013=
201106100345 METAR LIRA 100345Z 04004KT CAVOK 14/13 Q1013=
201106100315 METAR LIRA 100315Z 04003KT CAVOK 14/13 Q1013=
201106100245 METAR LIRA 100245Z 06004KT 9999 FEW070 15/14 Q1013=
201106100215 METAR LIRA 100215Z 01003KT 9999 FEW070 16/14 Q1014=
201106100145 METAR LIRA 100145Z 12001KT 9999 FEW070 16/13 Q1014=
201106100115 METAR LIRA 100115Z 12002KT CAVOK 16/14 Q1014=
201106100045 METAR LIRA 100045Z 11006KT 9999 FEW070 16/14 Q1014=
201106100015 METAR LIRA 100015Z 14004KT CAVOK 17/15 Q1014=
201106092350 METAR LIRA 100045Z 11006KT 9999 FEW070 16/14 Q1014=
201106092345 METAR LIRA 092345Z 14003KT CAVOK 17/16 Q1014=
201106092315 METAR LIRA 092315Z 15004KT CAVOK 17/17 Q1014=
201106092245 METAR LIRA 092245Z 14006KT CAVOK 18/17 Q1014=
201106092215 METAR LIRA 092215Z 16004KT CAVOK 19/17 Q1014=
201106092145 METAR LIRA 092145Z 16005KT CAVOK 19/17 Q1014=
201106092115 METAR LIRA 092115Z 14006KT CAVOK 18/17 Q1014=
201106092045 METAR LIRA 092045Z 16005KT CAVOK 19/17 Q1014=
201106092015 METAR LIRA 092015Z 18006KT CAVOK 19/17 Q1013=
201106091945 METAR LIRA 091945Z 17006KT 9999 FEW025 19/17 Q1013=
201106091915 METAR LIRA 091915Z 18006KT 9999 FEW025 20/17 Q1013=
201106091845 METAR LIRA 091845Z 20005KT 9999 FEW070 20/17 Q1013=
201106091815 METAR LIRA 091815Z 22005KT 190V250 9999 FEW018 21/17 Q1013=
201106091745 METAR LIRA 091745Z 22007KT 170V250 9999 FEW017 22/17 Q1013=
201106091715 METAR LIRA 091715Z 23007KT 190V260 9999 FEW017 FEW020TCU
                        22/16 Q1012=
201106091645 METAR LIRA 091645Z 24007KT 200V280 9999 FEW018 FEW020TCU
                        22/16 Q1012=
201106091615 METAR LIRA 091615Z 28006KT 230V300 9999 SCT018 FEW020TCU
                        24/16 Q1012=
201106091545 METAR LIRA 091545Z 23007KT 180V290 9999 SCT018 FEW020TCU
                        24/18 Q1012=
201106091515 METAR LIRA 091515Z 23008KT 190V280 9999 SCT018 FEW020TCU
                        23/17 Q1012=
201106091445 METAR LIRA 091445Z 24009KT 180V270 9999 SCT018 FEW020TCU
                        23/16 Q1012=
201106091415 METAR LIRA 091415Z 23009KT 170V260 9999 SCT018 FEW020TCU
                        24/15 Q1012 WS RWY 15=
201106091345 METAR LIRA 091345Z 23009KT 190V250 9999 SCT018 FEW020CB 24/15
                        Q1012 WS RWY 15=
201106091315 METAR LIRA 091315Z 20008KT 160V240 9999 SCT018 FEW020CB 24/15
                        Q1012=
201106091245 METAR LIRA 091245Z 20010KT 170V270 9999 SCT018 FEW020TCU
                        24/15 Q1012=
201106091215 METAR LIRA 091215Z 20009KT 190V240 9999 SCT018 24/15 Q1012=
201106091145 METAR LIRA 091145Z 21008KT 170V250 9999 SCT018 FEW020TCU
                        25/15 Q1013=
201106091115 METAR LIRA 091115Z 19010KT 9999 SCT018 FEW020TCU 24/15 Q1013=
201106091045 METAR LIRA 091045Z 17008KT 140V210 9999 SCT016 FEW018TCU
                        24/15 Q1013=
201106091015 METAR LIRA 091015Z 18008KT 9999 SCT016 FEW018TCU 23/15 Q1013=
201106090945 METAR LIRA 090945Z 21008KT 160V260 9999 SCT016 FEW018TCU
                        22/15 Q1013=
201106090915 METAR LIRA 090915Z 21006KT 180V250 9999 SCT016 FEW018TCU
                        22/17 Q1013=
201106090845 METAR LIRA 090845Z 22007KT 160V290 9999 SCT016 FEW018TCU
                        22/17 Q1013=
201106090815 METAR LIRA 090815Z 21006KT 150V260 9999 SCT016 FEW018TCU
                        22/17 Q1013=
201106090745 METAR LIRA 090745Z 19005KT 9999 SCT013 FEW015TCU SCT023 20/16
                        Q1013=
201106090715 METAR LIRA 090715Z 14005KT 090V180 9999 SCT013 FEW015TCU
                        SCT023 20/18 Q1013=
201106090645 METAR LIRA 090645Z 19005KT 120V240 9999 SCT013 FEW015TCU
                        SCT023 20/18 Q1013=
201106090615 METAR LIRA 090615Z 21004KT 9999 SCT010 FEW015TCU SCT023 19/18
                        Q1012=
201106090545 METAR LIRA 090545Z 21005KT 160V230 9999 SCT010 FEW015CB SCT023
                        18/18 Q1012=
201106090515 METAR LIRA 090515Z 21005KT 9999 -RA SCT010 FEW015CB SCT023
                        18/17 Q1012=
201106090445 METAR LIRA 090445Z 00000KT 9999 SCT010 FEW015CB SCT025 18/17
                        Q1012=
201106090415 METAR LIRA 090415Z 12003KT 9999 -RA SCT010 FEW015CB SCT025
                        18/18 Q1012=
201106090345 METAR LIRA 090345Z 15004KT 9999 -RA FEW014 FEW015CB BKN025
                        18/17 Q1012=
201106090315 METAR LIRA 090315Z 12003KT 9999 -RA FEW017 FEW018CB SCT030
                        18/17 Q1012=
201106090245 METAR LIRA 090245Z 14005KT 9999 -RA FEW017 FEW018CB SCT030
                        19/17 Q1012=
201106090215 METAR LIRA 090215Z 14006KT 9999 FEW018 FEW020CB SCT080 18/16
                        Q1012=
201106090145 METAR LIRA 090145Z 13005KT 9999 FEW018 FEW020CB SCT070 18/16
                        Q1012=
201106090115 METAR LIRA 090115Z 15005KT 9999 FEW018 SCT080 19/17 Q1012=
201106090045 METAR LIRA 090045Z 00000KT 9999 FEW018 SCT080 18/16 Q1013=
201106090015 METAR LIRA 090015Z 09002KT 9999 FEW018 SCT080 18/16 Q1013=
201106082350 METAR LIRA 090045Z 00000KT 9999 FEW018 SCT080 18/16 Q1013=
201106082345 METAR LIRA 082345Z 13002KT 9999 FEW018 SCT080 18/16 Q1013=
201106082315 METAR LIRA 082315Z 14003KT 9999 FEW018 SCT080 18/16 Q1013=
201106082245 METAR LIRA 082245Z 16004KT 9999 FEW018 SCT080 19/16 Q1013=
201106082215 METAR LIRA 082215Z 13004KT 9999 FEW018 SCT080 19/16 Q1013=
201106082145 METAR LIRA 082145Z 15001KT 9999 FEW018 SCT080 19/16 Q1013=
201106082115 METAR LIRA 082115Z 15004KT 9999 FEW018 SCT080 19/17 Q1012=
201106082045 METAR LIRA 082045Z 18003KT 9999 FEW018 SCT080 19/17 Q1012=
201106082015 METAR LIRA 082015Z 15002KT 9999 FEW018 SCT080 19/17 Q1012=
201106081945 METAR LIRA 081945Z 18002KT 9999 FEW018 SCT080 20/17 Q1012=
201106081915 METAR LIRA 081915Z 22004KT 9999 FEW018 SCT080 20/17 Q1012=
201106081845 METAR LIRA 081845Z 22003KT 9999 FEW018 FEW020CB 20/17 Q1012=
201106081815 METAR LIRA 081815Z 23005KT 9999 FEW018 FEW020CB 21/16 Q1011=
201106081745 METAR LIRA 081745Z 23006KT 9999 FEW018 FEW020CB 22/15 Q1010=
201106081715 METAR LIRA 081715Z 25006KT 220V280 9999 FEW018 FEW020CB 22/14
                        Q1010=
201106081645 METAR LIRA 081645Z 23008KT 200V300 9999 FEW018 FEW020CB 23/15
                        Q1010=
201106081615 METAR LIRA 081615Z 26006KT 210V290 9999 FEW018 FEW020CB 24/16
                        Q1010=
201106081545 METAR LIRA 081545Z 23008KT 180V270 9999 SCT018 24/16 Q1010=
201106081515 METAR LIRA 081515Z 23006KT 160V290 9999 SCT018 24/16 Q1010=
201106081445 METAR LIRA 081445Z 23009KT 150V260 9999 SCT018 24/15 Q1010=
201106081415 METAR LIRA 081415Z 22007KT 180V280 9999 SCT018 24/17 Q1010=
201106081345 METAR LIRA 081345Z 21008KT 170V250 9999 SCT018 24/16 Q1010=
201106081315 METAR LIRA 081315Z 23008KT 160V270 9999 BKN018 24/16 Q1010=
201106081245 METAR LIRA 081245Z 24009KT 170V300 9999 BKN018 25/17 Q1010=
201106081215 METAR LIRA 081215Z 23009KT 170V290 9999 FEW016TCU BKN018
                        26/17 Q1010=
201106081145 METAR LIRA 081145Z 24010KT 180V270 9999 FEW016TCU SCT017
                        25/17 Q1010=
201106081115 METAR LIRA 081115Z 23008KT 180V280 9999 FEW016TCU SCT017
                        24/17 Q1010=
201106081045 METAR LIRA 081045Z 21007KT 180V250 9999 FEW015 SCT017 24/17
                        Q1010=
201106081015 METAR LIRA 081015Z 23009KT 9999 FEW015 SCT017 24/18 Q1010=
201106080945 METAR LIRA 080945Z 23008KT 210V300 9999 FEW015 SCT017 24/17
                        Q1010=
201106080915 METAR LIRA 080915Z 19008KT 160V250 9999 FEW017CB BKN018 24/17
                        Q1009=
201106080845 METAR LIRA 080845Z 19006KT 130V220 9999 FEW017CB SCT018 23/17
                        Q1009=
201106080815 METAR LIRA 080815Z 19007KT 160V240 9999 FEW017CB SCT018 22/18
                        Q1009=
201106080745 METAR LIRA 080745Z 18009KT 150V220 9999 FEW016CB SCT018 22/18
                        Q1009=
201106080715 METAR LIRA 080715Z 19009KT 150V220 9999 FEW016 FEW017TCU
                        22/17 Q1009=
201106080645 METAR LIRA 080645Z 17009KT 9999 FEW016 FEW017TCU 21/18 Q1009=
201106080615 METAR LIRA 080615Z 17010KT 9999 FEW017TCU SCT018 21/17 Q1008=
201106080545 METAR LIRA 080545Z 16010KT 140V200 9999 FEW017TCU SCT018
                        20/18 Q1008=
201106080515 METAR LIRA 080515Z 17009KT 9999 SCT017 19/18 Q1008=
201106080445 METAR LIRA 080445Z 19006KT 9999 FEW016 19/17 Q1008=
201106080415 METAR LIRA 080415Z 18006KT 9999 FEW016 19/17 Q1008=
201106080345 METAR LIRA 080345Z 17007KT 120V200 9999 FEW018 SCT030 19/17
                        Q1008=
201106080315 METAR LIRA 080315Z 16006KT 9999 FEW018 SCT030 19/17 Q1008=
201106080245 METAR LIRA 080245Z 17006KT 9999 FEW018 SCT030 19/17 Q1008=
201106080215 METAR LIRA 080215Z 16003KT 9999 FEW018 SCT030 19/16 Q1008=
201106080145 METAR LIRA 080145Z 17003KT 9999 FEW018 SCT030 19/16 Q1008=
201106080115 METAR LIRA 080115Z 18003KT 9999 FEW018 SCT030 19/16 Q1008=
201106080045 METAR LIRA 080045Z 17003KT 9999 FEW018 SCT030 20/17 Q1008=
201106080015 METAR LIRA 080015Z 18002KT 9999 FEW018 SCT030 20/17 Q1008=
201106072350 METAR LIRA 080045Z 17003KT 9999 FEW018 SCT030 20/17 Q1008=
201106072345 METAR LIRA 072345Z 17003KT 9999 FEW018 SCT030 20/18 Q1008=
201106072315 METAR LIRA 072315Z 18003KT 9999 FEW018 SCT030 20/17 Q1008=
201106072245 METAR LIRA 072245Z 20003KT 9999 FEW018 SCT030 20/18 Q1008=
201106072215 METAR LIRA 072215Z 21004KT 9000 FEW005 SCT030 20/19 Q1008=
201106072145 METAR LIRA 072145Z 22002KT 9000 FEW005 SCT030 20/19 Q1007=
201106072115 METAR LIRA 072115Z 22004KT 9000 FEW005 SCT030 20/18 Q1007=
201106072045 METAR LIRA 072045Z 24003KT 9000 FEW015 BKN030 20/18 Q1007=
201106072015 METAR LIRA 072015Z 24005KT 210V270 9000 SCT014 BKN025 20/19
                        Q1007=
201106071945 METAR LIRA 071945Z 26004KT 180V290 7000 SCT014 BKN025 20/19
                        Q1006=
201106071915 METAR LIRA 071915Z 23005KT 7000 FEW015 SCT030 21/20 Q1006=
201106071845 METAR LIRA 071845Z 21006KT 9999 FEW018 BKN080 22/20 Q1005=
201106071815 METAR LIRA 071815Z 21004KT 9999 FEW018 BKN080 23/20 Q1005=
201106071745 METAR LIRA 071745Z 21005KT 9999 FEW018 BKN080 23/20 Q1005=
201106071715 METAR LIRA 071715Z 23007KT 180V240 9999 FEW018 BKN080 23/20
                        Q1005=
201106071645 METAR LIRA 071645Z 21006KT 190V260 9999 FEW018 SCT070 24/19
                        Q1005=
201106071615 METAR LIRA 071615Z 23007KT 9999 FEW018 SCT070 25/19 Q1005=
201106071545 METAR LIRA 071545Z 23006KT 190V260 9999 FEW018 25/18 Q1005=
201106071515 METAR LIRA 071515Z 22007KT 180V250 9999 FEW018 SCT080 25/18
                        Q1005=
201106071445 METAR LIRA 071445Z 23010KT 180V250 9999 FEW018 SCT080 25/17
                        Q1005=
201106071415 METAR LIRA 071415Z 21009KT 180V260 9999 FEW018 SCT080 26/16
                        Q1005=
201106071345 METAR LIRA 071345Z 24009KT 190V260 9999 FEW018 SCT080 27/17
                        Q1005=
201106071315 METAR LIRA 071315Z 22010KT 170V250 9999 FEW017 SCT070 27/17
                        Q1005=
201106071245 METAR LIRA 071245Z 22007G18KT 170V250 9999 FEW017 FEW020TCU
                        SCT070 27/17 Q1005=
201106071215 METAR LIRA 071215Z 21010KT 180V250 9999 FEW015 FEW018TCU
                        SCT070 27/17 Q1005=
201106071145 METAR LIRA 071145Z 18010KT 160V230 9999 FEW015 FEW018TCU
                        SCT070 27/18 Q1005=
201106071115 METAR LIRA 071115Z 17009KT 9999 FEW015 FEW018TCU SCT070 25/20
                        Q1005=
201106071045 METAR LIRA 071045Z 17006KT 160V260 9999 FEW015 SCT070 24/20
                        Q1005=
201106071015 METAR LIRA 071015Z 11003KT 9999 FEW015 SCT070 23/20 Q1005=
201106070945 METAR LIRA 070945Z 05001KT 8000 -RA FEW015 BKN070 22/19 Q1005=
201106070915 METAR LIRA 070915Z 15001KT 8000 -RA FEW015 BKN070 22/19 Q1005=
201106070845 METAR LIRA 070845Z 02003KT 8000 FEW015 BKN070 21/20 Q1005=
201106070815 METAR LIRA 070815Z 03005KT 030V090 7000 -RA FEW015 FEW020CB
                        SCT070 20/20 Q1005=
201106070745 METAR LIRA 070745Z 04005KT 7000 FEW015 FEW020CB SCT070 21/20
                        Q1005 RETS=
201106070715 METAR LIRA 070715Z 05002KT 6000 FEW015 FEW017CB SCT025 21/20
                        Q1005 RETS=
201106070645 METAR LIRA 070645Z 08001KT 6000 -TSRA FEW015 FEW017CB SCT025
                        21/20 Q1005=
201106070615 METAR LIRA 070615Z 11005KT 5000 -TSRA FEW009 FEW017CB BKN025
                        20/19 Q1005=
201106070545 METAR LIRA 070545Z 22001KT 7000 -RA FEW017 SCT030 BKN070
                        20/19 Q1005 RERA=
201106070515 METAR LIRA 070515Z 26001KT 7000 -RA FEW017 SCT030 BKN070
                        20/19 Q1005=
201106070445 METAR LIRA 070445Z 22002KT 8000 FEW030 BKN080 19/19 Q1004=
201106070415 METAR LIRA 070415Z 23002KT 8000 FEW023 SCT080 19/18 Q1004=
201106070345 METAR LIRA 070345Z 00000KT 8000 FEW023 SCT070 19/19 Q1004=
201106070315 METAR LIRA 070315Z 34001KT 7000 FEW005 SCT070 20/19 Q1004=
201106070245 METAR LIRA 070245Z 32002KT 9999 FEW023 BKN070 20/19 Q1004=
201106070215 METAR LIRA 070215Z 00000KT 7000 FEW005 SCT080 20/19 Q1005=
201106070145 METAR LIRA 070145Z 35001KT 7000 FEW005 SCT023 20/19 Q1005=
201106070115 METAR LIRA 070115Z 02001KT 7000 FEW005 SCT070 21/20 Q1005=
201106070045 METAR LIRA 070045Z 02002KT 8000 FEW025 SCT070 21/20 Q1005=
201106070015 METAR LIRA 070015Z 00000KT 8000 FEW025 SCT070 21/20 Q1006=
201106062350 METAR LIRA 070045Z 02002KT 8000 FEW025 SCT070 21/20 Q1005=
201106062345 METAR LIRA 062345Z 05003KT 8000 FEW025 SCT070 20/20 Q1006=
201106062315 METAR LIRA 062315Z 04002KT 8000 FEW025 SCT070 21/20 Q1006=
201106062245 METAR LIRA 062245Z 35001KT 8000 SCT025 BKN060 21/20 Q1007=
201106062215 METAR LIRA 062215Z 04003KT 8000 SCT025 BKN060 21/20 Q1007=
201106062145 METAR LIRA 062145Z 04002KT 8000 SCT025 BKN060 21/20 Q1007=
201106062115 METAR LIRA 062115Z 03003KT 8000 -RA FEW015 SCT025 21/20 Q1007=
201106062045 METAR LIRA 062045Z 03002KT 8000 FEW015 SCT025 21/20 Q1008=
201106062015 METAR LIRA 062015Z 02001KT 8000 FEW015 SCT025 21/20 Q1008=
201106061945 METAR LIRA 061945Z 35002KT 8000 FEW005 SCT025 21/20 Q1008=
201106061915 METAR LIRA 061915Z 24003KT 8000 -RA FEW012 FEW020TCU SCT027
                        21/20 Q1008=
201106061845 METAR LIRA 061845Z 24005KT 9999 FEW015 FEW020TCU SCT030 22/21
                        Q1008=
201106061815 METAR LIRA 061815Z 23004KT 9000 -RA FEW018 FEW020CB SCT030
                        23/21 Q1007=
201106061745 METAR LIRA 061745Z 21007KT 180V250 9999 FEW020 FEW022CB SCT060
                        24/21 Q1008=
201106061715 METAR LIRA 061715Z 21008KT 170V240 9999 FEW020 SCT070 25/20
                        Q1007=
201106061645 METAR LIRA 061645Z 19010KT 160V220 9999 FEW020 26/18 Q1007=
201106061615 METAR LIRA 061615Z 21010KT 170V250 9999 SCT018 26/20 Q1007=
201106061545 METAR LIRA 061545Z 19011KT 9999 SCT018 SCT200 28/17 Q1007=
201106061515 METAR LIRA 061515Z 18010KT 140V230 9999 SCT018 SCT200 28/18
                        Q1007=
201106061445 METAR LIRA 061445Z 19006KT 140V230 9999 SCT018 28/18 Q1007=
201106061415 METAR LIRA 061415Z 14009KT 110V180 9999 SCT018 SCT200 28/18
                        Q1008=
201106061345 METAR LIRA 061345Z 16009KT 100V180 9999 SCT018 28/18 Q1008=
201106061315 METAR LIRA 061315Z 16011KT 120V190 9999 SCT018 28/18 Q1008=
201106061245 METAR LIRA 061245Z 18010KT 130V210 9999 SCT018 28/19 Q1008=
201106061215 METAR LIRA 061215Z 16013KT 130V170 9999 SCT018 27/18 Q1009=
201106061145 METAR LIRA 061145Z 18011KT 140V230 9999 SCT018 27/18 Q1009=
201106061115 METAR LIRA 061115Z 17014KT 9999 SCT018 SCT200 28/19 Q1009=
201106061045 METAR LIRA 061045Z 17013KT 150V210 9999 SCT020 SCT200 28/19
                        Q1009=
201106061015 METAR LIRA 061015Z 17011KT 9999 SCT020 SCT200 27/18 Q1009=
201106060945 METAR LIRA 060945Z 15014KT 9999 SCT022 SCT200 28/17 Q1009=
201106060915 METAR LIRA 060915Z 16012KT 130V190 9999 SCT022 27/16 Q1009=
201106060845 METAR LIRA 060845Z 15011KT 9999 FEW022 25/15 Q1009=
201106060815 METAR LIRA 060815Z 15011KT 9999 FEW020 25/15 Q1009=
201106060745 METAR LIRA 060745Z 18010KT CAVOK 24/15 Q1009=
201106060715 METAR LIRA 060715Z 36002KT CAVOK 23/18 Q1009=
201106060645 METAR LIRA 060645Z 01003KT 9999 FEW070 21/17 Q1009=
201106060615 METAR LIRA 060615Z 35003KT 9999 FEW070 SCT200 19/16 Q1008=
201106060545 METAR LIRA 060545Z 36001KT 9999 FEW070 SCT200 18/16 Q1008=
201106060515 METAR LIRA 060515Z 02002KT 9999 FEW070 SCT200 17/16 Q1008=
201106060445 METAR LIRA 060445Z 03002KT 9999 FEW030 16/15 Q1008=
201106060415 METAR LIRA 060415Z 01002KT 9999 FEW025 16/15 Q1008=
201106060345 METAR LIRA 060345Z 04003KT 9999 FEW025 16/15 Q1008=
201106060315 METAR LIRA 060315Z 03001KT 9999 FEW025 16/15 Q1008=
201106060245 METAR LIRA 060245Z 36002KT 9999 FEW025 17/15 Q1008=
201106060215 METAR LIRA 060215Z 33002KT 9999 FEW025 17/15 Q1008=
201106060145 METAR LIRA 060145Z 32003KT 9999 FEW025 17/16 Q1009=
201106060115 METAR LIRA 060115Z 03001KT 9999 SCT023 17/16 Q1009=
201106060045 METAR LIRA 060045Z 01001KT 9999 SCT023 17/15 Q1009=
201106060015 METAR LIRA 060015Z 33003KT 9999 FEW023 17/15 Q1009=
201106052350 METAR LIRA 060045Z 01001KT 9999 SCT023 17/15 Q1009=
201106052345 METAR LIRA 052345Z 05003KT 9999 FEW023 17/15 Q1009=
201106052315 METAR LIRA 052315Z 01003KT 9999 FEW023 17/15 Q1010=
201106052245 METAR LIRA 052245Z 36003KT 9999 SCT023 17/16 Q1010=
201106052215 METAR LIRA 052215Z 03005KT 9999 SCT023 18/16 Q1010=
201106052145 METAR LIRA 052145Z 02005KT 340V050 9999 SCT023 18/16 Q1010=
201106052115 METAR LIRA 052115Z 02004KT 9999 BKN023 SCT060 18/16 Q1010=
201106052045 METAR LIRA 052045Z 02005KT 9999 BKN023 SCT060 18/15 Q1010=
201106052015 METAR LIRA 052015Z 05008KT 9999 BKN023 19/15 Q1010=
201106051945 METAR LIRA 051945Z 02006KT 350V080 9999 BKN023 SCT060 19/16
                        Q1010=
201106051915 METAR LIRA 051915Z 02003KT 9999 BKN023 SCT060 19/16 Q1010=
201106051845 METAR LIRA 051845Z 03005KT 9999 BKN023 SCT060 19/17 Q1010=
201106051815 METAR LIRA 051815Z 04008KT 010V070 9999 BKN023 SCT060 19/17
                        Q1011=
201106051745 METAR LIRA 051745Z 06008KT 020V090 9000 BKN023 SCT060 19/18
                        Q1011=
201106051715 METAR LIRA 051715Z 04008KT 8000 FEW016 BKN023 19/18 Q1011=
201106051645 METAR LIRA 051645Z 05010KT 7000 -RA FEW016 BKN023 19/18 Q1011=
201106051615 METAR LIRA 051615Z 05010KT 7000 -RA FEW016 BKN023 19/18 Q1011=
201106051545 METAR LIRA 051545Z 04008KT 7000 -RA FEW016 BKN023 19/18 Q1011=
201106051515 METAR LIRA 051515Z 04007KT 010V070 7000 -RA FEW016 BKN023
                        19/18 Q1011=
201106051445 METAR LIRA 051445Z 06006KT 010V090 8000 -RA FEW018 BKN025
                        19/18 Q1011=
201106051415 METAR LIRA 051415Z 14012KT 7000 -RA FEW018 BKN025 20/18 Q1011=
201106051345 METAR LIRA 051345Z 15009KT 8000 -RA FEW018 FEW022CB SCT025
                        21/18 Q1012=
201106051315 METAR LIRA 051315Z 14010KT 9999 -RA FEW018 FEW022CB SCT025
                        21/18 Q1012=
201106051245 METAR LIRA 051245Z 15011G21KT 130V200 9999 -RA FEW018 FEW022CB
                        SCT025 23/18 Q1011=
201106051215 METAR LIRA 051215Z 16008KT 130V220 9999 -RA FEW018 FEW022CB
                        SCT025 22/17 Q1011=
201106051145 METAR LIRA 051145Z 18011KT 150V210 9999 -RA FEW018 FEW022CB
                        SCT025 22/17 Q1011=
201106051115 METAR LIRA 051115Z 16015G26KT 9999 FEW018 FEW022CB SCT025
                        23/16 Q1011=
201106051045 METAR LIRA 051045Z 16019G29KT 9999 FEW022CB SCT025 25/14
                        Q1011=
201106051015 METAR LIRA 051015Z 17018KT 9999 FEW020 SCT022CB 26/14 Q1011=
201106050945 METAR LIRA 050945Z 14016KT 120V200 9999 FEW020 FEW022CB SCT025
                        28/15 Q1011=
201106050915 METAR LIRA 050915Z 18012KT 9999 SCT020 FEW022TCU 28/15 Q1011=
201106050845 METAR LIRA 050845Z 17009KT 140V210 9999 SCT020 27/17 Q1011=
201106050815 METAR LIRA 050815Z 02002KT 9999 FEW020 SCT070 26/17 Q1011=
201106050745 METAR LIRA 050745Z 02003KT 9999 FEW070 25/17 Q1011=
201106050715 METAR LIRA 050715Z 03005KT 010V070 9999 FEW080 24/17 Q1011=
201106050645 METAR LIRA 050645Z 04006KT 9999 FEW070 23/16 Q1011=
201106050615 METAR LIRA 050615Z 02005KT 360V070 9999 FEW025 21/16 Q1011=
201106050545 METAR LIRA 050545Z 03006KT 010V070 9999 FEW025 SCT070 20/16
                        Q1011=
201106050515 METAR LIRA 050515Z 03005KT 350V060 9999 FEW020 SCT070 19/16
                        Q1012=
201106050445 METAR LIRA 050445Z 03005KT 9999 FEW020 SCT070 18/16 Q1012=
201106050415 METAR LIRA 050415Z 02004KT 9999 FEW022TCU SCT070 18/16 Q1012=
201106050345 METAR LIRA 050345Z 01004KT 9999 FEW020 FEW022TCU SCT080 18/16
                        Q1012=
201106050315 METAR LIRA 050315Z 35006KT 9999 FEW020 FEW022TCU SCT080 18/16
                        Q1012=
201106050245 METAR LIRA 050245Z 36006KT 9999 FEW020 SCT080 18/16 Q1012=
201106050215 METAR LIRA 050215Z 36006KT 8000 FEW020 SCT080 18/16 Q1012=
201106050145 METAR LIRA 050145Z 04004KT 8000 FEW020 SCT070 18/16 Q1012=
201106050115 METAR LIRA 050115Z 04005KT 8000 FEW020 SCT070 18/16 Q1012=
201106050045 METAR LIRA 050045Z 03006KT 8000 FEW020 SCT070 19/16 Q1013=
201106050015 METAR LIRA 050015Z 04007KT 8000 FEW020 SCT070 19/18 Q1013=
201106042350 METAR LIRA 050045Z 03006KT 8000 FEW020 SCT070 19/16 Q1013=
201106042345 METAR LIRA 042345Z 05006KT 8000 SCT020 SCT070 19/18 Q1013=
201106042315 METAR LIRA 042315Z 05007KT 8000 SCT020 SCT070 19/18 Q1013=
201106042245 METAR LIRA 042245Z 01003KT 8000 SCT018 SCT070 20/18 Q1014=
201106042215 METAR LIRA 042215Z 04008KT 8000 -RA SCT018 SCT025 BKN070
                        20/18 Q1014=
201106042145 METAR LIRA 042145Z 00000KT 9999 SCT020 SCT080 21/18 Q1014=
201106042115 METAR LIRA 042115Z 31001KT 9999 SCT020 SCT080 22/18 Q1014=
201106042045 METAR LIRA 042045Z 32002KT 9999 SCT020 SCT080 22/18 Q1014=
201106042015 METAR LIRA 042015Z 30003KT 9999 SCT020 SCT080 22/17 Q1013=
201106041945 METAR LIRA 041945Z 33003KT 9999 SCT020 FEW022TCU SCT080 23/16
                        Q1013=
201106041915 METAR LIRA 041915Z 00000KT 9999 SCT020 FEW022TCU SCT080 23/16
                        Q1013=
201106041845 METAR LIRA 041845Z 28001KT 9999 FEW020 FEW022CB SCT080 24/16
                        Q1013=
201106041815 METAR LIRA 041815Z 29002KT 9999 FEW020TCU SCT080 24/16 Q1013=
201106041745 METAR LIRA 041745Z 29006KT 260V330 9999 FEW020TCU SCT080
                        25/15 Q1013=
201106041715 METAR LIRA 041715Z 26006KT 220V290 9999 FEW020TCU 25/15 Q1013=
201106041645 METAR LIRA 041645Z 23008KT 200V270 9999 FEW020TCU 26/15 Q1013=
201106041615 METAR LIRA 041615Z 24008KT 180V280 9999 FEW023TCU 27/15 Q1013=
201106041545 METAR LIRA 041545Z 22008KT 180V280 9999 FEW025TCU 27/15 Q1013=
201106041515 METAR LIRA 041515Z 23006KT 170V260 9999 FEW025TCU 27/15 Q1013=
201106041445 METAR LIRA 041445Z 23007KT 180V330 9999 FEW025TCU SCT030
                        27/15 Q1014=
201106041415 METAR LIRA 041415Z 24008KT 200V300 9999 FEW025TCU SCT030
                        28/15 Q1014=
201106041345 METAR LIRA 041345Z 23008KT 190V290 9999 FEW025TCU SCT030
                        28/15 Q1014=
201106041315 METAR LIRA 041315Z 25008KT 190V280 9999 FEW025TCU SCT030
                        29/15 Q1014=
201106041245 METAR LIRA 041245Z 23008KT 180V270 9999 FEW025TCU SCT030
                        28/15 Q1014=
201106041215 METAR LIRA 041215Z 21008KT 170V260 9999 FEW025TCU SCT030
                        28/16 Q1015=
201106041145 METAR LIRA 041145Z 20005KT 140V260 9999 SCT 030 28/15 Q1015=
201106041115 METAR LIRA 041115Z 15005KT 200V010 9999 SCT030 28/15 Q1015=
201106041045 METAR LIRA 041045Z 27005KT 220V310 9999 SCT030 27/15 Q1015=
201106041015 METAR LIRA 041015Z 32007KT 240V360 9999 FEW030 27/15 Q1015=
201106040945 METAR LIRA 040945Z 04005KT 350V070 9999 FEW030 27/15 Q1015=
201106040915 METAR LIRA 040915Z 01004KT 9999 FEW030 26/14 Q1015=
201106040845 METAR LIRA 040845Z 33004KT 280V350 9999 FEW070 25/14 Q1016=
201106040815 METAR LIRA 040815Z 03003KT 9999 FEW070 25/15 Q1016=
201106040745 METAR LIRA 040745Z 02003KT CAVOK 24/16 Q1016=
201106040715 METAR LIRA 040715Z 04004KT 350V060 CAVOK 23/16 Q1015=
201106040645 METAR LIRA 040645Z 03003KT CAVOK 21/16 Q1015=
201106040615 METAR LIRA 040615Z 03005KT CAVOK 20/16 Q1015=
201106040545 METAR LIRA 040545Z 01003KT 9999 FEW080 19/16 Q1015=
201106040515 METAR LIRA 040515Z 03002KT 9999 FEW080 18/16 Q1015=
201106040445 METAR LIRA 040445Z 05003KT 9999 FEW080 17/16 Q1016=
201106040415 METAR LIRA 040415Z 05002KT 9999 FEW080 17/16 Q1016=
201106040345 METAR LIRA 040345Z 06004KT 9999 FEW080 17/16 Q1015=
201106040315 METAR LIRA 040315Z 06003KT 9999 FEW080 18/16 Q1016=
201106040245 METAR LIRA 040245Z 34002KT CAVOK 18/16 Q1016=
201106040215 METAR LIRA 040215Z 36002KT CAVOK 18/15 Q1016=
201106040145 METAR LIRA 040145Z 04004KT CAVOK 18/15 Q1016=
201106040115 METAR LIRA 040115Z 03003KT CAVOK 18/16 Q1016=
201106040045 METAR LIRA 040045Z 03002KT CAVOK 18/16 Q1016=
201106040015 METAR LIRA 040015Z 00000KT CAVOK 18/15 Q1016=
201106032350 METAR LIRA 040045Z 03002KT CAVOK 18/16 Q1016=
201106032345 METAR LIRA 032345Z 05002KT CAVOK 18/16 Q1016=
201106032315 METAR LIRA 032315Z 02003KT CAVOK 18/16 Q1016=
201106032245 METAR LIRA 032245Z 04003KT CAVOK 18/16 Q1016=
201106032215 METAR LIRA 032215Z 05003KT CAVOK 19/16 Q1016=
201106032145 METAR LIRA 032145Z 04003KT 9999 FEW070 20/16 Q1016=
201106032115 METAR LIRA 032115Z 01003KT 9999 FEW070 20/16 Q1016=
201106032045 METAR LIRA 032045Z 34003KT 9999 FEW080 21/17 Q1016=
201106032015 METAR LIRA 032015Z 01003KT 9999 FEW080 22/17 Q1016=
201106031945 METAR LIRA 031945Z 04004KT 9999 FEW030 SCT070 22/16 Q1016=
201106031915 METAR LIRA 031915Z 05004KT 9999 FEW030 SCT070 23/16 Q1016=
201106031845 METAR LIRA 031845Z 02005KT 9999 FEW030 SCT070 23/16 Q1016=
201106031815 METAR LIRA 031815Z 03005KT 360V060 9999 FEW018 FEW020CB SCT070
                        24/17 Q1016=
201106031745 METAR LIRA 031745Z 07006KT 9999 FEW018 FEW020CB SCT070 24/14
                        Q1016=
201106031715 METAR LIRA 031715Z 03005KT 9999 FEW018 FEW020CB SCT070 25/14
                        Q1016=
201106031645 METAR LIRA 031645Z 01004KT 9999 FEW018 FEW020CB SCT070 25/14
                        Q1016=
201106031615 METAR LIRA 031615Z 06010KT 9999 FEW018 FEW020CB SCT070 24/15
                        Q1016=
201106031545 METAR LIRA 031545Z 06004KT 9999 FEW020CB SCT025 25/13 Q1016=
201106031515 METAR LIRA 031515Z 05004KT 9999 FEW018CB SCT070 25/13 Q1016=
201106031445 METAR LIRA 031445Z 02005KT 320V100 9999 SCT018CB SCT070 25/13
                        Q1016=
201106031415 METAR LIRA 031415Z 27008G20KT 220V310 9999 FEW016 SCT018CB
                        28/15 Q1016=
201106031345 METAR LIRA 031345Z 20009KT 170V230 9999 SCT018CB 28/15 Q1016=
201106031315 METAR LIRA 031315Z 23009KT 180V280 9999 FEW018CB 28/15 Q1016=
201106031245 METAR LIRA 031245Z 25007KT 210V300 9999 FEW018CB 28/15 Q1016=
201106031215 METAR LIRA 031215Z 23008KT 180V280 9999 FEW016 FEW018CB 27/15
                        Q1016=
201106031145 METAR LIRA 031145Z 25009KT 210V320 9999 FEW018 FEW020TCU
                        28/16 Q1016=
201106031115 METAR LIRA 031115Z 07005KT 9999 SCT018 FEW020TCU 28/11 Q1017=
201106031045 METAR LIRA 031045Z 33006KT 290V010 9999 SCT018 28/12 Q1017=
201106031015 METAR LIRA 031015Z 31003KT 280V340 9999 SCT018 27/12 Q1017=
201106030945 METAR LIRA 030945Z 33004KT 9999 FEW018 27/14 Q1017=
201106030915 METAR LIRA 030915Z 10004KT 9999 FEW020 26/14 Q1017=
201106030845 METAR LIRA 030845Z 31004KT 9999 FEW020 25/15 Q1017=
201106030815 METAR LIRA 030815Z 36004KT 9999 FEW020 24/15 Q1017=
201106030745 METAR LIRA 030745Z 03003KT 9999 FEW020 23/16 Q1017=
201106030715 METAR LIRA 030715Z 02004KT CAVOK 23/16 Q1017=
201106030645 METAR LIRA 030645Z 01004KT 9999 FEW080 22/17 Q1017=
201106030615 METAR LIRA 030615Z 01003KT CAVOK 20/17 Q1017=
201106030545 METAR LIRA 030545Z 35002KT CAVOK 20/17 Q1017=
201106030515 METAR LIRA 030515Z 03002KT 9999 FEW080 19/16 Q1017=
201106030445 METAR LIRA 030445Z 02001KT 9999 FEW080 18/17 Q1016=
201106030415 METAR LIRA 030415Z 36002KT 9999 FEW080 18/17 Q1016=
201106030345 METAR LIRA 030345Z 00000KT 9999 FEW080 18/16 Q1016=
201106030315 METAR LIRA 030315Z 03001KT 9999 FEW070 18/16 Q1016=
201106030245 METAR LIRA 030245Z 01002KT 9999 FEW070 18/15 Q1016=
201106030215 METAR LIRA 030215Z 09002KT 9999 SCT030 SCT070 18/16 Q1017=
201106030145 METAR LIRA 030145Z 07002KT 9999 SCT030 SCT070 18/16 Q1017=
201106030115 METAR LIRA 030115Z 06002KT 9999 SCT030 SCT070 18/16 Q1017=
201106030045 METAR LIRA 030045Z 10001KT 9999 SCT030 SCT070 19/16 Q1017=
201106030015 METAR LIRA 030015Z 08001KT 9999 SCT030 SCT070 19/17 Q1017=
201106022350 METAR LIRA 030045Z 10001KT 9999 SCT030 SCT070 19/16 Q1017=
201106022345 METAR LIRA 022345Z 00000KT 9999 SCT030 SCT070 20/17 Q1017=
201106022315 METAR LIRA 022315Z 33001KT 9999 SCT030 BKN070 20/18 Q1017=
201106022245 METAR LIRA 022245Z 32001KT 9999 SCT030 BKN070 20/18 Q1017=
201106022215 METAR LIRA 022215Z 01002KT 9999 SCT030 BKN070 20/18 Q1017=
201106022145 METAR LIRA 022145Z 36001KT 9999 SCT030 BKN070 21/18 Q1017=
201106022115 METAR LIRA 022115Z 00000KT 9999 SCT030 BKN070 21/18 Q1017=
201106022045 METAR LIRA 022045Z 00000KT 9999 SCT030 BKN070 21/17 Q1017=
201106022015 METAR LIRA 022015Z 24002KT 9999 FEW030 SCT070 21/17 Q1017=
201106021945 METAR LIRA 021945Z 24003KT 9999 FEW018 SCT070 21/17 Q1017=
201106021915 METAR LIRA 021915Z 25003KT 9999 FEW018 SCT070 22/17 Q1017=
201106021845 METAR LIRA 021845Z 01001KT 9999 FEW020CB SCT070 23/15 Q1017=
201106021815 METAR LIRA 021815Z 36001KT 9999 FEW018CB SCT070 23/15 Q1017=
201106021745 METAR LIRA 021745Z 28003KT 9999 FEW018CB SCT070 24/15 Q1016=
201106021715 METAR LIRA 021715Z 29003KT 9999 FEW018 FEW020CB SCT070 24/14
                        Q1016=
201106021645 METAR LIRA 021645Z 31005KT 280V340 9999 FEW018 FEW020CB SCT070
                        24/15 Q1016=
201106021615 METAR LIRA 021615Z 30006KT 280V340 9999 FEW018 FEW020CB SCT070
                        24/17 Q1016=
201106021545 METAR LIRA 021545Z 32008KT 9999 FEW018 FEW020CB 24/17 Q1016=
201106021515 METAR LIRA 021515Z 20007KT 300V010 9999 FEW018 FEW020CB SCT070
                        24/18 Q1016=
201106021445 METAR LIRA 021445Z 32007KT 9999 FEW018 FEW020CB SCT030 23/17
                        Q1016=
201106021415 METAR LIRA 021415Z 29006KT 240V320 9999 FEW018 FEW020CB 23/19
                        Q1016=
201106021345 METAR LIRA 021345Z 29005KT 9999 -RA SCT018 FEW020TCU SCT030
                        23/19 Q1017=
201106021315 METAR LIRA 021315Z 28004KT 240V330 9999 -RA SCT018 FEW020TCU
                        SCT030 24/15 Q1017=
201106021245 METAR LIRA 021245Z 23007KT 210V310 9999 SCT018 FEW020TCU
                        24/15 Q1017=
201106021215 METAR LIRA 021215Z 23006KT 9999 SCT018 FEW020TCU 24/14 Q1017=
201106021145 METAR LIRA 021145Z 27006KT 240V330 9999 SCT018 FEW020TCU
                        24/15 Q1017=
201106021115 METAR LIRA 021115Z 26004KT 9999 SCT018 FEW020TCU SCT030 24/14
                        Q1017=
201106021045 METAR LIRA 021045Z 01002KT 9999 SCT018 FEW020TCU SCT030 25/15
                        Q1017=
201106021015 METAR LIRA 021015Z 15002KT 9999 SCT018 FEW020TCU 24/14 Q1017=
201106020945 METAR LIRA 020945Z 17004KT 150V260 9999 SCT018 FEW020TCU
                        25/15 Q1017=
201106020915 METAR LIRA 020915Z 31002KT 9999 SCT018 FEW020TCU 24/14 Q1017=
201106020845 METAR LIRA 020845Z 35003KT 9999 FEW020 23/15 Q1017=
201106020815 METAR LIRA 020815Z 04004KT 9999 FEW020 23/16 Q1017=
201106020745 METAR LIRA 020745Z 36005KT 9999 FEW020 21/15 Q1017=
201106020715 METAR LIRA 020715Z 04004KT 9999 FEW020 20/15 Q1016=
201106020645 METAR LIRA 020645Z 01005KT 330V090 9999 FEW080 18/14 Q1016=
201106020615 METAR LIRA 020615Z 36002KT 9999 SCT080 17/13 Q1016=
201106020545 METAR LIRA 020545Z 34002KT 9999 FEW020 SCT080 15/14 Q1016=
201106020515 METAR LIRA 020515Z 34002KT 9999 FEW020 SCT070 15/14 Q1016=
201106020445 METAR LIRA 020445Z 00000KT 9999 FEW020 SCT070 14/13 Q1016=
201106020415 METAR LIRA 020415Z 06003KT 9999 FEW020 SCT070 13/12 Q1016=
201106020345 METAR LIRA 020345Z 06002KT 9999 FEW020 SCT070 13/12 Q1016=
201106020315 METAR LIRA 020315Z 00000KT 9999 FEW070 14/12 Q1016=
201106020300 METAR LIRA CONTUS=
201106020245 METAR LIRA 020245Z 00000KT 9999 FEW070 14/12 Q1016=
201106020215 METAR LIRA 020215Z 14004KT 9999 FEW070 14/12 Q1016=
201106020145 METAR LIRA 020145Z 15002KT 9999 FEW070 14/12 Q1016=
201106020115 METAR LIRA 020115Z 00000KT 9999 FEW070 14/12 Q1016=
201106020045 METAR LIRA 020045Z 27001KT 9999 SCT070 15/13 Q1016=
201106020015 METAR LIRA 020015Z 00000KT 9999 SCT070 15/13 Q1016=
201106012350 METAR LIRA 020045Z 27001KT 9999 SCT070 15/13 Q1016=
201106012345 METAR LIRA 012345Z 06003KT 9999 SCT070 15/13 Q1016=
201106012315 METAR LIRA 012315Z 06003KT 9999 SCT070 15/13 Q1016=
201106012245 METAR LIRA 012245Z 03002KT 9999 SCT070 15/13 Q1016=
201106012215 METAR LIRA 012215Z 00000KT 9999 SCT070 15/13 Q1016=
201106012145 METAR LIRA 012145Z 06002KT 9999 SCT070 15/13 Q1016=
201106012115 METAR LIRA 012115Z 08002KT 9999 SCT070 15/13 Q1016=
201106012045 METAR LIRA 012045Z 00000KT 9999 FEW070 16/12 Q1016=
201106012015 METAR LIRA 012015Z 35001KT 9999 FEW070 16/13 Q1016=
201106011945 METAR LIRA 011945Z 24002KT 9999 FEW070 16/12 Q1016=
201106011915 METAR LIRA 011915Z 24003KT 9999 FEW070 17/13 Q1016=
201106011845 METAR LIRA 011845Z 27003KT 9999 FEW070 18/12 Q1015=
201106011815 METAR LIRA 011815Z 27004KT 9999 FEW025 SCT070 18/12 Q1015=
201106011745 METAR LIRA 011745Z 28005KT 240V330 9999 FEW025 SCT070 19/12
                        Q1015=
201106011715 METAR LIRA 011715Z 27005KT 230V320 9999 FEW018 FEW019TCU
                        SCT025 19/12 Q1015=
201106011645 METAR LIRA 011645Z 27006KT 210V310 9999 FEW018 FEW019TCU
                        SCT025 19/13 Q1015=
201106011615 METAR LIRA 011615Z 26007KT 200V310 9999 FEW018 FEW019TCU
                        SCT025 20/13 Q1014=
201106011545 METAR LIRA 011545Z 27008KT 220V300 9999 FEW018 FEW019TCU
                        SCT025 21/14 Q1015=
201106011515 METAR LIRA 011515Z 24007KT 210V300 9999 FEW018 FEW019TCU
                        SCT025 21/14 Q1014=
201106011445 METAR LIRA 011445Z 26009KT 220V310 9999 FEW018 FEW019TCU
                        SCT025 20/14 Q1014=
201106011415 METAR LIRA 011415Z 28011KT 240V320 9999 FEW018 FEW019TCU
                        SCT025 21/15 Q1014=
201106011345 METAR LIRA 011345Z 28010KT 230V320 9999 FEW018 SCT025 22/15
                        Q1014=
201106011315 METAR LIRA 011315Z 23008KT 9999 FEW018 BKN025 23/16 Q1014=
201106011245 METAR LIRA 011245Z 23008KT 200V260 9999 FEW018 BKN025 23/16
                        Q1014=
201106011215 METAR LIRA 011215Z 23011KT 200V280 9999 FEW018 BKN025 23/17
                        Q1014=
201106011145 METAR LIRA 011145Z 23007KT 200V270 9999 FEW018 SCT025 22/15
                        Q1014=
201106011115 METAR LIRA 011115Z 18007KT 150V220 9999 FEW018 SCT025 22/13
                        Q1014=
201106011045 METAR LIRA 011045Z 22004KT 150V220 9999 FEW018 SCT025 23/13
                        Q1014=
201106011015 METAR LIRA 011015Z 31002KT 9999 FEW018 SCT025 23/13 Q1013=
201106010945 METAR LIRA 010945Z 07005KT 030V100 9999 FEW018 SCT070 23/13
                        Q1013=
201106010915 METAR LIRA 010915Z 03002KT 9999 FEW018 SCT080 23/13 Q1013=
201106010845 METAR LIRA 010845Z 12002KT 9999 FEW025 SCT070 22/14 Q1013=
201106010815 METAR LIRA 010815Z 14003KT 9999 FEW025 SCT080 20/16 Q1013=
201106010745 METAR LIRA 010745Z 09004KT 9999 FEW020 SCT025 19/15 Q1013=
201106010715 METAR LIRA 010715Z 00000KT 9999 FEW020 SCT025 18/16 Q1013=
201106010645 METAR LIRA 010645Z 34001KT 9999 -RA FEW020TCU SCT025 18/16
                        Q1013=
201106010615 METAR LIRA 010615Z 05002KT 9999 -RA FEW020TCU SCT025 18/15
                        Q1013=
201106010545 METAR LIRA 010545Z 09003KT 9999 FEW020 SCT025 18/14 Q1013=
201106010515 METAR LIRA 010515Z 11003KT 9999 FEW020 SCT025 17/13 Q1013=
201106010445 METAR LIRA 010445Z 06002KT 9999 FEW020 SCT080 16/13 Q1013=
201106010415 METAR LIRA 010415Z 06003KT 9999 SCT030 SCT080 15/13 Q1013=
201106010345 METAR LIRA 010345Z 11003KT 9999 FEW030 SCT070 15/13 Q1013=
201106010315 METAR LIRA 010315Z 11002KT 9999 FEW030 SCT070 15/14 Q1013=
201106010245 METAR LIRA 010245Z 14004KT 9999 FEW015 SCT070 16/14 Q1013=
201106010215 METAR LIRA 010215Z 17002KT 9999 FEW015 SCT070 16/14 Q1013=
201106010145 METAR LIRA 010145Z 22003KT 9999 SCT070 16/13 Q1014=
201106010115 METAR LIRA 010115Z 13001KT 9999 SCT070 17/14 Q1014=
201106010045 METAR LIRA 010045Z 00000KT 9999 FEW030 BKN070 17/14 Q1014=
201106010015 METAR LIRA 010015Z 16002KT 9999 -RA FEW030 BKN070 17/11 Q1014=

</pre>

</body>
</html>
