##########################################################
# Query made at 11/10/2014 14:49:48 UTC
# Time interval: from 03/01/2009 00:00  to 03/31/2009 23:59  UTC
##########################################################

##########################################################
# LIRA, Roma / Ciampino (Italy)
# WMO index: 16239
# Latitude 41-47N. Longitude 012-35E. Altitude 129 m.
##########################################################

###################################
#  METAR/SPECI from LIRA
###################################
200903312350 METAR LIRA 010045Z 14004KT 9999 FEW080 14/11 Q1010=
200903312345 METAR LIRA 312345Z 16005KT 130V190 9999 FEW080 14/11 Q1010=
200903312315 METAR LIRA 312315Z 19004KT 9999 FEW070 14/11 Q1010=
200903312245 METAR LIRA 312245Z 24002KT 9999 FEW070 16/11 Q1010=
200903312215 METAR LIRA 312215Z 28001KT 9999 FEW060 16/11 Q1010=
200903312145 METAR LIRA 312145Z 14006KT 080V180 9999 FEW025 16/12 Q1010=
200903312115 METAR LIRA 312115Z 14006KT 9999 FEW020 SCT060 16/12 Q1010=
200903312045 METAR LIRA 312045Z 26002KT 9999 FEW018CB SCT070 16/12 Q1010=
200903312015 METAR LIRA 312015Z 31003KT 9999 FEW020CB SCT030 16/13 Q1009=
200903311945 METAR LIRA 311945Z 30002KT 9999 FEW020CB SCT030 BKN070 16/13
                        Q1009=
200903311915 METAR LIRA 311915Z 30002KT 9999 FEW018CB SCT035 16/12 Q1009=
200903311845 METAR LIRA 311845Z 32002KT 9999 VCTS FEW018CB SCT060 17/12
                        Q1009=
200903311815 METAR LIRA 311815Z 30005KT 9999 VCTS FEW018CB SCT060 16/12
                        Q1009=
200903311745 METAR LIRA 311745Z 00000KT 9999 VCTS FEW018CB SCT060 17/12
                        Q1008=
200903311715 METAR LIRA 311715Z 07006KT 030V100 9999 FEW020CB SCT060 17/12
                        Q1008=
200903311645 METAR LIRA 311645Z 09008KT 030V150 9999 FEW020CB SCT040 18/12
                        Q1008=
200903311615 METAR LIRA 311615Z 08009KT 050V130 9999 FEW020CB SCT035 20/11
                        Q1008=
200903311545 METAR LIRA 311545Z 09004KT 9999 FEW020CB 19/10 Q1008=
200903311515 METAR LIRA 311515Z 15007KT 100V200 9999 FEW020CB SCT070 19/11
                        Q1008 WS RWY 15=
200903311445 METAR LIRA 311445Z 13011KT 090V170 9999 FEW018 BKN070 17/10
                        Q1008 WS RWY 15=
200903311415 METAR LIRA 311415Z 13023KT 090V180 9999 FEW015 SCT030 BKN060
                        18/12 Q1008=
200903311345 METAR LIRA 311345Z 13011KT 9999 FEW015 SCT030 BKN090 19/11
                        Q1008=
200903311315 METAR LIRA 311315Z 13015KT 9999 FEW015 SCT030 BKN060 20/11
                        Q1008=
200903311245 METAR LIRA 311245Z 15018KT 110V190 9999 FEW015 SCT030 BKN060
                        22/11 Q1008=
200903311215 METAR LIRA 311215Z 14016KT 100V180 9999 FEW015 SCT030 21/11
                        Q1008=
200903311145 METAR LIRA 311145Z 15015KT 120V210 9999 FEW018 SCT030 20/12
                        Q1008=
200903311115 METAR LIRA 311115Z 14013G26KT 090V180 9999 FEW018 SCT030
                        BKN090 20/11 Q1008=
200903311045 METAR LIRA 311045Z 15009KT 090V180 9999 FEW018 SCT030 19/12
                        Q1008=
200903311015 METAR LIRA 311015Z 17012G24KT 120V194 9999 FEW018 SCT030
                        19/12 Q1009=
200903310945 METAR LIRA 310945Z 19004KT 9999 FEW018 SCT030 16/13 Q1008=
200903310915 METAR LIRA 310915Z 35005KT 8000 FEW018 SCT025 16/13 Q1008=
200903310845 METAR LIRA 310845Z 05002KT 6000 -DZ FEW015 SCT023 BKN060
                        16/13 Q1009=
200903310745 METAR LIRA 310745Z 31006KT 8000 FEW017 SCT030 BKN070 16/13
                        Q1009=
200903310715 METAR LIRA 310715Z 01003KT 9000 FEW017 SCT030 15/12 Q1009=
200903310645 METAR LIRA 310645Z 34003KT 8000 FEW017 SCT030 13/12 Q1009=
200903310615 METAR LIRA 310615Z 04003KT 350V100 8000 FEW017 SCT025 BKN070
                        13/12 Q1009=
200903310545 METAR LIRA 310545Z 00000KT 7000 -DZ FEW017 SCT025 BKN070
                        13/12 Q1009=
200903310515 METAR LIRA 310515Z 36001KT 8000 -DZ FEW017 SCT025 BKN070
                        13/12 Q1009=
200903310445 METAR LIRA 310445Z 19003KT 7000 -DZ SCT025 SCT080 13/12 Q1009=
200903310415 METAR LIRA 310415Z 23003KT 8000 FEW030 SCT070 13/12 Q1009=
200903310345 METAR LIRA 310345Z 35004KT 7000 FEW030 SCT070 13/12 Q1010=
200903310315 METAR LIRA 310315Z 00000KT 7000 FEW030 SCT070 13/12 Q1010=
200903310245 METAR LIRA 310245Z 01002KT 7000 FEW030 SCT070 13/12 Q1010=
200903310215 METAR LIRA 310215Z 03002KT 7000 FEW030 SCT070 13/12 Q1010=
200903310145 METAR LIRA 310145Z 02003KT 7000 FEW070 13/12 Q1010=
200903310115 METAR LIRA 310115Z 04003KT 7000 FEW010 13/12 Q1011=
200903310045 METAR LIRA 310045Z 02004KT 7000 FEW010 13/12 Q1011=
200903310015 METAR LIRA 310015Z 02003KT 6000 FEW010 13/12 Q1011=
200903302350 METAR LIRA 310045Z 02004KT 7000 FEW010 13/12 Q1011=
200903302345 METAR LIRA 302345Z 04005KT 6000 FEW010 13/13 Q1011=
200903302315 METAR LIRA 302315Z 02004KT 6000 FEW010 13/12 Q1012=
200903302245 METAR LIRA 302245Z 03006KT 360V070 6000 FEW010 13/12 Q1012=
200903302215 METAR LIRA 302215Z 04006KT 6000 FEW010 13/12 Q1012=
200903302145 METAR LIRA 302145Z 04006KT 6000 FEW010 13/12 Q1012=
200903302115 METAR LIRA 302115Z 03003KT 6000 FEW010 13/13 Q1012=
200903302045 METAR LIRA 302045Z 04002KT 6000 SCT007 13/13 Q1012=
200903302015 METAR LIRA 302015Z 34003KT 9999 FEW018 SCT200 14/13 Q1012=
200903301945 METAR LIRA 301945Z 28001KT 9999 FEW018 SCT200 15/14 Q1012=
200903301915 METAR LIRA 301915Z 27003KT 9999 FEW018 FEW020CB SCT200 15/13
                        Q1012=
200903301845 METAR LIRA 301845Z 24002KT 9999 FEW018 FEW020CB SCT200 17/15
                        Q1012=
200903301815 METAR LIRA 301815Z 23005KT 9999 FEW018 SCT200 17/15 Q1012=
200903301745 METAR LIRA 301745Z 23004KT 200V270 9999 FEW018 SCT200 18/15
                        Q1011=
200903301715 METAR LIRA 301715Z 21005KT 180V250 9999 FEW017CB SCT200 18/15
                        Q1010=
200903301645 METAR LIRA 301645Z 20008KT 160V240 9999 FEW017CB SCT200 19/15
                        Q1010=
200903301615 METAR LIRA 301615Z 18007KT 160V230 9999 FEW017 SCT200 19/16
                        Q1010=
200903301545 METAR LIRA 301545Z 19006KT 130V240 9999 FEW017CB 19/16 Q1010=
200903301515 METAR LIRA 301515Z 19008KT 160V240 9999 FEW017CB SCT200 18/15
                        Q1010=
200903301445 METAR LIRA 301445Z 21007KT 160V280 9999 FEW017CB SCT035 18/15
                        Q1011=
200903301415 METAR LIRA 301415Z 22006KT 180V250 9999 FEW017CB SCT035 18/16
                        Q1011=
200903301345 METAR LIRA 301345Z 23008KT 180V260 9999 FEW017CB SCT035 18/16
                        Q1011=
200903301315 METAR LIRA 301315Z 22006KT 180V300 9999 FEW017TCU SCT035
                        19/16 Q1011=
200903301245 METAR LIRA 301245Z 24007KT 200V290 9999 FEW017 SCT035 20/16
                        Q1011=
200903301215 METAR LIRA 301215Z 24009KT 190V270 9999 FEW017 SCT035 20/15
                        Q1011=
200903301145 METAR LIRA 301145Z 19005KT 140V250 9999 FEW017 SCT035 20/13
                        Q1011=
200903301115 METAR LIRA 301115Z 20006KT 150V230 9999 FEW017 SCT035 20/13
                        Q1011=
200903301045 METAR LIRA 301045Z 18009KT 120V210 9999 FEW017 SCT035 19/13
                        Q1011=
200903301015 METAR LIRA 301015Z 19009KT 160V240 9999 SCT017 SCT035 19/12
                        Q1010=
200903300945 METAR LIRA 300945Z 15007KT 110V210 9999 SCT017 SCT035 19/13
                        Q1010=
200903300915 METAR LIRA 300915Z 15008KT 110V210 9999 SCT020 19/13 Q1010=
200903300845 METAR LIRA 300845Z 16008KT 130V220 9999 FEW020 18/11 Q1010=
200903300815 METAR LIRA 300815Z 18006KT 130V260 9000 FEW020 SCT200 17/12
                        Q1010=
200903300745 METAR LIRA 300745Z 15009KT 130V210 9000 FEW020 SCT200 17/12
                        Q1010=
200903300715 METAR LIRA 300715Z 15008KT 110V016 9000 FEW080 SCT200 16/13
                        Q1009=
200903300645 METAR LIRA 300645Z 14007KT 090V180 9000 NSC 14/12 Q1009=
200903300615 METAR LIRA 300615Z 16007KT 120V180 8000 FEW020 SCT200 14/12
                        Q1009=
200903300545 METAR LIRA 300545Z 15005KT 100V180 8000 FEW080 SCT200 15/12
                        Q1009=
200903300515 METAR LIRA 300515Z 15011KT 130V200 8000 FEW017 15/12 Q1009=
200903300445 METAR LIRA 300445Z 17011KT 140V210 8000 FEW017 15/12 Q1009=
200903300415 METAR LIRA 300415Z 17006KT 120V210 9999 FEW070 15/12 Q1008=
200903300345 METAR LIRA 300345Z 14009KT 110V180 9999 FEW070 15/12 Q1008=
200903300315 METAR LIRA 300315Z 14010KT 100V170 9999 FEW020 15/12 Q1007=
200903300245 METAR LIRA 300245Z 20006KT 120V230 9999 FEW020 15/12 Q1007=
200903300215 METAR LIRA 300215Z 15010KT 120V180 9999 FEW020 15/12 Q1007=
200903300145 METAR LIRA 300145Z 15013KT 120V210 9999 FEW020 15/12 Q1007=
200903300115 METAR LIRA 300115Z 15013KT 9999 FEW020 15/12 Q1007=
200903300045 METAR LIRA 300045Z 16012KT 9999 FEW020 15/13 Q1007=
200903300015 METAR LIRA 300015Z 15011KT 110V180 9999 FEW020 15/13 Q1007=
200903292350 METAR LIRA 300045Z 16012KT 9999 FEW020 15/13 Q1007=
200903292345 METAR LIRA 292345Z 15013KT 120V180 9999 FEW020 15/13 Q1007=
200903292315 METAR LIRA 292315Z 13017KT 9999 FEW020 15/13 Q1007=
200903292245 METAR LIRA 292245Z 17008KT 100V220 9000 FEW020 14/14 Q1007=
200903292215 METAR LIRA 292215Z 16010KT 110V210 9000 FEW020 15/13 Q1007=
200903292145 METAR LIRA 292145Z 17006KT 9000 FEW030 15/13 Q1007=
200903292115 METAR LIRA 292115Z 19006KT 160V250 9000 FEW030 15/13 Q1007=
200903292045 METAR LIRA 292045Z 16007KT 130V190 9000 FEW030 15/14 Q1006=
200903292015 METAR LIRA 292015Z 16007KT 130V250 9000 FEW030 15/14 Q1006=
200903291945 METAR LIRA 291945Z 18008KT 140V210 8000 FEW030 15/14 Q1006=
200903291915 METAR LIRA 291915Z 16013KT 8000 FEW015 SCT030 16/14 Q1005=
200903291845 METAR LIRA 291845Z 16012KT 8000 FEW015 SCT030 16/14 Q1005=
200903291815 METAR LIRA 291815Z 16010KT 130V200 8000 FEW010 FEW015CB SCT070
                        17/15 Q1004=
200903291745 METAR LIRA 291745Z 17014KT 130V200 7000 SCT007 FEW015CB SCT025
                        17/14 Q1004=
200903291715 METAR LIRA 291715Z 18013KT 140V210 7000 SCT007 FEW015CB SCT025
                        17/14 Q1004=
200903291645 METAR LIRA 291645Z 17014KT 140V200 7000 SCT007 FEW015CB SCT025
                        17/15 Q1003=
200903291615 METAR LIRA 291615Z 16018KT 130V190 7000 SCT007 FEW015CB SCT025
                        17/15 Q1002=
200903291545 METAR LIRA 291545Z 16021KT 120V220 8000 SCT010 FEW015CB BKN025
                        18/13 Q1001=
200903291515 METAR LIRA 291515Z 16020G30KT 120V200 7000 -RA SCT009 FEW015CB
                        BKN025 18/13 Q1001=
200903291445 METAR LIRA 291445Z 15022G32KT 120V190 4000 RA SCT009 FEW015CB
                        BKN025 19/13 Q1001=
200903291415 METAR LIRA 291415Z 15022G37KT 120V190 9999 FEW012 BKN030
                        20/13 Q1001=
200903291345 METAR LIRA 291345Z 16021G34KT 120V200 9999 FEW012 BKN030
                        20/13 Q1001=
200903291315 METAR LIRA 291315Z 18020KT 120V190 9999 FEW012 BKN030 20/14
                        Q1001=
200903291245 METAR LIRA 291245Z 16018KT 120V190 9999 FEW012 SCT030 20/14
                        Q1001=
200903291215 METAR LIRA 291215Z 15022KT 120V180 9999 FEW015 SCT070 19/14
                        Q1002=
200903291145 METAR LIRA 291145Z 15026G38KT 070V170 9999 FEW015 SCT030
                        20/14 Q1001=
200903291115 METAR LIRA 291115Z 13032KT 9999 FEW015 SCT030 19/14 Q1001=
200903291045 METAR LIRA 291045Z 16027G37KT 9999 FEW012 SCT030 19/15 Q1002=
200903291015 METAR LIRA 291015Z 15021G35KT 9999 FEW012 BKN030 18/13 Q1002=
200903290945 METAR LIRA 290945Z 17023KT 100V170 9999 FEW012 BKN030 18/13
                        Q1002=
200903290915 METAR LIRA 290915Z 16020KT 120V190 9999 FEW018 BKN030 18/13
                        Q1002=
200903290845 METAR LIRA 290845Z 14023G33KT 9999 FEW018 BKN070 18/14 Q1002=
200903290815 METAR LIRA 290815Z 15016G31KT 9999 FEW018 BKN070 17/13 Q1001=
200903290745 METAR LIRA 290745Z 18018KT 120V210 9999 FEW018 BKN070 17/12
                        Q1001=
200903290715 METAR LIRA 290715Z 13020KT 9999 FEW018 SCT030 BKN070 17/13
                        Q1001=
200903290645 METAR LIRA 290645Z 15024G36KT 090V160 8000 -RA FEW018 SCT030
                        BKN070 16/12 Q1001=
200903290615 METAR LIRA 290615Z 13028G38KT 8000 -RA FEW018 SCT030 BKN070
                        16/13 Q1001=
200903290545 METAR LIRA 290545Z 14026G39KT 9999 -RA FEW018 SCT030 BKN070
                        16/13 Q1001=
200903290515 METAR LIRA 290515Z 13025G35KT 9999 -RA FEW018 SCT030 BKN070
                        15/13 Q1001=
200903290445 METAR LIRA 290445Z 13020KT 9999 -RA FEW018 SCT030 BKN070
                        15/13 Q1001=
200903290415 METAR LIRA 290415Z 14023G33KT 9999 -RA FEW018 SCT030 BKN070
                        15/13 Q1001=
200903290345 METAR LIRA 290345Z 14022KT 100V180 9999 -RA FEW018 BKN070
                        15/13 Q1002=
200903290315 METAR LIRA 290315Z 14018KT 100V180 9999 -RA FEW018 BKN070
                        15/13 Q1002=
200903290245 METAR LIRA 290245Z 15013KT 080V210 9999 -RA SCT030 BKN070
                        15/13 Q1003=
200903290215 METAR LIRA 290215Z 13008KT 080V180 9999 -RA SCT030 BKN070
                        15/11 Q1003=
200903290145 METAR LIRA 290145Z 13010KT 090V180 9999 -RA SCT030 BKN070
                        15/11 Q1003=
200903290115 METAR LIRA 290115Z 10005KT 070V170 9999 SCT030 BKN070 14/10
                        Q1003=
200903290045 METAR LIRA 290045Z 01009KT 070V160 9999 -RA SCT030 BKN070
                        13/10 Q1003=
200903290015 METAR LIRA 290015Z 13017KT 7000 -RA SCT030 BKN070 14/10 Q1004=
200903282350 METAR LIRA 290045Z 01009KT 070V160 9999 -RA SCT030 BKN070
                        13/10 Q1003=
200903282345 METAR LIRA 282345Z 12010KT 8000 -RA SCT030 BKN070 14/10 Q1004=
200903282315 METAR LIRA 282315Z 14019KT 100V180 9999 -RA FEW018 SCT030
                        BKN070 14/08 Q1004=
200903282245 METAR LIRA 282245Z 14021G32KT 9999 SCT030 BKN070 17/09 Q1004=
200903282215 METAR LIRA 282215Z 13020KT 090V180 9999 SCT030 SCT070 17/09
                        Q1004=
200903282145 METAR LIRA 282145Z 14016KT 9999 SCT030 BKN070 17/08 Q1004=
200903282115 METAR LIRA 282115Z 15017KT 100V180 9999 SCT030 SCT070 17/08
                        Q1004=
200903282045 METAR LIRA 282045Z 15009KT 120V190 9999 -DZ SCT030 SCT070
                        17/07 Q1004=
200903282015 METAR LIRA 282015Z 14012KT 090V190 9999 SCT030 SCT070 17/07
                        Q1004=
200903281945 METAR LIRA 281945Z 13011KT 9999 -DZ SCT030 SCT070 16/09 Q1005=
200903281915 METAR LIRA 281915Z 13008KT 070V180 9999 -DZ SCT030 SCT070
                        16/08 Q1005=
200903281845 METAR LIRA 281845Z 11011KT 060V170 9999 -DZ SCT030 SCT070
                        15/06 Q1005=
200903281815 METAR LIRA 281815Z 14013KT 9999 -DZ SCT030 SCT070 16/04 Q1005=
200903281745 METAR LIRA 281745Z 14013KT 9999 -DZ SCT030 SCT070 16/04 Q1005=
200903281715 METAR LIRA 281715Z 15012KT 9999 -DZ SCT030 BKN070 16/07 Q1005=
200903281645 METAR LIRA 281645Z 16006KT 9999 -DZ SCT030 BKN070 15/05 Q1005=
200903281615 METAR LIRA 281615Z 10007KT 070V160 9999 -DZ SCT030 SCT070
                        16/05 Q1005=
200903281545 METAR LIRA 281545Z 17009KT 140V210 9999 -DZ SCT030 SCT070
                        17/08 Q1006=
200903281515 METAR LIRA 281515Z 21006KT 160V240 9999 SCT030 SCT070 17/08
                        Q1007=
200903281445 METAR LIRA 281445Z 14006KT 120V180 9999 FEW080 SCT100 18/07
                        Q1006=
200903281415 METAR LIRA 281415Z 18011KT 150V210 9999 FEW080 SCT100 18/07
                        Q1007=
200903281345 METAR LIRA 281345Z 14006KT 090V170 9999 FEW080 SCT100 BKN200
                        18/06 Q1007=
200903281315 METAR LIRA 281315Z 15009KT 9999 FEW080 SCT100 BKN200 18/07
                        Q1007=
200903281245 METAR LIRA 281245Z 17010KT 130V210 9999 FEW080 SCT100 BKN200
                        18/07 Q1008=
200903281215 METAR LIRA 281215Z 15007KT 110V210 9999 FEW080 SCT100 BKN200
                        18/07 Q1009=
200903281145 METAR LIRA 281145Z 15007KT 090V200 9999 FEW080 BKN200 18/08
                        Q1009=
200903281115 METAR LIRA 281115Z 12009KT 080V180 9999 FEW080 BKN200 18/08
                        Q1009=
200903281045 METAR LIRA 281045Z 13011KT 090V160 9999 FEW080 BKN200 17/09
                        Q1009=
200903281015 METAR LIRA 281015Z 12010KT 090V180 9999 FEW080 BKN200 17/09
                        Q1010=
200903281000 METAR LIRA INTER CB NE-SE=
200903280945 METAR LIRA 280945Z 12009KT 090V170 9999 FEW080 BKN200 15/08
                        Q1010=
200903280915 METAR LIRA 280915Z 12008KT 090V160 9999 FEW020 BKN200 15/08
                        Q1010=
200903280845 METAR LIRA 280845Z 14010KT 100V190 9999 FEW020 BKN200 14/08
                        Q1011=
200903280815 METAR LIRA 280815Z 14011KT 9999 FEW020 BKN200 14/08 Q1011=
200903280745 METAR LIRA 280745Z 14008KT 090V180 9999 FEW020 BKN200 13/09
                        Q1011=
200903280715 METAR LIRA 280715Z 12004KT 9999 FEW020 BKN200 12/08 Q1011=
200903280645 METAR LIRA 280645Z 12001KT 9999 FEW020 SCT200 10/07 Q1011=
200903280615 METAR LIRA 280615Z 02001KT 9999 FEW020 SCT200 09/07 Q1011=
200903280545 METAR LIRA 280545Z 08003KT 9999 FEW020 SCT200 11/08 Q1011=
200903280515 METAR LIRA 280515Z 15006KT 080V210 9999 FEW020 SCT200 11/08
                        Q1011=
200903280445 METAR LIRA 280445Z 13009KT 110V180 9999 SCT025 11/09 Q1011=
200903280415 METAR LIRA 280415Z 13009KT 9999 SCT025 SCT060 11/08 Q1012=
200903280345 METAR LIRA 280345Z 14010KT 110V180 9999 FEW030 SCT060 11/08
                        Q1012=
200903280315 METAR LIRA 280315Z 09005KT 9999 FEW030 SCT060 11/08 Q1012=
200903280245 METAR LIRA 280245Z 13011KT 080V180 9999 FEW030 11/09 Q1012=
200903280215 METAR LIRA 280215Z 15008KT 120V180 9999 FEW030 10/08 Q1012=
200903280145 METAR LIRA 280145Z 17007KT 130V210 9999 FEW060 10/08 Q1012=
200903280115 METAR LIRA 280115Z 08004KT 070V130 9999 FEW060 09/07 Q1013=
200903280045 METAR LIRA 280045Z 08001KT 9999 FEW030 09/07 Q1013=
200903280015 METAR LIRA 280015Z 18003KT 9999 FEW030 09/07 Q1013=
200903272350 METAR LIRA 280045Z 08001KT 9999 FEW030 09/07 Q1013=
200903272345 METAR LIRA 272345Z 07003KT 9999 FEW060 09/06 Q1013=
200903272315 METAR LIRA 272315Z 07004KT 9999 FEW060 10/07 Q1013=
200903272245 METAR LIRA 272245Z 15008KT 110V200 CAVOK 11/07 Q1013=
200903272215 METAR LIRA 272215Z 13007KT 090V160 CAVOK 11/07 Q1013=
200903272145 METAR LIRA 272145Z 14009KT 100V170 CAVOK 11/08 Q1013=
200903272115 METAR LIRA 272115Z 14011KT CAVOK 11/09 Q1013=
200903272045 METAR LIRA 272045Z 16011KT 130V190 CAVOK 11/08 Q1013=
200903272015 METAR LIRA 272015Z 16010KT 130V190 CAVOK 12/09 Q1013=
200903271945 METAR LIRA 271945Z 16010KT 130V200 CAVOK 12/09 Q1013=
200903271915 METAR LIRA 271915Z 16009KT CAVOK 12/08 Q1013=
200903271845 METAR LIRA 271845Z 16009KT 130V200 9999 FEW030 12/08 Q1013=
200903271815 METAR LIRA 271815Z 17009KT CAVOK 13/07 Q1013=
200903271745 METAR LIRA 271745Z 17009KT 9999 FEW030 13/05 Q1013=
200903271715 METAR LIRA 271715Z 17009KT 9999 FEW030 14/05 Q1013=
200903271645 METAR LIRA 271645Z 18009KT 150V250 9999 FEW030 15/05 Q1013=
200903271615 METAR LIRA 271615Z 21007KT 160V260 9999 FEW030 SCT070 15/06
                        Q1013=
200903271545 METAR LIRA 271545Z 21008KT 150V250 9999 FEW030 SCT070 15/06
                        Q1013=
200903271515 METAR LIRA 271515Z 21005KT 180V270 9999 FEW030 SCT070 16/07
                        Q1013=
200903271445 METAR LIRA 271445Z 17006KT 120V230 9999 FEW030 SCT070 15/07
                        Q1014=
200903271415 METAR LIRA 271415Z 22005KT 9999 SCT030 SCT070 15/07 Q1014=
200903271345 METAR LIRA 271345Z 18004KT 9999 SCT030 SCT070 15/07 Q1014=
200903271315 METAR LIRA 271315Z 23005KT 180V260 9999 SCT030 SCT070 16/09
                        Q1014=
200903271245 METAR LIRA 271245Z 20005KT 160V260 9999 FEW020 BKN030 14/07
                        Q1014=
200903271215 METAR LIRA 271215Z 18008KT 140V230 9999 FEW020 BKN030 14/07
                        Q1014=
200903271145 METAR LIRA 271145Z 20007KT 130V240 9999 FEW020 BKN030 14/07
                        Q1015=
200903271115 METAR LIRA 271115Z 20007KT 150V230 9999 FEW017 BKN030 14/07
                        Q1015=
200903271045 METAR LIRA 271045Z 18008KT 120V230 9999 FEW017 BKN030 14/08
                        Q1015=
200903271015 METAR LIRA 271015Z 18008KT 150V220 9999 FEW017 BKN030 13/07
                        Q1015=
200903270845 METAR LIRA 270845Z 17010KT 120V200 9999 FEW018 SCT030 12/08
                        Q1014=
200903270815 METAR LIRA 270815Z 16009KT 120V200 9999 SCT017 SCT070 12/09
                        Q1014=
200903270745 METAR LIRA 270745Z 17008KT 120V210 9999 FEW017 SCT070 12/09
                        Q1014=
200903270715 METAR LIRA 270715Z 17007KT 120V210 9999 SCT016 SCT070 12/09
                        Q1014=
200903270645 METAR LIRA 270645Z 16006KT 9999 SCT020 SCT070 10/07 Q1014=
200903270615 METAR LIRA 270615Z 15006KT 100V170 9999 FEW020 09/08 Q1014=
200903270545 METAR LIRA 270545Z 14005KT 110V180 9999 FEW020 07/07 Q1014=
200903270515 METAR LIRA 270515Z 14006KT 9999 SCT020 07/07 Q1013=
200903270445 METAR LIRA 270445Z 15005KT 9999 FEW020 08/07 Q1013=
200903270415 METAR LIRA 270415Z 14005KT 9999 FEW020 08/07 Q1013=
200903270345 METAR LIRA 270345Z 14006KT 9999 FEW020 08/06 Q1013=
200903270315 METAR LIRA 270315Z 14007KT 9999 FEW020 08/05 Q1014=
200903270245 METAR LIRA 270245Z 14008KT 9999 FEW020 09/06 Q1014=
200903270215 METAR LIRA 270215Z 16010KT 9999 SCT020 SCT070 09/07 Q1014=
200903270145 METAR LIRA 270145Z 16005KT 9999 SCT020 08/04 Q1014=
200903270115 METAR LIRA 270115Z 15006KT CAVOK 08/05 Q1014=
200903270045 METAR LIRA 270045Z 11005KT CAVOK 08/07 Q1014=
200903270015 METAR LIRA 270015Z 10004KT CAVOK 08/08 Q1014=
200903262350 METAR LIRA 270045Z 11005KT CAVOK 08/07 Q1014=
200903262345 METAR LIRA 262345Z 14003KT CAVOK 09/08 Q1014=
200903262315 METAR LIRA 262315Z 15004KT CAVOK 09/08 Q1014=
200903262245 METAR LIRA 262245Z 14005KT CAVOK 10/08 Q1014=
200903262215 METAR LIRA 262215Z 16004KT CAVOK 09/08 Q1014=
200903262145 METAR LIRA 262145Z 15005KT CAVOK 09/08 Q1013=
200903262115 METAR LIRA 262115Z 16003KT CAVOK 11/09 Q1013=
200903262045 METAR LIRA 262045Z 16004KT CAVOK 11/09 Q1013=
200903262015 METAR LIRA 262015Z 17005KT CAVOK 11/09 Q1013=
200903261945 METAR LIRA 261945Z 17004KT CAVOK 11/09 Q1012=
200903261915 METAR LIRA 261915Z 16004KT 130V190 CAVOK 12/09 Q1012=
200903261845 METAR LIRA 261845Z 22002KT CAVOK 12/09 Q1011=
200903261815 METAR LIRA 261815Z 28006KT 220V310 9999 FEW025 SCT200 13/09
                        Q1011=
200903261745 METAR LIRA 261745Z 27010KT 210V330 9999 FEW020 SCT200 14/08
                        Q1011=
200903261715 METAR LIRA 261715Z 27007KT 220V320 9999 SCT020 SCT200 15/08
                        Q1011=
200903261645 METAR LIRA 261645Z 26009KT 220V330 9999 FEW018 SCT035 15/06
                        Q1010=
200903261615 METAR LIRA 261615Z 27012KT 240V320 9999 FEW018 SCT035 16/08
                        Q1010=
200903261545 METAR LIRA 261545Z 28011KT 220V320 9999 FEW018 16/08 Q1010=
200903261515 METAR LIRA 261515Z 28014KT 220V320 9999 FEW018 16/08 Q1009=
200903261445 METAR LIRA 261445Z 27011G24KT 210V310 9999 FEW018 FEW020TCU
                        17/07 Q1009=
200903261415 METAR LIRA 261415Z 25012KT 200V310 9999 FEW020 SCT030 17/07
                        Q1009=
200903261345 METAR LIRA 261345Z 27013KT 220V310 9999 FEW020 17/07 Q1009=
200903261315 METAR COR LIRA 261315Z 26011KT 210V330 9999 FEW020 17/06
                        Q1009=
200903261245 METAR LIRA 261245Z 27009KT 240V330 9999 SCT020 17/01 Q1009=
200903261215 METAR LIRA 261215Z 32005KT 260V360 9999 SCT020 16/02 Q1009=
200903261145 METAR LIRA 261145Z 34010KT 300V030 9999 SCT020 16/03 Q1009=
200903261115 METAR LIRA 261115Z 30009KT 280V020 9999 SCT020 15/04 Q1009=
200903260845 METAR LIRA 260845Z 36006KT 290V070 9999 FEW020 11/06 Q1008=
200903260815 METAR LIRA 260815Z 36003KT 330V050 9999 FEW020 11/06 Q1008=
200903260745 METAR LIRA 260745Z 02005KT 310V080 CAVOK 09/05 Q1007=
200903260715 METAR LIRA 260715Z 01005KT 330V050 CAVOK 09/05 Q1007=
200903260645 METAR LIRA 260645Z 01006KT 300V050 CAVOK 08/05 Q1006=
200903260615 METAR LIRA 260615Z 35004KT CAVOK 07/05 Q1006=
200903260545 METAR LIRA 260545Z 03005KT 330V080 9999 FEW018 06/06 Q1005=
200903260515 METAR LIRA 260515Z 33003KT 9999 FEW018 07/07 Q1005=
200903260445 METAR LIRA 260445Z 00000KT 9999 FEW018 08/04 Q1005=
200903260415 METAR LIRA 260415Z 30004KT 9999 FEW018 09/05 Q1004=
200903260345 METAR LIRA 260345Z 18003KT 9999 FEW018 SCT030 09/06 Q1004=
200903260315 METAR LIRA 260315Z 17006KT 9999 FEW018 SCT030 09/06 Q1004=
200903260245 METAR LIRA 260245Z 15008KT 9999 FEW018 SCT030 09/06 Q1004=
200903260215 METAR LIRA 260215Z 17009KT 120V190 9999 FEW018 09/07 Q1004=
200903260145 METAR LIRA 260145Z 16006KT 130V210 9999 FEW018 09/07 Q1004=
200903260115 METAR LIRA 260115Z 14010KT 9999 FEW018 09/07 Q1004=
200903260045 METAR LIRA 260045Z 14010KT 9999 FEW018 SCT070 08/06 Q1005=
200903260015 METAR LIRA 260015Z 14010KT 9999 FEW018 SCT070 09/07 Q1005=
200903252350 METAR LIRA 260045Z 14010KT 9999 FEW018 SCT070 08/06 Q1005=
200903252345 METAR LIRA 252345Z 14008KT 9999 SCT018 SCT070 08/07 Q1006=
200903252245 METAR LIRA 252245Z 13007KT 9999 FEW018 SCT070 08/07 Q1007=
200903252215 METAR LIRA 252215Z 14005KT 9999 FEW018 SCT025 BKN070 09/07
                        Q1007=
200903252145 METAR LIRA 252145Z 15004KT 8000 -RA FEW018 SCT025 BKN070
                        09/05 Q1008=
200903252115 METAR LIRA 252115Z 18007KT 8000 -RA FEW018 SCT025 BKN070
                        10/05 Q1008=
200903252045 METAR LIRA 252045Z 18004KT 9999 FEW018 SCT030 10/05 Q1008=
200903252015 METAR LIRA 252015Z 17004KT 030V160 9999 FEW020 SCT080 08/04
                        Q1008=
200903251945 METAR LIRA 251945Z 14006KT 110V170 9999 FEW020 SCT080 08/04
                        Q1008=
200903251915 METAR LIRA 251915Z 14005KT 9999 FEW080 SCT200 09/04 Q1008=
200903251845 METAR LIRA 251845Z 15004KT 9999 FEW080 SCT200 10/05 Q1008=
200903251815 METAR LIRA 251815Z 16004KT 9999 FEW080 SCT200 10/04 Q1008=
200903251745 METAR LIRA 251745Z 18004KT 9999 FEW030 SCT080 11/02 Q1008=
200903251715 METAR LIRA 251715Z 22004KT 9999 FEW080 BKN200 12/01 Q1008=
200903251645 METAR LIRA 251645Z 23006KT 190V260 CAVOK 12/01 Q1008=
200903251615 METAR LIRA 251615Z 27007KT 190V310 CAVOK 12/M01 Q1008=
200903251545 METAR LIRA 251545Z 24007KT 190V300 9999 FEW020 BKN200 13/M01
                        Q1008=
200903251515 METAR LIRA 251515Z 24010KT 150V310 9999 FEW020 BKN200 14/M03
                        Q1008=
200903251445 METAR LIRA 251445Z 26009KT 210V300 9999 FEW020 SCT200 14/M03
                        Q1008=
200903251415 METAR LIRA 251415Z 26007KT 160V320 9999 FEW020 SCT200 14/M04
                        Q1008=
200903251345 METAR LIRA 251345Z 25008KT 200V330 9999 FEW020 14/M04 Q1008=
200903251315 METAR LIRA 251315Z 26011KT 210V330 9999 FEW020 SCT200 14/M05
                        Q1008=
200903251245 METAR LIRA 251245Z 27012KT 210V340 9999 FEW020 SCT200 14/M07
                        Q1008=
200903251215 METAR LIRA 251215Z 26010KT 210V360 9999 FEW020 SCT200 14/M05
                        Q1008=
200903251145 METAR LIRA 251145Z 33006KT 280V060 9999 FEW020 SCT200 13/M05
                        Q1008=
200903251115 METAR LIRA 251115Z 36004KT 010V090 9999 FEW020 SCT200 13/M05
                        Q1009=
200903251045 METAR LIRA 251045Z 33002KT 270V030 9999 FEW025 12/M04 Q1009=
200903250945 METAR LIRA 250945Z 30006KT 250V010 CAVOK 10/M03 Q1008=
200903250915 METAR LIRA 250915Z 31004KT CAVOK 09/00 Q1008=
200903250845 METAR LIRA 250845Z 32003KT CAVOK 08/01 Q1008=
200903250815 METAR LIRA 250815Z 01003KT CAVOK 07/02 Q1008=
200903250745 METAR LIRA 250745Z 01004KT 330V050 CAVOK 07/02 Q1008=
200903250715 METAR LIRA 250715Z 03006KT 350V090 CAVOK 06/02 Q1007=
200903250645 METAR LIRA 250645Z 07009KT 040V100 CAVOK 05/01 Q1007=
200903250615 METAR LIRA 250615Z 07005KT CAVOK 04/M00 Q1007=
200903250545 METAR LIRA 250545Z 05005KT CAVOK 04/00 Q1007=
200903250515 METAR LIRA 250515Z 01004KT CAVOK 03/M00 Q1006=
200903250445 METAR LIRA 250445Z 04005KT CAVOK 04/00 Q1006=
200903250415 METAR LIRA 250415Z 01003KT CAVOK 04/00 Q1005=
200903250345 METAR LIRA 250345Z 01004KT CAVOK 05/00 Q1005=
200903250315 METAR LIRA 250315Z 03004KT CAVOK 05/01 Q1004=
200903250245 METAR LIRA 250245Z 36005KT 310V070 CAVOK 05/02 Q1004=
200903250215 METAR LIRA 250215Z 36006KT CAVOK 05/02 Q1003=
200903250145 METAR LIRA 250145Z 02005KT 310V070 9999 FEW025 05/02 Q1003=
200903250115 METAR LIRA 250115Z 34011KT 310V050 9999 FEW025 06/03 Q1002=
200903250045 METAR LIRA 250045Z 33011KT 310V050 9999 FEW025 06/03 Q1002=
200903250015 METAR LIRA 250015Z 34009KT 9999 -RA FEW012 BKN025 07/05 Q1001=
200903242350 METAR LIRA 250045Z 33011KT 310V050 9999 FEW025 06/03 Q1002=
200903242345 METAR LIRA 242345Z 05008KT 010V080 9999 -RA FEW012 BKN025
                        07/05 Q1001=
200903242315 METAR LIRA 242315Z 03009KT 330V090 9999 -RA FEW012 BKN025
                        07/04 Q1000=
200903242245 METAR LIRA 242245Z 36010KT 310V050 9999 -RA FEW015 FEW016CB
                        BKN025 08/06 Q1000=
200903242215 METAR LIRA 242215Z 33010KT 290V360 9999 -RA FEW015 FEW016CB
                        BKN025 08/06 Q0999 RETS=
200903242145 METAR LIRA 242145Z 29001KT 9999 FEW015 FEW016CB SCT025 09/06
                        Q0998 RETS=
200903242115 METAR LIRA 242115Z 25004KT 200V270 9999 TS FEW015 FEW016CB
                        SCT025 09/08 Q0998=
200903242045 METAR LIRA 242045Z 23009KT 200V290 9999 FEW015 SCT025 10/06
                        Q0998=
200903242015 METAR LIRA 242015Z 20004KT 9999 FEW015 SCT025 10/06 Q0998=
200903241945 METAR LIRA 241945Z 21003KT 9999 FEW015 SCT025 11/07 Q0998=
200903241915 METAR LIRA 241915Z 24005KT 200V290 9999 FEW015 SCT025 11/07
                        Q0998=
200903241845 METAR LIRA 241845Z 26008KT 200V330 9999 FEW014 SCT025 13/08
                        Q0998=
200903241815 METAR LIRA 241815Z 23010KT 200V280 9999 FEW014 SCT025 14/07
                        Q0998=
200903241745 METAR LIRA 241745Z 25007KT 200V300 9999 FEW014 SCT025 14/06
                        Q0998=
200903241715 METAR LIRA 241715Z 28009KT 210V310 9999 FEW014 SCT025 14/09
                        Q0998=
200903241645 METAR LIRA 241645Z 25005KT 8000 FEW014 SCT025 14/10 Q0996=
200903241615 METAR LIRA 241615Z 19004KT 150V230 8000 FEW014 SCT025 14/09
                        Q0996=
200903241545 METAR LIRA 241545Z 22003KT 160V260 8000 SCT014 BKN025 14/09
                        Q0997=
200903241515 METAR LIRA 241515Z 20007KT 150V250 9000 SCT014 BKN025 14/09
                        Q0997=
200903241445 METAR LIRA 241445Z 21006KT 140V250 9999 SCT014 BKN025 14/09
                        Q0998=
200903241415 METAR LIRA 241415Z 21012KT 140V240 9999 SCT014 BKN025 15/10
                        Q0998=
200903241345 METAR LIRA 241345Z 18013KT 150V230 9999 SCT014 BKN025 15/10
                        Q0999=
200903241315 METAR LIRA 241315Z 19013KT 150V220 9999 SCT015 BKN025 15/10
                        Q0999=
200903241245 METAR LIRA 241245Z 17016KT 130V210 9999 SCT016 SCT025 15/10
                        Q0999=
200903241215 METAR LIRA 241215Z 18011KT 130V240 9999 SCT016 BKN025 14/09
                        Q1000=
200903241145 METAR LIRA 241145Z 18012KT 140V210 9999 SCT016 BKN025 14/10
                        Q1000=
200903241115 METAR LIRA 241115Z 15016KT 120V210 9999 SCT016 BKN025 14/10
                        Q1000=
200903241045 METAR LIRA 241045Z 14018KT 120V190 9999 SCT016 BKN025 14/10
                        Q1001=
200903241015 METAR LIRA 241015Z 15017KT 9999 SCT016 BKN025 13/09 Q1001=
200903240945 METAR LIRA 240945Z 14016KT 110V180 9999 SCT016 BKN025 13/08
                        Q1002=
200903240915 METAR LIRA 240915Z 14017KT 100V180 9999 SCT016 BKN025 13/08
                        Q1002=
200903240845 METAR LIRA 240845Z 15017KT 9999 FEW016 BKN025 13/08 Q1002=
200903240815 METAR LIRA 240815Z 15017KT 9999 FEW016 BKN025 13/08 Q1002=
200903240745 METAR LIRA 240745Z 15016KT 9999 FEW016 SCT025 12/08 Q1002=
200903240715 METAR LIRA 240715Z 15015KT 9999 FEW016 BKN025 11/08 Q1003=
200903240645 METAR LIRA 240645Z 14017KT 9999 FEW016 BKN025 11/07 Q1003=
200903240615 METAR LIRA 240615Z 13014KT 9999 FEW016 BKN025 10/07 Q1004=
200903240545 METAR LIRA 240545Z 14012KT 9999 FEW016 BKN025 10/07 Q1004=
200903240515 METAR LIRA 240515Z 14010KT 9999 FEW018 SCT030 10/07 Q1005=
200903240445 METAR LIRA 240445Z 15011KT 9999 FEW030 SCT070 08/06 Q1005=
200903240415 METAR LIRA 240415Z 15008KT 9999 FEW025 09/06 Q1006=
200903240345 METAR LIRA 240345Z 14008KT 9999 FEW025 SCT070 08/05 Q1006=
200903240315 METAR LIRA 240315Z 13007KT 9999 FEW025 SCT070 08/05 Q1007=
200903240245 METAR LIRA 240245Z 14008KT 9999 FEW025 SCT070 08/05 Q1008=
200903240215 METAR LIRA 240215Z 14006KT 9999 FEW025 SCT070 08/05 Q1008=
200903240145 METAR LIRA 240145Z 14006KT 9999 FEW030 SCT070 08/05 Q1009=
200903240115 METAR LIRA 240115Z 15008KT 9999 FEW030 08/05 Q1010=
200903240045 METAR LIRA 240045Z 14007KT 9999 FEW030 08/05 Q1010=
200903240015 METAR LIRA 240015Z 16006KT 9999 FEW030 SCT070 08/06 Q1011=
200903232350 METAR LIRA 240045Z 14007KT 9999 FEW030 08/05 Q1010=
200903232345 METAR LIRA 232345Z 14006KT 9999 FEW070 08/06 Q1011=
200903232315 METAR LIRA 232315Z 15005KT 9999 FEW070 07/05 Q1012=
200903232245 METAR LIRA 232245Z 15006KT 9999 FEW070 08/06 Q1012=
200903232215 METAR LIRA 232215Z 14006KT 9999 FEW070 07/05 Q1012=
200903232145 METAR LIRA 232145Z 14006KT 9999 FEW070 08/06 Q1012=
200903232115 METAR LIRA 232115Z 15005KT 9999 FEW070 09/06 Q1013=
200903232045 METAR LIRA 232045Z 16005KT 9999 FEW070 10/06 Q1013=
200903232015 METAR LIRA 232015Z 17005KT 9999 FEW070 10/07 Q1013=
200903231945 METAR LIRA 231945Z 17005KT CAVOK 10/07 Q1014=
200903231915 METAR LIRA 231915Z 13005KT CAVOK 11/07 Q1014=
200903231845 METAR LIRA 231845Z 17005KT CAVOK 10/06 Q1014=
200903231815 METAR LIRA 231815Z 17005KT CAVOK 10/06 Q1014=
200903231745 METAR LIRA 231745Z 22003KT CAVOK 12/07 Q1014=
200903231715 METAR LIRA 231715Z 25004KT 200V290 CAVOK 12/07 Q1014=
200903231645 METAR LIRA 231645Z 24006KT 160V290 CAVOK 14/05 Q1014=
200903231615 METAR LIRA 231615Z 25008KT 210V310 CAVOK 15/04 Q1014=
200903231545 METAR LIRA 231545Z 26008KT 200V340 CAVOK 15/00 Q1014=
200903231515 METAR LIRA 231515Z 25009KT 200V310 CAVOK 15/01 Q1014=
200903231445 METAR LIRA 231445Z 26010KT 210V320 CAVOK 15/01 Q1015=
200903231415 METAR LIRA 231415Z 27012KT 190V310 CAVOK 15/02 Q1015=
200903231345 METAR LIRA 231345Z 26012KT 230V310 CAVOK 15/02 Q1015=
200903231315 METAR LIRA 231315Z 29010KT 210V350 CAVOK 16/01 Q1015=
200903231245 METAR LIRA 231245Z 28009KT 190V320 CAVOK 16/01 Q1015=
200903231215 METAR LIRA 231215Z 25007KT 210V330 CAVOK 16/00 Q1016=
200903231145 METAR LIRA 231145Z 30004KT 220V310 CAVOK 15/00 Q1016=
200903231115 METAR LIRA 231115Z 08002KT CAVOK 14/M01 Q1017=
200903231045 METAR LIRA 231045Z 36004KT CAVOK 13/M01 Q1018=
200903231015 METAR LIRA 231015Z 35005KT 290V020 CAVOK 12/M02 Q1017=
200903230945 METAR LIRA 230945Z 29002KT CAVOK 11/M02 Q1018=
200903230915 METAR LIRA 230915Z 01002KT CAVOK 10/M00 Q1018=
200903230845 METAR LIRA 230845Z 35004KT CAVOK 09/02 Q1018=
200903230815 METAR LIRA 230815Z 36003KT CAVOK 07/02 Q1018=
200903230745 METAR LIRA 230745Z 06003KT CAVOK 04/00 Q1018=
200903230715 METAR LIRA 230715Z 06004KT CAVOK 03/M01 Q1018=
200903230645 METAR LIRA 230645Z 02002KT CAVOK 02/M01 Q1018=
200903230615 METAR LIRA 230615Z 03001KT CAVOK 01/M00 Q1017=
200903230545 METAR LIRA 230545Z 08002KT CAVOK 02/00 Q1017=
200903230515 METAR LIRA 230515Z 10004KT CAVOK 01/00 Q1017=
200903230445 METAR LIRA 230445Z 34001KT CAVOK 01/M02 Q1017=
200903230415 METAR LIRA 230415Z 00000KT CAVOK 02/M02 Q1017=
200903230345 METAR LIRA 230345Z 07003KT CAVOK 02/M02 Q1017=
200903230315 METAR LIRA 230315Z 02004KT CAVOK 03/M01 Q1017=
200903230245 METAR LIRA 230245Z 34003KT CAVOK 03/M01 Q1017=
200903230215 METAR LIRA 230215Z 02004KT 360V060 CAVOK 03/M01 Q1017=
200903230145 METAR LIRA 230145Z 03004KT CAVOK 04/M01 Q1017=
200903230115 METAR LIRA 230115Z 05005KT CAVOK 04/M01 Q1017=
200903230045 METAR LIRA 230045Z 02005KT CAVOK 04/M01 Q1017=
200903230015 METAR LIRA 230015Z 01007KT 330V030 CAVOK 04/M02 Q1017=
200903222350 METAR LIRA 230045Z 02005KT CAVOK 04/M01 Q1017=
200903222345 METAR LIRA 222345Z 36005KT 9999 SCT080 05/M02 Q1016=
200903222315 METAR LIRA 222315Z 03005KT 350V060 9999 FEW070 05/M02 Q1016=
200903222245 METAR LIRA 222245Z 05006KT 010V080 CAVOK 05/M02 Q1016=
200903222215 METAR LIRA 222215Z 36004KT 340V060 CAVOK 06/M03 Q1016=
200903222145 METAR LIRA 222145Z 02003KT CAVOK 06/M03 Q1016=
200903222115 METAR LIRA 222115Z 05005KT CAVOK 06/M03 Q1016=
200903222045 METAR LIRA 222045Z 36003KT CAVOK 07/M03 Q1016=
200903222015 METAR LIRA 222015Z 36005KT 320V050 CAVOK 07/M03 Q1015=
200903221945 METAR LIRA 221945Z 04005KT CAVOK 08/M03 Q1015=
200903221915 METAR LIRA 221915Z 04003KT 320V070 CAVOK 08/M04 Q1015=
200903221845 METAR LIRA 221845Z 04005KT 360V070 CAVOK 08/M04 Q1015=
200903221815 METAR LIRA 221815Z 35006KT 300V020 CAVOK 09/M04 Q1015=
200903221745 METAR LIRA 221745Z 34012G23KT 300V030 CAVOK 10/M04 Q1014=
200903221715 METAR LIRA 221715Z 33008KT 290V010 CAVOK 11/M03 Q1014=
200903221645 METAR LIRA 221645Z 32011KT 290V010 CAVOK 11/M03 Q1014=
200903221615 METAR LIRA 221615Z 33013KT 290V020 9999 FEW020 12/M01 Q1014=
200903221545 METAR LIRA 221545Z 33010KT 9999 FEW020 12/M02 Q1014=
200903221515 METAR LIRA 221515Z 30012KT 270V360 9999 FEW020 13/M01 Q1014=
200903221445 METAR LIRA 221445Z 31006KT 250V360 9999 FEW020 13/M02 Q1014=
200903221415 METAR LIRA 221415Z 33011KT 290V020 9999 FEW020 13/M03 Q1014=
200903221345 METAR LIRA 221345Z 34012KT 290V020 9999 FEW020 13/M01 Q1014=
200903221315 METAR LIRA 221315Z 32013KT 260V360 9999 FEW020 13/M01 Q1014=
200903221215 METAR LIRA 221215Z 33011KT 260V020 9999 FEW020 12/M02 Q1015=
200903221145 METAR LIRA 221145Z 33010KT 300V060 9999 FEW020 12/M01 Q1015=
200903221115 METAR LIRA 221115Z 03005KT 290V070 9999 FEW020 11/M01 Q1015=
200903221045 METAR LIRA 221045Z 34008KT 280V080 CAVOK 11/M01 Q1015=
200903221015 METAR LIRA 221015Z 33013KT 300V060 CAVOK 11/M00 Q1015=
200903220945 METAR LIRA 220945Z 02008KT 310V090 9999 FEW070 10/02 Q1015=
200903220915 METAR LIRA 220915Z 02010KT 310V090 9999 FEW035 08/01 Q1015=
200903220845 METAR LIRA 220845Z 36010KT 320V050 9999 FEW035 07/00 Q1015=
200903220815 METAR LIRA 220815Z 02010KT 310V080 9999 FEW035 SCT070 07/M01
                        Q1015=
200903220745 METAR LIRA 220745Z 36008KT 300V060 9999 FEW035 SCT070 05/M01
                        Q1015=
200903220715 METAR LIRA 220715Z 36005KT 320V070 9999 FEW035 SCT070 05/M02
                        Q1014=
200903220645 METAR LIRA 220645Z 03005KT 9999 FEW035 SCT070 04/M02 Q1014=
200903220615 METAR LIRA 220615Z 04005KT 9999 FEW035 SCT070 04/M02 Q1014=
200903220545 METAR LIRA 220545Z 35008KT 300V040 9999 FEW035 SCT070 05/M01
                        Q1013=
200903220515 METAR LIRA 220515Z 01008KT 320V080 9999 FEW035 SCT070 05/M01
                        Q1013=
200903220445 METAR LIRA 220445Z 01005KT 300V070 9999 FEW035 SCT080 04/M00
                        Q1013=
200903220415 METAR LIRA 220415Z 02004KT 9999 FEW035 SCT080 04/01 Q1013=
200903220345 METAR LIRA 220345Z 02005KT 340V100 9999 SCT035 SCT070 04/01
                        Q1013=
200903220315 METAR LIRA 220315Z 04004KT 360V060 9999 SCT030 SCT070 03/00
                        Q1014=
200903220245 METAR LIRA 220245Z 06004KT 9999 FEW035 SCT070 03/00 Q1014=
200903220215 METAR LIRA 220215Z 05003KT 9999 FEW040 SCT070 03/M00 Q1014=
200903220145 METAR LIRA 220145Z 07003KT 9999 SCT080 03/00 Q1014=
200903220115 METAR LIRA 220115Z 03005KT 9999 SCT080 03/M00 Q1014=
200903220045 METAR LIRA 220045Z 05005KT 9999 SCT080 04/00 Q1014=
200903220015 METAR LIRA 220015Z 05007KT 360V090 9999 SCT080 04/00 Q1014=
200903212350 METAR LIRA 220045Z 05005KT 9999 SCT080 04/00 Q1014=
200903212345 METAR LIRA 212345Z 02005KT 340V080 9999 FEW035 SCT080 04/00
                        Q1014=
200903212315 METAR LIRA 212315Z 03006KT 330V150 9999 FEW035 SCT080 04/00
                        Q1013=
200903212245 METAR LIRA 212245Z 01007KT 320V070 9999 FEW035 04/00 Q1013=
200903212215 METAR LIRA 212215Z 36009KT 310V080 9999 FEW035 04/M00 Q1013=
200903212145 METAR LIRA 212145Z 01010KT 300V060 9999 FEW035 SCT070 04/M01
                        Q1013=
200903212115 METAR LIRA 212115Z 35012KT 310V030 9999 FEW035 SCT070 04/M01
                        Q1013=
200903212045 METAR LIRA 212045Z 34012KT 300V030 9999 SCT030 SCT070 04/M02
                        Q1013=
200903212015 METAR LIRA 212015Z 35012KT 300V030 9999 FEW030 SCT080 05/M02
                        Q1012=
200903211945 METAR LIRA 211945Z 35012KT 310V020 9999 FEW040 05/M02 Q1012=
200903211915 METAR LIRA 211915Z 35015KT 310V040 9999 FEW040 SCT080 06/M02
                        Q1012=
200903211845 METAR LIRA 211845Z 35014KT 310V030 9999 FEW040 SCT080 06/M02
                        Q1012=
200903211815 METAR LIRA 211815Z 35016G27KT 310V030 9999 FEW025 SCT080
                        06/M02 Q1011=
200903211745 METAR LIRA 211745Z 35014KT 310V020 9999 FEW025 SCT080 07/M03
                        Q1011=
200903211715 METAR LIRA 211715Z 34019KT 300V030 9999 FEW018 SCT080 07/M03
                        Q1011=
200903211645 METAR LIRA 211645Z 34011G29KT 300V030 9999 FEW018 SCT080
                        08/M03 Q1010=
200903211615 METAR LIRA 211615Z 34015KT 300V030 9999 FEW018 SCT080 09/M02
                        Q1010=
200903211545 METAR LIRA 211545Z 34015KT 310V030 9999 SCT018 SCT090 09/M03
                        Q1010=
200903211515 METAR LIRA 211515Z 34018G28KT 340V040 9999 SCT018 SCT200
                        10/M04 Q1009=
200903211445 METAR LIRA 211445Z 34018G33KT 300V040 9999 SCT018 SCT200
                        10/M05 Q1009=
200903211415 METAR LIRA 211415Z 34018G28KT 300V030 9999 SCT018 SCT200
                        10/M05 Q1009=
200903211345 METAR LIRA 211345Z 34018KT 300V040 9999 SCT018 SCT200 11/M03
                        Q1009=
200903211315 METAR LIRA 211315Z 34017G27KT 300V050 9999 SCT020 10/M03
                        Q1009=
200903211245 METAR LIRA 211245Z 33019KT 300V040 9999 SCT020 10/M03 Q1009=
200903211215 METAR LIRA 211215Z 35018G28KT 300V030 9999 SCT020 10/M02
                        Q1009=
200903211145 METAR LIRA 211145Z 33018KT 300V040 9999 FEW020 10/M01 Q1010=
200903211115 METAR LIRA 211115Z 34016G28KT 300V050 9999 FEW020 09/M01
                        Q1010=
200903211045 METAR LIRA 211045Z 34017G27KT 290V050 9999 FEW020 09/M01
                        Q1010=
200903211015 METAR LIRA 211015Z 34014G27KT 300V040 9999 FEW020 08/M02
                        Q1010=
200903210945 METAR LIRA 210945Z 35013KT 300V040 9999 FEW020 07/M01 Q1010=
200903210915 METAR LIRA 210915Z 35014G26KT 310V040 9999 FEW020 07/M01
                        Q1010=
200903210845 METAR LIRA 210845Z 35015KT 310V050 9999 FEW020 06/M01 Q1010=
200903210815 METAR LIRA 210815Z 35013G23KT 300V040 9999 FEW020 06/M01
                        Q1010=
200903210745 METAR LIRA 210745Z 35016KT 300V060 9999 FEW020 05/M01 Q1010=
200903210715 METAR LIRA 210715Z 35015KT 300V060 9999 FEW020 04/M01 Q1010=
200903210645 METAR LIRA 210645Z 01011KT 300V060 9999 FEW020 03/M02 Q1010=
200903210615 METAR LIRA 210615Z 01009KT 310V080 9999 FEW020 03/M03 Q1010=
200903210545 METAR LIRA 210545Z 02008KT 300V060 9999 FEW020 03/M03 Q1010=
200903210515 METAR LIRA 210515Z 36009KT 320V090 9999 FEW020 03/M03 Q1010=
200903210445 METAR LIRA 210445Z 35011KT 300V030 9999 FEW020 04/M03 Q1010=
200903210415 METAR LIRA 210415Z 35012KT 300V020 CAVOK 05/M04 Q1010=
200903210345 METAR LIRA 210345Z 34013KT 310V030 9999 FEW040 SCT200 04/M04
                        Q1010=
200903210315 METAR LIRA 210315Z 34012G24KT 290V020 9999 FEW040 SCT200
                        04/M04 Q1010=
200903210245 METAR LIRA 210245Z 35010KT 300V040 9999 FEW040 BKN200 05/M04
                        Q1010=
200903210215 METAR LIRA 210215Z 34013KT 310V020 9999 FEW040 BKN200 05/M04
                        Q1010=
200903210145 METAR LIRA 210145Z 34015KT 300V020 9999 FEW030 SCT080 05/M05
                        Q1010=
200903210115 METAR LIRA 210115Z 34011G21KT 300V010 9999 FEW030 SCT080
                        05/M05 Q1011=
200903210045 METAR LIRA 210045Z 33008KT 270V010 9999 FEW030 SCT080 06/M05
                        Q1011=
200903210015 METAR LIRA 210015Z 33008KT 280V360 9999 FEW030 SCT080 05/M05
                        Q1011=
200903202350 METAR LIRA 210045Z 33008KT 270V010 9999 FEW030 SCT080 06/M05
                        Q1011=
200903202345 METAR LIRA 202345Z 33008KT 9999 FEW018 SCT080 06/M06 Q1011=
200903202315 METAR LIRA 202315Z 35005KT 320V020 9999 FEW018 SCT080 06/M05
                        Q1011=
200903202245 METAR LIRA 202245Z 34004KT 9999 FEW018 SCT080 06/M05 Q1011=
200903202215 METAR LIRA 202215Z 02003KT 9999 FEW018 SCT080 05/M04 Q1011=
200903202145 METAR LIRA 202145Z 36004KT 9999 FEW018 SCT080 05/M04 Q1011=
200903202115 METAR LIRA 202115Z 02002KT 9999 FEW018 SCT030 BKN080 06/M05
                        Q1011=
200903202045 METAR LIRA 202045Z 01004KT 9999 FEW018 SCT030 BKN080 06/M05
                        Q1011=
200903202015 METAR LIRA 202015Z 35004KT 9999 SCT018 SCT030 BKN080 07/M06
                        Q1011=
200903201945 METAR LIRA 201945Z 05004KT 330V060 9999 SCT018 SCT030 BKN080
                        07/M06 Q1011=
200903201915 METAR LIRA 201915Z 04004KT 360V080 9999 SCT018 SCT030 BKN080
                        07/M06 Q1011=
200903201845 METAR LIRA 201845Z 01006KT 330V090 9999 SCT018 SCT030 07/M06
                        Q1010=
200903201815 METAR LIRA 201815Z 01010KT 310V060 9999 SCT020 SCT035 BKN200
                        07/M06 Q1010=
200903201745 METAR LIRA 201745Z 36011KT 330V040 9999 SCT020 SCT035 BKN200
                        08/M05 Q1010=
200903201715 METAR LIRA 201715Z 01008KT 330V060 9999 SCT020 SCT035 BKN200
                        08/M05 Q1010=
200903201645 METAR LIRA 201645Z 02011KT 340V070 9999 SCT020 SCT040 BKN200
                        08/M04 Q1009=
200903201615 METAR LIRA 201615Z 03005KT 340V090 9999 SCT020 SCT040 BKN200
                        08/M04 Q1009=
200903201545 METAR LIRA 201545Z 03011KT 330V090 9999 SCT018 SCT040 BKN200
                        09/M04 Q1009=
200903201515 METAR LIRA 201515Z 03010KT 320V080 9999 SCT018 SCT040 BKN200
                        09/M04 Q1009=
200903201445 METAR LIRA 201445Z 01010KT 320V090 9999 FEW018 SCT035 BKN200
                        10/M03 Q1009=
200903201415 METAR LIRA 201415Z 01011G21KT 330V060 9999 FEW018 SCT035
                        BKN200 09/M03 Q1009=
200903201345 METAR LIRA 201345Z 36013G24KT 310V060 9999 FEW018 SCT035
                        BKN200 09/M02 Q1009=
200903201315 METAR LIRA 201315Z 33013KT 300V030 9999 FEW015 SCT035 BKN200
                        09/M02 Q1009=
200903200945 METAR LIRA 200945Z 02004KT 350V080 9999 FEW020 SCT040 BKN100
                        09/03 Q1008=
200903200915 METAR LIRA 200915Z 03005KT 340V100 9999 FEW020 SCT040 BKN200
                        09/03 Q1008=
200903200845 METAR LIRA 200845Z 03007KT 320V080 9999 FEW020 SCT040 BKN200
                        09/03 Q1008=
200903200815 METAR LIRA 200815Z 01006KT 320V100 9999 FEW020 SCT040 BKN200
                        07/05 Q1008=
200903200745 METAR LIRA 200745Z 02005KT 340V080 9999 FEW020 SCT040 BKN200
                        07/04 Q1009=
200903200715 METAR LIRA 200715Z 01004KT 320V060 9999 FEW020 SCT040 BKN200
                        06/04 Q1009=
200903200645 METAR LIRA 200645Z 02004KT 010V050 9999 FEW020 SCT040 BKN200
                        05/04 Q1009=
200903200615 METAR LIRA 200615Z 02004KT 9999 SCT020 SCT040 BKN200 04/03
                        Q1009=
200903200545 METAR LIRA 200545Z 03003KT 9999 SCT020 SCT040 BKN200 04/03
                        Q1009=
200903200515 METAR LIRA 200515Z 01003KT 9999 FEW018 04/03 Q1009=
200903200445 METAR LIRA 200445Z 03002KT 9999 FEW018 05/03 Q1009=
200903200415 METAR LIRA 200415Z 00000KT 9999 FEW018 05/03 Q1009=
200903200345 METAR LIRA 200345Z 06005KT 9999 FEW018 06/04 Q1009=
200903200315 METAR LIRA 200315Z 05005KT 9999 FEW018 06/04 Q1009=
200903200245 METAR LIRA 200245Z 07003KT 9999 FEW018 06/05 Q1009=
200903200215 METAR LIRA 200215Z 10004KT 9999 FEW018 07/06 Q1009=
200903200145 METAR LIRA 200145Z 09006KT 9999 FEW018 07/05 Q1009=
200903200115 METAR LIRA 200115Z 04009KT 350V070 9999 FEW018 07/05 Q1009=
200903200045 METAR LIRA 200045Z 04012KT 360V080 CAVOK 07/05 Q1010=
200903200015 METAR LIRA 200015Z 01007KT 300V070 CAVOK 07/05 Q1010=
200903192350 METAR LIRA 200045Z 04012KT 360V080 CAVOK 07/05 Q1010=
200903192345 METAR LIRA 192345Z 35007KT 300V010 CAVOK 07/05 Q1010 RETS=
200903192315 METAR LIRA 192315Z 36006KT 310V060 9999 FEW070 07/05 Q1010
                        RETS=
200903192245 METAR LIRA 192245Z 06008KT 030V100 9999 TS FEW015CB 07/07
                        Q1011=
200903192215 METAR LIRA 192215Z 05009KT 020V080 9999 -TSRA SCT012 FEW015CB
                        SCT025 07/07 Q1012=
200903192145 METAR LIRA 192145Z 36009KT 310V070 9999 -TSRA SCT012 FEW015CB
                        SCT025 08/06 Q1012=
200903192115 METAR LIRA 192115Z 36012KT 310V050 9999 TSRA SCT012 FEW015CB
                        SCT025 12/10 Q1012=
200903192045 METAR LIRA 192045Z 27006G18KT 9999 -TSRA SCT012 FEW015CB
                        SCT025 12/09 Q1011=
200903192015 METAR LIRA 192015Z 19005KT 150V220 9999 FEW015 FEW020CB SCT025
                        12/09 Q1011=
200903191945 METAR LIRA 191945Z 17004KT 9999 FEW015 FEW020CB SCT025 13/09
                        Q1011=
200903191915 METAR LIRA 191915Z 18005KT 9999 FEW015 FEW020CB SCT025 13/09
                        Q1012=
200903191845 METAR LIRA 191845Z 19004KT 9999 FEW015 FEW020CB SCT025 13/09
                        Q1012=
200903191815 METAR LIRA 191815Z 17004KT 9999 FEW015 SCT025 13/09 Q1012=
200903191745 METAR LIRA 191745Z 20004KT 9999 FEW015 SCT025 13/09 Q1012=
200903191715 METAR LIRA 191715Z 19005KT 9999 FEW015 SCT025 13/08 Q1013=
200903191645 METAR LIRA 191645Z 19009KT 160V240 9999 FEW018 SCT027 13/08
                        Q1012=
200903191615 METAR LIRA 191615Z 19009KT 160V250 9999 FEW018 SCT027 14/08
                        Q1012=
200903191545 METAR LIRA 191545Z 21007KT 150V240 9999 FEW018 SCT027 14/09
                        Q1013=
200903191515 METAR LIRA 191515Z 20009KT 150V240 9999 FEW018 SCT027 14/09
                        Q1013=
200903191445 METAR LIRA 191445Z 21009KT 140V260 9999 FEW018 SCT027 15/09
                        Q1013=
200903191415 METAR LIRA 191415Z 20009KT 160V240 9999 FEW018 SCT027 14/09
                        Q1014=
200903191345 METAR LIRA 191345Z 20011KT 170V250 9999 FEW018 SCT027 14/08
                        Q1014=
200903191315 METAR LIRA 191315Z 19011KT 150V240 9999 FEW018 SCT027 15/09
                        Q1014=
200903191245 METAR LIRA 191245Z 19012KT 150V240 9999 FEW018 SCT027 15/08
                        Q1015=
200903191215 METAR LIRA 191215Z 19012KT 160V220 9999 FEW018 BKN027 15/07
                        Q1015=
200903191145 METAR LIRA 191145Z 17012KT 130V210 9999 FEW018 BKN027 15/08
                        Q1016=
200903191115 METAR LIRA 191115Z 17012KT 130V210 9999 SCT018 SCT027 15/07
                        Q1016=
200903191045 METAR LIRA 191045Z 17011KT 140V210 9999 FEW018 SCT080 15/08
                        Q1017=
200903191015 METAR LIRA 191015Z 15013KT 120V190 9999 0000 FEW018 SCT080
                        14/08 Q1017=
200903190945 METAR LIRA 190945Z 14012KT 140V270 9999 FEW018 SCT080 14/09
                        Q1017=
200903190915 METAR LIRA 190915Z 15006KT 120V190 9999 FEW018 SCT030 13/09
                        Q1018=
200903190845 METAR LIRA 190845Z 01003KT 9999 FEW018 BKN070 12/08 Q1018=
200903190815 METAR LIRA 190815Z 01002KT 9999 FEW018 BKN070 12/08 Q1018=
200903190800 METAR LIRA INTER/CB E=
200903190745 METAR LIRA 190745Z 05004KT 9999 FEW018 BKN070 12/09 Q1018=
200903190715 METAR LIRA 190715Z 06002KT 9999 FEW018 BKN080 11/09 Q1018=
200903190645 METAR LIRA 190645Z 15004KT 9999 FEW018 SCT070 10/08 Q1018=
200903190615 METAR LIRA 190615Z 17004KT 9999 FEW018 SCT200 09/09 Q1018=
200903190545 METAR LIRA 190545Z 15003KT 9999 FEW018 SCT200 08/08 Q1018=
200903190515 METAR LIRA 190515Z 15005KT 9999 FEW018 SCT200 08/08 Q1019=
200903190445 METAR LIRA 190445Z 13006KT 9999 FEW018 SCT030 09/07 Q1019=
200903190415 METAR LIRA 190415Z 14006KT 9999 FEW018 SCT030 09/07 Q1019=
200903190345 METAR LIRA 190345Z 13006KT 9999 FEW018 SCT030 09/07 Q1019=
200903190315 METAR LIRA 190315Z 09003KT 9999 FEW018 SCT030 09/08 Q1019=
200903190245 METAR LIRA 190245Z 09005KT 9999 FEW018 SCT030 08/08 Q1020=
200903190215 METAR LIRA 190215Z 09004KT 9999 FEW018 SCT030 08/07 Q1020=
200903190145 METAR LIRA 190145Z 14005KT 9999 FEW030 08/07 Q1020=
200903190115 METAR LIRA 190115Z 14005KT 9999 FEW030 SCT070 08/07 Q1020=
200903190045 METAR LIRA 190045Z 14005KT 9999 FEW030 08/05 Q1020=
200903190015 METAR LIRA 190015Z 16003KT 9999 FEW030 BKN070 08/07 Q1020=
200903182350 METAR LIRA 190045Z 14005KT 9999 FEW030 08/05 Q1020=
200903182345 METAR LIRA 182345Z 16003KT 9999 FEW030 SCT070 08/07 Q1020=
200903182315 METAR LIRA 182315Z 15004KT 9999 FEW030 SCT070 09/09 Q1020=
200903182245 METAR LIRA 182245Z 15004KT 9999 FEW030 SCT070 09/08 Q1020=
200903182215 METAR LIRA 182215Z 15004KT 9999 FEW030 SCT070 09/09 Q1020=
200903182145 METAR LIRA 182145Z 13005KT 9999 FEW030 SCT070 09/07 Q1020=
200903182115 METAR LIRA 182115Z 15005KT 9999 FEW030 SCT070 09/07 Q1020=
200903182045 METAR LIRA 182045Z 14007KT 9999 FEW030 SCT070 10/07 Q1020=
200903182015 METAR LIRA 182015Z 16004KT 9999 FEW030 11/08 Q1020=
200903181945 METAR LIRA 181945Z 18004KT 9999 FEW030 11/08 Q1020=
200903181915 METAR LIRA 181915Z 16006KT CAVOK 12/08 Q1020=
200903181845 METAR LIRA 181845Z 16006KT CAVOK 12/08 Q1020=
200903181815 METAR LIRA 181815Z 17005KT CAVOK 12/08 Q1020=
200903181745 METAR LIRA 181745Z 20003KT CAVOK 13/07 Q1020=
200903181715 METAR LIRA 181715Z 19006KT 140V260 9999 FEW022 SCT200 14/03
                        Q1020=
200903181645 METAR LIRA 181645Z 20007KT 150V240 9999 FEW022 SCT200 15/03
                        Q1020=
200903181615 METAR LIRA 181615Z 19008KT 160V220 9999 FEW022 15/03 Q1019=
200903181545 METAR LIRA 181545Z 21008KT 170V250 9999 FEW022 16/03 Q1019=
200903181515 METAR LIRA 181515Z 21008KT 170V250 9999 FEW022 17/04 Q1019=
200903181445 METAR LIRA 181445Z 22009KT 160V270 9999 FEW022 17/03 Q1019=
200903181415 METAR LIRA 181415Z 21008KT 160V260 9999 FEW022 17/02 Q1020=
200903181345 METAR LIRA 181345Z 25008KT 200V310 9999 FEW022 18/04 Q1020=
200903181315 METAR LIRA 181315Z 25008KT 200V300 9999 FEW022 18/03 Q1020=
200903181245 METAR LIRA 181245Z 25007KT 170V300 9999 FEW022 18/03 Q1020=
200903181215 METAR LIRA 181215Z 25007KT 200V300 9999 FEW022 18/02 Q1020=
200903181145 METAR LIRA 181145Z 26004KT 220V300 CAVOK 17/03 Q1021=
200903181115 METAR LIRA 181115Z 24003KT CAVOK 16/04 Q1021=
200903181045 METAR LIRA 181045Z 26003KT CAVOK 16/05 Q1021=
200903181015 METAR LIRA 181015Z 30003KT CAVOK 16/06 Q1022=
200903180945 METAR LIRA 180945Z 33004KT CAVOK 14/06 Q1022=
200903180915 METAR LIRA 180915Z 31004KT 270V330 CAVOK 12/06 Q1022=
200903180845 METAR LIRA 180845Z 00000KT CAVOK 12/06 Q1022=
200903180815 METAR LIRA 180815Z 03002KT CAVOK 10/05 Q1022=
200903180745 METAR LIRA 180745Z 01003KT CAVOK 08/04 Q1022=
200903180715 METAR LIRA 180715Z 01003KT CAVOK 07/03 Q1022=
200903180645 METAR LIRA 180645Z 36001KT CAVOK 07/03 Q1022=
200903180615 METAR LIRA 180615Z 06003KT CAVOK 06/03 Q1022=
200903180545 METAR LIRA 180545Z 06003KT CAVOK 06/03 Q1022=
200903180515 METAR LIRA 180515Z 06002KT CAVOK 07/05 Q1022=
200903180445 METAR LIRA 180445Z 08003KT CAVOK 06/05 Q1022=
200903180415 METAR LIRA 180415Z 09002KT CAVOK 07/05 Q1022=
200903180345 METAR LIRA 180345Z 07003KT CAVOK 07/05 Q1022=
200903180315 METAR LIRA 180315Z 11003KT CAVOK 07/06 Q1022=
200903180245 METAR LIRA 180245Z 10003KT CAVOK 07/06 Q1022=
200903180215 METAR LIRA 180215Z 33003KT CAVOK 08/07 Q1022=
200903180145 METAR LIRA 180145Z 24002KT 9999 FEW060 09/07 Q1022=
200903180115 METAR LIRA 180115Z 11003KT 9999 FEW060 09/07 Q1022=
200903180045 METAR LIRA 180045Z 35003KT CAVOK 09/07 Q1022=
200903180015 METAR LIRA 180015Z 33002KT 9999 SCT070 09/07 Q1022=
200903172350 METAR LIRA 180045Z 35003KT CAVOK 09/07 Q1022=
200903172345 METAR LIRA 172345Z 00000KT 9999 BKN070 09/07 Q1022=
200903172315 METAR LIRA 172315Z 00000KT 9999 SCT070 08/06 Q1022=
200903172245 METAR LIRA 172245Z 08004KT 9999 SCT080 09/06 Q1022=
200903172215 METAR LIRA 172215Z 08002KT CAVOK 09/06 Q1022=
200903172145 METAR LIRA 172145Z 14001KT CAVOK 10/07 Q1022=
200903172115 METAR LIRA 172115Z 16001KT CAVOK 11/07 Q1023=
200903172045 METAR LIRA 172045Z 18002KT CAVOK 11/08 Q1023=
200903172015 METAR LIRA 172015Z 17004KT CAVOK 11/08 Q1023=
200903171945 METAR LIRA 171945Z 22002KT CAVOK 11/09 Q1022=
200903171915 METAR LIRA 171915Z 18003KT CAVOK 12/09 Q1022=
200903171845 METAR LIRA 171845Z 18003KT CAVOK 12/10 Q1022=
200903171815 METAR LIRA 171815Z 23002KT CAVOK 13/09 Q1023=
200903171745 METAR LIRA 171745Z 23003KT CAVOK 13/09 Q1022=
200903171715 METAR LIRA 171715Z 27005KT CAVOK 14/08 Q1023=
200903171645 METAR LIRA 171645Z 27008KT 210V310 CAVOK 15/07 Q1023=
200903171615 METAR LIRA 171615Z 27008KT 210V270 CAVOK 15/07 Q1023=
200903171545 METAR LIRA 171545Z 27011KT 210V300 CAVOK 15/06 Q1023=
200903171515 METAR LIRA 171515Z 25011G31KT 200V310 9999 FEW020 16/06 Q1023=
200903171445 METAR LIRA 171445Z 26014KT 190V300 9999 FEW022 17/03 Q1023=
200903171415 METAR LIRA 171415Z 26011KT 230V320 9999 FEW020 17/02 Q1023=
200903171345 METAR LIRA 171345Z 26010KT 220V300 9999 FEW022 17/02 Q1023=
200903171315 METAR LIRA 171315Z 26010KT 200V330 9999 FEW022 17/02 Q1023=
200903171245 METAR LIRA 171245Z 27009KT 200V340 9999 FEW022 17/02 Q1024=
200903171215 METAR LIRA 171215Z 34006KT 270V020 9999 FEW022 17/02 Q1024=
200903171145 METAR LIRA 171145Z 29009KT 240V350 9999 FEW021 16/01 Q1025=
200903171115 METAR LIRA 171115Z 35005KT 290V050 CAVOK 16/02 Q1025=
200903171045 METAR LIRA 171045Z 31005KT 280V360 9999 FEW070 16/05 Q1025=
200903171015 METAR LIRA 171015Z 35004KT 9999 FEW070 15/04 Q1025=
200903170945 METAR LIRA 170945Z 02003KT 9999 FEW030 14/04 Q1025=
200903170915 METAR LIRA 170915Z 35003KT 9999 FEW080 13/05 Q1026=
200903170845 METAR LIRA 170845Z 36005KT 9999 FEW080 12/04 Q1026=
200903170815 METAR LIRA 170815Z 04004KT 9999 FEW080 10/04 Q1025=
200903170745 METAR LIRA 170745Z 36004KT 300V060 9999 FEW070 10/04 Q1025=
200903170715 METAR LIRA 170715Z 01006KT 330V070 9999 FEW080 07/03 Q1025=
200903170645 METAR LIRA 170645Z 01006KT 330V070 9999 FEW070 07/03 Q1025=
200903170615 METAR LIRA 170615Z 04003KT 9999 FEW070 06/03 Q1025=
200903170545 METAR LIRA 170545Z 02003KT 9999 FEW070 06/03 Q1024=
200903170515 METAR LIRA 170515Z 02003KT CAVOK 06/02 Q1024=
200903170445 METAR LIRA 170445Z 06005KT CAVOK 07/04 Q1025=
200903170415 METAR LIRA 170415Z 04003KT 9999 FEW060 07/03 Q1024=
200903170345 METAR LIRA 170345Z 05004KT 9999 SCT060 07/03 Q1024=
200903170315 METAR LIRA 170315Z 36003KT 9999 FEW030 SCT060 07/03 Q1024=
200903170245 METAR LIRA 170245Z 02001KT CAVOK 08/03 Q1024=
200903170215 METAR LIRA 170215Z 35002KT CAVOK 08/04 Q1025=
200903170145 METAR LIRA 170145Z 04003KT CAVOK 08/04 Q1025=
200903170115 METAR LIRA 170115Z 03004KT CAVOK 09/04 Q1025=
200903170045 METAR LIRA 170045Z 04003KT CAVOK 09/04 Q1025=
200903170015 METAR LIRA 170015Z 36003KT CAVOK 09/04 Q1025=
200903162350 METAR LIRA 170045Z 04003KT CAVOK 09/04 Q1025=
200903162345 METAR LIRA 162345Z 36004KT CAVOK 09/04 Q1025=
200903162315 METAR LIRA 162315Z 03004KT CAVOK 09/04 Q1025=
200903162245 METAR LIRA 162245Z 04004KT CAVOK 10/05 Q1025=
200903162215 METAR LIRA 162215Z 01004KT CAVOK 10/05 Q1025=
200903162145 METAR LIRA 162145Z 03003KT 9999 FEW080 10/07 Q1025=
200903162115 METAR LIRA 162115Z 04004KT 9000 FEW080 11/07 Q1025=
200903162045 METAR LIRA 162045Z 06003KT 8000 FEW080 11/07 Q1024=
200903162015 METAR LIRA 162015Z 05004KT 8000 FEW030 SCT080 11/08 Q1023=
200903161945 METAR LIRA 161945Z 08003KT 8000 FEW025 SCT070 11/08 Q1023=
200903161915 METAR LIRA 161915Z 07004KT 8000 FEW025 SCT060 12/08 Q1023=
200903161845 METAR LIRA 161845Z 06002KT 9999 FEW025 SCT070 12/07 Q1023=
200903161815 METAR LIRA 161815Z 15003KT 9999 FEW025 SCT070 13/07 Q1022=
200903161745 METAR LIRA 161745Z 22002KT 9999 FEW025 SCT070 14/08 Q1022=
200903161715 METAR LIRA 161715Z 23002KT 9999 FEW020 SCT070 15/08 Q1022=
200903161645 METAR LIRA 161645Z 24003KT 9999 FEW018 SCT035 16/07 Q1022=
200903161615 METAR LIRA 161615Z 22004KT 9999 FEW018 SCT035 16/06 Q1022=
200903161545 METAR LIRA 161545Z 19005KT 9999 FEW017 FEW020TCU SCT035 16/06
                        Q1021=
200903161515 METAR LIRA 161515Z 21004KT 9999 FEW017 FEW020TCU BKN035 16/05
                        Q1021=
200903161445 METAR LIRA 161445Z 22004KT 9999 FEW020 BKN035 16/05 Q1021=
200903161415 METAR LIRA 161415Z 22007KT 180V260 9999 FEW020 BKN030 17/06
                        Q1021=
200903161345 METAR LIRA 161345Z 21008KT 170V260 9999 SCT020 SCT035 18/06
                        Q1021=
200903161315 METAR LIRA 161315Z 21008KT 160V260 9999 SCT020 SCT035 18/06
                        Q1021=
200903161245 METAR LIRA 161245Z 26004KT 9999 SCT020 18/06 Q1021=
200903161215 METAR LIRA 161215Z 00000KT 9999 SCT020 18/06 Q1021=
200903161145 METAR LIRA 161145Z 05009KT 360V090 9999 FEW020 18/03 Q1021=
200903161115 METAR LIRA 161115Z 01006KT 330V080 9999 FEW020 18/04 Q1021=
200903161045 METAR LIRA 161045Z 02006KT 320V060 9999 FEW018 SCT200 17/04
                        Q1021=
200903161015 METAR LIRA 161015Z 03005KT 330V060 9999 FEW035 SCT200 16/06
                        Q1021=
200903160945 METAR LIRA 160945Z 03006KT 330V090 CAVOK 15/08 Q1021=
200903160915 METAR LIRA 160915Z 03007KT 350V090 9999 FEW070 14/08 Q1021=
200903160845 METAR LIRA 160845Z 03007KT 330V080 9999 FEW080 12/08 Q1020=
200903160815 METAR LIRA 160815Z 02006KT 300V060 9999 FEW070 12/08 Q1020=
200903160745 METAR LIRA 160745Z 02005KT 320V050 8000 FEW035 SCT070 10/08
                        Q1020=
200903160715 METAR LIRA 160715Z 35007KT 320V040 8000 FEW035 BKN070 10/08
                        Q1020=
200903160645 METAR LIRA 160645Z 36005KT 300V040 8000 FEW030 SCT070 10/08
                        Q1020=
200903160615 METAR LIRA 160615Z 01003KT 8000 FEW018 SCT070 09/08 Q1019=
200903160545 METAR LIRA 160545Z 01003KT 7000 FEW018 BKN070 09/09 Q1019=
200903160515 METAR LIRA 160515Z 01003KT 6000 FEW018 BKN070 09/09 Q1019=
200903160445 METAR LIRA 160445Z 04004KT 6000 FEW018 BKN070 09/08 Q1019=
200903160415 METAR LIRA 160415Z 01002KT 6000 BKN070 SCT200 09/08 Q1019=
200903160345 METAR LIRA 160345Z 04003KT 6000 BKN070 09/08 Q1019=
200903160315 METAR LIRA 160315Z 07002KT 6000 BKN070 09/08 Q1019=
200903160245 METAR LIRA 160245Z 00000KT 6000 BKN070 09/09 Q1019=
200903160215 METAR LIRA 160215Z 00000KT 6000 BKN070 SCT200 09/08 Q1019=
200903160145 METAR LIRA 160145Z 00000KT 6000 FEW020 BKN070 10/09 Q1019=
200903160115 METAR LIRA 160115Z 00000KT 6000 FEW020 BKN070 10/09 Q1019=
200903160045 METAR LIRA 160045Z 00000KT 7000 FEW020 BKN070 10/09 Q1019=
200903160015 METAR LIRA 160015Z 31001KT 7000 FEW020 BKN070 10/09 Q1019=
200903152350 METAR LIRA 160045Z 00000KT 7000 FEW020 BKN070 10/09 Q1019=
200903152345 METAR LIRA 152345Z 00000KT 7000 FEW020 BKN070 10/09 Q1019=
200903152315 METAR LIRA 152315Z 09002KT 7000 BKN070 SCT200 10/09 Q1019=
200903152245 METAR LIRA 152245Z 00000KT 7000 SCT070 SCT200 10/09 Q1019=
200903152215 METAR LIRA 152215Z 00000KT 8000 FEW020 SCT070 10/09 Q1019=
200903152145 METAR LIRA 152145Z 08002KT 8000 FEW020 SCT070 10/09 Q1019=
200903152115 METAR LIRA 152115Z 00000KT 8000 FEW020 SCT070 10/09 Q1019=
200903152045 METAR LIRA 152045Z 10001KT 8000 FEW020 SCT070 10/09 Q1019=
200903152015 METAR LIRA 152015Z 07001KT 8000 FEW020 SCT070 10/09 Q1019=
200903151945 METAR LIRA 151945Z 00000KT 9999 FEW020 SCT070 11/09 Q1019=
200903151915 METAR LIRA 151915Z 00000KT 9999 FEW020 SCT070 11/10 Q1019=
200903151845 METAR LIRA 151845Z 24001KT 9999 FEW020 SCT070 12/09 Q1019=
200903151815 METAR LIRA 151815Z 20003KT 9999 FEW020 SCT200 12/09 Q1019=
200903151745 METAR LIRA 151745Z 22003KT 9999 FEW020 SCT035 13/09 Q1019=
200903151715 METAR LIRA 151715Z 23004KT 9999 FEW020 SCT035 14/09 Q1019=
200903151645 METAR LIRA 151645Z 24005KT 200V300 9999 FEW020 BKN040 14/09
                        Q1019=
200903151615 METAR LIRA 151615Z 23005KT 210V270 9999 FEW020 BKN040 14/09
                        Q1019=
200903151545 METAR LIRA 151545Z 24005KT 200V300 9999 FEW020 BKN035 14/10
                        Q1019=
200903151515 METAR LIRA 151515Z 22005KT 200V270 9999 FEW020 BKN035 14/09
                        Q1019=
200903151445 METAR LIRA 151445Z 23006KT 150V260 9999 FEW020 BKN035 14/09
                        Q1019=
200903151415 METAR LIRA 151415Z 22008KT 180V270 9999 FEW020 BKN035 14/08
                        Q1019=
200903151345 METAR LIRA 151345Z 24008KT 200V280 9999 FEW020 BKN035 15/08
                        Q1019=
200903151315 METAR LIRA 151315Z 23007KT 180V270 9999 FEW020 BKN035 16/09
                        Q1019=
200903151245 METAR LIRA 151245Z 24004KT 180V300 9999 SCT020 SCT200 15/09
                        Q1020=
200903151215 METAR LIRA 151215Z 24002KT 9999 SCT020 SCT200 15/09 Q1020=
200903151145 METAR LIRA 151145Z 21003KT 9999 SCT020 15/09 Q1020=
200903151115 METAR LIRA 151115Z 22001KT 9999 SCT020 14/09 Q1021=
200903151045 METAR LIRA 151045Z 07002KT 9000 SCT020 13/09 Q1021=
200903151015 METAR LIRA 151015Z 05003KT 9000 SCT020 SCT200 12/07 Q1021=
200903150945 METAR LIRA 150945Z 34004KT 9000 SCT020 SCT070 12/08 Q1021=
200903150915 METAR LIRA 150915Z 33002KT 9000 SCT020 SCT070 11/07 Q1021=
200903150845 METAR LIRA 150845Z 33003KT 9000 SCT020 BKN200 10/07 Q1021=
200903150815 METAR LIRA 150815Z 36001KT 8000 FEW020 BKN200 09/07 Q1021=
200903150745 METAR LIRA 150745Z 35001KT 8000 FEW020 BKN200 08/07 Q1021=
200903150715 METAR LIRA 150715Z 00000KT 8000 FEW070 BKN200 07/07 Q1021=
200903150645 METAR LIRA 150645Z 03002KT 8000 FEW070 BKN200 06/05 Q1021=
200903150615 METAR LIRA 150615Z 36002KT 9000 NSC 06/05 Q1020=
200903150545 METAR LIRA 150545Z 01002KT 9000 NSC 06/05 Q1020=
200903150515 METAR LIRA 150515Z 04002KT 9000 NSC 06/05 Q1020=
200903150445 METAR LIRA 150445Z 06001KT 9000 FEW070 06/04 Q1020=
200903150415 METAR LIRA 150415Z 05001KT 9999 FEW070 07/04 Q1021=
200903150345 METAR LIRA 150345Z 03003KT 9999 FEW070 07/03 Q1021=
200903150315 METAR LIRA 150315Z 07002KT CAVOK 07/05 Q1021=
200903150245 METAR LIRA 150245Z 09003KT CAVOK 07/05 Q1021=
200903150215 METAR LIRA 150215Z 09004KT CAVOK 08/06 Q1021=
200903150145 METAR LIRA 150145Z 12002KT CAVOK 07/06 Q1021=
200903150115 METAR LIRA 150115Z 10001KT 8000 FEW010 07/06 Q1021=
200903150045 METAR LIRA 150045Z 10006KT 8000 FEW010 08/06 Q1021=
200903150015 METAR LIRA 150015Z 14002KT 8000 FEW010 08/06 Q1021=
200903142350 METAR LIRA 150045Z 10006KT 8000 FEW010 08/06 Q1021=
200903142345 METAR LIRA 142345Z 10001KT 8000 FEW010 09/07 Q1021=
200903142315 METAR LIRA 142315Z 09002KT 8000 FEW010 09/07 Q1021=
200903142245 METAR LIRA 142245Z 14001KT 8000 FEW010 09/07 Q1021=
200903142215 METAR LIRA 142215Z 15002KT 9999 FEW010 09/08 Q1021=
200903142145 METAR LIRA 142145Z 11003KT 9999 FEW010 09/08 Q1021=
200903142115 METAR LIRA 142115Z 15004KT 9999 FEW010 10/09 Q1021=
200903142045 METAR LIRA 142045Z 14004KT CAVOK 11/09 Q1021=
200903142015 METAR LIRA 142015Z 15003KT 9999 FEW020 11/09 Q1021=
200903141945 METAR LIRA 141945Z 17005KT CAVOK 11/09 Q1021=
200903141915 METAR LIRA 141915Z 19005KT CAVOK 11/10 Q1020=
200903141845 METAR LIRA 141845Z 18005KT CAVOK 12/10 Q1020=
200903141815 METAR LIRA 141815Z 19005KT 160V240 CAVOK 12/09 Q1020=
200903141745 METAR LIRA 141745Z 19007KT 170V230 CAVOK 13/09 Q1020=
200903141715 METAR LIRA 141715Z 21004KT 170V230 9999 FEW020 14/08 Q1020=
200903141645 METAR LIRA 141645Z 22006KT 160V270 CAVOK 14/06 Q1020=
200903141615 METAR LIRA 141615Z 22008KT 150V260 CAVOK 15/06 Q1020=
200903141545 METAR LIRA 141545Z 20010KT 160V230 9999 FEW022 15/06 Q1020=
200903141515 METAR LIRA 141515Z 20010KT 140V230 9999 FEW022 15/06 Q1020=
200903141445 METAR LIRA 141445Z 18008KT 150V230 9999 FEW022 16/07 Q1020=
200903141415 METAR LIRA 141415Z 19010KT 150V220 9999 FEW020 16/08 Q1020=
200903141345 METAR LIRA 141345Z 17012KT 150V240 9999 FEW018 16/08 Q1020=
200903141315 METAR LIRA 141315Z 19009KT 150V240 9999 FEW018 16/08 Q1020=
200903141245 METAR LIRA 141245Z 19011KT 140V240 9999 FEW018 SCT200 16/07
                        Q1020=
200903141215 METAR LIRA 141215Z 20009KT 150V230 9999 FEW018 SCT200 16/07
                        Q1020=
200903141145 METAR LIRA 141145Z 18010G23KT 120V240 9999 FEW018 SCT200
                        16/06 Q1021=
200903141115 METAR LIRA 141115Z 19010KT 150V220 9999 FEW018 SCT200 16/07
                        Q1021=
200903141045 METAR LIRA 141045Z 16010KT 150V210 9999 FEW018 SCT200 15/07
                        Q1021=
200903141015 METAR LIRA 141015Z 18007KT 080V210 9999 FEW018 SCT200 15/08
                        Q1021=
200903140945 METAR LIRA 140945Z 00000KT 9999 FEW018 SCT200 13/07 Q1021=
200903140915 METAR LIRA 140915Z 34003KT CAVOK 12/08 Q1021=
200903140845 METAR LIRA 140845Z 36004KT CAVOK 11/07 Q1021=
200903140815 METAR LIRA 140815Z 01003KT CAVOK 10/07 Q1021=
200903140745 METAR LIRA 140745Z 02003KT CAVOK 09/07 Q1021=
200903140715 METAR LIRA 140715Z 36002KT CAVOK 08/06 Q1021=
200903140645 METAR LIRA 140645Z 35001KT CAVOK 05/03 Q1020=
200903140615 METAR LIRA 140615Z 00000KT CAVOK 04/02 Q1020=
200903140545 METAR LIRA 140545Z 08001KT CAVOK 04/02 Q1019=
200903140515 METAR LIRA 140515Z 05002KT CAVOK 04/02 Q1019=
200903140445 METAR LIRA 140445Z 12002KT CAVOK 04/02 Q1019=
200903140415 METAR LIRA 140415Z 12002KT CAVOK 04/03 Q1019=
200903140345 METAR LIRA 140345Z 13003KT CAVOK 04/02 Q1019=
200903140315 METAR LIRA 140315Z 12002KT CAVOK 05/03 Q1019=
200903140245 METAR LIRA 140245Z 00000KT CAVOK 05/03 Q1019=
200903140215 METAR LIRA 140215Z 31002KT CAVOK 05/03 Q1019=
200903140145 METAR LIRA 140145Z 13001KT CAVOK 07/04 Q1019=
200903140115 METAR LIRA 140115Z 14001KT CAVOK 07/04 Q1019=
200903140045 METAR LIRA 140045Z 12002KT CAVOK 07/04 Q1019=
200903140015 METAR LIRA 140015Z 12002KT CAVOK 07/04 Q1018=
200903132350 METAR LIRA 140045Z 12002KT CAVOK 07/04 Q1019=
200903132345 METAR LIRA 132345Z 09004KT CAVOK 07/05 Q1019=
200903132315 METAR LIRA 132315Z 09007KT CAVOK 07/04 Q1019=
200903132245 METAR LIRA 132245Z 11005KT CAVOK 08/05 Q1018=
200903132215 METAR LIRA 132215Z 12004KT CAVOK 08/05 Q1018=
200903132145 METAR LIRA 132145Z 13003KT 9999 FEW070 08/05 Q1018=
200903132115 METAR LIRA 132115Z 12004KT 9999 FEW070 08/06 Q1018=
200903132045 METAR LIRA 132045Z 13002KT 9999 FEW070 08/06 Q1018=
200903132015 METAR LIRA 132015Z 11003KT 9999 FEW070 09/05 Q1018=
200903131945 METAR LIRA 131945Z 09002KT 9999 FEW070 09/05 Q1018=
200903131915 METAR LIRA 131915Z 16003KT 9999 FEW070 10/06 Q1018=
200903131845 METAR LIRA 131845Z 17003KT 9999 FEW070 10/06 Q1018=
200903131815 METAR LIRA 131815Z 18004KT 9999 FEW070 11/06 Q1018=
200903131745 METAR LIRA 131745Z 20004KT 9999 FEW017 11/06 Q1018=
200903131715 METAR LIRA 131715Z 21004KT 9999 FEW017 SCT030 12/04 Q1018=
200903131645 METAR LIRA 131645Z 23005KT 180V270 9999 FEW017 FEW020TCU
                        SCT030 13/07 Q1018=
200903131615 METAR LIRA 131615Z 23006KT 180V260 9999 SCT017 FEW020TCU
                        SCT025 13/07 Q1018=
200903131545 METAR LIRA 131545Z 22005KT 180V260 9999 SCT017 SCT025 13/07
                        Q1018=
200903131515 METAR LIRA 131515Z 26004KT 9999 SCT017 SCT070 13/07 Q1018=
200903131445 METAR LIRA 131445Z 23003KT 9999 SCT017 SCT070 14/07 Q1018=
200903131415 METAR LIRA 131415Z 25004KT 180V310 9999 SCT017 SCT070 14/06
                        Q1018=
200903131345 METAR LIRA 131345Z 23005KT 190V270 9999 SCT017 SCT025 15/06
                        Q1019=
200903131315 METAR LIRA 131315Z 23007KT 190V300 9999 SCT017 SCT200 15/07
                        Q1019=
200903131245 METAR LIRA 131245Z 20009KT 160V270 9999 SCT017 SCT200 15/06
                        Q1019=
200903131215 METAR LIRA 131215Z 24005KT 210V310 9999 SCT017 SCT200 15/04
                        Q1019=
200903131145 METAR LIRA 131145Z 24005KT 180V270 9999 FEW017 SCT200 15/04
                        Q1020=
200903131115 METAR LIRA 131115Z 24007KT 9999 FEW017 SCT200 14/04 Q1020=
200903131045 METAR LIRA 131045Z 26004KT 230V340 9999 FEW020 SCT200 14/05
                        Q1020=
200903131015 METAR LIRA 131015Z 20005KT 160V230 CAVOK 13/04 Q1020=
200903130945 METAR LIRA 130945Z 22005KT CAVOK 12/04 Q1020=
200903130915 METAR LIRA 130915Z 23003KT CAVOK 11/04 Q1021=
200903130845 METAR LIRA 130845Z 01002KT CAVOK 08/02 Q1021=
200903130815 METAR LIRA 130815Z 01001KT CAVOK 07/02 Q1021=
200903130745 METAR LIRA 130745Z 35002KT CAVOK 05/01 Q1021=
200903130715 METAR LIRA 130715Z 35002KT CAVOK 04/M00 Q1021=
200903130645 METAR LIRA 130645Z 02002KT CAVOK 03/M00 Q1020=
200903130615 METAR LIRA 130615Z 09001KT CAVOK 02/M01 Q1020=
200903130545 METAR LIRA 130545Z 05003KT CAVOK 02/M01 Q1020=
200903130515 METAR LIRA 130515Z 05001KT CAVOK 02/M01 Q1020=
200903130445 METAR LIRA 130445Z 02002KT CAVOK 03/M01 Q1020=
200903130415 METAR LIRA 130415Z 03003KT CAVOK 03/M01 Q1021=
200903130345 METAR LIRA 130345Z 07004KT CAVOK 03/M01 Q1021=
200903130315 METAR LIRA 130315Z 34002KT 9999 FEW070 03/M02 Q1021=
200903130245 METAR LIRA 130245Z 00000KT CAVOK 04/M02 Q1021=
200903130215 METAR LIRA 130215Z 07002KT CAVOK 05/M02 Q1021=
200903130145 METAR LIRA 130145Z 00000KT CAVOK 05/M02 Q1022=
200903130115 METAR LIRA 130115Z 19002KT CAVOK 05/M01 Q1022=
200903130045 METAR LIRA 130045Z 10004KT CAVOK 05/M01 Q1022=
200903130015 METAR LIRA 130015Z 12002KT CAVOK 05/M03 Q1022=
200903122350 METAR LIRA 130045Z 10004KT CAVOK 05/M01 Q1022=
200903122345 METAR LIRA 122345Z 14003KT CAVOK 06/M00 Q1022=
200903122315 METAR LIRA 122315Z 24003KT 9999 FEW070 05/M03 Q1022=
200903122245 METAR LIRA 122245Z 12002KT CAVOK 06/M03 Q1022=
200903122215 METAR LIRA 122215Z 11002KT CAVOK 06/M05 Q1022=
200903122145 METAR LIRA 122145Z 00000KT CAVOK 07/M04 Q1022=
200903122115 METAR LIRA 122115Z 27005KT CAVOK 08/M05 Q1022=
200903122100 METAR LIRA INTER=
200903122045 METAR LIRA 122045Z 16002KT CAVOK 08/M06 Q1021=
200903122015 METAR LIRA 122015Z 09001KT CAVOK 09/M07 Q1021=
200903121945 METAR LIRA 121945Z 07005KT CAVOK 09/M08 Q1021=
200903121915 METAR LIRA 121915Z 07006KT 040V130 CAVOK 11/M08 Q1021=
200903121845 METAR LIRA 121845Z 35004KT CAVOK 11/M09 Q1021=
200903121815 METAR LIRA 121815Z 34006KT CAVOK 12/M09 Q1020=
200903121745 METAR LIRA 121745Z 34007KT 290V010 CAVOK 13/M08 Q1020=
200903121715 METAR LIRA 121715Z 33009KT 290V010 CAVOK 13/M08 Q1020=
200903121645 METAR LIRA 121645Z 33011KT 290V010 CAVOK 13/M02 Q1020=
200903121615 METAR LIRA 121615Z 35009KT 280V010 CAVOK 14/M04 Q1020=
200903121545 METAR LIRA 121545Z 35008KT 300V030 9999 FEW020 15/M09 Q1019=
200903121515 METAR LIRA 121515Z 33008KT 280V060 9999 FEW020 15/M09 Q1019=
200903121445 METAR LIRA 121445Z 03008KT 310V080 9999 FEW020 15/M05 Q1019=
200903121415 METAR LIRA 121415Z 01005KT 300V040 9999 FEW020 15/M06 Q1019=
200903121345 METAR LIRA 121345Z 01007KT 300V040 9999 FEW020 14/M07 Q1019=
200903121315 METAR LIRA 121315Z 02007KT 300V070 9999 FEW020 15/M07 Q1019=
200903121245 METAR LIRA 121245Z 01012KT 320V080 9999 FEW020 15/M07 Q1019=
200903121215 METAR LIRA 121215Z 02007G21KT 300V070 9999 FEW020 14/M03
                        Q1019=
200903121145 METAR LIRA 121145Z 33014KT 280V010 9999 FEW020 14/00 Q1019=
200903121115 METAR LIRA 121115Z 33010KT 250V030 9999 FEW021 13/M01 Q1020=
200903121045 METAR LIRA 121045Z 35012KT 300V030 9999 FEW021 12/M01 Q1020=
200903121015 METAR LIRA 121015Z 35010KT 310V060 9999 FEW021 11/00 Q1020=
200903120945 METAR LIRA 120945Z 34009KT 290V100 9999 FEW021 11/00 Q1020=
200903120915 METAR LIRA 120915Z 01010KT 310V050 CAVOK 10/00 Q1020=
200903120845 METAR LIRA 120845Z 36009KT 300V060 CAVOK 10/00 Q1020=
200903120815 METAR LIRA 120815Z 35008KT 320V060 CAVOK 08/02 Q1019=
200903120745 METAR LIRA 120745Z 01006KT 320V060 CAVOK 07/02 Q1019=
200903120715 METAR LIRA 120715Z 04006KT 350V070 CAVOK 06/02 Q1019=
200903120645 METAR LIRA 120645Z 03004KT 350V080 CAVOK 06/02 Q1019=
200903120615 METAR LIRA 120615Z 36004KT CAVOK 04/01 Q1018=
200903120545 METAR LIRA 120545Z 02004KT CAVOK 04/01 Q1018=
200903120515 METAR LIRA 120515Z 03005KT 360V090 CAVOK 04/02 Q1017=
200903120445 METAR LIRA 120445Z 04006KT 360V090 CAVOK 05/02 Q1017=
200903120415 METAR LIRA 120415Z 04007KT CAVOK 04/02 Q1017=
200903120345 METAR LIRA 120345Z 03003KT CAVOK 05/03 Q1017=
200903120315 METAR LIRA 120315Z 06004KT CAVOK 04/03 Q1017=
200903120245 METAR LIRA 120245Z 04004KT 020V100 CAVOK 04/03 Q1016=
200903120215 METAR LIRA 120215Z 09006KT CAVOK 05/04 Q1016=
200903120145 METAR LIRA 120145Z 00000KT CAVOK 06/04 Q1016=
200903120115 METAR LIRA 120115Z 36001KT CAVOK 06/05 Q1016=
200903120045 METAR LIRA 120045Z 03002KT CAVOK 07/05 Q1016=
200903120015 METAR LIRA 120015Z 09002KT CAVOK 07/05 Q1016=
200903112350 METAR LIRA 120045Z 03002KT CAVOK 07/05 Q1016=
200903112345 METAR LIRA 112345Z 10003KT 9999 FEW080 07/05 Q1016=
200903112315 METAR LIRA 112315Z 02004KT 9999 FEW070 07/05 Q1015=
200903112245 METAR LIRA 112245Z 01004KT 9999 FEW070 07/05 Q1015=
200903112215 METAR LIRA 112215Z 04004KT 9999 FEW060 07/05 Q1014=
200903112145 METAR LIRA 112145Z 36003KT 9999 FEW030 08/06 Q1014=
200903112115 METAR LIRA 112115Z 35004KT 9999 FEW060 08/06 Q1014=
200903112045 METAR LIRA 112045Z 02005KT 360V070 9999 FEW025 SCT060 09/07
                        Q1013=
200903112015 METAR LIRA 112015Z 02002KT 9999 FEW025 SCT060 09/07 Q1013=
200903111945 METAR LIRA 111945Z 03004KT 9999 FEW020TCU SCT060 10/07 Q1012=
200903111915 METAR LIRA 111915Z 33007KT 300V010 9999 FEW020TCU SCT070
                        10/07 Q1012 RETS=
200903111845 METAR LIRA 111845Z 32005KT 9999 FEW018 FEW020CB 11/06 Q1012
                        RETS=
200903111815 METAR LIRA 111815Z 05009KT 350V090 9999 -TSRA FEW017CB SCT018
                        12/06 Q1012=
200903111745 METAR LIRA 111745Z 36011KT 310V040 9999 -TSRA SCT017CB SCT018
                        13/07 Q1012=
200903111715 METAR LIRA 111715Z 29009KT 210V340 9999 TS FEW017CB SCT018
                        14/06 Q1010=
200903111645 METAR LIRA 111645Z 27008KT 220V310 9999 FEW020 15/06 Q1009=
200903111615 METAR LIRA 111615Z 27008KT 220V310 9999 FEW020 15/05 Q1009=
200903111545 METAR LIRA 111545Z 27010KT 220V320 9999 FEW017 16/04 Q1009=
200903111515 METAR LIRA 111515Z 26008KT 190V320 9999 SCT017 16/04 Q1009=
200903111445 METAR LIRA 111445Z 29006KT 260V340 9999 SCT017 16/02 Q1010=
200903111415 METAR LIRA 111415Z 28007KT 260V360 9999 SCT020 16/02 Q1010=
200903111345 METAR LIRA 111345Z 32005KT 260V350 9999 SCT017 16/02 Q1010=
200903111315 METAR LIRA 111315Z 33006KT 290V030 9999 SCT020 16/02 Q1011=
200903111245 METAR LIRA 111245Z 33003KT 320V060 9999 BKN020 16/01 Q1011=
200903111215 METAR LIRA 111215Z 34002KT 300V030 9999 BKN020 16/01 Q1011=
200903111145 METAR LIRA 111145Z 28007KT 9999 BKN020 15/03 Q1012=
200903111115 METAR LIRA 111115Z 26005KT 230V330 9999 SCT020 15/03 Q1012=
200903111045 METAR LIRA 111045Z 33006KT 9999 FEW020 14/06 Q1012=
200903111015 METAR LIRA 111015Z 36005KT 310V040 9999 FEW020 14/06 Q1012=
200903110945 METAR LIRA 110945Z 35005KT 9999 FEW020 14/07 Q1012=
200903110915 METAR LIRA 110915Z 02004KT 9999 FEW020 12/08 Q1012=
200903110845 METAR LIRA 110845Z 32002KT 9999 FEW020 12/08 Q1012=
200903110815 METAR LIRA 110815Z 36001KT 9999 FEW070 10/07 Q1012=
200903110745 METAR LIRA 110745Z 36002KT 9999 FEW060 10/07 Q1012=
200903110715 METAR LIRA 110715Z 34002KT 9999 FEW060 08/07 Q1012=
200903110645 METAR LIRA 110645Z 00000KT 9999 SCT060 07/05 Q1012=
200903110615 METAR LIRA 110615Z 14003KT 9999 SCT060 07/05 Q1012=
200903110545 METAR LIRA 110545Z 10004KT 9999 FEW070 08/06 Q1012=
200903110515 METAR LIRA 110515Z 11003KT 9999 FEW070 08/07 Q1012=
200903110445 METAR LIRA 110445Z 34002KT CAVOK 08/06 Q1012=
200903110415 METAR LIRA 110415Z 14002KT CAVOK 08/07 Q1012=
200903110345 METAR LIRA 110345Z 00000KT CAVOK 08/08 Q1012=
200903110315 METAR LIRA 110315Z 09002KT CAVOK 08/07 Q1012=
200903110245 METAR LIRA 110245Z 13004KT CAVOK 09/08 Q1012=
200903110215 METAR LIRA 110215Z 13005KT 9999 FEW017 09/07 Q1012=
200903110145 METAR LIRA 110145Z 14006KT 9999 FEW015 SCT070 10/06 Q1013=
200903110115 METAR LIRA 110115Z 16006KT 9999 FEW015 SCT070 10/06 Q1014=
200903110045 METAR LIRA 110045Z 17006KT 8000 FEW015 SCT030 11/07 Q1014=
200903110015 METAR LIRA 110015Z 17008KT 8000 FEW010 BKN023 11/08 Q1014=
200903102350 METAR LIRA 110045Z 17006KT 8000 FEW015 SCT030 11/07 Q1014=
200903102345 METAR LIRA 102345Z 16008KT 8000 -RA FEW010 BKN023 11/08 Q1015=
200903102315 METAR LIRA 102315Z 16006KT 5000 -RA BR FEW010 BKN023 11/08
                        Q1015=
200903102245 METAR LIRA 102245Z 17007KT 9999 -DZ FEW015 SCT027 11/07 Q1016=
200903102215 METAR LIRA 102215Z 17009KT 9999 FEW018 BKN080 11/07 Q1016=
200903102145 METAR LIRA 102145Z 17007KT 9999 FEW018 BKN080 11/07 Q1016=
200903102115 METAR LIRA 102115Z 17006KT 9999 FEW018 BKN080 11/07 Q1017=
200903102045 METAR LIRA 102045Z 17007KT 9999 FEW018 SCT080 11/06 Q1017=
200903102015 METAR LIRA 102015Z 16008KT 9999 FEW018 SCT080 11/05 Q1017=
200903101945 METAR LIRA 101945Z 17007KT 9999 FEW018 SCT080 11/06 Q1017=
200903101915 METAR LIRA 101915Z 16007KT 9999 FEW018 SCT200 11/06 Q1017=
200903101845 METAR LIRA 101845Z 17006KT 9999 FEW018 BKN200 11/06 Q1017=
200903101815 METAR LIRA 101815Z 17005KT 9999 FEW018 BKN200 12/07 Q1017=
200903101745 METAR LIRA 101745Z 19005KT 9999 FEW018 BKN200 12/07 Q1017=
200903101715 METAR LIRA 101715Z 19005KT 140V260 9999 SCT018 BKN200 13/06
                        Q1017=
200903101645 METAR LIRA 101645Z 23007KT 170V260 9999 SCT018 BKN180 13/05
                        Q1017=
200903101615 METAR LIRA 101615Z 21006KT 150V270 9999 SCT018 BKN180 13/04
                        Q1017=
200903101545 METAR LIRA 101545Z 19008KT 150V250 9999 FEW018 BKN200 14/00
                        Q1017=
200903101515 METAR LIRA 101515Z 21008KT 160V260 9999 FEW018 BKN200 14/M03
                        Q1018=
200903101445 METAR LIRA 101445Z 22009KT 170V260 9999 FEW020 BKN200 15/M09
                        Q1018=
200903101415 METAR LIRA 101415Z 22010KT 160V250 9999 FEW020 BKN200 15/M12
                        Q1018=
200903101345 METAR LIRA 101345Z 21009KT 150V250 9999 FEW020 SCT200 15/M10
                        Q1018=
200903101315 METAR LIRA 101315Z 21010KT 140V260 CAVOK 16/M08 Q1018=
200903101245 METAR LIRA 101245Z 22009KT 170V270 CAVOK 16/M07 Q1018=
200903101215 METAR LIRA 101215Z 21007KT 160V260 CAVOK 15/M07 Q1019=
200903101145 METAR LIRA 101145Z 21004KT CAVOK 15/M06 Q1019=
200903101115 METAR LIRA 101115Z 26004KT CAVOK 13/M06 Q1019=
200903101045 METAR LIRA 101045Z 21004KT 150V250 CAVOK 13/M05 Q1019=
200903101015 METAR LIRA 101015Z 21003KT CAVOK 12/M03 Q1019=
200903100945 METAR LIRA 100945Z 00000KT CAVOK 11/M00 Q1019=
200903100915 METAR LIRA 100915Z 31002KT CAVOK 10/00 Q1019=
200903100845 METAR LIRA 100845Z 35002KT CAVOK 09/M00 Q1019=
200903100815 METAR LIRA 100815Z 01003KT CAVOK 08/01 Q1019=
200903100745 METAR LIRA 100745Z 04004KT CAVOK 06/01 Q1019=
200903100715 METAR LIRA 100715Z 03002KT CAVOK 05/M01 Q1019=
200903100645 METAR LIRA 100645Z 03001KT 9999 FEW080 05/M02 Q1019=
200903100615 METAR LIRA 100615Z VRB01KT 9999 FEW080 SCT200 05/M03 Q1018=
200903100545 METAR LIRA 100545Z 33002KT 9999 FEW080 BKN200 06/M03 Q1018=
200903100515 METAR LIRA 100515Z 02002KT 9999 SCT080 BKN200 06/M03 Q1018=
200903100445 METAR LIRA 100445Z 05003KT 9999 SCT080 BKN200 06/M04 Q1017=
200903100415 METAR LIRA 100415Z 03004KT 9999 FEW080 SCT200 06/M00 Q1017=
200903100345 METAR LIRA 100345Z 04003KT 9999 FEW080 SCT200 06/M01 Q1017=
200903100315 METAR LIRA 100315Z 04003KT 9999 FEW080 SCT200 06/M01 Q1017=
200903100245 METAR LIRA 100245Z 03003KT 9999 FEW080 SCT200 06/M01 Q1017=
200903100215 METAR LIRA 100215Z 04005KT CAVOK 06/M01 Q1017=
200903100145 METAR LIRA 100145Z 09001KT CAVOK 06/M01 Q1017=
200903100115 METAR LIRA 100115Z 06004KT CAVOK 06/M00 Q1017=
200903100045 METAR LIRA 100045Z 06006KT CAVOK 07/00 Q1017=
200903100015 METAR LIRA 100015Z 05004KT CAVOK 08/01 Q1016=
200903092345 METAR LIRA 092345Z 07002KT CAVOK 08/01 Q1016=
200903092315 METAR LIRA 092315Z 06003KT CAVOK 09/01 Q1016=
200903092245 METAR LIRA 092245Z 04004KT CAVOK 10/01 Q1015=
200903092215 METAR LIRA 092215Z 34006KT CAVOK 10/01 Q1015=
200903092145 METAR LIRA 092145Z 33007KT 300V010 CAVOK 10/01 Q1014=
200903092115 METAR LIRA 092115Z 35006KT 320V020 CAVOK 10/01 Q1014=
200903092045 METAR LIRA 092045Z 30007KT 260V330 CAVOK 11/01 Q1013=
200903092015 METAR LIRA 092015Z 30009KT CAVOK 12/01 Q1013=
200903091945 METAR LIRA 091945Z 31010KT CAVOK 12/01 Q1013=
200903091915 METAR LIRA 091915Z 32010KT 290V010 CAVOK 13/02 Q1012=
200903091845 METAR LIRA 091845Z 31013KT 260V330 9999 FEW020 13/03 Q1011=
200903091815 METAR LIRA 091815Z 31008KT 260V340 9999 FEW020 14/03 Q1011=
200903091745 METAR LIRA 091745Z 29008KT 220V340 9999 FEW020 15/04 Q1010=
200903091715 METAR LIRA 091715Z 30010KT 260V330 9999 FEW020 15/02 Q1009=
200903091645 METAR LIRA 091645Z 27007KT 220V320 9999 FEW022 16/01 Q1010=
200903091615 METAR LIRA 091615Z 26006KT 210V300 9999 FEW022 17/02 Q1010=
200903091545 METAR LIRA 091545Z 30012KT 250V340 9999 FEW020 17/01 Q1010=
200903091515 METAR LIRA 091515Z 29003KT 250V330 9999 FEW020 17/00 Q1009=
200903091445 METAR LIRA 091445Z 31011KT 270V350 9999 FEW020 17/M00 Q1009=
200903091415 METAR LIRA 091415Z 30011KT 270V340 9999 FEW020 17/08 Q1009=
200903091345 METAR LIRA 091345Z 24007KT 210V290 9999 FEW020 SCT030 17/07
                        Q1009=
200903091315 METAR LIRA 091315Z 25009KT 200V330 9999 FEW020 SCT030 16/08
                        Q1009=
200903091245 METAR LIRA 091245Z 19010KT 150V220 9999 BKN016 17/08 Q1010=
200903091215 METAR LIRA 091215Z 17008KT 120V220 9999 BKN016 17/09 Q1010=
200903091145 METAR LIRA 091145Z 17003KT 130V240 9999 SCT016 16/09 Q1010=
200903091115 METAR LIRA 091115Z 18008KT 120V220 9999 SCT016 16/09 Q1010=
200903091045 METAR LIRA 091045Z 18009KT 130V230 9999 SCT016 16/09 Q1010=
200903091015 METAR LIRA 091015Z 18009KT 140V200 9999 SCT016 15/09 Q1010=
200903090945 METAR LIRA 090945Z 17012KT 9999 SCT016 15/10 Q1010=
200903090915 METAR LIRA 090915Z 14011KT 120V220 9999 FEW016 SCT200 14/10
                        Q1010=
200903090845 METAR LIRA 090845Z 18008KT 160V220 9999 SCT016 BKN200 13/10
                        Q1010=
200903090815 METAR LIRA 090815Z 16010KT 9999 FEW016 BKN200 12/10 Q1010=
200903090745 METAR LIRA 090745Z 16008KT 8000 FEW016 BKN200 12/09 Q1010=
200903090715 METAR LIRA 090715Z 16008KT 8000 FEW015 BKN200 11/09 Q1010=
200903090645 METAR LIRA 090645Z 17008KT 8000 FEW018 SCT200 11/09 Q1009=
200903090615 METAR LIRA 090615Z 16009KT 120V190 8000 SCT015 SCT080 11/09
                        Q1009=
200903090545 METAR LIRA 090545Z 16009KT 8000 SCT015 SCT080 11/09 Q1009=
200903090515 METAR LIRA 090515Z 16009KT 9999 SCT015 SCT023 11/06 Q1009=
200903090445 METAR LIRA 090445Z 17010KT 130V210 9999 SCT016 SCT025 11/06
                        Q1009=
200903090415 METAR LIRA 090415Z 16012KT 9999 SCT016 SCT025 11/07 Q1009=
200903090345 METAR LIRA 090345Z 16013KT 120V200 9999 SCT016 SCT025 11/08
                        Q1010=
200903090315 METAR LIRA 090315Z 18009KT 120V210 9999 SCT016 SCT025 11/08
                        Q1010=
200903090245 METAR LIRA 090245Z 15010KT 9999 SCT016 SCT025 11/08 Q1010=
200903090215 METAR LIRA 090215Z 16009KT 9999 SCT016 SCT025 10/09 Q1011=
200903090145 METAR LIRA 090145Z 15005KT 9999 SCT016 SCT025 09/08 Q1011=
200903090115 METAR LIRA 090115Z 14007KT 9999 SCT016 SCT025 09/09 Q1012=
200903090045 METAR LIRA 090045Z 14007KT 9999 SCT016 SCT025 09/08 Q1012=
200903090015 METAR LIRA 090015Z 16002KT 9999 SCT016 08/07 Q1012=
200903082350 METAR LIRA 090045Z 14007KT 9999 SCT016 SCT025 09/08 Q1012=
200903082345 METAR LIRA 082345Z 15007KT 9999 SCT016 08/07 Q1012=
200903082315 METAR LIRA 082315Z 14007KT 9999 SCT016 09/08 Q1012=
200903082245 METAR LIRA 082245Z 14007KT CAVOK 08/07 Q1012=
200903082215 METAR LIRA 082215Z 02006KT CAVOK 08/08 Q1012=
200903082145 METAR LIRA 082145Z 15005KT CAVOK 09/08 Q1012=
200903082115 METAR LIRA 082115Z 12004KT 080V160 CAVOK 09/08 Q1012=
200903082045 METAR LIRA 082045Z 14005KT CAVOK 09/08 Q1012=
200903082015 METAR LIRA 082015Z 16003KT 9999 FEW070 10/08 Q1012=
200903081945 METAR LIRA 081945Z 16004KT 9999 FEW070 10/07 Q1012=
200903081915 METAR LIRA 081915Z 16004KT 9999 FEW070 11/08 Q1012=
200903081845 METAR LIRA 081845Z 18005KT CAVOK 11/08 Q1012=
200903081815 METAR LIRA 081815Z 18005KT 9999 FEW080 SCT200 12/09 Q1011=
200903081745 METAR LIRA 081745Z 18004KT 9999 FEW080 SCT200 12/08 Q1011=
200903081715 METAR LIRA 081715Z 21004KT 190V270 9999 FEW080 SCT200 13/02
                        Q1011=
200903081645 METAR LIRA 081645Z 24004KT 210V300 9999 FEW080 SCT200 16/03
                        Q1011=
200903081615 METAR LIRA 081615Z 26007KT 200V300 9999 FEW080 SCT200 16/04
                        Q1011=
200903081545 METAR LIRA 081545Z 25007KT 210V300 9999 FEW022 SCT200 16/02
                        Q1011=
200903081515 METAR LIRA 081515Z 26010KT 200V300 9999 FEW020 SCT200 16/02
                        Q1010=
200903081445 METAR LIRA 081445Z 26009KT 180V300 9999 FEW020 17/05 Q1011=
200903081415 METAR LIRA 081415Z 27010KT 220V330 9999 FEW020 17/06 Q1011=
200903081345 METAR LIRA 081345Z 27011KT 220V310 9999 FEW020 17/04 Q1011=
200903081315 METAR LIRA 081315Z 28010KT 210V330 9999 FEW020 17/02 Q1011=
200903081245 METAR LIRA 081245Z 27010KT 230V330 9999 FEW020 17/02 Q1011=
200903081215 METAR LIRA 081215Z 36005KT 290V030 9999 FEW022 16/03 Q1011=
200903081145 METAR LIRA 081145Z 23005KT 280V010 9999 FEW022 15/04 Q1011=
200903081115 METAR LIRA 081115Z 33004KT 9999 FEW022 15/05 Q1011=
200903081045 METAR LIRA 081045Z 02003KT 9999 FEW022 14/05 Q1011=
200903081015 METAR LIRA 081015Z 04005KT 340V080 CAVOK 13/04 Q1011=
200903080945 METAR LIRA 080945Z 02004KT 310V080 CAVOK 13/05 Q1011=
200903080915 METAR LIRA 080915Z 33006KT CAVOK 11/04 Q1012=
200903080845 METAR LIRA 080845Z 36004KT 310V050 CAVOK 10/04 Q1011=
200903080815 METAR LIRA 080815Z 36003KT CAVOK 09/03 Q1011=
200903080745 METAR LIRA 080745Z 04005KT 340V090 CAVOK 07/02 Q1010=
200903080715 METAR LIRA 080715Z 02006KT 340V080 CAVOK 06/01 Q1010=
200903080645 METAR LIRA 080645Z 05005KT 340V070 CAVOK 05/00 Q1009=
200903080615 METAR LIRA 080615Z 02006KT 330V060 CAVOK 05/01 Q1009=
200903080545 METAR LIRA 080545Z 04006KT CAVOK 05/00 Q1009=
200903080515 METAR LIRA 080515Z 06007KT 030V090 CAVOK 05/M01 Q1008=
200903080445 METAR LIRA 080445Z 03006KT CAVOK 05/00 Q1007=
200903080415 METAR LIRA 080415Z 01005KT 310V050 CAVOK 06/00 Q1007=
200903080345 METAR LIRA 080345Z 07004KT CAVOK 06/M00 Q1007=
200903080315 METAR LIRA 080315Z 03005KT CAVOK 06/01 Q1007=
200903080245 METAR LIRA 080245Z 03004KT 9999 FEW060 06/00 Q1007=
200903080215 METAR LIRA 080215Z 02004KT CAVOK 06/M01 Q1006=
200903080145 METAR LIRA 080145Z 05004KT CAVOK 07/M01 Q1006=
200903080115 METAR LIRA 080115Z 06004KT CAVOK 07/M01 Q1006=
200903080045 METAR LIRA 080045Z 07003KT CAVOK 08/00 Q1006=
200903080015 METAR LIRA 080015Z 01004KT 9999 FEW060 08/M00 Q1006=
200903072345 METAR LIRA 072345Z 01003KT CAVOK 08/M01 Q1006=
200903072315 METAR LIRA 072315Z 07002KT CAVOK 09/M00 Q1005=
200903072245 METAR LIRA 072245Z 33004KT CAVOK 09/M00 Q1005=
200903072215 METAR LIRA 072215Z 01003KT CAVOK 10/01 Q1005=
200903072145 METAR LIRA 072145Z 06008KT 9999 FEW030 09/M02 Q1004=
200903072115 METAR LIRA 072115Z 06006KT 350V080 9999 FEW060 10/M01 Q1004=
200903072045 METAR LIRA 072045Z 03007KT 340V070 9999 FEW060 10/M01 Q1004=
200903072015 METAR LIRA 072015Z 36007KT 310V060 CAVOK 11/M01 Q1003=
200903071945 METAR LIRA 071945Z 01005KT 340V080 CAVOK 11/M01 Q1002=
200903071915 METAR LIRA 071915Z 01006KT 320V060 9999 FEW070 12/M00 Q1002=
200903071845 METAR LIRA 071845Z 36008KT 320V040 CAVOK 12/M01 Q1002=
200903071815 METAR LIRA 071815Z 34007KT 310V020 9999 FEW070 13/M01 Q1001=
200903071745 METAR LIRA 071745Z 34010KT 310V010 9999 FEW020 14/M01 Q1001=
200903071715 METAR LIRA 071715Z 31009G22KT 310V010 9999 FEW020 15/00 Q1000=
200903071645 METAR LIRA 071645Z 35010KT 300V030 9999 FEW020 14/03 Q1000=
200903071615 METAR LIRA 071615Z 34008KT 300V040 9999 FEW020 15/02 Q0999=
200903071545 METAR LIRA 071545Z 36009KT 310V040 9999 FEW020 15/02 Q0999=
200903071515 METAR LIRA 071515Z 33010KT 300V030 9999 FEW020 15/01 Q0998=
200903071445 METAR LIRA 071445Z 34010KT 300V020 9999 FEW020 16/01 Q0998=
200903071415 METAR LIRA 071415Z 34010KT 300V040 9999 FEW020 SCT200 15/02
                        Q0997=
200903071345 METAR LIRA 071345Z 33013KT 290V020 9999 FEW020 SCT200 15/02
                        Q0997=
200903071315 METAR LIRA 071315Z 35011KT 310V050 9999 FEW020 SCT200 15/02
                        Q0997=
200903071245 METAR LIRA 071245Z 35007KT 300V020 9999 FEW020 SCT200 15/05
                        Q0997=
200903071215 METAR LIRA 071215Z 35007KT 300V070 9999 FEW020 SCT200 15/05
                        Q0997=
200903071145 METAR LIRA 071145Z 36010KT 330V050 9999 FEW020 SCT200 15/05
                        Q0996=
200903071115 METAR LIRA 071115Z 36012KT 320V050 9999 FEW020 SCT200 14/05
                        Q0996=
200903071045 METAR LIRA 071045Z 35011KT 280V070 9999 FEW020 SCT200 14/05
                        Q0996=
200903071015 METAR LIRA 071015Z 02011KT 310V070 9999 FEW070 SCT200 14/06
                        Q0996=
200903070945 METAR LIRA 070945Z 36012KT 310V060 9999 FEW070 12/05 Q0996=
200903070915 METAR LIRA 070915Z 36009KT 310V060 9999 FEW070 11/05 Q0995=
200903070845 METAR LIRA 070845Z 01010KT 310V050 9999 FEW070 10/05 Q0995=
200903070815 METAR LIRA 070815Z 35010KT 320V050 9999 FEW020 SCT070 09/03
                        Q0995=
200903070745 METAR LIRA 070745Z 01005KT 300V070 9999 FEW020 SCT070 08/03
                        Q0994=
200903070715 METAR LIRA 070715Z 02005KT 9999 FEW018 SCT070 08/04 Q0994=
200903070645 METAR LIRA 070645Z 03006KT 310V080 9999 FEW018 SCT070 08/04
                        Q0993=
200903070615 METAR LIRA 070615Z 01006KT 330V060 9999 FEW018 08/03 Q0993=
200903070545 METAR LIRA 070545Z 02006KT 340V070 9999 FEW018 FEW022CB 08/03
                        Q0993=
200903070515 METAR LIRA 070515Z 03006KT 340V060 9999 FEW018CB SCT022 08/03
                        Q0992=
200903070445 METAR LIRA 070445Z 36007KT 310V030 9999 FEW018CB SCT022 BKN070
                        08/03 Q0992=
200903070415 METAR LIRA 070415Z 36007KT 310V030 9999 SCT022 SCT070 08/03
                        Q0991=
200903070345 METAR LIRA 070345Z 36005KT 310V060 9999 SCT020 SCT070 08/03
                        Q0991=
200903070315 METAR LIRA 070315Z 01004KT 9999 SCT020 SCT070 08/03 Q0991=
200903070245 METAR LIRA 070245Z 36006KT 310V040 9999 SCT020 SCT070 08/03
                        Q0991=
200903070215 METAR LIRA 070215Z 02006KT 330V070 9999 SCT020 SCT070 08/03
                        Q0990=
200903070145 METAR LIRA 070145Z 36003KT 9999 FEW022 SCT080 08/03 Q0991=
200903070115 METAR LIRA 070115Z 34004KT 9999 FEW022 SCT080 BKN200 08/03
                        Q0991=
200903070045 METAR LIRA 070045Z 33006KT 290V010 9999 FEW022 SCT080 BKN200
                        09/02 Q0991=
200903070015 METAR LIRA 070015Z 34008KT 290V020 9999 SCT022 SCT080 BKN200
                        09/02 Q0990=
200903062345 METAR LIRA 062345Z 34009KT 300V010 9999 SCT022 SCT080 BKN200
                        09/02 Q0990=
200903062315 METAR LIRA 062315Z 34010KT 310V020 9999 SCT022 SCT080 BKN200
                        09/01 Q0990=
200903062245 METAR LIRA 062245Z 35010KT 300V010 9999 SCT022 SCT080 BKN200
                        09/00 Q0990=
200903062215 METAR LIRA 062215Z 34009KT 300V030 9999 FEW018TCU SCT080
                        BKN200 09/00 Q0989=
200903062145 METAR LIRA 062145Z 35010KT 300V020 9999 FEW018TCU SCT022
                        BKN080 09/00 Q0989=
200903062115 METAR LIRA 062115Z 36011KT 310V040 9999 FEW018TCU SCT022
                        10/00 Q0989=
200903062045 METAR LIRA 062045Z 34010KT 310V040 9999 SCT020 SCT070 10/00
                        Q0988=
200903062015 METAR LIRA 062015Z 35013KT 300V040 9999 SCT020 SCT070 BKN200
                        10/01 Q0988=
200903061945 METAR LIRA 061945Z 36006KT 320V030 9999 FEW020 SCT070 10/01
                        Q0988=
200903061915 METAR LIRA 061915Z 34008KT 310V010 9999 FEW020 SCT060 11/01
                        Q0988=
200903061845 METAR LIRA 061845Z 34009KT 300V020 9999 FEW020 SCT060 11/M00
                        Q0987=
200903061815 METAR LIRA 061815Z 35009KT 310V020 9999 FEW020 BKN060 12/M00
                        Q0987=
200903061745 METAR LIRA 061745Z 36007KT 320V060 9999 FEW020 BKN060 12/M01
                        Q0987=
200903061715 METAR LIRA 061715Z 34008KT 300V020 9999 FEW020 BKN060 12/M01
                        Q0986=
200903061645 METAR LIRA 061645Z 35010KT 300V030 9999 FEW020 SCT030 BKN070
                        13/M01 Q0985=
200903061615 METAR LIRA 061615Z 33010KT 300V030 9999 FEW020 SCT030 BKN070
                        13/M01 Q0985=
200903061545 METAR LIRA 061545Z 34012KT 300V030 9999 FEW020 BKN070 13/M00
                        Q0985=
200903061515 METAR LIRA 061515Z 33008KT 300V030 9999 FEW020 BKN070 12/02
                        Q0985=
200903061445 METAR LIRA 061445Z 27006KT 210V310 9999 FEW020 BKN070 12/06
                        Q0985=
200903061415 METAR LIRA 061415Z /////KT 9999 FEW020 SCT070 BKN200 13/06
                        Q0985=
200903061345 METAR LIRA 061345Z /////KT 9999 FEW020 SCT070 BKN200 13/M01
                        Q0985=
200903061315 METAR LIRA 061315Z /////KT 9999 FEW020 SCT070 BKN200 13/M00
                        Q0985=
200903061245 METAR LIRA 061245Z /////KT 9999 FEW017 SCT070 BKN200 13/01
                        Q0985=
200903061215 METAR LIRA 061215Z /////KT 9999 FEW015 BKN200 12/02 Q0985=
200903061145 METAR LIRA 061145Z /////KT 9999 FEW015 BKN200 11/03 Q0985=
200903061115 METAR LIRA 061115Z /////KT 9999 FEW020 BKN200 10/03 Q0986=
200903061045 METAR LIRA 061045Z /////KT 9999 FEW020 BKN200 10/05 Q0986=
200903061015 METAR LIRA 061015Z /////KT 9999 FEW017 BKN200 09/05 Q0986=
200903060945 METAR LIRA 060945Z /////KT 9999 FEW020 SCT070 BKN200 09/05
                        Q0986=
200903060915 METAR LIRA 060915Z /////KT 9999 FEW017 SCT030 09/04 Q0986=
200903060845 METAR LIRA 060845Z /////KT 9999 FEW017 SCT030 BKN070 08/04
                        Q0986=
200903060815 METAR LIRA 060815Z /////KT 9999 -RA FEW017 SCT030 BKN070
                        08/03 Q0986=
200903060745 METAR LIRA 060745Z /////KT 9999 -RA FEW015 SCT035 BKN080
                        07/03 Q0986=
200903060715 METAR LIRA 060715Z /////KT 9999 FEW015 SCT070 BKN200 06/03
                        Q0986=
200903060645 METAR LIRA 060645Z /////KT 9999 FEW015 SCT070 BKN200 06/04
                        Q0985=
200903060615 METAR LIRA 060615Z /////KT 9999 FEW015 SCT070 BKN200 07/04
                        Q0985=
200903060545 METAR LIRA 060545Z /////KT 9999 FEW015 BKN070 07/04 Q0985=
200903060515 METAR LIRA 060515Z /////KT 9999 FEW015 SCT070 07/04 Q0985=
200903060445 METAR LIRA 060445Z /////KT 7000 -RA FEW015 BKN025 07/04 Q0985=
200903060415 METAR LIRA 060415Z /////KT 9999 -RA FEW015 BKN025 07/04 Q0985=
200903060345 METAR LIRA 060345Z /////KT 9999 FEW015 SCT030 07/04 Q0985=
200903060315 METAR LIRA 060315Z /////KT 9999 FEW015 SCT030 07/04 Q0985=
200903060245 METAR LIRA 060245Z /////KT 9999 FEW015 SCT030 07/04 Q0985=
200903060215 METAR LIRA 060215Z /////KT 9999 FEW015 07/04 Q0985=
200903060145 METAR LIRA 060145Z /////KT 9999 FEW015 07/04 Q0986=
200903060115 METAR LIRA 060115Z /////KT 9999 FEW015 07/04 Q0986=
200903060045 METAR LIRA 060045Z /////KT 9999 FEW015 FEW016CB 08/04 Q0986=
200903060015 METAR LIRA 060015Z /////KT 9999 FEW015 FEW016CB 09/05 Q0986=
200903052345 METAR LIRA 052345Z 16009KT 9999 FEW015 FEW016CB 09/05 Q0986=
200903052315 METAR LIRA 052315Z 17008KT 9999 FEW015 FEW016CB SCT025 09/04
                        Q0986=
200903052245 METAR LIRA 052245Z 17008KT 9999 SCT015 FEW016CB SCT025 09/04
                        Q0986=
200903052215 METAR LIRA 052215Z 18009KT 130V220 9999 SCT015 FEW016CB SCT025
                        09/04 Q0986=
200903052145 METAR LIRA 052145Z 18012KT 9999 SCT015 FEW016CB BKN025 08/04
                        Q0986 RETS=
200903052115 METAR LIRA 052115Z 16011KT 8000 SCT015 FEW016CB BKN025 08/03
                        Q0986 RETS=
200903052045 METAR LIRA 052045Z 16010KT 140V210 9999 TS SCT016 FEW017CB
                        SCT025 09/05 Q0986=
200903052015 METAR LIRA 052015Z 18011KT 150V230 8000 -RA SCT015 FEW017CB
                        BKN025 09/06 Q0986=
200903051945 METAR LIRA 051945Z 21012KT 150V300 6000 -RA SCT015 FEW016CB
                        BKN025 09/04 Q0986=
200903051915 METAR LIRA 051915Z 19010KT 150V220 9999 SCT015 FEW016CB 08/04
                        Q0986=
200903051845 METAR LIRA 051845Z 21009KT 160V270 9999 SCT015 FEW016CB 08/05
                        Q0985=
200903051815 METAR LIRA 051815Z 19008KT 150V230 9999 SCT015 FEW016CB 07/04
                        Q0985 RERA=
200903051745 METAR LIRA 051745Z 19006KT 140V310 9999 SCT015 FEW016CB 09/06
                        Q0985 RERA=
200903051715 METAR LIRA 051715Z 19009KT 150V250 5000 -SHRA BR SCT015 FEW016CB
                        SCT025 09/02 Q0984=
200903051645 METAR LIRA 051645Z 24015KT 180V280 9999 SCT015CB FEW018CB
                        SCT200 10/02 Q0984=
200903051615 METAR LIRA 051615Z 24013KT 180V280 9999 SCT015 FEW018CB SCT200
                        10/02 Q0984=
200903051545 METAR LIRA 051545Z 23016G27KT 180V270 9999 SCT015 FEW018CB
                        SCT200 10/01 Q0983=
200903051515 METAR LIRA 051515Z 22012G30KT 180V300 9000 SCT015 FEW018CB
                        SCT200 11/02 Q0983 WS RWY 15=
200903051445 METAR LIRA 051445Z 22016G29KT 180V280 9000 SCT015 FEW018CB
                        SCT030 11/02 Q0983 WS RWY 15=
200903051415 METAR LIRA 051415Z 23017G27KT 170V280 9000 SCT015 FEW018CB
                        SCT030 11/03 Q0982=
200903051345 METAR LIRA 051345Z 23019G29KT 170V270 9000 SCT015 FEW018CB
                        SCT030 11/03 Q0982=
200903051315 METAR LIRA 051315Z 23018G28KT 200V310 8000 SCT015 FEW018CB
                        SCT030 11/06 Q0982=
200903051245 METAR LIRA 051245Z 23020G30KT 200V290 9000 FEW010 SCT015
                        FEW018CB 11/07 Q0982=
200903051215 METAR LIRA 051215Z 24015G25KT 190V280 8000 -RA FEW010 SCT015
                        FEW018CB 11/08 Q0981=
200903051145 METAR LIRA 051145Z 22014KT 180V270 7000 -RA FEW010 SCT015
                        FEW018CB 10/09 Q0981 RERA=
200903051115 METAR LIRA 051115Z 22006KT 180V250 6000 -RA FEW010 SCT015
                        FEW018CB 11/09 Q0981 RERA=
200903051045 METAR LIRA 051045Z 21010KT 150V260 5000 RA BR FEW010 SCT015
                        FEW018CB BKN030 11/10 Q0980=
200903051015 METAR LIRA 051015Z 17010KT 120V210 6000 -RA FEW010 SCT015
                        FEW018CB BKN030 12/10 Q0980=
200903050945 METAR LIRA 050945Z 19009KT 140V230 8000 -SHRA FEW010 SCT015
                        FEW018CB 11/10 Q0980=
200903050915 METAR LIRA 050915Z 19009KT 150V240 9000 FEW010 SCT015 FEW018CB
                        11/10 Q0980 RERA=
200903050845 METAR LIRA 050845Z 18006KT 150V260 9000 FEW010 SCT015 FEW018CB
                        11/10 Q0980 RERA=
200903050815 METAR LIRA 050815Z 19009KT 150V260 5000 RA BR FEW010 SCT015
                        BKN025 11/10 Q0980=
200903050745 METAR LIRA 050745Z 17010KT 4000 RA BR FEW010 SCT015 BKN025
                        10/10 Q0980=
200903050715 METAR LIRA 050715Z 16011KT 7000 -RA FEW010 SCT015 BKN025
                        10/10 Q0979=
200903050645 METAR LIRA 050645Z 17009KT 8000 -RA SCT015 BKN025 10/10 Q0979
                        RERA=
200903050615 METAR LIRA 050615Z 19006KT 150V240 6000 -RA SCT015 BKN025
                        10/10 Q0979 RERA=
200903050545 METAR LIRA 050545Z 22004KT 210V270 5000 RA BR SCT015 BKN025
                        10/09 Q0980=
200903050515 METAR LIRA 050515Z 27006KT 230V310 9999 -RA FEW015 SCT025
                        10/09 Q0979=
200903050445 METAR LIRA 050445Z 06003KT 9999 -RA FEW015 SCT025 11/09 Q0979=
200903050415 METAR LIRA 050415Z 00000KT 9999 FEW015 SCT025 11/09 Q0979=
200903050345 METAR LIRA 050345Z 04003KT 9999 FEW015 SCT025 11/10 Q0980=
200903050315 METAR LIRA 050315Z 11003KT 9999 -RA FEW015CB SCT025 11/09
                        Q0980=
200903050245 METAR LIRA 050245Z 07005KT 9999 -RA FEW015CB SCT025 12/09
                        Q0981=
200903050215 METAR LIRA 050215Z 03002KT 9999 -RA FEW008 FEW015CB SCT025
                        12/09 Q0981=
200903050145 METAR LIRA 050145Z 02004KT 340V060 9999 FEW008 FEW015CB SCT025
                        13/08 Q0982=
200903050115 METAR LIRA 050115Z 07008G22KT 020V140 9999 FEW008 FEW015CB
                        SCT025 13/08 Q0982=
200903050045 METAR LIRA 050045Z 10014G24KT 060V140 9999 FEW008 FEW015CB
                        SCT025 13/08 Q0982=
200903050015 METAR LIRA 050015Z 09008KT 310V120 9999 FEW015CB SCT025 13/08
                        Q0984=
200903042350 METAR LIRA 050045Z 10014G24KT 060V140 9999 FEW008 FEW015CB
                        SCT025 13/08 Q0982=
200903042345 METAR LIRA 042345Z 07009KT 030V150 9999 FEW015CB SCT025 13/08
                        Q0984=
200903042315 METAR LIRA 042315Z 13009KT 9999 FEW015CB SCT025 14/08 Q0985=
200903042245 METAR LIRA 042245Z 14018KT 9999 FEW015CB SCT025 13/08 Q0985=
200903042215 METAR LIRA 042215Z 14024KT 110V170 9999 FEW015CB SCT025 13/09
                        Q0986=
200903042145 METAR LIRA 042145Z 14023G37KT 9999 FEW015CB SCT025 13/09
                        Q0987=
200903042115 METAR LIRA 042115Z 13018G39KT 090V170 9999 FEW015 SCT025
                        15/05 Q0988=
200903042045 METAR LIRA 042045Z 14030G42KT 110V180 9999 FEW015 SCT025
                        15/05 Q0990=
200903042015 METAR LIRA 042015Z 13016G27KT 100V190 9999 FEW015 SCT025
                        15/06 Q0991=
200903041945 METAR LIRA 041945Z 10007G21KT 050V170 9999 -RA FEW015 SCT025
                        15/06 Q0991=
200903041915 METAR LIRA 041915Z 10006KT 9999 -RA FEW015 SCT025 15/06 Q0992=
200903041845 METAR LIRA 041845Z 15011KT 120V190 9999 -RA FEW015 SCT025
                        15/06 Q0993=
200903041815 METAR LIRA 041815Z 13019G31KT 9999 FEW018 SCT030 BKN070 15/06
                        Q0993=
200903041745 METAR LIRA 041745Z 15016G26KT 130V200 9999 FEW018 SCT030
                        BKN070 16/06 Q0994=
200903041715 METAR LIRA 041715Z 15012KT 110V190 9999 FEW018 SCT030 BKN070
                        16/06 Q0994=
200903041645 METAR LIRA 041645Z 14020KT 9999 FEW018 BKN070 16/07 Q0994=
200903041615 METAR LIRA 041615Z 13017KT 9999 FEW018 BKN070 16/07 Q0995=
200903041545 METAR LIRA 041545Z 16013KT 110V180 9999 SCT018 SCT030 16/07
                        Q0995=
200903041515 METAR LIRA 041515Z 16018KT 120V200 9999 SCT018 SCT030 16/07
                        Q0996=
200903041445 METAR LIRA 041445Z 15016G30KT 120V190 9999 SCT018 SCT080
                        16/07 Q0997=
200903041415 METAR LIRA 041415Z 15024G34KT 130V190 9999 SCT017 SCT080
                        17/08 Q0997=
200903041345 METAR LIRA 041345Z 15025G35KT 110V170 9999 FEW017 SCT080
                        16/09 Q0998=
200903041315 METAR LIRA 041315Z 16017KT 120V190 9999 FEW017 SCT080 17/09
                        Q0999=
200903041245 METAR LIRA 041245Z 16022KT 120V190 9999 FEW015 SCT080 17/09
                        Q1001=
200903041215 METAR LIRA 041215Z 15023G35KT 120V190 9999 FEW015 BKN070
                        17/10 Q1001=
200903041145 METAR LIRA 041145Z 15023G33KT 9999 FEW015 BKN070 16/10 Q1001=
200903041115 METAR LIRA 041115Z 15022G34KT 9999 FEW015 BKN070 16/11 Q1002=
200903041045 METAR LIRA 041045Z 15022G35KT 9999 FEW015 BKN070 15/11 Q1002=
200903041015 METAR LIRA 041015Z 14022G32KT 100V160 9999 FEW015 BKN070
                        15/11 Q1003=
200903040945 METAR LIRA 040945Z 14019KT 9999 FEW015 BKN070 15/11 Q1003=
200903040915 METAR LIRA 040915Z 14015KT 9999 SCT012 SCT070 13/11 Q1004=
200903040845 METAR LIRA 040845Z 15014KT 6000 -RA SCT009 FEW018CB BKN025
                        13/11 Q1005=
200903040815 METAR LIRA 040815Z 16012KT 7000 -RA SCT009 FEW018CB BKN025
                        11/10 Q1005=
200903040745 METAR LIRA 040745Z 15011KT 110V180 7000 -RA SCT009 FEW018CB
                        BKN025 11/10 Q1005=
200903040715 METAR LIRA 040715Z 15015KT 8000 -RA FEW012 SCT030 BKN070
                        12/10 Q1005=
200903040645 METAR LIRA 040645Z 14015KT 8000 -RA FEW012 BKN025 11/10 Q1006=
200903040615 METAR LIRA 040615Z 15014KT 100V180 6000 -RA FEW010 BKN025
                        11/10 Q1006=
200903040545 METAR LIRA 040545Z 15010KT 6000 -RA FEW010 BKN025 10/10 Q1007=
200903040515 METAR LIRA 040515Z 08002KT 7000 -RA FEW016 BKN025 10/10 Q1007=
200903040445 METAR LIRA 040445Z 01001KT 7000 -RA BKN025 SCT070 10/10 Q1008=
200903040415 METAR LIRA 040415Z 01004KT 7000 -RA BKN025 SCT070 10/10 Q1008=
200903040345 METAR LIRA 040345Z 10005KT 7000 -RA BKN025 SCT070 09/09 Q1009=
200903040315 METAR LIRA 040315Z 04001KT 8000 -RA BKN025 SCT070 10/09 Q1009=
200903040245 METAR LIRA 040245Z 02003KT 8000 -RA BKN025 SCT070 10/10 Q1010=
200903040215 METAR LIRA 040215Z 13004KT 8000 -RA BKN025 SCT070 10/09 Q1010=
200903040145 METAR LIRA 040145Z 15006KT 9999 -DZ BKN025 SCT070 11/09 Q1011=
200903040115 METAR LIRA 040115Z 13002KT 9999 BKN025 SCT070 11/09 Q1011=
200903040045 METAR LIRA 040045Z 11004KT 9999 -DZ BKN025 SCT070 11/09 Q1011=
200903040015 METAR LIRA 040015Z 00000KT 9999 -DZ BKN025 SCT070 10/08 Q1012=
200903032345 METAR LIRA 032345Z 09001KT 9999 BKN025 SCT070 10/08 Q1012=
200903032315 METAR LIRA 032315Z 03003KT 9999 SCT030 BKN070 10/07 Q1013=
200903032245 METAR LIRA 032245Z 05001KT 9999 SCT030 BKN070 10/07 Q1013=
200903032215 METAR LIRA 032215Z 13003KT 9999 SCT030 BKN070 11/08 Q1013=
200903032145 METAR LIRA 032145Z 11001KT 9999 SCT030 BKN070 11/08 Q1014=
200903032115 METAR LIRA 032115Z 12003KT 9999 FEW030 BKN070 10/08 Q1014=
200903032045 METAR LIRA 032045Z 14003KT 9999 FEW018 SCT070 10/08 Q1014=
200903032015 METAR LIRA 032015Z 14002KT 9999 FEW018 SCT070 10/08 Q1014=
200903031945 METAR LIRA 031945Z 16001KT 9999 FEW018 SCT070 10/08 Q1014=
200903031915 METAR LIRA 031915Z 18003KT 9999 FEW018 SCT070 10/07 Q1014=
200903031845 METAR LIRA 031845Z 15004KT 9999 FEW080 11/08 Q1014=
200903031815 METAR LIRA 031815Z 18004KT 9999 FEW070 11/09 Q1014=
200903031745 METAR LIRA 031745Z 19002KT 9999 FEW080 12/09 Q1014=
200903031715 METAR LIRA 031715Z 19004KT 9999 FEW017 SCT200 12/08 Q1014=
200903031645 METAR LIRA 031645Z 21004KT 9999 FEW017 SCT200 14/09 Q1014=
200903031615 METAR LIRA 031615Z 20006KT 140V240 9999 FEW017 FEW020TCU
                        SCT200 14/09 Q1014=
200903031545 METAR LIRA 031545Z 20006KT 160V240 9999 FEW015 FEW020TCU
                        SCT030 14/09 Q1014=
200903031515 METAR LIRA 031515Z 22006KT 190V260 9999 FEW015 FEW020TCU
                        SCT025 14/09 Q1014=
200903031445 METAR LIRA 031445Z 22008KT 160V250 9999 FEW015 SCT030 15/09
                        Q1014=
200903031415 METAR LIRA 031415Z 20006KT 150V260 9999 SCT015 SCT030 15/09
                        Q1014=
200903031345 METAR LIRA 031345Z 20008KT 140V240 9999 SCT015 SCT030 14/09
                        Q1014=
200903031315 METAR LIRA 031315Z 19009KT 150V240 9999 SCT015 SCT030 14/09
                        Q1015=
200903031245 METAR LIRA 031245Z 20008KT 160V260 9999 SCT015 SCT030 14/09
                        Q1015=
200903031215 METAR LIRA 031215Z 19008KT 140V240 9999 SCT015 SCT030 14/09
                        Q1015=
200903031145 METAR LIRA 031145Z 19010KT 160V230 9999 SCT015 SCT030 14/10
                        Q1016=
200903031115 METAR LIRA 031115Z 20007KT 160V240 9999 SCT015 BKN030 13/10
                        Q1016=
200903031045 METAR LIRA 031045Z 19010KT 140V240 9999 SCT015 BKN030 13/10
                        Q1016=
200903031015 METAR LIRA 031015Z 17005KT 160V230 9999 SCT015 BKN030 13/10
                        Q1016=
200903030945 METAR LIRA 030945Z 17004KT 9000 SCT015 BKN030 13/11 Q1016=
200903030915 METAR LIRA 030915Z 18004KT 9000 SCT015 BKN030 13/10 Q1016=
200903030845 METAR LIRA 030845Z 17006KT 120V200 8000 FEW015 SCT030 BKN070
                        12/10 Q1016=
200903030815 METAR LIRA 030815Z 17004KT 8000 -RA SCT015 SCT070 12/10 Q1016=
200903030745 METAR LIRA 030745Z 16006KT 8000 -RA SCT015 SCT070 12/10 Q1016=
200903030715 METAR LIRA 030715Z 16006KT 8000 -RA SCT015 SCT070 12/10 Q1016=
200903030645 METAR LIRA 030645Z 16004KT 8000 -RA SCT015 SCT070 10/09 Q1015=
200903030615 METAR LIRA 030615Z 15003KT 8000 -RA SCT015 SCT030 10/09 Q1015=
200903030545 METAR LIRA 030545Z 14002KT 8000 SCT017 SCT030 10/09 Q1015=
200903030515 METAR LIRA 030515Z 12002KT 8000 SCT017 SCT030 10/09 Q1015=
200903030445 METAR LIRA 030445Z 10002KT 8000 SCT017 SCT030 10/09 Q1015=
200903030415 METAR LIRA 030415Z 13006KT 100V200 8000 -DZ SCT016 SCT030
                        10/09 Q1015=
200903030345 METAR LIRA 030345Z 00000KT 9999 SCT018 SCT030 09/08 Q1015=
200903030315 METAR LIRA 030315Z 13001KT 9999 FEW017 SCT060 09/08 Q1015=
200903030245 METAR LIRA 030245Z 00000KT 9999 FEW017 SCT060 09/08 Q1015=
200903030215 METAR LIRA 030215Z 13003KT 9999 FEW018 SCT060 09/09 Q1016=
200903030145 METAR LIRA 030145Z 15003KT 9999 FEW017 SCT060 11/09 Q1016=
200903030115 METAR LIRA 030115Z 16003KT 9999 FEW017 SCT060 11/09 Q1016=
200903030045 METAR LIRA 030045Z 16004KT 9999 FEW017 SCT060 11/10 Q1016=
200903030015 METAR LIRA 030015Z 17005KT 9999 SCT017 SCT030 11/10 Q1016=
200903022350 METAR LIRA 030045Z 16004KT 9999 FEW017 SCT060 11/10 Q1016=
200903022345 METAR LIRA 022345Z 15003KT 9999 SCT025 SCT060 10/09 Q1016=
200903022315 METAR LIRA 022315Z 15004KT 8000 FEW017 SCT060 11/10 Q1016=
200903022245 METAR LIRA 022245Z 15005KT 8000 FEW017 SCT035 11/10 Q1016=
200903022215 METAR LIRA 022215Z 16005KT 8000 FEW017 SCT060 11/10 Q1016=
200903022145 METAR LIRA 022145Z 15003KT 8000 SCT017 SCT030 11/10 Q1016=
200903022115 METAR LIRA 022115Z 17004KT 8000 SCT017 SCT030 11/10 Q1016=
200903022045 METAR LIRA 022045Z 16003KT 8000 SCT018 SCT060 11/10 Q1015=
200903022015 METAR LIRA 022015Z 16003KT 8000 FEW018 SCT060 11/10 Q1015=
200903021945 METAR LIRA 021945Z 16004KT 8000 SCT018 11/10 Q1015=
200903021915 METAR LIRA 021915Z 18004KT 8000 SCT018 11/10 Q1015=
200903021845 METAR LIRA 021845Z 16004KT 8000 SCT018 12/11 Q1015=
200903021815 METAR LIRA 021815Z 19005KT 8000 SCT018 12/11 Q1014=
200903021745 METAR LIRA 021745Z 21003KT 160V240 8000 SCT016 SCT070 13/10
                        Q1014=
200903021715 METAR LIRA 021715Z 22006KT 190V270 8000 SCT015 SCT030 13/10
                        Q1014=
200903021645 METAR LIRA 021645Z 23005KT 180V270 8000 SCT015 SCT030 13/10
                        Q1014=
200903021615 METAR LIRA 021615Z 23006KT 180V260 8000 BKN015 SCT030 13/09
                        Q1014=
200903021545 METAR LIRA 021545Z 23008KT 190V260 8000 SCT015 FEW020CB SCT030
                        13/10 Q1014=
200903021515 METAR LIRA 021515Z 22010KT 190V270 8000 BKN015 FEW020CB SCT030
                        13/09 Q1014=
200903021445 METAR LIRA 021445Z 22012KT 190V260 8000 BKN015 FEW020CB SCT030
                        14/10 Q1013=
200903021415 METAR LIRA 021415Z 23009KT 180V270 9999 BKN015 FEW020CB SCT025
                        14/10 Q1014=
200903021345 METAR LIRA 021345Z 23011KT 160V270 9999 SCT015 FEW016CB SCT030
                        14/10 Q1014=
200903021315 METAR LIRA 021315Z 23009KT 190V300 9999 SCT015 FEW016CB SCT030
                        14/11 Q1014=
200903021245 METAR LIRA 021245Z 21008KT 180V270 9000 SCT016 SCT030 14/11
                        Q1014=
200903021215 METAR LIRA 021215Z 23012KT 180V260 9000 SCT016 SCT030 14/11
                        Q1014=
200903021145 METAR LIRA 021145Z 21007KT 150V260 9000 BKN015 15/11 Q1014=
200903021115 METAR LIRA 021115Z 21007KT 160V270 9000 BKN015 14/10 Q1014=
200903021045 METAR LIRA 021045Z 23008KT 200V280 9000 SCT015 SCT025 14/11
                        Q1014=
200903021015 METAR LIRA 021015Z 22007KT 150V260 8000 SCT015 SCT070 13/10
                        Q1014=
200903020945 METAR LIRA 020945Z 21004KT 8000 SCT015 SCT070 13/10 Q1014=
200903020915 METAR LIRA 020915Z 18005KT 7000 SCT015 SCT025 12/10 Q1014=
200903020845 METAR LIRA 020845Z 19005KT 160V230 6000 SCT013 FEW022TCU
                        SCT025 12/10 Q1014=
200903020815 METAR LIRA 020815Z 19006KT 160V260 5000 -RA BR SCT013 BKN025
                        12/11 Q1013=
200903020745 METAR LIRA 020745Z 18006KT 140V220 7000 SCT013 BKN025 11/10
                        Q1013=
200903020715 METAR LIRA 020715Z 18005KT 8000 SCT013 BKN025 11/10 Q1013=
200903020645 METAR LIRA 020645Z 17006KT 130V200 8000 SCT016 BKN025 10/10
                        Q1013=
200903020615 METAR LIRA 020615Z 19002KT 7000 -RA SCT015 BKN025 09/09 Q1013=
200903020545 METAR LIRA 020545Z 09002KT 7000 -RA SCT015 BKN025 09/09 Q1012=
200903020515 METAR LIRA 020515Z 27001KT 7000 -RA SCT018 BKN030 09/09 Q1012=
200903020445 METAR LIRA 020445Z 00000KT 8000 -RA SCT018 BKN030 09/09 Q1013=
200903020415 METAR LIRA 020415Z 00000KT 9999 FEW018 SCT030 10/09 Q1013=
200903020345 METAR LIRA 020345Z 00000KT 9999 -DZ SCT018 BKN030 09/09 Q1013=
200903020315 METAR LIRA 020315Z 00000KT 9999 -RA SCT018 BKN030 10/09 Q1013=
200903020245 METAR LIRA 020245Z 00000KT 9999 -RA SCT018 BKN030 10/09 Q1013=
200903020215 METAR LIRA 020215Z 34002KT 9999 -RA FEW018 BKN030 10/09 Q1013=
200903020200 METAR LIRA INTER=
200903020115 METAR LIRA 020115Z 33002KT 9999 -DZ FEW018 BKN030 10/09 Q1014=
200903020045 METAR LIRA 020045Z 34002KT 9999 FEW018 BKN030 10/09 Q1014=
200903020015 METAR LIRA 020015Z 01002KT 9999 FEW018 BKN030 10/09 Q1014=
200903012345 METAR LIRA 012345Z 33002KT 9999 FEW018 BKN030 10/09 Q1014=
200903012315 METAR LIRA 012315Z 00000KT 9999 SCT018 SCT030 10/08 Q1014=
200903012245 METAR LIRA 012245Z 33002KT 9999 SCT018 SCT030 11/09 Q1014=
200903012215 METAR LIRA 012215Z 28001KT 9999 FEW018 SCT030 11/09 Q1014=
200903012145 METAR LIRA 012145Z 13005KT 090V160 9999 FEW018 SCT030 11/09
                        Q1014=
200903012115 METAR LIRA 012115Z 13005KT 9999 FEW018 SCT035 11/09 Q1014=
200903012045 METAR LIRA 012045Z 14008KT 9999 FEW018 SCT035 11/09 Q1014=
200903012015 METAR LIRA 012015Z 14008KT 9999 FEW018 SCT035 11/08 Q1014=
200903011945 METAR LIRA 011945Z 13011KT 9999 FEW018 SCT035 11/08 Q1014=
200903011915 METAR LIRA 011915Z 13010KT 110V180 9999 FEW018 SCT035 11/08
                        Q1014=
200903011845 METAR LIRA 011845Z 14009KT 090V170 9999 FEW018 BKN035 10/09
                        Q1014=
200903011815 METAR LIRA 011815Z 14007KT 100V260 8000 SCT018 BKN030 10/08
                        Q1014=
200903011745 METAR LIRA 011745Z 28003KT 8000 -DZ FEW016 SCT018 BKN030
                        09/08 Q1013=
200903011715 METAR LIRA 011715Z 08001KT 8000 SCT018 BKN030 09/08 Q1013=
200903011645 METAR LIRA 011645Z 03004KT 9000 -RA FEW017 BKN027 09/08 Q1013=
200903011615 METAR LIRA 011615Z 08007KT 7000 -RA FEW017 SCT025 BKN070
                        10/08 Q1013=
200903011545 METAR LIRA 011545Z 09010KT 7000 -RA FEW017 BKN070 10/08 Q1013=
200903011515 METAR LIRA 011515Z 11009KT 8000 -RA SCT020 BKN070 10/08 Q1013=
200903011445 METAR LIRA 011445Z 08006KT 030V110 9999 -RA SCT020 BKN070
                        11/07 Q1014=
200903011415 METAR LIRA 011415Z 10008KT 060V150 9999 -RA FEW020 BKN070
                        11/08 Q1014=
200903011345 METAR LIRA 011345Z 12011KT 9999 FEW020 BKN070 11/08 Q1014=
200903011315 METAR LIRA 011315Z 11012KT 8000 -RA FEW020 BKN070 11/08 Q1015=
200903011245 METAR LIRA 011245Z 14014KT 6000 -RA FEW023 BKN070 11/09 Q1015=
200903011215 METAR LIRA 011215Z 14015KT 6000 -RA FEW023 BKN070 12/04 Q1015=
200903011145 METAR LIRA 011145Z 14012KT 7000 -RA FEW023 BKN070 13/08 Q1016=
200903011115 METAR LIRA 011115Z 15012KT 8000 -RA FEW023 BKN080 13/08 Q1016=
200903011045 METAR LIRA 011045Z 14013KT 9999 -RA FEW023 BKN080 13/05 Q1016=
200903011015 METAR LIRA 011015Z 15011KT 9999 FEW023 BKN080 13/05 Q1016=
200903010945 METAR LIRA 010945Z 14013KT 9999 FEW025 BKN070 13/02 Q1016=
200903010915 METAR LIRA 010915Z 14014KT 090V180 9999 FEW025 BKN070 12/01
                        Q1016=
200903010900 METAR LIRA INTER=
200903010845 METAR LIRA 010845Z 14010KT 100V180 9999 FEW025 SCT080 BKN200
                        11/02 Q1016=
200903010815 METAR LIRA 010815Z 14007KT 090V180 9999 FEW025 SCT080 BKN200
                        11/03 Q1016=
200903010745 METAR LIRA 010745Z 12004KT 9999 FEW025 SCT080 BKN200 11/04
                        Q1017=
200903010715 METAR LIRA 010715Z 12009KT 090V180 9999 SCT025 BKN070 11/04
                        Q1017=
200903010645 METAR LIRA 010645Z 13008KT 9999 SCT025 BKN080 11/05 Q1017=
200903010615 METAR LIRA 010615Z 13009KT 9999 SCT025 BKN080 10/04 Q1017=
200903010545 METAR LIRA 010545Z 14009KT 9999 SCT025 SCT070 10/03 Q1017=
200903010515 METAR LIRA 010515Z 16006KT 9999 FEW030 SCT070 10/05 Q1018=
200903010445 METAR LIRA 010445Z 14008KT 9999 FEW030 SCT080 10/05 Q1018=
200903010415 METAR LIRA 010415Z 14007KT 120V190 8000 FEW030 SCT080 10/08
                        Q1018=
200903010345 METAR LIRA 010345Z 00000KT 8000 FEW030 SCT080 09/07 Q1018=
200903010315 METAR LIRA 010315Z 12002KT 8000 FEW080 10/08 Q1018=
200903010245 METAR LIRA 010245Z 13008KT 8000 FEW080 10/08 Q1018=
200903010215 METAR LIRA 010215Z 07007KT 8000 FEW080 10/07 Q1018=
200903010145 METAR LIRA 010145Z 14003KT 8000 FEW080 10/08 Q1019=
200903010115 METAR LIRA 010115Z 24004KT 8000 FEW080 10/08 Q1019=
200903010045 METAR LIRA 010045Z 09003KT 8000 FEW080 10/09 Q1019=
200903010015 METAR LIRA 010015Z 13006KT 8000 FEW080 10/07 Q1019=

</pre>

</body>
</html>
