##########################################################
# Query made at 11/10/2014 14:11:39 UTC
# Time interval: from 03/01/2008 00:00  to 03/31/2008 23:59  UTC
##########################################################

##########################################################
# LIRA, Roma / Ciampino (Italy)
# WMO index: 16239
# Latitude 41-47N. Longitude 012-35E. Altitude 129 m.
##########################################################

###################################
#  METAR/SPECI from LIRA
###################################
200803312245 METAR LIRA 312245Z 18002KT 9999 FEW080 10/08 Q1012=
200803312215 METAR LIRA 312215Z 07004KT CAVOK 10/09 Q1013=
200803312145 METAR LIRA 312145Z 08002KT 9999 FEW060 11/10 Q1013=
200803312115 METAR LIRA 312115Z 08002KT 9999 FEW060 11/10 Q1013=
200803312045 METAR LIRA 312045Z 07003KT 9999 SCT060 11/10 Q1013=
200803312015 METAR LIRA 312015Z 01001KT 9999 SCT070 11/10 Q1013=
200803311945 METAR LIRA 311945Z 24003KT 9999 FEW080 13/10 Q1013=
200803311915 METAR LIRA 311915Z 29002KT 9999 FEW070 SCT200 13/10 Q1013=
200803311845 METAR LIRA 311845Z 25004KT 9999 SCT060 SCT200 14/11 Q1012=
200803311815 METAR LIRA 311815Z 22005KT 180V270 9999 SCT060 SCT200 14/10
                        Q1012=
200803311745 METAR LIRA 311745Z 21008KT 9999 SCT060 SCT200 15/09 Q1012=
200803311715 METAR LIRA 311715Z 19010KT 9999 SCT060 SCT200 15/08 Q1012=
200803311645 METAR LIRA 311645Z 18010KT 9999 FEW070 SCT200 16/07 Q1012=
200803311615 METAR LIRA 311615Z 19015KT 140V220 9999 FEW080 SCT200 16/07
                        Q1012=
200803311545 METAR LIRA 311545Z 18014KT 9999 FEW020 SCT200 16/05 Q1012=
200803311515 METAR LIRA 311515Z 18017KT 9999 FEW020 SCT200 16/04 Q1012=
200803311445 METAR LIRA 311445Z 19013KT 150V220 9999 FEW020 SCT200 17/05
                        Q1012=
200803311415 METAR LIRA 311415Z 17015KT 140V220 9999 FEW020 SCT200 17/04
                        Q1012=
200803311345 METAR LIRA 311345Z 18015KT 150V230 9999 FEW020 SCT200 17/04
                        Q1013=
200803311315 METAR LIRA 311315Z 17004KT 130V210 9999 FEW020 SCT200 17/04
                        Q1013=
200803311245 METAR LIRA 311245Z 19014KT 150V220 9999 FEW020 BKN200 17/05
                        Q1013=
200803311215 METAR LIRA 311215Z 20013KT 120V210 9999 FEW020 BKN200 18/05
                        Q1013=
200803311145 METAR LIRA 311145Z 19011KT 120V210 9999 FEW020 BKN200 19/05
                        Q1014=
200803311115 METAR LIRA 311115Z 16012KT 120V220 9999 FEW020 BKN200 17/10
                        Q1014=
200803311045 METAR LIRA 311045Z 18010KT 130V220 9999 FEW020 BKN200 17/10
                        Q1014=
200803311015 METAR LIRA 311015Z 18012KT 120V210 9999 FEW020 BKN200 16/09
                        Q1015=
200803310945 METAR LIRA 310945Z 19011KT 140V240 9999 FEW020 SCT200 16/10
                        Q1015=
200803310915 METAR LIRA 310915Z 16014KT 140V200 CAVOK 15/10 Q1015=
200803310845 METAR LIRA 310845Z 19011KT CAVOK 14/10 Q1015=
200803310815 METAR LIRA 310815Z 19013KT 170V230 CAVOK 12/09 Q1015=
200803310745 METAR LIRA 310745Z 20011KT 170V230 CAVOK 11/09 Q1015=
200803310715 METAR LIRA 310715Z 21006KT 200V260 CAVOK 11/08 Q1015=
200803310645 METAR LIRA 310645Z 28003KT CAVOK 09/08 Q1015=
200803310615 METAR LIRA 310615Z 29001KT CAVOK 08/07 Q1014=
200803310545 METAR LIRA 310545Z 30001KT CAVOK 07/06 Q1014=
200803310515 METAR LIRA 310515Z 00000KT CAVOK 07/06 Q1014=
200803310445 METAR LIRA 310445Z 08001KT CAVOK 07/05 Q1015=
200803310415 METAR LIRA 310415Z 08001KT CAVOK 07/05 Q1015=
200803310345 METAR LIRA 310345Z 00000KT 9999 FEW010 08/06 Q1015=
200803310315 METAR LIRA 310315Z 00000KT CAVOK 08/06 Q1015=
200803310245 METAR LIRA 310245Z 08002KT 8000 FEW010 08/06 Q1016=
200803310215 METAR LIRA 310215Z 07002KT 7000 FEW010 08/06 Q1016=
200803310145 METAR LIRA 310145Z 29001KT 7000 FEW010 08/07 Q1016=
200803310115 METAR LIRA 310115Z 10001KT 6000 FEW010 08/08 Q1017=
200803310045 METAR LIRA 310045Z 06003KT 5000 BR SCT010 09/09 Q1017=
200803310015 METAR LIRA 310015Z 06002KT 8000 3500NE SCT010 09/09 Q1017=
200803302345 METAR LIRA 302345Z 00000KT 1000 R15//// BR BKN004 09/09 Q1018=
200803302315 METAR LIRA 302315Z 17001KT 1000 R15//// BR BKN005 10/10 Q1018=
200803302245 METAR LIRA 302245Z 16003KT 0250 R15//// FG OVC002 10/10 Q1018=
200803302215 METAR LIRA 302215Z 20002KT 0200 R15//// FG OVC002 10/10 Q1018=
200803302145 METAR LIRA 302145Z 26003KT 0300 R15//// BCFG OVC003 10/10
                        Q1018=
200803302115 METAR LIRA 302115Z 10004KT 7000 NSC 10/10 Q1018=
200803302045 METAR LIRA 302045Z 00000KT 7000 NSC 11/10 Q1018=
200803302015 METAR LIRA 302015Z 30003KT CAVOK 11/08 Q1018=
200803301945 METAR LIRA 301945Z 29001KT CAVOK 13/09 Q1018=
200803301915 METAR LIRA 301915Z 24003KT CAVOK 13/11 Q1018=
200803301845 METAR LIRA 301845Z 21005KT CAVOK 13/11 Q1018=
200803301815 METAR LIRA 301815Z 21004KT CAVOK 14/09 Q1018=
200803301745 METAR LIRA 301745Z 24005KT CAVOK 16/10 Q1018=
200803301715 METAR LIRA 301715Z 23005KT 190V270 CAVOK 17/10 Q1018=
200803301645 METAR LIRA 301645Z 22004KT 180V280 CAVOK 17/10 Q1018=
200803301615 METAR LIRA 301615Z 21007KT 170V270 CAVOK 18/10 Q1019=
200803301545 METAR LIRA 301545Z 20009KT 160V250 CAVOK 18/06 Q1019=
200803301515 METAR LIRA 301515Z 21009KT 160V250 9999 FEW020 BKN200 18/07
                        Q1019=
200803301445 METAR LIRA 301445Z 21010KT 180V240 9999 FEW020 BKN200 19/08
                        Q1019=
200803301415 METAR LIRA 301415Z 18011KT 160V240 9999 FEW020 BKN200 19/08
                        Q1019=
200803301345 METAR LIRA 301345Z 20010KT 150V240 9999 FEW020 BKN200 19/08
                        Q1019=
200803301315 METAR LIRA 301315Z 21011KT 170V260 9999 FEW020 BKN200 19/09
                        Q1019=
200803301245 METAR LIRA 301245Z 18009KT 150V240 9999 SCT020 BKN200 19/08
                        Q1020=
200803301215 METAR LIRA 301215Z 20011KT 160V260 9999 FEW020 BKN200 19/09
                        Q1020=
200803301145 METAR LIRA 301145Z 21009KT 170V260 9999 FEW018 BKN200 18/09
                        Q1020=
200803301115 METAR LIRA 301115Z 22006KT 170V270 9999 FEW018 BKN200 18/10
                        Q1020=
200803301045 METAR LIRA 301045Z 20007KT 130V260 9999 FEW018 BKN200 17/10
                        Q1020=
200803301015 METAR LIRA 301015Z 18006KT 150V260 9999 FEW020 BKN200 16/10
                        Q1021=
200803300945 METAR LIRA 300945Z 22004KT 9999 7000SE FEW020 BKN200 14/10
                        Q1021=
200803300915 METAR LIRA 300915Z 19002KT 9999 6000SE FEW020 BKN200 13/09
                        Q1021=
200803300845 METAR LIRA 300845Z 00000KT 9999 6000SE NSC 12/10 Q1021=
200803300815 METAR LIRA 300815Z 00000KT 7000 NSC 10/08 Q1020=
200803300745 METAR LIRA 300745Z 35001KT 8000 NSC 09/08 Q1020=
200803300715 METAR LIRA 300715Z 00000KT 8000 NSC 07/07 Q1020=
200803300645 METAR LIRA 300645Z 00000KT 8000 NSC 07/07 Q1020=
200803300615 METAR LIRA 300615Z 00000KT 8000 NSC 06/06 Q1020=
200803300545 METAR LIRA 300545Z 07003KT 7000 NSC 06/06 Q1020=
200803300515 METAR LIRA 300515Z 34001KT 7000 NSC 06/06 Q1020=
200803300445 METAR LIRA 300445Z 34001KT 8000 SKC 07/07 Q1019=
200803300415 METAR LIRA 300415Z 00000KT CAVOK 07/07 Q1020=
200803300345 METAR LIRA 300345Z 20001KT CAVOK 07/07 Q1020=
200803300315 METAR LIRA 300315Z 15001KT CAVOK 07/07 Q1020=
200803300245 METAR LIRA 300245Z 05003KT CAVOK 07/07 Q1020=
200803300215 METAR LIRA 300215Z 00000KT CAVOK 08/07 Q1020=
200803300145 METAR LIRA 300145Z 06002KT CAVOK 08/08 Q1020=
200803300115 METAR LIRA 300115Z 00000KT CAVOK 08/08 Q1020=
200803300045 METAR LIRA 300045Z 00000KT CAVOK 08/08 Q1020=
200803300015 METAR LIRA 300015Z 35001KT CAVOK 09/08 Q1020=
200803292345 METAR LIRA 292345Z 04002KT CAVOK 09/08 Q1020=
200803292315 METAR LIRA 292315Z 00000KT CAVOK 10/08 Q1020=
200803292245 METAR LIRA 292245Z 15001KT CAVOK 11/09 Q1020=
200803292215 METAR LIRA 292215Z 15002KT CAVOK 10/09 Q1020=
200803292145 METAR LIRA 292145Z 19001KT CAVOK 10/08 Q1019=
200803292115 METAR LIRA 292115Z 16003KT CAVOK 11/09 Q1019=
200803292045 METAR LIRA 292045Z 20003KT CAVOK 11/09 Q1019=
200803292015 METAR LIRA 292015Z 20004KT CAVOK 11/08 Q1019=
200803291945 METAR LIRA 291945Z 19002KT CAVOK 12/09 Q1019=
200803291915 METAR LIRA 291915Z 15002KT CAVOK 12/09 Q1019=
200803291845 METAR LIRA 291845Z 17002KT CAVOK 13/09 Q1019=
200803291815 METAR LIRA 291815Z 24002KT CAVOK 14/09 Q1018=
200803291745 METAR LIRA 291745Z 23002KT CAVOK 15/07 Q1018=
200803291715 METAR LIRA 291715Z 21003KT CAVOK 15/08 Q1018=
200803291645 METAR LIRA 291645Z 26005KT CAVOK 16/08 Q1018=
200803291615 METAR LIRA 291615Z 28007KT 200V320 CAVOK 16/09 Q1018=
200803291545 METAR LIRA 291545Z 27008KT 210V320 CAVOK 17/10 Q1018=
200803291515 METAR LIRA 291515Z 27007KT 190V320 CAVOK 17/09 Q1018=
200803291445 METAR LIRA 291445Z 26006KT 210V320 9999 FEW028 18/10 Q1018=
200803291415 METAR LIRA 291415Z 26009KT 210V320 9999 FEW028 SCT200 18/10
                        Q1018=
200803291345 METAR LIRA 291345Z 26007KT 210V330 9999 FEW028 18/10 Q1018=
200803291315 METAR LIRA 291315Z 28010KT 220V320 9999 FEW025 18/10 Q1018=
200803291245 METAR LIRA 291245Z 28011KT 210V320 9999 FEW025 18/09 Q1018=
200803291215 METAR LIRA 291215Z 27007KT 220V330 9999 FEW025 19/08 Q1018=
200803291145 METAR LIRA 291145Z 35005KT 9999 FEW020 18/06 Q1018=
200803291115 METAR LIRA 291115Z 34005KT 250V320 9999 FEW020 17/07 Q1019=
200803291045 METAR LIRA 291045Z 33005KT 280V020 9999 FEW020 16/08 Q1019=
200803291015 METAR LIRA 291015Z 30005KT 280V020 9999 FEW025 16/08 Q1019=
200803290945 METAR LIRA 290945Z 34001KT 9999 FEW025 14/08 Q1018=
200803290915 METAR LIRA 290915Z 34005KT 9999 FEW025 SCT200 14/08 Q1018=
200803290845 METAR LIRA 290845Z 33003KT CAVOK 12/08 Q1018=
200803290815 METAR LIRA 290815Z 02003KT CAVOK 12/07 Q1018=
200803290745 METAR LIRA 290745Z 01004KT 9999 FEW080 SCT200 10/07 Q1018=
200803290715 METAR LIRA 290715Z 04005KT 360V090 CAVOK 10/07 Q1017=
200803290645 METAR LIRA 290645Z 04004KT 9999 FEW080 08/07 Q1017=
200803290615 METAR LIRA 290615Z 04003KT 9999 FEW080 08/07 Q1017=
200803290545 METAR LIRA 290545Z 04002KT 9999 FEW080 07/07 Q1017=
200803290515 METAR LIRA 290515Z 07002KT CAVOK 06/06 Q1017=
200803290445 METAR LIRA 290445Z 12004KT CAVOK 07/07 Q1017=
200803290415 METAR LIRA 290415Z 31001KT CAVOK 07/07 Q1017=
200803290345 METAR LIRA 290345Z 34003KT CAVOK 07/07 Q1016=
200803290315 METAR LIRA 290315Z 04003KT 9999 FEW080 08/07 Q1016=
200803290245 METAR LIRA 290245Z 05004KT 9999 FEW080 08/07 Q1016=
200803290215 METAR LIRA 290215Z 06004KT 9999 FEW080 08/07 Q1016=
200803290145 METAR LIRA 290145Z 06004KT 9999 SCT080 09/07 Q1016=
200803290115 METAR LIRA 290115Z 05004KT 9999 SCT080 09/08 Q1016=
200803290045 METAR LIRA 290045Z 01004KT 010V070 9999 FEW070 09/07 Q1016=
200803290015 METAR LIRA 290015Z 04003KT 9999 FEW070 09/08 Q1016=
200803282350 METAR LIRA 290045Z 01004KT 010V070 9999 FEW070 09/07 Q1016=
200803282345 METAR LIRA 282345Z 10003KT 9999 FEW070 10/08 Q1016=
200803282315 METAR LIRA 282315Z 04002KT 9999 FEW020 10/08 Q1016=
200803282245 METAR LIRA 282245Z 05003KT CAVOK 10/08 Q1015=
200803282215 METAR LIRA 282215Z 03003KT CAVOK 11/08 Q1015=
200803282145 METAR LIRA 282145Z 05004KT CAVOK 11/08 Q1015=
200803282115 METAR LIRA 282115Z 06005KT 030V090 9999 SCT080 12/08 Q1015=
200803282045 METAR LIRA 282045Z 03004KT 9999 FEW020 12/09 Q1014=
200803282015 METAR LIRA 282015Z 04005KT 9999 FEW020 12/08 Q1014=
200803281945 METAR LIRA 281945Z 06004KT 9999 FEW020 14/10 Q1013=
200803281915 METAR LIRA 281915Z 03003KT 9999 FEW020 14/10 Q1012=
200803281845 METAR LIRA 281845Z 00000KT 9999 SCT020 14/09 Q1011=
200803281815 METAR LIRA 281815Z 15002KT 9999 SCT020 17/06 Q1011=
200803281745 METAR LIRA 281745Z 16003KT 9999 SCT020 17/06 Q1010=
200803281715 METAR LIRA 281715Z 06002KT 9999 SCT018 FEW020TCU 18/06 Q1009=
200803281645 METAR LIRA 281645Z 05004KT 9999 SCT018 18/06 Q1009=
200803281615 METAR LIRA 281615Z 03003KT 9999 SCT018 19/07 Q1009=
200803281545 METAR LIRA 281545Z 01002KT 9999 SCT018 19/08 Q1008=
200803281515 METAR LIRA 281515Z 35002KT 9999 SCT018 18/07 Q1008=
200803281445 METAR LIRA 281445Z 32004KT 320V020 9999 SCT018 18/07 Q1007=
200803281415 METAR LIRA 281415Z 01006KT 300V030 9999 SCT018 17/08 Q1007=
200803281345 METAR LIRA 281345Z 33004KT 300V030 9999 FEW018 17/09 Q1007=
200803281315 METAR LIRA 281315Z 32004KT 9999 FEW018 17/09 Q1006=
200803281245 METAR LIRA 281245Z 01005KT 300V050 9999 FEW017 16/09 Q1006=
200803281215 METAR LIRA 281215Z 05005KT 310V130 9999 FEW015 15/09 Q1006=
200803281145 METAR LIRA 281145Z 36003KT 330V090 9999 FEW015 14/09 Q1006=
200803281115 METAR LIRA 281115Z 04006KT 330V090 9999 FEW015 13/09 Q1005=
200803281045 METAR LIRA 281045Z 04007KT 340V090 9999 FEW015 SCT070 12/09
                        Q1005=
200803281015 METAR LIRA 281015Z 35006KT 320V060 9999 SCT015 SCT070 11/09
                        Q1005=
200803280945 METAR LIRA 280945Z 03005KT 9999 FEW015 SCT080 10/09 Q1004=
200803280915 METAR LIRA 280915Z 02006KT 350V080 9999 -RA SCT015 BKN025
                        09/08 Q1004=
200803280845 METAR LIRA 280845Z 04005KT 360V080 7000 -RA SCT007 BKN025
                        08/08 Q1003=
200803280815 METAR LIRA 280815Z 03004KT 330V070 6000 -RA SCT007 BKN025
                        08/08 Q1003=
200803280745 METAR LIRA 280745Z 05004KT 010V090 5000 -RA BR SCT009 BKN025
                        08/08 Q1002=
200803280715 METAR LIRA 280715Z 04004KT 330V060 3000 -RA BR SCT005 BKN023
                        08/08 Q1001=
200803280645 METAR LIRA 280645Z 03004KT 360V090 3000 -RA BR SCT005 BKN023
                        08/08 Q1001=
200803280615 METAR LIRA 280615Z 03006KT 300V080 3000 -RA BR SCT005 BKN023
                        08/08 Q1001=
200803280545 METAR LIRA 280545Z 02005KT 360V080 3000 -RA BR SCT009 BKN025
                        08/08 Q1000=
200803280515 METAR LIRA 280515Z 04004KT 3000 -RA BR SCT009 BKN025 08/08
                        Q1000=
200803280445 METAR LIRA 280445Z 02004KT 3500 -DZ BR SCT009 BKN070 08/08
                        Q1000=
200803280415 METAR LIRA 280415Z 03003KT 4000 -DZ BR SCT009 BKN070 08/08
                        Q1000=
200803280345 METAR LIRA 280345Z 04002KT 4000 -DZ BR SCT009 BKN070 07/07
                        Q1000=
200803280315 METAR LIRA 280315Z 03002KT 4000 -DZ BR SCT009 BKN070 08/08
                        Q1000=
200803280245 METAR LIRA 280245Z 01003KT 4000 -DZ BR SCT009 BKN070 08/08
                        Q1000=
200803280215 METAR LIRA 280215Z 36003KT 4000 -DZ BR SCT009 BKN070 08/08
                        Q1000=
200803280145 METAR LIRA 280145Z 33002KT 4000 -DZ BR SCT009 BKN070 08/08
                        Q1000=
200803280115 METAR LIRA 280115Z 36001KT 4000 -DZ BR SCT009 BKN070 08/08
                        Q1000=
200803280045 METAR LIRA 280045Z 00000KT 4000 -DZ SCT009 BKN070 08/08 Q1000=
200803280015 METAR LIRA 280015Z 00000KT 7000 -DZ FEW009 BKN070 08/08 Q1000
                        RERA=
200803272345 METAR LIRA 272345Z 06002KT 7000 FEW009 BKN070 08/08 Q1000
                        RERA=
200803272315 METAR LIRA 272315Z 00000KT 7000 -RA FEW009 BKN070 08/08 Q1000=
200803272245 METAR LIRA 272245Z 36001KT 7000 -RA FEW009 BKN070 07/07 Q1000=
200803272215 METAR LIRA 272215Z 05002KT 7000 -RA FEW009 BKN070 07/07 Q1001=
200803272145 METAR LIRA 272145Z 03001KT 7000 -RA FEW009 BKN025 08/08 Q1001=
200803272115 METAR LIRA 272115Z 06004KT 5000 -RA BR SCT008 FEW020CB BKN025
                        08/08 Q1001=
200803272045 METAR LIRA 272045Z 08003KT 5000 -RA BR SCT008 FEW020CB BKN025
                        08/08 Q1001=
200803272015 METAR LIRA 272015Z 05002KT 5000 -RA BR SCT008 FEW020CB BKN025
                        09/09 Q1001=
200803271945 METAR LIRA 271945Z 36001KT 4500 -RA BR SCT008 FEW020CB BKN025
                        09/09 Q1001=
200803271915 METAR LIRA 271915Z 36002KT 5000 -RA BR SCT008 FEW020CB BKN025
                        09/08 Q1000=
200803271845 METAR LIRA 271845Z 00000KT 7000 -RA SCT008 FEW020CB BKN025
                        09/08 Q1000=
200803271815 METAR LIRA 271815Z 00000KT 9999 -RA SCT008 FEW020CB BKN023
                        09/08 Q1000=
200803271745 METAR LIRA 271745Z 14003KT 4500 -RA BR SCT008 FEW020CB BKN023
                        09/09 Q1000=
200803271715 METAR LIRA 271715Z 13003KT 4500 -RA BR FEW008 FEW020CB BKN023
                        09/09 Q0999=
200803271645 METAR LIRA 271645Z 17006KT 4500 -RA BR SCT008 FEW020CB BKN023
                        10/10 Q0999=
200803271615 METAR LIRA 271615Z 18004KT 5000 -RA BR SCT012 FEW020CB BKN025
                        10/09 Q0999=
200803271545 METAR LIRA 271545Z 20006KT 160V240 8000 -RA SCT017 FEW020CB
                        SCT030 10/09 Q0999=
200803271515 METAR LIRA 271515Z 21005KT 9999 -RA SCT017 FEW020CB SCT035
                        10/09 Q0999=
200803271445 METAR LIRA 271445Z 24006KT 200V270 9999 -RA SCT017 FEW020CB
                        SCT035 11/10 Q0999 RETS=
200803271415 METAR LIRA 271415Z 21007KT 180V270 9999 -RA SCT016 FEW020CB
                        SCT035 11/09 Q0999=
200803271345 METAR LIRA 271345Z 21008KT 150V270 9999 -TSRA SCT016 FEW020CB
                        SCT030 11/09 Q0999=
200803271315 METAR LIRA 271315Z 21007KT 180V260 7000 -TSRA SCT015 FEW020CB
                        SCT025 12/07 Q0999=
200803271245 METAR LIRA 271245Z 19007KT 9999 RA SCT016 FEW020TCU BKN025
                        13/07 Q0999=
200803271215 METAR LIRA 271215Z 23006KT 9999 SCT016 FEW020TCU SCT025 14/06
                        Q0999=
200803271145 METAR LIRA 271145Z 24004KT 9999 FEW018 SCT035 BKN080 15/06
                        Q0999=
200803271115 METAR LIRA 271115Z 30005KT 9999 FEW018 SCT090 BKN200 15/07
                        Q0999=
200803271045 METAR LIRA 271045Z 31005KT 9999 FEW018 BKN200 15/07 Q0999=
200803271015 METAR LIRA 271015Z 31003KT 9999 FEW018 BKN200 15/08 Q1000=
200803270945 METAR LIRA 270945Z 36005KT 9999 FEW018 SCT200 13/06 Q1000=
200803270915 METAR LIRA 270915Z 34003KT 9999 FEW018 SCT200 12/07 Q1000=
200803270845 METAR LIRA 270845Z 32002KT 9999 FEW018 SCT200 11/07 Q1000=
200803270815 METAR LIRA 270815Z 30002KT 9999 FEW018 SCT200 10/08 Q1000=
200803270745 METAR LIRA 270745Z 35003KT 9999 FEW018 SCT070 10/08 Q1001=
200803270715 METAR LIRA 270715Z 35003KT 9999 FEW018 SCT040 09/08 Q1001=
200803270645 METAR LIRA 270645Z 00000KT 9999 FEW018 SCT040 09/07 Q1001=
200803270615 METAR LIRA 270615Z 09001KT 9999 FEW018 SCT040 08/07 Q1001=
200803270545 METAR LIRA 270545Z 11004KT 9999 FEW018 SCT070 07/06 Q1001=
200803270515 METAR LIRA 270515Z 12003KT 9999 FEW018 SCT070 06/06 Q1001=
200803270445 METAR LIRA 270445Z 16003KT 9999 FEW020 SCT070 07/07 Q1001=
200803270415 METAR LIRA 270415Z 15001KT 9999 FEW020 SCT070 07/07 Q1001=
200803270345 METAR LIRA 270345Z 00000KT 9999 FEW020 SCT070 07/07 Q1001=
200803270315 METAR LIRA 270315Z 19003KT 9999 FEW020 SCT070 07/07 Q1001=
200803270245 METAR LIRA 270245Z 15005KT 9999 FEW018 SCT070 08/08 Q1001=
200803270215 METAR LIRA 270215Z 15005KT 9999 FEW018 SCT200 09/09 Q1001=
200803270145 METAR LIRA 270145Z 16007KT 9999 SCT018 SCT200 10/09 Q1002=
200803270115 METAR LIRA 270115Z 17005KT 9999 FEW018 SCT070 10/08 Q1003=
200803270045 METAR LIRA 270045Z 17006KT 9999 FEW018 SCT070 10/08 Q1003=
200803270015 METAR LIRA 270015Z 17006KT 9999 FEW018 SCT070 10/08 Q1003=
200803262345 METAR LIRA 262345Z 16007KT 9999 FEW018 SCT070 10/08 Q1003=
200803262315 METAR LIRA 262315Z 16006KT 9999 FEW018 SCT030 10/08 Q1004=
200803262245 METAR LIRA 262245Z 16008KT 9999 FEW018 SCT030 11/09 Q1004=
200803262215 METAR LIRA 262215Z 16007KT 9999 FEW018 SCT030 10/08 Q1004=
200803262145 METAR LIRA 262145Z 16008KT 9999 FEW017 FEW018TCU SCT030 10/08
                        Q1004=
200803262115 METAR LIRA 262115Z 16009KT 9999 FEW017 FEW018TCU SCT030 10/08
                        Q1004=
200803262045 METAR LIRA 262045Z 16008KT 9999 FEW017 FEW018TCU SCT030 10/08
                        Q1004=
200803262015 METAR LIRA 262015Z 15009KT 9999 FEW017 FEW018TCU SCT030 10/08
                        Q1004=
200803261945 METAR LIRA 261945Z 16009KT 9999 FEW017 FEW018TCU SCT030 11/08
                        Q1004=
200803261915 METAR LIRA 261915Z 16008KT 110V190 9999 FEW017 FEW018TCU
                        SCT030 11/08 Q1004=
200803261845 METAR LIRA 261845Z 17007KT 9999 FEW017 FEW018TCU SCT030 11/08
                        Q1004=
200803261815 METAR LIRA 261815Z 16008KT 9999 SCT017 FEW018TCU 11/08 Q1004=
200803261745 METAR LIRA 261745Z 17007KT 9999 SCT017 FEW018TCU 11/08 Q1004=
200803261715 METAR LIRA 261715Z 17007KT 9999 SCT017 FEW018TCU 11/08 Q1004=
200803261645 METAR LIRA 261645Z 19006KT 9999 SCT018 11/09 Q1004=
200803261615 METAR LIRA 261615Z 19008KT 9999 SCT018 12/09 Q1004=
200803261545 METAR LIRA 261545Z 20009KT 160V250 9999 SCT018 SCT025 12/09
                        Q1004=
200803261515 METAR LIRA 261515Z 16010KT 9999 SCT018 SCT025 12/09 Q1004=
200803261445 METAR LIRA 261445Z 19010KT 150V220 9999 SCT018 SCT025 11/08
                        Q1004=
200803261415 METAR LIRA 261415Z 16014KT 110V200 9999 FEW018 12/08 Q1005=
200803261345 METAR LIRA 261345Z 16013KT 120V190 9999 FEW018 SCT070 12/08
                        Q1005=
200803261315 METAR LIRA 261315Z 17012KT 9999 FEW018 SCT025 BKN070 11/08
                        Q1005=
200803261245 METAR LIRA 261245Z 19010KT 160V230 9999 FEW020 SCT025 BKN070
                        12/08 Q1005=
200803261215 METAR LIRA 261215Z 18013KT 9999 FEW020 SCT025 BKN070 12/08
                        Q1005=
200803261145 METAR LIRA 261145Z 17010KT 8000 FEW018 BKN070 12/08 Q1006=
200803261115 METAR LIRA 261115Z 17010KT 8000 FEW018 SCT025 BKN070 11/09
                        Q1006=
200803261045 METAR LIRA 261045Z 17010KT 130V200 8000 FEW018 SCT025 BKN070
                        11/09 Q1006 RERA=
200803261015 METAR LIRA 261015Z 17009KT 7000 FEW018 SCT025 BKN070 11/09
                        Q1006 RERA=
200803260945 METAR LIRA 260945Z 17010KT 7000 FEW018 SCT025 BKN070 10/08
                        Q1006=
200803260915 METAR LIRA 260915Z 16013KT 6000 -RA FEW018 SCT025 BKN070
                        11/08 Q1006=
200803260845 METAR LIRA 260845Z 15013KT 9999 FEW018 SCT025 BKN070 11/08
                        Q1006=
200803260815 METAR LIRA 260815Z 15014KT 9999 FEW018 SCT025 BKN070 11/08
                        Q1006=
200803260745 METAR LIRA 260745Z 14011KT 100V180 9999 SCT018 SCT025 11/07
                        Q1006=
200803260715 METAR LIRA 260715Z 15006KT 9999 SCT020 SCT030 09/06 Q1005=
200803260645 METAR LIRA 260645Z 13004KT 9999 FEW020 09/06 Q1005=
200803260615 METAR LIRA 260615Z 12008KT 9999 FEW020 07/04 Q1005=
200803260545 METAR LIRA 260545Z 14005KT 9999 FEW030 06/03 Q1005=
200803260515 METAR LIRA 260515Z 12006KT 9999 FEW070 06/03 Q1005=
200803260445 METAR LIRA 260445Z 12004KT 100V170 9999 FEW070 06/03 Q1005=
200803260415 METAR LIRA 260415Z 05002KT CAVOK 04/02 Q1005=
200803260345 METAR LIRA 260345Z 15004KT CAVOK 04/03 Q1005=
200803260315 METAR LIRA 260315Z 17001KT CAVOK 04/03 Q1005=
200803260245 METAR LIRA 260245Z 08002KT 9999 FEW070 04/04 Q1005=
200803260215 METAR LIRA 260215Z 08002KT 9999 FEW070 04/03 Q1005=
200803260145 METAR LIRA 260145Z 20001KT 9999 FEW070 04/03 Q1005=
200803260115 METAR LIRA 260115Z 14002KT CAVOK 05/04 Q1005=
200803260045 METAR LIRA 260045Z 04002KT 9999 FEW070 05/03 Q1005=
200803260015 METAR LIRA 260015Z 12002KT CAVOK 05/04 Q1005=
200803252345 METAR LIRA 252345Z 11002KT CAVOK 06/04 Q1005=
200803252315 METAR LIRA 252315Z 07002KT CAVOK 07/05 Q1004=
200803252245 METAR LIRA 252245Z 13002KT CAVOK 07/05 Q1004=
200803252215 METAR LIRA 252215Z 17004KT CAVOK 08/05 Q1004=
200803252145 METAR LIRA 252145Z 17003KT CAVOK 08/05 Q1004=
200803252115 METAR LIRA 252115Z 14002KT CAVOK 08/05 Q1003=
200803252045 METAR LIRA 252045Z 13003KT CAVOK 09/05 Q1003=
200803252015 METAR LIRA 252015Z 32001KT CAVOK 09/04 Q1003=
200803251945 METAR LIRA 251945Z 16001KT CAVOK 10/05 Q1002=
200803251915 METAR LIRA 251915Z 27002KT 9999 SCT080 10/05 Q1002=
200803251845 METAR LIRA 251845Z 30002KT 9999 SCT080 11/05 Q1002=
200803251815 METAR LIRA 251815Z 27002KT 9999 SCT080 12/05 Q1001=
200803251745 METAR LIRA 251745Z 31003KT 9999 SCT080 13/04 Q1001=
200803251715 METAR LIRA 251715Z 35003KT 9999 FEW025 14/03 Q1001=
200803251645 METAR LIRA 251645Z 31003KT 9999 FEW025 14/04 Q1000=
200803251615 METAR LIRA 251615Z 31002KT 9999 FEW020 14/04 Q1000=
200803251545 METAR LIRA 251545Z 31005KT 9999 FEW020 15/04 Q1000=
200803251515 METAR LIRA 251515Z 32005KT 260V010 9999 FEW020 14/05 Q1001=
200803251445 METAR LIRA 251445Z 30005KT 240V330 9999 SCT020 14/06 Q1000=
200803251415 METAR LIRA 251415Z 34004KT 9999 SCT020 14/06 Q1000=
200803251345 METAR LIRA 251345Z 34008KT 310V040 9999 SCT020 15/06 Q1000=
200803251315 METAR LIRA 251315Z 30005KT 240V360 9999 SCT020 15/05 Q1000=
200803251245 METAR LIRA 251245Z 24002KT 9999 SCT020 13/05 Q1000=
200803251215 METAR LIRA 251215Z 23002KT 9999 SCT020 SCT030 13/05 Q1001=
200803251145 METAR LIRA 251145Z 22006KT 170V270 9999 SCT020 SCT030 13/06
                        Q1001=
200803251115 METAR LIRA 251115Z 19008KT 140V240 9999 SCT020 13/06 Q1001=
200803251045 METAR LIRA 251045Z 19009KT 150V250 9999 FEW020 SCT070 10/05
                        Q1001=
200803251015 METAR LIRA 251015Z 08003KT 9999 FEW025 SCT070 10/05 Q1001=
200803250945 METAR LIRA 250945Z 05003KT 9999 FEW025 BKN070 09/05 Q1001=
200803250915 METAR LIRA 250915Z 06005KT 020V130 9999 FEW025 SCT070 09/05
                        Q1001=
200803250845 METAR LIRA 250845Z 05003KT 9999 FEW025 BKN070 07/04 Q1001=
200803250815 METAR LIRA 250815Z 11004KT 060V150 9999 FEW018 BKN060 07/04
                        Q1000=
200803250745 METAR LIRA 250745Z 12004KT 9999 FEW018 BKN060 05/04 Q1000=
200803250715 METAR LIRA 250715Z 08004KT 9999 -RA SCT025 BKN060 05/03 Q1000=
200803250645 METAR LIRA 250645Z 03003KT 9999 -RA SCT025 BKN060 04/02 Q1000=
200803250615 METAR LIRA 250615Z 05001KT 9999 SCT025 BKN060 04/02 Q1000=
200803250545 METAR LIRA 250545Z 10002KT 9999 SCT025 SCT060 03/01 Q1000=
200803250515 METAR LIRA 250515Z 17002KT 9999 SCT025 SCT060 03/02 Q1000=
200803250445 METAR LIRA 250445Z 23002KT 9999 SCT025 SCT060 03/02 Q1000=
200803250415 METAR LIRA 250415Z 10002KT 9999 FEW020 BKN060 02/02 Q0999=
200803250345 METAR LIRA 250345Z 15002KT 9999 FEW020 03/02 Q0999=
200803250315 METAR LIRA 250315Z 12005KT 9999 FEW025 03/02 Q0999=
200803250245 METAR LIRA 250245Z 16006KT 9999 FEW025 SCT060 03/03 Q0999=
200803250215 METAR LIRA 250215Z 17006KT 110V250 7000 FEW015TCU SCT060
                        03/03 Q0999 RETS RERA=
200803250145 METAR LIRA 250145Z 25006G16KT 230V340 5000 TSRA BR SCT010CB
                        BKN020 04/03 Q0999=
200803250115 METAR LIRA 250115Z 08003KT 5000 -TSRA BR SCT010CB BKN020
                        03/03 Q0999=
200803250045 METAR LIRA 250045Z 20005G23KT 8000 -TSRA SCT015CB SCT025
                        03/03 Q0999=
200803250015 METAR LIRA 250015Z 15002KT 9999 FEW020 SCT070 03/03 Q0998=
200803242345 METAR LIRA 242345Z 14002KT 9999 FEW025 SCT060 03/03 Q0998=
200803242315 METAR LIRA 242315Z 09003KT 9999 FEW020CB SCT030 03/03 Q0998=
200803242245 METAR LIRA 242245Z 14002KT 9999 VCTS FEW020CB SCT025 03/03
                        Q0998=
200803242215 METAR LIRA 242215Z 13003KT 9999 -DZ VCTS FEW020CB BKN025
                        03/03 Q0997=
200803242145 METAR LIRA 242145Z 00000KT 9999 -DZ FEW020TCU BKN025 03/03
                        Q0997=
200803242115 METAR LIRA 242115Z 00000KT 9999 FEW015CB SCT025 03/03 Q0997=
200803242045 METAR LIRA 242045Z 00000KT 9999 FEW020TCU SCT060 03/03 Q0996=
200803242015 METAR LIRA 242015Z 00000KT 9999 FEW020TCU SCT060 03/03 Q0996=
200803241945 METAR LIRA 241945Z 33002KT 9999 SCT070 04/03 Q0995=
200803241915 METAR LIRA 241915Z 01004KT 9999 FEW020TCU SCT060 04/03 Q0995=
200803241845 METAR LIRA 241845Z 04002KT 8000 SCT020 FEW025TCU SCT060 04/03
                        Q0994=
200803241815 METAR LIRA 241815Z 13008KT 100V180 7000 -RA SCT015 FEW018CB
                        SCT025 04/03 Q0994=
200803241745 METAR LIRA 241745Z 03002KT 5000 RA BR SCT010 FEW018CB BKN020
                        05/03 Q0994=
200803241715 METAR LIRA 241715Z 34005KT 5000 RA BR SCT010 FEW016CB BKN020
                        05/02 Q0994=
200803241645 METAR LIRA 241645Z 24005KT 170V290 7000 -RA SCT010 FEW018CB
                        BKN020 07/02 Q0994=
200803241615 METAR LIRA 241615Z 25003KT 9999 6000SE -RA SCT010 FEW018CB
                        BKN020 08/03 Q0993=
200803241545 METAR LIRA 241545Z 27005KT 220V320 9999 SCT015 FEW018CB BKN080
                        08/04 Q0993=
200803241515 METAR LIRA 241515Z 26010KT 210V310 9999 SCT015 FEW018CB BKN080
                        09/05 Q0994=
200803241445 METAR LIRA 241445Z 26012G23KT 210V330 9999 BKN016 FEW018CB
                        SCT080 09/05 Q0994=
200803241415 METAR LIRA 241415Z 27013G24KT 220V320 9999 -RA SCT016 FEW018CB
                        SCT100 10/M00 Q0993=
200803241345 METAR LIRA 241345Z 26008KT 210V310 9999 SCT016 FEW018CB BKN200
                        11/M00 Q0993=
200803241315 METAR LIRA 241315Z 27008KT 220V330 9999 SCT016 FEW020TCU
                        BKN200 11/00 Q0993=
200803241245 METAR LIRA 241245Z 26009KT 210V320 9999 SCT016 FEW020TCU
                        BKN200 11/01 Q0994=
200803241215 METAR LIRA 241215Z 25010KT 200V320 9999 SCT018 FEW020CB SCT200
                        11/01 Q0994=
200803241145 METAR LIRA 241145Z 28010G20KT 210V330 9999 SCT018 FEW020CB
                        SCT200 11/01 Q0994=
200803241115 METAR LIRA 241115Z 28008G18KT 170V280 9999 FEW017CB BKN018
                        10/02 Q0994=
200803241045 METAR LIRA 241045Z 29005KT 200V360 9000 FEW017CB BKN018 10/02
                        Q0994 REPL=
200803241015 METAR LIRA 241015Z 25010KT 200V330 7000 -SHPE BKN016 SCT017CB
                        09/01 Q0994 REPL=
200803240945 METAR LIRA 240945Z 25013G23KT 200V300 6000 VCSH BKN016 SCT017CB
                        08/03 Q0994=
200803240915 METAR LIRA 240915Z 20007KT 170V260 9000 SCT015 FEW016CB 07/02
                        Q0995=
200803240845 METAR LIRA 240845Z 25008G29KT 210V320 7000 -RA SCT015 FEW016CB
                        07/04 Q0995 RETS=
200803240815 METAR LIRA 240815Z 26010G20KT 210V290 9000 -TSRA SCT015 SCT016CB
                        07/05 Q0994 RETS=
200803240745 METAR LIRA 240745Z 20008KT 170V240 8000 -TSRA SCT015 SCT016CB
                        07/04 Q0994=
200803240715 METAR LIRA 240715Z 21009KT 160V260 7000 -TSRA SCT015 SCT016CB
                        06/03 Q0994=
200803240645 METAR LIRA 240645Z 25004KT 180V310 7000 -RA SCT016 SCT018CB
                        06/03 Q0994 RETS=
200803240615 METAR LIRA 240615Z 27007KT 210V350 7000 -RA SCT015 FEW016CB
                        SCT025 07/03 Q0994 RETS=
200803240545 METAR LIRA 240545Z 27005KT 250V310 7000 -TSGR SCT015 SCT016CB
                        08/04 Q0994=
200803240515 METAR LIRA 240515Z 23010KT 170V270 7000 -TSRA SCT015 SCT016CB
                        07/03 Q0994=
200803240445 METAR LIRA 240445Z 19006KT 9999 TS SCT015 FEW017CB SCT025
                        08/04 Q0994=
200803240415 METAR LIRA 240415Z 25007KT 210V290 9999 FEW015 FEW017CB SCT025
                        07/06 Q0994=
200803240345 METAR LIRA 240345Z 25007KT 210V280 9999 FEW015 SCT025 07/05
                        Q0994=
200803240315 METAR LIRA 240315Z 25007KT 200V280 9999 FEW015 SCT025 07/05
                        Q0994=
200803240215 METAR LIRA 240215Z 18007KT 9999 FEW017 SCT025 06/05 Q0994=
200803240145 METAR LIRA 240145Z 18007KT 9999 FEW017 SCT025 06/05 Q0994=
200803240115 METAR LIRA 240115Z 18005KT 9999 FEW017 SCT025 07/06 Q0994=
200803240045 METAR LIRA 240045Z 19008KT 150V210 9999 FEW017 SCT025 07/06
                        Q0994=
200803240015 METAR LIRA 240015Z 17006KT 9999 FEW017 SCT025 06/05 Q0995=
200803232345 METAR LIRA 232345Z 15007KT 9999 FEW017 SCT025 07/05 Q0995=
200803232315 METAR LIRA 232315Z 15006KT 9999 FEW015 BKN025 07/05 Q0995=
200803232245 METAR LIRA 232245Z 15004KT 9999 FEW015 BKN025 07/05 Q0995=
200803232215 METAR LIRA 232215Z 17003KT 9999 FEW014 FEW015CB BKN025 08/06
                        Q0995=
200803232145 METAR LIRA 232145Z 18002KT 9999 FEW014 FEW015CB BKN020 08/06
                        Q0995=
200803232115 METAR LIRA 232115Z 18003KT 9999 FEW013 FEW015CB BKN023 08/06
                        Q0994=
200803232045 METAR LIRA 232045Z 23001KT 9999 FEW004 FEW015CB BKN023 08/06
                        Q0994=
200803232015 METAR LIRA 232015Z 27004KT 9000 SCT013 FEW015CB BKN025 08/06
                        Q0994=
200803231945 METAR LIRA 231945Z 26002KT 8000 -RA SCT013 FEW015CB BKN020
                        08/06 Q0993=
200803231915 METAR LIRA 231915Z 23004KT 190V260 8000 -RA SCT012 FEW015CB
                        BKN020 08/06 Q0991=
200803231845 METAR LIRA 231845Z 23005KT 180V260 8000 -RA SCT013 FEW015CB
                        BKN020 08/06 Q0991=
200803231815 METAR LIRA 231815Z 23005KT 190V270 8000 -RA SCT004 FEW015CB
                        SCT025 08/06 Q0991=
200803231745 METAR LIRA 231745Z 27009G19KT 220V320 9999 -RA SCT004 FEW015CB
                        SCT020 09/06 Q0990=
200803231715 METAR LIRA 231715Z 25005KT 200V300 9999 -RA SCT005 FEW015CB
                        SCT020 09/06 Q0989=
200803231645 METAR LIRA 231645Z 26008KT 200V300 9999 SCT004 FEW015CB SCT020
                        09/06 Q0989=
200803231615 METAR LIRA 231615Z 24008KT 200V280 9999 SCT004 FEW015CB SCT020
                        12/09 Q0988 RETS=
200803231545 METAR LIRA 231545Z 26010KT 220V320 9999 SCT004 FEW015CB SCT020
                        12/09 Q0986 RETS=
200803231515 METAR LIRA 231515Z 20020G33KT 150V240 6000 -TSRA SCT004 FEW015CB
                        BKN020 13/09 Q0985=
200803231445 METAR LIRA 231445Z 20018G29KT 160V250 6000 -TSRA SCT004 FEW015CB
                        BKN020 13/10 Q0985=
200803231415 METAR LIRA 231415Z 21015KT 150V260 8000 -TSRA SCT005 FEW015CB
                        BKN020 13/10 Q0986=
200803231345 METAR LIRA 231345Z 21014G27KT 160V270 9999 SCT005 FEW015CB
                        BKN020 14/10 Q0987=
200803231315 METAR LIRA 231315Z 20016G27KT 160V250 9999 SCT005 FEW015CB
                        BKN020 14/10 Q0987=
200803231245 METAR LIRA 231245Z 20024G36KT 170V230 9999 SCT005 FEW015CB
                        SCT020 13/10 Q0987=
200803231215 METAR LIRA 231215Z 19026G39KT 160V240 9999 SCT005 FEW016CB
                        SCT020 13/09 Q0987 RETS=
200803231145 METAR LIRA 231145Z 19020KT 160V230 9999 SCT004 FEW016CB BKN020
                        11/08 Q0987 RETS=
200803231115 METAR LIRA 231115Z 16020G30KT 4000 TSRA SCT004 FEW016CB BKN020
                        11/08 Q0987=
200803231045 METAR LIRA 231045Z 15017KT 110V190 6000 -TSRA SCT007 FEW016CB
                        BKN020 11/08 Q0989=
200803231015 METAR LIRA 231015Z 16007KT 120V190 3000 -TSRA SCT005 FEW016CB
                        BKN020 11/07 Q0989=
200803230945 METAR LIRA 230945Z 14013KT 7000 -RA FEW012 SCT023 BKN070
                        11/07 Q0990=
200803230915 METAR LIRA 230915Z 15014KT 6000 -RA FEW012 SCT023 BKN070
                        12/07 Q0990=
200803230845 METAR LIRA 230845Z 16016KT 8000 -RA FEW018 SCT025 BKN070
                        12/08 Q0990=
200803230815 METAR LIRA 230815Z 15015KT 110V180 9999 FEW018 SCT025 BKN080
                        12/08 Q0990=
200803230745 METAR LIRA 230745Z 14013KT 110V180 9999 FEW018 SCT070 12/08
                        Q0991=
200803230715 METAR LIRA 230715Z 15014KT 120V180 9999 FEW018 SCT070 11/08
                        Q0991=
200803230645 METAR LIRA 230645Z 15008KT 120V190 9999 FEW018 FEW020TCU
                        SCT070 09/07 Q0991=
200803230615 METAR LIRA 230615Z 15002KT 9999 FEW018 FEW020TCU SCT070 08/06
                        Q0992=
200803230545 METAR LIRA 230545Z 00000KT 9999 FEW018 SCT025 BKN070 08/06
                        Q0992=
200803230515 METAR LIRA 230515Z 00000KT 9999 FEW018 SCT025 BKN070 08/06
                        Q0992=
200803230445 METAR LIRA 230445Z 00000KT 9999 FEW018 BKN070 08/06 Q0992=
200803230415 METAR LIRA 230415Z 15002KT 9999 FEW018 BKN070 08/06 Q0992=
200803230345 METAR LIRA 230345Z 14002KT 9999 FEW018 BKN070 08/06 Q0992=
200803230315 METAR LIRA 230315Z 00000KT 9999 FEW018 BKN070 08/06 Q0993=
200803230245 METAR LIRA 230245Z 15002KT 9999 FEW018 SCT025 08/06 Q0993=
200803230215 METAR LIRA 230215Z 15002KT 9999 FEW018 SCT025 08/06 Q0993=
200803230145 METAR LIRA 230145Z 15003KT 9999 FEW018 SCT070 08/06 Q0994=
200803230115 METAR LIRA 230115Z 15004KT 9999 FEW018 SCT070 08/05 Q0994=
200803230045 METAR LIRA 230045Z 16003KT 9999 FEW018 SCT070 08/05 Q0994=
200803230015 METAR LIRA 230015Z 16005KT 9999 SCT018 SCT025 09/06 Q0994=
200803222350 METAR LIRA 230045Z 16003KT 9999 FEW018 SCT070 08/05 Q0994=
200803222345 METAR LIRA 222345Z 17003KT 9999 FEW018 SCT025 08/06 Q0994=
200803222315 METAR LIRA 222315Z 18005KT 9999 FEW018 SCT070 09/06 Q0994=
200803222245 METAR LIRA 222245Z 18005KT 9999 SCT018 SCT070 09/06 Q0994=
200803222215 METAR LIRA 222215Z 18005KT 9999 SCT018 SCT070 09/07 Q0994=
200803222145 METAR LIRA 222145Z 17004KT 8000 SCT016 SCT025 09/07 Q0994=
200803222115 METAR LIRA 222115Z 18006KT 8000 SCT016 SCT025 08/06 Q0994=
200803222045 METAR LIRA 222045Z 17005KT 8000 FEW016 SCT070 09/07 Q0994=
200803222015 METAR LIRA 222015Z 19004KT 7000 FEW018 SCT025 BKN070 09/08
                        Q0994=
200803221945 METAR LIRA 221945Z 22006KT 7000 SCT016 SCT070 10/09 Q0993=
200803221915 METAR LIRA 221915Z 20005KT 7000 SCT016 BKN070 10/09 Q0993=
200803221845 METAR LIRA 221845Z 20005KT 6000 SCT016 SCT070 10/09 Q0992=
200803221815 METAR LIRA 221815Z 20006KT 6000 SCT016 FEW024CB BKN070 10/09
                        Q0992=
200803221745 METAR LIRA 221745Z 24001KT 4000 BR SCT012 FEW020CB SCT025
                        10/09 Q0990 RERA=
200803221715 METAR LIRA 221715Z 23001KT 4000 BR SCT012 FEW020CB SCT025
                        10/09 Q0990 RERA=
200803221645 METAR LIRA 221645Z 21004KT 170V240 4000 -RA BR SCT015 BKN023
                        10/08 Q0990=
200803221615 METAR LIRA 221615Z 19006KT 160V240 4000 -RA BR SCT015 BKN023
                        10/08 Q0990=
200803221545 METAR LIRA 221545Z 19010KT 160V230 4000 -RA BR SCT015 BKN025
                        11/09 Q0990=
200803221515 METAR LIRA 221515Z 20010KT 170V280 4000 -RA BR SCT015 BKN023
                        11/09 Q0990=
200803221445 METAR LIRA 221445Z 22007KT 170V240 6000 -RA SCT015 BKN025
                        12/09 Q0991=
200803221415 METAR LIRA 221415Z 20008KT 180V250 7000 -RA SCT015 BKN025
                        12/10 Q0991=
200803221345 METAR LIRA 221345Z 21011KT 180V250 8000 SCT015 BKN027 12/10
                        Q0992=
200803221315 METAR LIRA 221315Z 20010KT 160V270 8000 SCT015 BKN027 12/10
                        Q0992=
200803221245 METAR LIRA 221245Z 21009KT 170V260 8000 -RA SCT015 BKN030
                        12/10 Q0992=
200803221215 METAR LIRA 221215Z 20012KT 160V240 8000 -RA SCT015 BKN025
                        11/09 Q0992=
200803221145 METAR LIRA 221145Z 20010KT 160V230 7000 -RA SCT015 BKN025
                        12/10 Q0992=
200803221115 METAR LIRA 221115Z 20010KT 160V250 6000 -RA SCT015 BKN027
                        12/10 Q0992=
200803221045 METAR LIRA 221045Z 19010KT 190V250 6000 -RA SCT015 BKN027
                        11/10 Q0992=
200803221015 METAR LIRA 221015Z 20009KT 160V240 6000 -RA SCT015 FEW016CB
                        BKN025 11/09 Q0992=
200803220945 METAR LIRA 220945Z 21013KT 170V240 6000 -RA SCT015 FEW016CB
                        BKN025 11/09 Q0992 RETS=
200803220915 METAR LIRA 220915Z 21012KT 160V260 6000 -RA SCT015 FEW016CB
                        BKN025 11/09 Q0992 RETS=
200803220845 METAR LIRA 220845Z 22008KT 170V280 5000 -TSRA SCT014 FEW015CB
                        BKN025 11/09 Q0992=
200803220815 METAR LIRA 220815Z 22007KT 160V250 6000 -TSRA SCT015 FEW016CB
                        BKN023 11/09 Q0992=
200803220745 METAR LIRA 220745Z 23007KT 170V270 5000 -TSRA BR SCT015 FEW016CB
                        BKN023 11/09 Q0992=
200803220715 METAR LIRA 220715Z 20009KT 180V250 6000 -RA SCT015 FEW016CB
                        BKN023 11/09 Q0992=
200803220645 METAR LIRA 220645Z 24010KT 160V260 5000 -RA BR SCT015 FEW016CB
                        BKN023 11/09 Q0992=
200803220615 METAR LIRA 220615Z 20011KT 160V270 6000 -RA SCT015 FEW016CB
                        BKN025 12/09 Q0992=
200803220545 METAR LIRA 220545Z 23011KT 180V270 7000 -RA SCT015 FEW016CB
                        BKN025 12/09 Q0992=
200803220515 METAR LIRA 220515Z 23008KT 160V270 6000 -RA SCT015 FEW016CB
                        BKN023 12/09 Q0992=
200803220445 METAR LIRA 220445Z 21012G24KT 150V280 9999 SCT015 BKN025
                        12/08 Q0992=
200803220415 METAR LIRA 220415Z 22013G26KT 160V270 9999 SCT015 SCT025
                        12/08 Q0992=
200803220345 METAR LIRA 220345Z 22012KT 160V260 9999 SCT015 SCT025 12/08
                        Q0992=
200803220315 METAR LIRA 220315Z 22015G25KT 150V270 9999 SCT015 FEW020TCU
                        SCT025 12/08 Q0992=
200803220245 METAR LIRA 220245Z 22012G22KT 170V280 9999 SCT020 SCT030
                        11/08 Q0993=
200803220215 METAR LIRA 220215Z 22012G23KT 180V270 8000 SCT015 BKN025
                        11/09 Q0993=
200803220145 METAR LIRA 220145Z 20012KT 180V250 8000 -RA SCT015 BKN025
                        10/08 Q0993=
200803220115 METAR LIRA 220115Z 20012KT 150V250 6000 -RA SCT015 FEW020TCU
                        BKN025 11/08 Q0994=
200803220045 METAR LIRA 220045Z 22010KT 180V280 6000 -RA SCT015 FEW020TCU
                        BKN025 10/08 Q0995=
200803220015 METAR LIRA 220015Z 23011KT 190V280 7000 -RA SCT016 FEW020TCU
                        BKN025 10/08 Q0995=
200803212345 METAR LIRA 212345Z 23010G25KT 190V290 7000 -RA SCT015 FEW020TCU
                        BKN025 10/08 Q0995=
200803212315 METAR LIRA 212315Z 23012G23KT 170V280 6000 -RA SCT015 FEW020TCU
                        BKN025 10/08 Q0995=
200803212245 METAR LIRA 212245Z 22009KT 180V280 6000 -RA SCT015 FEW020TCU
                        BKN025 10/08 Q0995=
200803212215 METAR LIRA 212215Z 24014G24KT 200V270 7000 -RA SCT016 FEW020TCU
                        BKN025 10/08 Q0995=
200803212145 METAR LIRA 212145Z 22010KT 180V270 7000 -RA SCT016 FEW018TCU
                        BKN025 10/08 Q0996=
200803212115 METAR LIRA 212115Z 24012G22KT 180V270 7000 -RA SCT016 FEW018TCU
                        BKN025 10/08 Q0996=
200803212045 METAR LIRA 212045Z 23010G20KT 180V320 6000 -RA SCT016 FEW018CB
                        BKN025 10/09 Q0996=
200803212015 METAR LIRA 212015Z 23008KT 170V260 4000 -RA BR SCT015 FEW018CB
                        BKN025 09/08 Q0996=
200803211945 METAR LIRA 211945Z 22008KT 180V280 4000 -RA BR SCT015 FEW018CB
                        BKN025 09/09 Q0996=
200803211915 METAR LIRA 211915Z 25013G23KT 190V340 5000 -RA BR SCT015
                        FEW018CB BKN025 10/08 Q0996=
200803211845 METAR LIRA 211845Z 24007KT 200V270 4000 -RA BR SCT016 FEW018CB
                        BKN025 10/08 Q0996=
200803211815 METAR LIRA 211815Z 23012G22KT 180V280 5000 -DZ BR SCT016
                        FEW018CB BKN025 10/07 Q0996=
200803211745 METAR LIRA 211745Z 23012G23KT 190V270 6000 -DZ SCT016 FEW018CB
                        BKN025 10/06 Q0997=
200803211715 METAR LIRA 211715Z 24012KT 6000 -DZ SCT016 FEW018CB BKN025
                        11/05 Q0997=
200803211645 METAR LIRA 211645Z 24011G27KT 180V280 8000 -DZ FEW018 FEW022CB
                        BKN025 11/05 Q0997=
200803211615 METAR LIRA 211615Z 23011G23KT 170V310 8000 -DZ FEW018 FEW022CB
                        BKN025 10/M02 Q0998=
200803211545 METAR LIRA 211545Z 22010G23KT 170V270 8000 -DZ FEW018 FEW022CB
                        BKN025 10/M03 Q0999=
200803211515 METAR LIRA 211515Z 22011KT 170V270 8000 -DZ FEW018 FEW022CB
                        BKN025 10/M03 Q0999=
200803211445 METAR LIRA 211445Z 21013KT 170V280 8000 -DZ FEW018 FEW024CB
                        BKN025 10/M04 Q1000=
200803211415 METAR LIRA 211415Z 20013G23KT 160V240 8000 -DZ FEW018 SCT025
                        BKN070 10/M04 Q1000=
200803211345 METAR LIRA 211345Z 20013KT 170V250 9999 -RA FEW018 BKN025
                        10/M02 Q1001=
200803211315 METAR LIRA 211315Z 22011KT 170V250 9999 -RA FEW018 BKN025
                        10/M03 Q1001=
200803211245 METAR LIRA 211245Z 22008G20KT 170V270 9999 FEW018 BKN025
                        11/M03 Q1001=
200803211215 METAR LIRA 211215Z 20017KT 060V240 9999 FEW018 BKN030 11/M04
                        Q1002=
200803211145 METAR LIRA 211145Z 22012KT 150V260 9999 FEW018 BKN030 11/M04
                        Q1003=
200803211115 METAR LIRA 211115Z 21011KT 160V270 9999 FEW018 SCT070 11/M04
                        Q1003=
200803211045 METAR LIRA 211045Z 23010KT 160V260 9999 FEW018 BKN070 11/M03
                        Q1003=
200803211015 METAR LIRA 211015Z 22009KT 160V250 9999 FEW020 SCT070 12/M02
                        Q1004=
200803210945 METAR LIRA 210945Z 21007KT 150V260 9999 FEW020 SCT200 12/M01
                        Q1004=
200803210915 METAR LIRA 210915Z 22003KT 9999 FEW020 SCT200 11/03 Q1004=
200803210845 METAR LIRA 210845Z 18002KT 9999 FEW020 SCT200 09/02 Q1004=
200803210815 METAR LIRA 210815Z 00000KT 9999 FEW020 BKN200 07/01 Q1004=
200803210745 METAR LIRA 210745Z 10002KT 9999 FEW020 BKN200 06/01 Q1004=
200803210715 METAR LIRA 210715Z 36004KT 9999 FEW020 SCT200 04/01 Q1004=
200803210645 METAR LIRA 210645Z 34004KT 9999 FEW020 04/01 Q1004=
200803210615 METAR LIRA 210615Z 33003KT 9999 FEW030 02/M01 Q1004=
200803210545 METAR LIRA 210545Z 05004KT 9999 FEW030 01/M01 Q1004=
200803210515 METAR LIRA 210515Z 08004KT 9999 FEW030 01/M01 Q1004=
200803210445 METAR LIRA 210445Z 07004KT 9999 FEW025 01/M02 Q1004=
200803210415 METAR LIRA 210415Z 06005KT 9999 FEW030 02/M02 Q1004=
200803210345 METAR LIRA 210345Z 08004KT 9999 FEW030 02/M01 Q1004=
200803210315 METAR LIRA 210315Z 07005KT 9999 FEW030 03/M01 Q1005=
200803210245 METAR LIRA 210245Z 05003KT 9999 SCT030 03/M01 Q1005=
200803210215 METAR LIRA 210215Z 06006KT 9999 SCT030 SCT060 03/M01 Q1005=
200803210145 METAR LIRA 210145Z 07005KT 9999 FEW060 03/M01 Q1005=
200803210115 METAR LIRA 210115Z 05004KT 9999 FEW060 03/M01 Q1005=
200803210045 METAR LIRA 210045Z 05004KT 9999 FEW060 04/M01 Q1005=
200803210015 METAR LIRA 210015Z 06005KT 9999 FEW060 04/M01 Q1005=
200803202345 METAR LIRA 202345Z 05005KT 030V090 9999 FEW060 04/M00 Q1005=
200803202315 METAR LIRA 202315Z 04005KT 010V080 9999 FEW060 04/M00 Q1006=
200803202245 METAR LIRA 202245Z 04003KT 9999 FEW060 04/M00 Q1006=
200803202215 METAR LIRA 202215Z 05004KT 9999 FEW060 05/M00 Q1006=
200803202145 METAR LIRA 202145Z 05004KT 9999 FEW040 05/00 Q1006=
200803202115 METAR LIRA 202115Z 04003KT 9999 FEW060 05/00 Q1006=
200803202045 METAR LIRA 202045Z 01005KT 9999 FEW060 06/01 Q1006=
200803202015 METAR LIRA 202015Z 02004KT 330V070 9999 FEW060 06/01 Q1006=
200803201945 METAR LIRA 201945Z 01011KT 310V040 9999 FEW025 SCT060 07/02
                        Q1005=
200803201915 METAR LIRA 201915Z 01008KT 330V060 9999 FEW020 SCT040 07/03
                        Q1005=
200803201845 METAR LIRA 201845Z 34009KT 9999 FEW020 SCT030 08/04 Q1005=
200803201815 METAR LIRA 201815Z 34005KT 9999 FEW020 SCT040 08/04 Q1004=
200803201745 METAR LIRA 201745Z 35007KT 320V030 9999 FEW015 SCT045 08/04
                        Q1004=
200803201715 METAR LIRA 201715Z 35008KT 9999 FEW010 SCT050 08/04 Q1004=
200803201645 METAR LIRA 201645Z 34011KT 9999 FEW020 SCT025 10/06 Q1005=
200803201615 METAR LIRA 201615Z 01005KT 330V060 9999 SCT020 10/06 Q1005=
200803201545 METAR LIRA 201545Z 35006KT 330V050 9999 9000SE FEW018TCU
                        SCT020 10/07 Q1004=
200803201515 METAR LIRA 201515Z 01007KT 330V060 9999 9000SE FEW018CB BKN020
                        10/07 Q1005=
200803201445 METAR LIRA 201445Z 02005KT 340V100 9999 9000SE FEW018CB BKN020
                        10/08 Q1005=
200803201415 METAR LIRA 201415Z 03008KT 330V090 9999 8000SE FEW018CB BKN020
                        09/08 Q1005=
200803201345 METAR LIRA 201345Z 05007KT 340V100 9999 7000SE FEW018TCU
                        SCT020 09/08 Q1005=
200803201315 METAR LIRA 201315Z 04007KT 340V080 9999 6000SE FEW016CB FEW018TCU
                        SCT020 09/07 Q1005=
200803201245 METAR LIRA 201245Z 02008KT 340V070 6000 FEW016CB SCT018TCU
                        11/09 Q1005 RETS=
200803201215 METAR LIRA 201215Z 36010KT 320V060 6000 FEW016CB SCT018TCU
                        10/09 Q1005 RETS=
200803201145 METAR LIRA 201145Z 28008KT 5000 -TSRA BR SCT016CB SCT018TCU
                        12/10 Q1005 REGR=
200803201115 METAR LIRA 201115Z 03006KT 320V060 7000 FEW018CB SCT020TCU
                        12/09 Q1005=
200803201045 METAR LIRA 201045Z 02006KT 330V080 7000 FEW016CB FEW018TCU
                        SCT020 12/08 Q1005=
200803201015 METAR LIRA 201015Z 35009KT 300V050 9000 FEW016CB FEW018TCU
                        SCT020 13/09 Q1005=
200803200945 METAR LIRA 200945Z 22006KT 150V280 9000 FEW015CB FEW018TCU
                        SCT020 13/10 Q1005=
200803200915 METAR LIRA 200915Z 20007KT 170V250 9000 FEW016CB FEW018TCU
                        SCT020 12/09 Q1004=
200803200845 METAR LIRA 200845Z 19007KT 9000 FEW018CB SCT020 FEW025TCU
                        12/09 Q1004=
200803200815 METAR LIRA 200815Z 19007KT 160V220 9000 FEW018CB SCT020 FEW025TCU
                        12/10 Q1004=
200803200745 METAR LIRA 200745Z 16004KT 9000 FEW018CB SCT020TCU 11/09
                        Q1004=
200803200715 METAR LIRA 200715Z 16004KT 9000 -DZ FEW018CB SCT020 FEW025TCU
                        10/09 Q1004=
200803200645 METAR LIRA 200645Z 15005KT 9000 -DZ FEW018CB SCT020 09/09
                        Q1004=
200803200615 METAR LIRA 200615Z 15006KT 9999 6000SE -DZ SCT015 FEW018CB
                        SCT025 09/08 Q1005=
200803200545 METAR LIRA 200545Z 15002KT 9999 5000SE -DZ BR SCT015 FEW018CB
                        SCT025 08/07 Q1005=
200803200515 METAR LIRA 200515Z 07004KT 9999 FEW018CB SCT020 09/08 Q1005=
200803200445 METAR LIRA 200445Z 07002KT 9999 SCT015 FEW017CB SCT025 08/08
                        Q1005=
200803200415 METAR LIRA 200415Z 11004KT 8000 -RA SCT015 FEW017CB BKN025
                        08/07 Q1005=
200803200345 METAR LIRA 200345Z 12003KT 8000 -RA SCT015 FEW017CB BKN025
                        10/08 Q1005=
200803200315 METAR LIRA 200315Z 31005KT 250V330 7000 -RA SCT015 FEW017CB
                        BKN025 10/08 Q1005=
200803200245 METAR LIRA 200245Z 17001KT 9999 -RA SCT015 FEW017CB SCT070
                        10/08 Q1006=
200803200215 METAR LIRA 200215Z 12005KT 9999 SCT015 FEW017CB SCT070 10/08
                        Q1006=
200803200145 METAR LIRA 200145Z 06004KT 9999 SCT015 FEW017CB SCT070 10/08
                        Q1006 RETS=
200803200115 METAR LIRA 200115Z 12002KT 9999 SCT015 FEW017CB SCT070 10/08
                        Q1007 RETS=
200803200045 METAR LIRA 200045Z 15003KT 8000 -TSRA SCT012 FEW017CB SCT070
                        10/08 Q1007=
200803200015 METAR LIRA 200015Z 21006KT 160V240 6000 -TSRA SCT012 FEW017CB
                        BKN070 10/08 Q1007=
200803192345 METAR LIRA 192345Z 18004KT 9999 TS SCT012 FEW017CB SCT070
                        11/09 Q1007=
200803192315 METAR LIRA 192315Z 18003KT 9999 SCT012 FEW017TCU 11/09 Q1007=
200803192245 METAR LIRA 192245Z 20004KT 9999 SCT015 FEW017TCU 12/09 Q1007=
200803192215 METAR LIRA 192215Z 19003KT 9999 SCT015 SCT070 12/09 Q1007=
200803192145 METAR LIRA 192145Z 19003KT 9999 FEW015 BKN070 12/09 Q1007=
200803192115 METAR LIRA 192115Z 21003KT 190V250 9999 FEW017 BKN070 12/09
                        Q1007=
200803192045 METAR LIRA 192045Z 23004KT 9999 FEW017 SCT027 BKN070 11/08
                        Q1007=
200803192015 METAR LIRA 192015Z 24003KT 9999 FEW017 SCT027 BKN070 12/08
                        Q1007=
200803191945 METAR LIRA 191945Z 19005KT 150V220 9999 FEW020 SCT027 12/08
                        Q1007=
200803191915 METAR LIRA 191915Z 19005KT 9999 FEW020 SCT027 12/08 Q1006=
200803191845 METAR LIRA 191845Z 21003KT 160V240 9999 FEW020 SCT027 12/08
                        Q1006=
200803191815 METAR LIRA 191815Z 17007KT 130V220 9999 FEW020 SCT070 12/08
                        Q1006=
200803191745 METAR LIRA 191745Z 21005KT 9999 FEW020 SCT070 12/08 Q1006=
200803191715 METAR LIRA 191715Z 20005KT 180V240 9999 SCT020 SCT200 13/08
                        Q1005=
200803191645 METAR LIRA 191645Z 21005KT 160V250 9999 SCT020 SCT200 13/09
                        Q1005=
200803191615 METAR LIRA 191615Z 21008KT 170V260 9999 SCT018 FEW020CB 13/09
                        Q1005=
200803191545 METAR LIRA 191545Z 21009KT 160V240 9999 SCT018 FEW020CB 14/09
                        Q1005=
200803191515 METAR LIRA 191515Z 19009KT 160V250 9999 SCT016 FEW020CB 14/09
                        Q1005=
200803191445 METAR LIRA 191445Z 19010KT 9999 SCT016 FEW020CB SCT200 14/09
                        Q1005=
200803191415 METAR LIRA 191415Z 18013KT 9999 SCT016 FEW020CB SCT200 15/10
                        Q1005=
200803191345 METAR LIRA 191345Z 18015KT 9999 SCT016 FEW018CB FEW020TCU
                        SCT200 16/09 Q1005=
200803191315 METAR LIRA 191315Z 18011KT 140V220 9999 SCT016 FEW018CB FEW020TCU
                        16/09 Q1005=
200803191245 METAR LIRA 191245Z 19012KT 9999 SCT016 FEW018CB FEW020TCU
                        18/09 Q1005=
200803191215 METAR LIRA 191215Z 26004KT 9999 SCT016 FEW018CB FEW020TCU
                        17/08 Q1005=
200803191145 METAR LIRA 191145Z 29002KT 9999 SCT016 FEW018TCU 16/09 Q1006=
200803191115 METAR LIRA 191115Z 25006KT 210V300 9999 SCT016 FEW018TCU
                        16/10 Q1006=
200803191045 METAR LIRA 191045Z 22002KT 9999 SCT016 FEW018TCU 15/10 Q1006=
200803191015 METAR LIRA 191015Z 20003KT 9999 SCT017 SCT200 15/10 Q1006=
200803190945 METAR LIRA 190945Z 01002KT 9999 FEW017 14/09 Q1006=
200803190915 METAR LIRA 190915Z 01003KT 9999 FEW018 14/09 Q1005=
200803190845 METAR LIRA 190845Z 03005KT 330V090 9999 FEW018 12/08 Q1005=
200803190815 METAR LIRA 190815Z 01007KT 340V060 9999 FEW018 11/08 Q1005=
200803190745 METAR LIRA 190745Z 02007KT 350V120 9999 FEW018 10/07 Q1005=
200803190715 METAR LIRA 190715Z 03007KT 340V080 9999 FEW018 10/07 Q1005=
200803190645 METAR LIRA 190645Z 01005KT 330V050 9999 FEW018 SCT030 09/06
                        Q1005=
200803190615 METAR LIRA 190615Z 36006KT 330V050 9999 FEW018 SCT030 09/06
                        Q1005=
200803190545 METAR LIRA 190545Z 02003KT 9999 FEW018 SCT070 10/07 Q1004=
200803190515 METAR LIRA 190515Z 07004KT 9999 FEW018 SCT070 10/07 Q1004=
200803190445 METAR LIRA 190445Z 06004KT 020V090 9999 FEW018 SCT070 10/07
                        Q1004=
200803190415 METAR LIRA 190415Z 04005KT 360V090 9999 FEW018 BKN070 10/06
                        Q1004=
200803190345 METAR LIRA 190345Z 02005KT 330V060 9999 FEW018 BKN070 10/06
                        Q1004=
200803190315 METAR LIRA 190315Z 02006KT 340V060 9999 FEW018 BKN070 10/07
                        Q1004=
200803190245 METAR LIRA 190245Z 01003KT 9999 FEW015 SCT070 10/07 Q1004=
200803190215 METAR LIRA 190215Z 05004KT 350V090 9999 FEW015 SCT070 11/08
                        Q1004=
200803190145 METAR LIRA 190145Z 03006KT 350V050 9999 FEW015 SCT070 11/08
                        Q1005=
200803190115 METAR LIRA 190115Z 01007KT 340V060 9999 FEW010 SCT025 11/09
                        Q1005=
200803190045 METAR LIRA 190045Z 04004KT 010V080 9999 FEW018 12/09 Q1005=
200803190015 METAR LIRA 190015Z 03006KT 9999 FEW018 11/08 Q1005=
200803182345 METAR LIRA 182345Z 06004KT 9999 FEW018 10/07 Q1005=
200803182245 METAR LIRA 182245Z 09003KT 9999 FEW018 10/06 Q1005=
200803182215 METAR LIRA 182215Z 11003KT 9999 FEW018 11/07 Q1005=
200803182145 METAR LIRA 182145Z 05002KT 9999 FEW018 SCT200 11/07 Q1004=
200803182115 METAR LIRA 182115Z 22004KT 9999 FEW018 SCT200 11/08 Q1004=
200803182045 METAR LIRA 182045Z 12003KT 9999 FEW018 SCT200 12/08 Q1004=
200803182015 METAR LIRA 182015Z 14006KT 9999 FEW015 SCT070 12/08 Q1004=
200803181945 METAR LIRA 181945Z 18008KT 140V200 9999 FEW015 SCT025 13/08
                        Q1004=
200803181915 METAR LIRA 181915Z 18008KT 9999 SCT015 SCT070 13/08 Q1004=
200803181845 METAR LIRA 181845Z 18010KT 9999 FEW015 SCT025 13/08 Q1004=
200803181815 METAR LIRA 181815Z 18009KT 9999 FEW015 SCT025 13/07 Q1004=
200803181745 METAR LIRA 181745Z 18007KT 150V220 9999 FEW015 SCT025 14/07
                        Q1004=
200803181715 METAR LIRA 181715Z 18008KT 140V200 9999 FEW015 SCT025 14/08
                        Q1004=
200803181645 METAR LIRA 181645Z 18006KT 150V220 9999 FEW013 SCT025 14/08
                        Q1004=
200803181615 METAR LIRA 181615Z 19007KT 9999 FEW013 SCT025 15/09 Q1004=
200803181545 METAR LIRA 181545Z 21008KT 170V240 9999 FEW013 SCT025 15/09
                        Q1004=
200803181515 METAR LIRA 181515Z 20007KT 160V240 9999 SCT013 SCT025 14/09
                        Q1005=
200803181445 METAR LIRA 181445Z 21006KT 150V240 9999 SCT013 BKN070 14/09
                        Q1005=
200803181415 METAR LIRA 181415Z 21008KT 160V260 9999 SCT013 SCT025 BKN070
                        15/09 Q1005=
200803181345 METAR LIRA 181345Z 20007KT 150V240 9999 SCT013 SCT070 14/10
                        Q1005=
200803181315 METAR LIRA 181315Z 19009KT 170V280 9999 SCT013 SCT070 14/10
                        Q1005=
200803181245 METAR LIRA 181245Z 21009KT 150V250 9999 SCT013 SCT070 14/09
                        Q1005=
200803181215 METAR LIRA 181215Z 19010KT 150V240 9999 SCT013 BKN070 14/09
                        Q1005=
200803181145 METAR LIRA 181145Z 20011KT 170V260 9999 SCT013 FEW018TCU
                        BKN070 14/10 Q1005=
200803181115 METAR LIRA 181115Z 20008KT 150V250 9999 SCT013 FEW017TCU
                        SCT025 15/10 Q1005=
200803181045 METAR LIRA 181045Z 23009KT 170V270 9999 SCT012 FEW018TCU
                        SCT025 14/10 Q1005=
200803181015 METAR LIRA 181015Z 22006KT 150V270 9999 SCT012 FEW018TCU
                        SCT025 15/10 Q1005=
200803180945 METAR LIRA 180945Z 21011KT 170V270 9999 SCT012 FEW018TCU
                        SCT025 15/10 Q1005=
200803180915 METAR LIRA 180915Z 20007KT 150V250 9999 SCT011 FEW018TCU
                        15/11 Q1005=
200803180845 METAR LIRA 180845Z 21009KT 160V260 8000 SCT015 FEW018TCU
                        13/11 Q1005=
200803180815 METAR LIRA 180815Z 21004KT 180V270 8000 SCT015 FEW018TCU
                        13/11 Q1005=
200803180745 METAR LIRA 180745Z 19007KT 8000 SCT015 FEW018TCU SCT025 12/10
                        Q1005=
200803180715 METAR LIRA 180715Z 17006KT 9999 SCT017 FEW018TCU 12/10 Q1004=
200803180645 METAR LIRA 180645Z 19006KT 9999 SCT017 11/09 Q1004=
200803180615 METAR LIRA 180615Z 17008KT 9999 SCT017 11/09 Q1004=
200803180545 METAR LIRA 180545Z 17006KT 9999 FEW017 SCT025 11/09 Q1004=
200803180515 METAR LIRA 180515Z 17006KT 9999 FEW017 BKN070 11/09 Q1004=
200803180445 METAR LIRA 180445Z 16006KT 9999 FEW017 SCT070 10/07 Q1004=
200803180415 METAR LIRA 180415Z 17005KT 9999 FEW016 SCT025 11/08 Q1004=
200803180345 METAR LIRA 180345Z 17005KT 9999 FEW016 BKN070 11/08 Q1005=
200803180315 METAR LIRA 180315Z 15006KT 9999 FEW016 BKN070 11/08 Q1005=
200803180245 METAR LIRA 180245Z 17005KT 9999 FEW016 BKN070 11/08 Q1005=
200803180215 METAR LIRA 180215Z 17004KT 9000 FEW016 SCT025 11/08 Q1005=
200803180145 METAR LIRA 180145Z 16004KT 9000 FEW016 SCT070 11/08 Q1005=
200803180045 METAR LIRA 180045Z 15004KT 9000 -DZ SCT016 SCT070 11/08 Q1006=
200803180015 METAR LIRA 180015Z 17004KT 9000 -DZ SCT016 SCT070 12/08 Q1006=
200803172345 METAR LIRA 172345Z 17004KT 9000 -DZ SCT016 SCT070 12/08 Q1006=
200803172315 METAR LIRA 172315Z 18005KT 150V210 9000 -DZ SCT016 SCT070
                        11/08 Q1006=
200803172245 METAR LIRA 172245Z 18005KT 9999 SCT016 11/08 Q1007=
200803172215 METAR LIRA 172215Z 18005KT 9999 BKN016 11/08 Q1007=
200803172145 METAR LIRA 172145Z 18005KT 9999 SCT016 11/08 Q1007=
200803172115 METAR LIRA 172115Z 18004KT 9999 SCT016 11/07 Q1007=
200803172045 METAR LIRA 172045Z 17006KT 9999 SCT016 12/07 Q1007=
200803172015 METAR LIRA 172015Z 18005KT 9999 SCT016 12/07 Q1007=
200803171945 METAR LIRA 171945Z 18005KT 9999 SCT016 SCT070 12/07 Q1007=
200803171915 METAR LIRA 171915Z 18005KT 9999 SCT016 12/07 Q1007=
200803171845 METAR LIRA 171845Z 18005KT 9999 FEW018 12/06 Q1007=
200803171815 METAR LIRA 171815Z 18005KT 9999 FEW018 12/06 Q1007=
200803171745 METAR LIRA 171745Z 20005KT 9999 FEW018 13/07 Q1007=
200803171715 METAR LIRA 171715Z 22004KT 9999 SCT018 13/07 Q1007=
200803171645 METAR LIRA 171645Z 22006KT 180V260 9999 FEW018 FEW020CB 15/08
                        Q1007=
200803171615 METAR LIRA 171615Z 23007KT 190V270 9999 FEW018 FEW020CB 16/08
                        Q1007=
200803171545 METAR LIRA 171545Z 24006KT 210V270 9999 FEW018 FEW020CB 16/08
                        Q1007=
200803171515 METAR LIRA 171515Z 25006KT 190V310 9999 FEW016 FEW020CB 16/08
                        Q1007=
200803171445 METAR LIRA 171445Z 21007KT 180V260 9999 SCT016 17/08 Q1007=
200803171415 METAR LIRA 171415Z 24006KT 190V310 9999 SCT016 17/08 Q1007=
200803171345 METAR LIRA 171345Z 24007KT 200V280 9999 SCT016 17/08 Q1007=
200803171315 METAR LIRA 171315Z 21003KT 180V240 9999 SCT016 17/09 Q1007=
200803171245 METAR LIRA 171245Z 22005KT 140V270 9999 SCT016 17/07 Q1007=
200803171215 METAR LIRA 171215Z 23005KT 190V280 9999 SCT016 17/08 Q1008=
200803171145 METAR LIRA 171145Z 21007KT 160V270 9999 SCT016 16/09 Q1008=
200803171115 METAR LIRA 171115Z 22007KT 170V270 9999 SCT016 SCT200 16/09
                        Q1008=
200803171045 METAR LIRA 171045Z 22006KT 180V270 9999 SCT016 SCT200 15/10
                        Q1008=
200803171015 METAR LIRA 171015Z 21005KT 9999 SCT016 SCT025 15/10 Q1009=
200803170945 METAR LIRA 170945Z 18006KT 150V240 9999 SCT016 SCT025 15/11
                        Q1009=
200803170915 METAR LIRA 170915Z 19006KT 130V220 9999 SCT015 15/11 Q1009=
200803170845 METAR LIRA 170845Z 23005KT 120V250 9999 SCT015 15/11 Q1009=
200803170815 METAR LIRA 170815Z 17008KT 9999 SCT015 14/11 Q1008=
200803170745 METAR LIRA 170745Z 17007KT 120V230 9999 FEW015 14/10 Q1008=
200803170715 METAR LIRA 170715Z 17007KT 130V210 9999 FEW015 SCT200 13/10
                        Q1008=
200803170645 METAR LIRA 170645Z 17006KT 9999 FEW015 SCT200 09/09 Q1008=
200803170615 METAR LIRA 170615Z 17004KT 9999 SCT010 10/09 Q1008=
200803170545 METAR LIRA 170545Z 13006KT 9999 SCT010 08/08 Q1008=
200803170515 METAR LIRA 170515Z 17007KT 9999 FEW010 07/07 Q1007=
200803170445 METAR LIRA 170445Z 16003KT CAVOK 08/08 Q1007=
200803170415 METAR LIRA 170415Z 17004KT CAVOK 09/09 Q1007=
200803170345 METAR LIRA 170345Z 00000KT 9999 FEW060 09/08 Q1008=
200803170315 METAR LIRA 170315Z 13002KT 9999 SCT070 09/09 Q1008=
200803170245 METAR LIRA 170245Z 14004KT CAVOK 09/09 Q1008=
200803170215 METAR LIRA 170215Z 16003KT CAVOK 10/10 Q1008=
200803170145 METAR LIRA 170145Z 15004KT CAVOK 11/11 Q1009=
200803170115 METAR LIRA 170115Z 00000KT 9999 FEW025 12/11 Q1009=
200803170045 METAR LIRA 170045Z 18004KT 9999 FEW020 12/11 Q1009=
200803170015 METAR LIRA 170015Z 18005KT 9999 FEW020 12/11 Q1009=
200803162345 METAR LIRA 162345Z 18006KT 9999 FEW015TCU BKN025 12/11 Q1009=
200803162315 METAR LIRA 162315Z 19005KT 9999 FEW015TCU SCT025 13/11 Q1010=
200803162245 METAR LIRA 162245Z 19008KT 130V220 9999 SCT025 13/11 Q1010=
200803162215 METAR LIRA 162215Z 18010KT 160V230 9999 SCT020 13/11 Q1010=
200803162145 METAR LIRA 162145Z 20006KT 160V220 8000 -DZ SCT015 BKN025
                        13/11 Q1010=
200803162115 METAR LIRA 162115Z 17011KT 9999 FEW020 BKN030 13/11 Q1010=
200803162045 METAR LIRA 162045Z 18012KT 150V220 9999 FEW020 SCT030 13/11
                        Q1010=
200803162015 METAR LIRA 162015Z 18013KT 9999 FEW020 SCT035 13/10 Q1010=
200803161945 METAR LIRA 161945Z 17012KT 9999 FEW020 SCT030 13/11 Q1010=
200803161915 METAR LIRA 161915Z 18009KT 9999 FEW020 BKN030 13/11 Q1010=
200803161845 METAR LIRA 161845Z 19008KT 9999 FEW020 BKN025 13/10 Q1010=
200803161815 METAR LIRA 161815Z 18009KT 9999 FEW020 BKN025 13/10 Q1010=
200803161745 METAR LIRA 161745Z 17009KT 140V200 9999 FEW020 SCT025 14/10
                        Q1010=
200803161715 METAR LIRA 161715Z 17009KT 130V200 9999 FEW020 SCT025 14/10
                        Q1010=
200803161645 METAR LIRA 161645Z 16010KT 9999 FEW020 SCT030 14/10 Q1010=
200803161615 METAR LIRA 161615Z 18011KT 9999 FEW020 SCT025 14/10 Q1011=
200803161545 METAR LIRA 161545Z 18010KT 9999 FEW020 BKN025 14/10 Q1011=
200803161515 METAR LIRA 161515Z 17008KT 9999 FEW020 BKN025 14/10 Q1011=
200803161445 METAR LIRA 161445Z 19007KT 9999 FEW020 BKN025 15/10 Q1012=
200803161415 METAR LIRA 161415Z 17011KT 150V230 9999 FEW020 BKN025 15/10
                        Q1012=
200803161345 METAR LIRA 161345Z 19012KT 150V220 9999 FEW020 BKN025 15/10
                        Q1012=
200803161315 METAR LIRA 161315Z 14013KT 140V230 9999 FEW020 SCT030 15/10
                        Q1012=
200803161245 METAR LIRA 161245Z 19013KT 160V250 9999 FEW020 SCT025 15/10
                        Q1012=
200803161215 METAR LIRA 161215Z 19012KT 190V250 9999 FEW020 SCT070 15/10
                        Q1013=
200803161145 METAR LIRA 161145Z 19013KT 160V230 9999 FEW020 SCT080 15/10
                        Q1013=
200803161115 METAR LIRA 161115Z 17003KT 9999 FEW020 SCT080 15/10 Q1013=
200803161045 METAR LIRA 161045Z 16014KT 140V210 9999 FEW020 SCT080 15/10
                        Q1013=
200803161015 METAR LIRA 161015Z 18003KT 9999 FEW020 SCT070 15/10 Q1013=
200803160945 METAR LIRA 160945Z 18010KT 150V220 9999 FEW020 SCT070 15/13
                        Q1013=
200803160915 METAR LIRA 160915Z 05003KT 9999 FEW020 SCT070 14/12 Q1013=
200803160845 METAR LIRA 160845Z 05003KT 9999 FEW020 SCT070 13/11 Q1013=
200803160815 METAR LIRA 160815Z 02003KT 9999 FEW020 SCT080 12/10 Q1013=
200803160745 METAR LIRA 160745Z 13001KT 080V160 9999 FEW030 SCT080 12/11
                        Q1013=
200803160715 METAR LIRA 160715Z 14005KT 9999 FEW030 SCT070 12/11 Q1013=
200803160645 METAR LIRA 160645Z 13003KT 9999 FEW030 11/10 Q1013=
200803160615 METAR LIRA 160615Z 18007KT 150V220 9999 FEW030 11/10 Q1013=
200803160545 METAR LIRA 160545Z 17010KT 8000 FEW030 SCT070 10/09 Q1014=
200803160515 METAR LIRA 160515Z 17004KT 8000 FEW020 SCT080 09/09 Q1014=
200803160445 METAR LIRA 160445Z 16001KT 8000 FEW020 SCT070 09/08 Q1014=
200803160415 METAR LIRA 160415Z 00000KT 6000 FEW020 BKN070 08/07 Q1015=
200803160345 METAR LIRA 160345Z 00000KT 6000 FEW020 BKN070 09/08 Q1015=
200803160315 METAR LIRA 160315Z 00000KT 6000 FEW020 BKN070 09/08 Q1015=
200803160245 METAR LIRA 160245Z 00000KT 6000 FEW070 09/08 Q1015=
200803160215 METAR LIRA 160215Z 00000KT 8000 SKC 09/08 Q1015=
200803160145 METAR LIRA 160145Z 00000KT 9000 SKC 09/08 Q1015=
200803160115 METAR LIRA 160115Z 00000KT 8000 FEW070 10/08 Q1015=
200803160045 METAR LIRA 160045Z 14001KT 9999 FEW070 11/10 Q1015=
200803160015 METAR LIRA 160015Z 00000KT 9999 SCT070 11/10 Q1015=
200803152345 METAR LIRA 152345Z 00000KT 9999 FEW070 11/10 Q1015=
200803152315 METAR LIRA 152315Z 00000KT 9999 FEW020 SCT070 11/10 Q1016=
200803152245 METAR LIRA 152245Z 00000KT 9999 FEW020 SCT070 11/11 Q1016=
200803152215 METAR LIRA 152215Z 15002KT 9999 FEW070 SCT200 12/11 Q1016=
200803152145 METAR LIRA 152145Z 18004KT 9999 FEW070 12/12 Q1016=
200803152115 METAR LIRA 152115Z 19004KT 9999 FEW020 SCT070 12/11 Q1016=
200803152045 METAR LIRA 152045Z 19005KT 9999 FEW020 SCT070 12/11 Q1016=
200803152015 METAR LIRA 152015Z 19004KT 9999 FEW020 SCT060 12/11 Q1015=
200803151945 METAR LIRA 151945Z 19003KT 9999 FEW020 SCT070 12/10 Q1015=
200803151915 METAR LIRA 151915Z 20005KT 170V230 9999 FEW020 SCT070 12/10
                        Q1015=
200803151845 METAR LIRA 151845Z 22004KT 190V250 9999 FEW020 SCT070 12/10
                        Q1015=
200803151815 METAR LIRA 151815Z 23005KT 9999 FEW020 SCT200 13/10 Q1015=
200803151745 METAR LIRA 151745Z 21007KT 9999 FEW020 SCT200 13/10 Q1015=
200803151715 METAR LIRA 151715Z 21006KT 170V270 9999 FEW020 BKN200 14/10
                        Q1015=
200803151645 METAR LIRA 151645Z 21008KT 170V270 9999 FEW018 15/12 Q1014=
200803151615 METAR LIRA 151615Z 22007KT 170V270 9999 FEW018 16/12 Q1014=
200803151545 METAR LIRA 151545Z 24008KT 170V270 9999 FEW018 16/12 Q1014=
200803151515 METAR LIRA 151515Z 23008KT 180V280 9999 FEW020 17/12 Q1015=
200803151445 METAR LIRA 151445Z 23007KT 180V280 9999 SCT020 17/12 Q1015=
200803151415 METAR LIRA 151415Z 22009KT 180V170 9999 SCT020 17/12 Q1015=
200803151345 METAR LIRA 151345Z 23007KT 140V260 9999 SCT020 17/12 Q1015=
200803151315 METAR LIRA 151315Z 23008KT 160V280 9999 SCT020 17/12 Q1015=
200803151245 METAR LIRA 151245Z 21008KT 160V290 9999 SCT020 16/10 Q1016=
200803151215 METAR LIRA 151215Z 19007KT 160V260 9999 SCT020 17/11 Q1016=
200803151145 METAR LIRA 151145Z 22005KT 180V280 9999 SCT020 17/11 Q1016=
200803151115 METAR LIRA 151115Z 22005KT 160V280 9999 SCT020 16/11 Q1017=
200803151045 METAR LIRA 151045Z 21006KT 150V260 9999 SCT020 16/11 Q1017=
200803151015 METAR LIRA 151015Z 21008KT 160V260 9999 SCT020 16/11 Q1017=
200803150945 METAR LIRA 150945Z 20008KT 9999 BKN020 15/10 Q1017=
200803150915 METAR LIRA 150915Z 19005KT 110V230 9999 BKN020 15/10 Q1017=
200803150845 METAR LIRA 150845Z 19007KT 9999 SCT018 14/10 Q1017=
200803150815 METAR LIRA 150815Z 19004KT 9999 FEW018 SCT035 14/10 Q1017=
200803150745 METAR LIRA 150745Z 19006KT 9999 FEW018 SCT040 13/09 Q1017=
200803150715 METAR LIRA 150715Z 19002KT 9999 FEW018 SCT040 12/09 Q1017=
200803150645 METAR LIRA 150645Z 17003KT 9999 FEW018 BKN040 11/09 Q1016=
200803150615 METAR LIRA 150615Z 18002KT 9999 FEW018 BKN040 11/08 Q1017=
200803150545 METAR LIRA 150545Z 12003KT 9999 FEW018 BKN070 10/08 Q1016=
200803150515 METAR LIRA 150515Z 11002KT 9999 FEW018 BKN070 11/08 Q1016=
200803150445 METAR LIRA 150445Z 16002KT 9999 FEW018 BKN070 11/08 Q1016=
200803150415 METAR LIRA 150415Z 12004KT 9999 FEW018 BKN070 11/09 Q1016=
200803150345 METAR LIRA 150345Z 12005KT 9999 FEW018 BKN070 11/09 Q1016=
200803150315 METAR LIRA 150315Z 12006KT 9999 FEW018 BKN070 11/09 Q1016=
200803150245 METAR LIRA 150245Z 13003KT 9999 FEW015 BKN070 12/09 Q1016=
200803150215 METAR LIRA 150215Z 11004KT 9999 FEW015 BKN070 12/10 Q1017=
200803150145 METAR LIRA 150145Z 16002KT 9999 SCT015 BKN070 12/10 Q1017=
200803150115 METAR LIRA 150115Z 15004KT 9999 SCT015 BKN070 12/10 Q1017=
200803150045 METAR LIRA 150045Z 16004KT 9999 SCT015 BKN070 12/10 Q1017=
200803150015 METAR LIRA 150015Z 14006KT 9999 SCT015 BKN070 12/10 Q1017=
200803142345 METAR LIRA 142345Z 16003KT 9999 SCT015 BKN070 12/09 Q1017=
200803142315 METAR LIRA 142315Z 15004KT 9999 SCT015 BKN070 11/09 Q1017=
200803142245 METAR LIRA 142245Z 13002KT 9999 SCT015 BKN070 11/08 Q1017=
200803142215 METAR LIRA 142215Z 16001KT 9999 FEW018 BKN070 11/08 Q1017=
200803142145 METAR LIRA 142145Z 14001KT 9999 FEW018 SCT070 11/08 Q1017=
200803142115 METAR LIRA 142115Z 16004KT 9999 FEW018 11/09 Q1017=
200803142045 METAR LIRA 142045Z 18004KT 9999 FEW018 SCT070 12/09 Q1017=
200803142015 METAR LIRA 142015Z 18005KT 9999 FEW070 11/08 Q1017=
200803141945 METAR LIRA 141945Z 18005KT 9999 FEW070 11/08 Q1017=
200803141915 METAR LIRA 141915Z 18005KT 9999 FEW070 11/08 Q1017=
200803141845 METAR LIRA 141845Z 17006KT 9999 FEW070 12/09 Q1016=
200803141815 METAR LIRA 141815Z 20007KT 9999 FEW020 13/09 Q1016=
200803141745 METAR LIRA 141745Z 21008KT 9999 FEW020 SCT200 13/09 Q1016=
200803141715 METAR LIRA 141715Z 21009KT 9999 FEW020 SCT200 14/08 Q1016=
200803141645 METAR LIRA 141645Z 21010KT 9999 FEW020 15/11 Q1016=
200803141615 METAR LIRA 141615Z 20009KT 9999 FEW020 15/10 Q1016=
200803141545 METAR LIRA 141545Z 20010KT 170V270 9999 FEW020 16/10 Q1016=
200803141515 METAR LIRA 141515Z 21009KT 150V260 9999 FEW020 SCT200 16/10
                        Q1015=
200803141445 METAR LIRA 141445Z 21010KT 160V260 9999 SCT020 SCT200 17/10
                        Q1016=
200803141415 METAR LIRA 141415Z 19010KT 170V250 9999 SCT020 SCT200 17/10
                        Q1016=
200803141345 METAR LIRA 141345Z 19010KT 150V250 9999 SCT020 SCT200 17/10
                        Q1016=
200803141315 METAR LIRA 141315Z 21010KT 160V280 9999 SCT020 SCT200 17/10
                        Q1016=
200803141245 METAR LIRA 141245Z 20008KT 150V250 9999 SCT020 SCT200 17/10
                        Q1016=
200803141215 METAR LIRA 141215Z 19011KT 140V220 9999 SCT020 17/10 Q1016=
200803141145 METAR LIRA 141145Z 17010KT 140V240 9999 SCT018 16/09 Q1016=
200803141115 METAR LIRA 141115Z 18010KT 140V230 9999 SCT018 16/09 Q1016=
200803141045 METAR LIRA 141045Z 18010KT 120V220 9999 SCT018 15/09 Q1016=
200803141015 METAR LIRA 141015Z 16008KT 100V210 9999 SCT018 15/10 Q1016=
200803140945 METAR LIRA 140945Z 17009KT 120V210 9999 SCT018 15/10 Q1016=
200803140915 METAR LIRA 140915Z 26003KT 9999 SCT018 14/10 Q1016=
200803140845 METAR LIRA 140845Z 31002KT 9999 FEW018 13/10 Q1016=
200803140815 METAR LIRA 140815Z 36004KT 9999 FEW020 11/09 Q1016=
200803140745 METAR LIRA 140745Z 00000KT CAVOK 10/08 Q1016=
200803140715 METAR LIRA 140715Z 00000KT CAVOK 09/08 Q1016=
200803140645 METAR LIRA 140645Z 00000KT CAVOK 07/06 Q1015=
200803140615 METAR LIRA 140615Z 00000KT CAVOK 06/05 Q1015=
200803140600 METAR LIRA INT CB E N=
200803140545 METAR LIRA 140545Z 00000KT CAVOK 06/05 Q1015=
200803140515 METAR LIRA 140515Z 00000KT CAVOK 06/06 Q1015=
200803140445 METAR LIRA 140445Z 08002KT CAVOK 07/06 Q1015=
200803140415 METAR LIRA 140415Z 00000KT CAVOK 07/06 Q1015=
200803140345 METAR LIRA 140345Z 10003KT CAVOK 08/07 Q1015=
200803140315 METAR LIRA 140315Z 11002KT 9999 TS SKC 09/08 Q1015=
200803140245 METAR LIRA 140245Z 13001KT CAVOK 09/08 Q1014=
200803140215 METAR LIRA 140215Z 16006KT CAVOK 09/08 Q1014=
200803140145 METAR LIRA 140145Z 16006KT 9999 FEW070 09/07 Q1015=
200803140115 METAR LIRA 140115Z 16005KT 9999 FEW070 09/07 Q1015=
200803140045 METAR LIRA 140045Z 16006KT CAVOK 09/07 Q1015=
200803140015 METAR LIRA 140015Z 12004KT CAVOK 10/07 Q1015=
200803132345 METAR LIRA 132345Z 14005KT 9999 FEW020 11/09 Q1015=
200803132315 METAR LIRA 132315Z 15007KT 9999 SCT015 SCT025 12/09 Q1015=
200803132245 METAR LIRA 132245Z 16007KT 130V200 9999 SCT015 SCT025 12/10
                        Q1015=
200803132215 METAR LIRA 132215Z 17008KT 9999 SCT015 SCT025 12/10 Q1015=
200803132145 METAR LIRA 132145Z 19009KT 9999 FEW025 SCT070 12/10 Q1015=
200803132115 METAR LIRA 132115Z 19006KT 9999 SCT030 SCT070 12/10 Q1015=
200803132045 METAR LIRA 132045Z 19004KT 9999 SCT030 SCT070 12/10 Q1015=
200803132015 METAR LIRA 132015Z 18007KT 130V200 9999 SCT030 SCT070 12/10
                        Q1015=
200803131945 METAR LIRA 131945Z 18007KT 9999 FEW070 12/10 Q1015=
200803131915 METAR LIRA 131915Z 18006KT CAVOK 12/10 Q1015=
200803131845 METAR LIRA 131845Z 19007KT CAVOK 12/10 Q1015=
200803131815 METAR LIRA 131815Z 19006KT CAVOK 13/09 Q1015=
200803131745 METAR LIRA 131745Z 21006KT CAVOK 14/10 Q1015=
200803131715 METAR LIRA 131715Z 21003KT CAVOK 14/05 Q1014=
200803131645 METAR LIRA 131645Z 22005KT CAVOK 17/06 Q1014=
200803131615 METAR LIRA 131615Z 22007KT 190V270 CAVOK 17/06 Q1014=
200803131545 METAR LIRA 131545Z 24006KT CAVOK 18/07 Q1014=
200803131515 METAR LIRA 131515Z 24006KT 200V330 CAVOK 19/08 Q1014=
200803131445 METAR LIRA 131445Z 23006KT 200V270 CAVOK 19/08 Q1014=
200803131415 METAR LIRA 131415Z 25003KT CAVOK 19/09 Q1014=
200803131345 METAR LIRA 131345Z 27003KT 210V280 CAVOK 18/09 Q1015=
200803131315 METAR LIRA 131315Z 27004KT 9999 FEW020 18/09 Q1015=
200803131245 METAR LIRA 131245Z 30005KT 240V330 9999 FEW020 18/10 Q1015=
200803131215 METAR LIRA 131215Z 29006KT 230V330 9999 FEW020 SCT200 18/10
                        Q1015=
200803131145 METAR LIRA 131145Z 28001KT 230V320 9999 FEW020 SCT200 17/11
                        Q1016=
200803131115 METAR LIRA 131115Z 27006KT 9999 SCT020 SCT200 17/11 Q1016=
200803131045 METAR LIRA 131045Z 30004KT 240V330 9999 SCT020 16/11 Q1016=
200803131015 METAR LIRA 131015Z 29005KT 9999 SCT020 16/11 Q1016=
200803130945 METAR LIRA 130945Z 29001KT 9999 FEW020 SCT200 15/11 Q1016=
200803130915 METAR LIRA 130915Z 00000KT CAVOK 15/11 Q1016=
200803130845 METAR LIRA 130845Z 00000KT CAVOK 14/11 Q1016=
200803130815 METAR LIRA 130815Z 01001KT CAVOK 13/11 Q1015=
200803130745 METAR LIRA 130745Z 00000KT 8000 NSC 11/11 Q1015=
200803130715 METAR LIRA 130715Z 00000KT 8000 NSC 10/09 Q1015=
200803130645 METAR LIRA 130645Z 00000KT 8000 SKC 07/07 Q1014=
200803130615 METAR LIRA 130615Z 00000KT 7000 FEW018 06/06 Q1014=
200803130545 METAR LIRA 130545Z 00000KT 7000 FEW018 06/06 Q1013=
200803130515 METAR LIRA 130515Z 00000KT 7000 FEW018 07/07 Q1013=
200803130445 METAR LIRA 130445Z 00000KT 8000 SKC 07/06 Q1012=
200803130415 METAR LIRA 130415Z 00000KT 8000 SKC 07/06 Q1012=
200803130345 METAR LIRA 130345Z 00000KT 8000 SKC 07/06 Q1012=
200803130315 METAR LIRA 130315Z 00000KT 7000 FEW025 07/06 Q1012=
200803130245 METAR LIRA 130245Z 00000KT 7000 FEW025 07/06 Q1012=
200803130215 METAR LIRA 130215Z 31001KT 7000 FEW025 07/05 Q1012=
200803130145 METAR LIRA 130145Z 00000KT 7000 FEW025 07/05 Q1012=
200803130115 METAR LIRA 130115Z 00000KT 7000 SCT025 07/05 Q1012=
200803130045 METAR LIRA 130045Z 00000KT 7000 SCT025 07/06 Q1012=
200803130015 METAR LIRA 130015Z 00000KT 7000 SCT025 07/06 Q1012=
200803122350 METAR LIRA 130045Z 00000KT 7000 SCT025 07/06 Q1012=
200803122345 METAR LIRA 122345Z 00000KT 7000 SCT025 08/07 Q1012=
200803122315 METAR LIRA 122315Z 00000KT 7000 FEW070 08/07 Q1011=
200803122245 METAR LIRA 122245Z 07003KT 8000 FEW025 08/06 Q1011=
200803122215 METAR LIRA 122215Z 00000KT 8000 FEW025 09/07 Q1011=
200803122145 METAR LIRA 122145Z 10001KT 8000 SKC 09/07 Q1011=
200803122115 METAR LIRA 122115Z 13001KT 8000 NSC 10/08 Q1011=
200803122045 METAR LIRA 122045Z 09002KT 8000 NSC 10/08 Q1010=
200803122015 METAR LIRA 122015Z 00000KT 8000 NSC 11/08 Q1010=
200803121945 METAR LIRA 121945Z 15004KT 8000 NSC 12/09 Q1010=
200803121915 METAR LIRA 121915Z 16004KT 8000 NSC 12/09 Q1010=
200803121845 METAR LIRA 121845Z 16003KT 8000 FEW025 13/10 Q1010=
200803121815 METAR LIRA 121815Z 16007KT 8000 FEW012 13/10 Q1010=
200803121745 METAR LIRA 121745Z 18007KT 6000 SCT012 SCT025 14/11 Q1009=
200803121715 METAR LIRA 121715Z 18008KT 140V210 6000 SCT012 SCT025 14/11
                        Q1010=
200803121645 METAR LIRA 121645Z 19008KT 150V230 8000 FEW012 FEW015TCU
                        SCT200 14/11 Q1010=
200803121615 METAR LIRA 121615Z 20007KT 160V230 8000 FEW012 FEW015TCU
                        SCT200 14/11 Q1010=
200803121545 METAR LIRA 121545Z 20009KT 170V230 9999 FEW012 FEW015TCU
                        SCT200 14/12 Q1010=
200803121515 METAR LIRA 121515Z 21014KT 160V250 9999 FEW012 FEW015TCU
                        SCT200 15/12 Q1010=
200803121445 METAR LIRA 121445Z 19013KT 150V250 9999 FEW012 FEW015TCU
                        SCT200 15/12 Q1010=
200803121415 METAR LIRA 121415Z 20011KT 170V260 9999 FEW010 SCT030 15/10
                        Q1010=
200803121345 METAR LIRA 121345Z 18015KT 9999 FEW015 SCT040 BKN080 15/10
                        Q1010=
200803121315 METAR LIRA 121315Z 18012KT 9999 FEW020 BKN080 16/11 Q1011=
200803121245 METAR LIRA 121245Z 18014KT 130V210 9999 FEW020 BKN080 15/10
                        Q1011=
200803121215 METAR LIRA 121215Z 17013KT 140V200 9999 FEW020 BKN080 15/09
                        Q1012=
200803121145 METAR LIRA 121145Z 17011KT 140V220 9999 FEW020 SCT080 BKN200
                        15/09 Q1012=
200803121115 METAR LIRA 121115Z 18013KT 130V210 9999 FEW020 SCT080 BKN200
                        15/07 Q1012=
200803121045 METAR LIRA 121045Z 19012KT 160V220 9999 SCT080 SCT200 15/07
                        Q1012=
200803121015 METAR LIRA 121015Z 20012KT 170V240 9999 SCT080 SCT200 15/07
                        Q1012=
200803120945 METAR LIRA 120945Z 21009KT 170V230 CAVOK 15/09 Q1012=
200803120915 METAR LIRA 120915Z 00000KT CAVOK 14/09 Q1012=
200803120845 METAR LIRA 120845Z 00000KT CAVOK 11/08 Q1013=
200803120815 METAR LIRA 120815Z 00000KT CAVOK 10/07 Q1013=
200803120745 METAR LIRA 120745Z 02004KT CAVOK 10/07 Q1012=
200803120715 METAR LIRA 120715Z 14002KT CAVOK 09/07 Q1012=
200803120645 METAR LIRA 120645Z 10004KT CAVOK 06/06 Q1012=
200803120615 METAR LIRA 120615Z 10002KT CAVOK 05/05 Q1012=
200803120545 METAR LIRA 120545Z 10005KT CAVOK 05/05 Q1011=
200803120515 METAR LIRA 120515Z 07002KT CAVOK 05/05 Q1011=
200803120445 METAR LIRA 120445Z 00000KT 9999 FEW080 04/04 Q1011=
200803120415 METAR LIRA 120415Z 09001KT CAVOK 04/04 Q1011=
200803120345 METAR LIRA 120345Z 00000KT CAVOK 04/04 Q1010=
200803120315 METAR LIRA 120315Z 00000KT CAVOK 05/05 Q1010=
200803120245 METAR LIRA 120245Z 06002KT CAVOK 05/05 Q1010=
200803120215 METAR LIRA 120215Z 06004KT CAVOK 05/04 Q1010=
200803120145 METAR LIRA 120145Z 00000KT CAVOK 05/04 Q1010=
200803120115 METAR LIRA 120115Z 00000KT CAVOK 05/04 Q1011=
200803120045 METAR LIRA 120045Z 00000KT CAVOK 05/04 Q1010=
200803120015 METAR LIRA 120015Z 01004KT CAVOK 06/04 Q1010=
200803112345 METAR LIRA 112345Z 04003KT CAVOK 06/04 Q1010=
200803112315 METAR LIRA 112315Z 03003KT CAVOK 07/04 Q1010=
200803112245 METAR LIRA 112245Z 00000KT CAVOK 07/05 Q1010=
200803112215 METAR LIRA 112215Z 26003KT CAVOK 07/05 Q1010=
200803112145 METAR LIRA 112145Z 00000KT 9999 FEW010 07/04 Q1009=
200803112115 METAR LIRA 112115Z 00000KT CAVOK 09/04 Q1009=
200803112045 METAR LIRA 112045Z 26003KT CAVOK 09/05 Q1008=
200803112015 METAR LIRA 112015Z 08004KT CAVOK 10/06 Q1008=
200803111945 METAR LIRA 111945Z 03005KT CAVOK 11/05 Q1007=
200803111915 METAR LIRA 111915Z 33004KT 9999 FEW070 11/05 Q1007=
200803111845 METAR LIRA 111845Z 34004KT 9999 FEW070 12/05 Q1006=
200803111815 METAR LIRA 111815Z 34006KT 310V020 9999 FEW070 12/05 Q1006=
200803111745 METAR LIRA 111745Z 31005KT 270V340 9999 FEW020CB SCT030 12/05
                        Q1005=
200803111715 METAR LIRA 111715Z 29007KT 230V340 9999 FEW020TCU SCT030
                        13/02 Q1004=
200803111645 METAR LIRA 111645Z 29012KT 240V330 9999 FEW018 FEW020CB 14/03
                        Q1004=
200803111615 METAR LIRA 111615Z 30016KT 250V330 9999 FEW018 FEW020CB 14/03
                        Q1004=
200803111545 METAR LIRA 111545Z 30015G27KT 260V360 9999 FEW018 FEW020TCU
                        15/04 Q1003=
200803111515 METAR LIRA 111515Z 30011KT 240V360 9999 FEW018 FEW020CB 15/03
                        Q1002=
200803111445 METAR LIRA 111445Z 31013KT 270V360 9999 FEW018 FEW020CB 15/03
                        Q1002=
200803111415 METAR LIRA 111415Z 30014G24KT 240V340 9999 FEW018 FEW020CB
                        SCT030 15/03 Q1002=
200803111345 METAR LIRA 111345Z 30013KT 270V360 9999 FEW018 FEW020CB 16/03
                        Q1001=
200803111315 METAR LIRA 111315Z 30019G29KT 260V360 9999 FEW018 FEW020TCU
                        15/04 Q1001=
200803111245 METAR LIRA 111245Z 33020KT 300V360 9999 FEW018 FEW020TCU
                        14/08 Q1001=
200803111215 METAR LIRA 111215Z 33011KT 310V020 9999 FEW018 FEW020CB SCT027
                        15/09 Q1001=
200803111145 METAR LIRA 111145Z 31011KT 240V360 9999 SCT015 FEW020CB SCT025
                        14/10 Q1001=
200803111115 METAR LIRA 111115Z 24010KT 9000 SCT015 FEW020TCU SCT025 14/10
                        Q1001=
200803111045 METAR LIRA 111045Z 25010KT 210V300 9000 SCT015 FEW020TCU
                        SCT025 13/10 Q1001=
200803111015 METAR LIRA 111015Z 24008KT 8000 SCT015 FEW020CB SCT025 13/10
                        Q1001=
200803110945 METAR LIRA 110945Z 24005KT 160V280 7000 -RA SCT014 FEW020CB
                        BKN025 13/10 Q1001=
200803110915 METAR LIRA 110915Z 25009KT 200V280 8000 SCT014 FEW018TCU
                        SCT025 12/10 Q1001=
200803110845 METAR LIRA 110845Z 25008KT 200V280 8000 SCT014 BKN025 11/10
                        Q1001=
200803110815 METAR LIRA 110815Z 24006KT 200V280 8000 -RA SCT014 FEW018CB
                        BKN025 10/09 Q1001=
200803110745 METAR LIRA 110745Z 19009KT 150V230 8000 -RA SCT013 FEW018CB
                        BKN025 10/09 Q1001=
200803110715 METAR LIRA 110715Z 17010KT 150V220 7000 -RA SCT010 FEW018CB
                        BKN023 10/09 Q1002=
200803110645 METAR LIRA 110645Z 17012KT 5000 -RA BR SCT009 FEW018CB BKN023
                        09/09 Q1002=
200803110615 METAR LIRA 110615Z 16014KT 5000 -RA BR FEW009 FEW018CB BKN023
                        09/08 Q1002=
200803110545 METAR LIRA 110545Z 17012KT 150V220 4000 -RA BR SCT008 FEW018CB
                        BKN023 09/08 Q1002 RERA=
200803110515 METAR LIRA 110515Z 17013KT 5000 RA BR SCT013 FEW018CB BKN023
                        09/08 Q1002=
200803110445 METAR LIRA 110445Z 17008KT 7000 -RA FEW015TCU BKN020 09/08
                        Q1002=
200803110415 METAR LIRA 110415Z 17008KT 8000 -RA FEW015TCU BKN020 09/07
                        Q1003=
200803110345 METAR LIRA 110345Z 17006KT 8000 -RA FEW015TCU BKN020 09/07
                        Q1003=
200803110315 METAR LIRA 110315Z 17005KT 8000 -RA FEW015TCU BKN020 09/07
                        Q1003=
200803110245 METAR LIRA 110245Z 21006KT 160V230 8000 -RA FEW015TCU BKN020
                        09/07 Q1003=
200803110215 METAR LIRA 110215Z 19008KT 160V220 8000 -SHRA FEW016TCU BKN020
                        09/08 Q1004=
200803110145 METAR LIRA 110145Z 17008KT 9999 -RA FEW018TCU SCT020 10/08
                        Q1004=
200803110115 METAR LIRA 110115Z 18007KT 9999 FEW015TCU SCT020 10/08 Q1004=
200803110045 METAR LIRA 110045Z 19005KT 160V230 9999 FEW015TCU SCT020
                        10/08 Q1005=
200803110015 METAR LIRA 110015Z 20006KT 160V220 9999 FEW015TCU SCT020
                        10/08 Q1005=
200803102345 METAR LIRA 102345Z 20007KT 160V230 9999 FEW015TCU SCT020
                        10/09 Q1005=
200803102315 METAR LIRA 102315Z 20006KT 160V230 9999 FEW015TCU BKN020
                        10/09 Q1005=
200803102245 METAR LIRA 102245Z 19005KT 9999 FEW015TCU BKN020 10/09 Q1005=
200803102215 METAR LIRA 102215Z 18006KT 9999 FEW015TCU BKN020 10/09 Q1005=
200803102145 METAR LIRA 102145Z 18005KT 9000 FEW018TCU SCT020 11/10 Q1005=
200803102115 METAR LIRA 102115Z 19005KT 9000 FEW015TCU BKN020 11/09 Q1005=
200803102045 METAR LIRA 102045Z 22005KT 170V240 9999 FEW015TCU BKN025
                        10/09 Q1005 RERA=
200803102015 METAR LIRA 102015Z 26008KT 150V320 7000 SHRA FEW018TCU BKN020
                        10/09 Q1005=
200803101945 METAR LIRA 101945Z 17010KT 140V200 9999 FEW018TCU BKN020
                        10/09 Q1005=
200803101915 METAR LIRA 101915Z 17011KT 9999 BKN020 10/09 Q1005=
200803101845 METAR LIRA 101845Z 16013KT 9999 BKN020 10/09 Q1005=
200803101815 METAR LIRA 101815Z 19009KT 150V220 7000 FEW015CB BKN025 10/09
                        Q1005=
200803101745 METAR LIRA 101745Z 16010KT 7000 FEW015CB BKN025 10/10 Q1006=
200803101715 METAR LIRA 101715Z 15012KT 7000 -RA FEW010 FEW015CB BKN025
                        09/09 Q1006 RETS=
200803101645 METAR LIRA 101645Z 15011KT 5000 -TSRA SCT015 FEW020CB BKN070
                        09/08 Q1006=
200803101615 METAR LIRA 101615Z 18009KT 6000 TSRA SCT015 FEW020CB BKN070
                        10/08 Q1007=
200803101545 METAR LIRA 101545Z 02015KT 9999 SCT015 FEW020CB BKN070 13/08
                        Q1006=
200803101515 METAR LIRA 101515Z 17014KT 9999 SCT015 BKN070 13/08 Q1007=
200803101445 METAR LIRA 101445Z 17009KT 140V220 9999 SCT015 BKN070 12/07
                        Q1008=
200803101415 METAR LIRA 101415Z 17014KT 9999 SCT015 FEW020TCU SCT070 13/08
                        Q1008=
200803101345 METAR LIRA 101345Z 16015KT 9999 SCT015 FEW020TCU SCT070 13/09
                        Q1008=
200803101315 METAR LIRA 101315Z 19017KT 9999 SCT015 FEW020TCU SCT030 13/10
                        Q1008=
200803101245 METAR LIRA 101245Z 17015KT 120V210 9999 SCT015 FEW020TCU
                        SCT070 11/09 Q1009=
200803101215 METAR LIRA 101215Z 20006KT 130V230 9999 SCT015 FEW020TCU
                        SCT030 11/09 Q1010=
200803101145 METAR LIRA 101145Z 16013KT 7000 -RA SCT015 FEW017CB SCT030
                        12/09 Q1011 WS RWY 15=
200803101115 METAR LIRA 101115Z 34005KT 210V340 9999 -RA SCT015 FEW017CB
                        SCT030 13/10 Q1011 WS RWY 15=
200803101045 METAR LIRA 101045Z 34004KT 210V330 9999 SCT015 FEW017CB SCT030
                        10/09 Q1012=
200803101015 METAR LIRA 101015Z 30002KT 9999 SCT015 FEW017CB SCT030 10/09
                        Q1012=
200803100945 METAR LIRA 100945Z 00000KT 9999 SCT015 FEW017CB SCT030 10/09
                        Q1012 RERA=
200803100915 METAR LIRA 100915Z 19002KT 9999 -RA SCT015 FEW017CB SCT030
                        10/08 Q1012 RERA=
200803100845 METAR LIRA 100845Z 19001KT 150V220 8000 RA SCT015 SCT030
                        10/08 Q1012=
200803100815 METAR LIRA 100815Z 22006KT 180V280 9999 -RA SCT015 BKN070
                        10/07 Q1012=
200803100745 METAR LIRA 100745Z 15008KT 100V180 9999 -RA SCT015 BKN070
                        10/07 Q1012=
200803100715 METAR LIRA 100715Z 15012KT 8000 -RA SCT015 BKN070 09/07 Q1012=
200803100645 METAR LIRA 100645Z 16009KT 9999 -RA SCT015 BKN070 10/07 Q1011=
200803100615 METAR LIRA 100615Z 15007KT 9999 SCT015 BKN070 09/07 Q1011=
200803100545 METAR LIRA 100545Z 15005KT 9999 SCT015 BKN070 10/07 Q1011=
200803100515 METAR LIRA 100515Z 13007KT 090V180 9999 SCT015 BKN070 09/07
                        Q1012=
200803100445 METAR LIRA 100445Z 15006KT 8000 -RA SCT015 FEW018TCU BKN070
                        10/08 Q1012=
200803100415 METAR LIRA 100415Z 18009KT 8000 -RA SCT015 FEW018TCU BKN070
                        10/08 Q1012=
200803100345 METAR LIRA 100345Z 16009KT 8000 -RA FEW015 FEW018TCU BKN080
                        09/07 Q1012=
200803100315 METAR LIRA 100315Z 15006KT 9999 FEW015 FEW018TCU SCT080 09/07
                        Q1012=
200803100245 METAR LIRA 100245Z 16006KT 9999 FEW015 FEW018TCU SCT080 08/07
                        Q1012=
200803100215 METAR LIRA 100215Z 15005KT 9999 FEW015 FEW018TCU SCT070 07/07
                        Q1013=
200803100145 METAR LIRA 100145Z 14004KT 9999 FEW015 FEW018TCU SCT070 07/06
                        Q1013=
200803100115 METAR LIRA 100115Z 15002KT 9999 FEW015 FEW018TCU SCT070 06/05
                        Q1013=
200803100045 METAR LIRA 100045Z 15005KT 9999 SCT015 FEW018TCU 07/06 Q1014=
200803100015 METAR LIRA 100015Z 00000KT 9999 SCT015 FEW018TCU 07/06 Q1014=
200803092345 METAR LIRA 092345Z 00000KT 9999 SCT015 FEW018TCU 07/06 Q1014=
200803092315 METAR LIRA 092315Z 09001KT 9999 SCT015 FEW018TCU 07/06 Q1014=
200803092245 METAR LIRA 092245Z 00000KT 9999 SCT015 FEW018TCU 08/06 Q1013=
200803092215 METAR LIRA 092215Z 13004KT 9999 FEW015 FEW018TCU 08/06 Q1013=
200803092145 METAR LIRA 092145Z 09003KT 9999 FEW015 FEW018TCU 08/06 Q1013=
200803092115 METAR LIRA 092115Z 15003KT 9999 FEW015 FEW018TCU 08/06 Q1013=
200803092045 METAR LIRA 092045Z 12005KT 9999 FEW015 FEW018TCU 08/06 Q1013=
200803092015 METAR LIRA 092015Z 14004KT 9999 FEW010 FEW018TCU 08/06 Q1013=
200803091945 METAR LIRA 091945Z 16006KT 9999 FEW010 FEW018TCU 09/07 Q1013=
200803091915 METAR LIRA 091915Z 16005KT 9999 FEW010 FEW018TCU 10/07 Q1013=
200803091845 METAR LIRA 091845Z 15005KT 9999 SCT016 FEW020TCU 11/08 Q1012=
200803091815 METAR LIRA 091815Z 16005KT 9999 SCT016 FEW020CB 11/09 Q1012=
200803091745 METAR LIRA 091745Z 18003KT 9999 SCT016 FEW017CB 12/10 Q1012=
200803091715 METAR LIRA 091715Z 12003KT 9999 SCT016 FEW017CB 11/10 Q1012=
200803091645 METAR LIRA 091645Z 23003KT 8000 SCT016 FEW017CB 11/10 Q1012=
200803091615 METAR LIRA 091615Z 11003KT 9999 6000E FEW018CB SCT020 11/09
                        Q1012=
200803091545 METAR LIRA 091545Z 00000KT 9999 8000S FEW018CB SCT020 11/10
                        Q1012=
200803091515 METAR LIRA 091515Z 08005KT 020V100 9999 9000 -RA FEW018CB
                        SCT020 11/09 Q1012=
200803091445 METAR LIRA 091445Z 09005KT 9999 9000S -RA FEW016CB FEW018TCU
                        SCT070 11/09 Q1012=
200803091415 METAR LIRA 091415Z 14011G21KT 110V200 9999 3000S SHRA BR
                        FEW015CB FEW018TCU SCT070 11/09 Q1012=
200803091345 METAR LIRA 091345Z 16006KT 9999 7000S -SHRA FEW016CB FEW018TCU
                        SCT070 12/09 Q1012=
200803091315 METAR LIRA 091315Z 20007KT 170V260 9999 6000S -SHRA FEW016CB
                        FEW018TCU SCT070 14/09 Q1012=
200803091245 METAR LIRA 091245Z 21008KT 180V260 9999 FEW016CB FEW018TCU
                        SCT020 15/07 Q1012=
200803091215 METAR LIRA 091215Z 21010KT 150V250 9999 FEW016CB FEW018TCU
                        SCT020 14/07 Q1012=
200803091145 METAR LIRA 091145Z 21008KT 140V280 9999 SCT018TCU SCT020
                        14/08 Q1012=
200803091115 METAR LIRA 091115Z 20006KT 9999 FEW018TCU BKN020 14/08 Q1013=
200803091045 METAR LIRA 091045Z 21009KT 150V250 9999 BKN020 13/08 Q1013=
200803091015 METAR LIRA 091015Z 00000KT 9999 BKN020 11/07 Q1013=
200803090945 METAR LIRA 090945Z 00000KT 9999 BKN020 10/07 Q1013=
200803090915 METAR LIRA 090915Z 00000KT 9999 SCT020 09/07 Q1013=
200803090845 METAR LIRA 090845Z 36003KT 9999 FEW020 09/07 Q1013=
200803090815 METAR LIRA 090815Z 36002KT 9999 SCT020 07/06 Q1013=
200803090745 METAR LIRA 090745Z 03002KT 9999 FEW020 06/05 Q1012=
200803090715 METAR LIRA 090715Z 00000KT 9999 FEW020 05/04 Q1012=
200803090645 METAR LIRA 090645Z 10002KT 9999 FEW005 05/04 Q1012=
200803090615 METAR LIRA 090615Z 00000KT 9999 FEW005 05/04 Q1012=
200803090545 METAR LIRA 090545Z 12002KT 9999 FEW020 05/03 Q1012=
200803090515 METAR LIRA 090515Z 10002KT 9999 FEW020 05/04 Q1012=
200803090445 METAR LIRA 090445Z 09002KT 9999 SCT070 06/05 Q1012=
200803090415 METAR LIRA 090415Z 09002KT 9999 SCT070 06/05 Q1012=
200803090345 METAR LIRA 090345Z 11002KT 9999 FEW030 BKN070 06/05 Q1012=
200803090315 METAR LIRA 090315Z 11004KT 9999 FEW030 BKN070 06/05 Q1012=
200803090245 METAR LIRA 090245Z 00000KT 9999 SCT070 05/04 Q1012=
200803090215 METAR LIRA 090215Z 06002KT 9999 FEW070 06/05 Q1012=
200803090145 METAR LIRA 090145Z 12002KT 9999 FEW070 06/04 Q1012=
200803090115 METAR LIRA 090115Z 11003KT 9999 FEW025 07/06 Q1012=
200803090045 METAR LIRA 090045Z 14003KT 9999 FEW025 08/06 Q1012=
200803090015 METAR LIRA 090015Z 11002KT 9999 FEW025 08/06 Q1012=
200803082345 METAR LIRA 082345Z 11002KT 9999 FEW025 08/06 Q1012=
200803082315 METAR LIRA 082315Z 09003KT 9999 SCT020 SCT030 08/06 Q1012=
200803082245 METAR LIRA 082245Z 11003KT 9999 SCT020 SCT030 08/06 Q1012=
200803082215 METAR LIRA 082215Z 11002KT 9999 SCT020 SCT030 08/06 Q1012=
200803082145 METAR LIRA 082145Z 07002KT 9999 SCT020 SCT030 07/06 Q1012=
200803082115 METAR LIRA 082115Z 08002KT 9999 SCT020 SCT030 07/05 Q1012=
200803082045 METAR LIRA 082045Z 13003KT 9999 FEW025 07/06 Q1011=
200803082015 METAR LIRA 082015Z 10003KT 9999 FEW025 08/06 Q1011=
200803081945 METAR LIRA 081945Z 10002KT 9999 FEW025 09/06 Q1011=
200803081915 METAR LIRA 081915Z 14003KT 9999 FEW025 08/06 Q1011=
200803081845 METAR LIRA 081845Z 11004KT 9999 FEW015 09/07 Q1011=
200803081815 METAR LIRA 081815Z 21004KT 170V240 9999 FEW015 09/07 Q1010=
200803081745 METAR LIRA 081745Z 21008KT 180V250 9999 FEW015TCU 09/07 Q1010=
200803081715 METAR LIRA 081715Z 19007KT 9999 FEW015CB 10/06 Q1010=
200803081645 METAR LIRA 081645Z 21005KT 180V250 9999 FEW015CB 10/07 Q1009=
200803081615 METAR LIRA 081615Z 19004KT 9999 SCT015 FEW020CB BKN070 11/07
                        Q1009=
200803081545 METAR LIRA 081545Z 16005KT 9999 -DZ SCT015 FEW017CB BKN070
                        11/06 Q1009=
200803081515 METAR LIRA 081515Z 22005KT 180V270 9999 -DZ SCT015 FEW017CB
                        BKN070 12/07 Q1009=
200803081445 METAR LIRA 081445Z 25002KT 9999 BKN015 FEW017CB 14/05 Q1008=
200803081415 METAR LIRA 081415Z 23004KT 190V300 9999 BKN015 FEW017CB 13/04
                        Q1009=
200803081345 METAR LIRA 081345Z 27003KT 240V320 9999 BKN015 FEW020TCU
                        14/05 Q1009=
200803081315 METAR LIRA 081315Z 25004KT 9999 BKN015 FEW020TCU 15/06 Q1009=
200803081245 METAR LIRA 081245Z 00000KT 9999 BKN015 14/05 Q1009=
200803081215 METAR LIRA 081215Z 15003KT 9999 BKN015 13/05 Q1009=
200803081145 METAR LIRA 081145Z 01002KT 9999 SCT015 13/05 Q1009=
200803081115 METAR LIRA 081115Z 34004KT 9999 SCT020 12/05 Q1009=
200803081045 METAR LIRA 081045Z 34005KT 300V050 9999 SCT020 11/05 Q1009=
200803081015 METAR LIRA 081015Z 01004KT 320V060 9999 FEW025 11/05 Q1009=
200803080945 METAR LIRA 080945Z 01006KT 320V080 9999 FEW025 09/05 Q1009=
200803080915 METAR LIRA 080915Z 02008KT 340V080 9999 FEW025 09/05 Q1009=
200803080845 METAR LIRA 080845Z 01005KT 340V080 9999 FEW025 07/04 Q1009=
200803080815 METAR LIRA 080815Z 01007KT 330V070 9999 FEW020 07/04 Q1009=
200803080745 METAR LIRA 080745Z 03005KT 330V060 9999 FEW017CB 05/03 Q1008=
200803080715 METAR LIRA 080715Z 01005KT 330V050 9999 FEW017CB 04/03 Q1008=
200803080645 METAR LIRA 080645Z 02006KT 9999 FEW017CB 02/02 Q1008=
200803080615 METAR LIRA 080615Z 00000KT 9999 FEW017CB 02/01 Q1007=
200803080545 METAR LIRA 080545Z 00000KT 9999 FEW080 02/01 Q1007=
200803080515 METAR LIRA 080515Z 00000KT 9999 FEW080 02/01 Q1007=
200803080445 METAR LIRA 080445Z 00000KT CAVOK 03/02 Q1007=
200803080415 METAR LIRA 080415Z 00000KT CAVOK 03/02 Q1007=
200803080345 METAR LIRA 080345Z 00000KT 9999 FEW070 04/02 Q1007=
200803080315 METAR LIRA 080315Z 00000KT 9999 FEW030 SCT070 04/02 Q1007=
200803080245 METAR LIRA 080245Z 00000KT 9999 FEW030 SCT070 04/03 Q1007=
200803080215 METAR LIRA 080215Z 00000KT 9999 FEW030 SCT070 04/02 Q1007=
200803080145 METAR LIRA 080145Z 01004KT 9999 FEW030 SCT070 04/02 Q1007=
200803080115 METAR LIRA 080115Z 01004KT 9999 FEW030 SCT070 04/02 Q1007=
200803080045 METAR LIRA 080045Z 03004KT 9999 FEW030 SCT070 04/02 Q1007=
200803080015 METAR LIRA 080015Z 03004KT 9999 FEW030 SCT070 04/02 Q1007=
200803072350 METAR LIRA 080045Z 03004KT 9999 FEW030 SCT070 04/02 Q1007=
200803072345 METAR LIRA 072345Z 34002KT 9999 FEW030 SCT070 04/02 Q1007=
200803072315 METAR LIRA 072315Z 01004KT 9999 FEW070 04/02 Q1007=
200803072245 METAR LIRA 072245Z 04002KT 9999 FEW070 05/02 Q1007=
200803072215 METAR LIRA 072215Z 14001KT CAVOK 05/02 Q1007=
200803072145 METAR LIRA 072145Z 09003KT CAVOK 05/03 Q1007=
200803072115 METAR LIRA 072115Z 10005KT 9999 FEW070 06/03 Q1007=
200803072045 METAR LIRA 072045Z 09005KT 030V120 9999 FEW070 06/04 Q1007=
200803072015 METAR LIRA 072015Z 09006KT 050V130 9999 FEW040 SCT070 07/04
                        Q1006=
200803071945 METAR LIRA 071945Z 10002KT 9999 FEW040 SCT070 07/04 Q1006=
200803071915 METAR LIRA 071915Z 12007KT 9999 FEW040 SCT090 06/04 Q1006=
200803071845 METAR LIRA 071845Z 10005KT 9999 FEW040 SCT090 07/04 Q1006=
200803071815 METAR LIRA 071815Z 12007KT 9999 FEW040 SCT090 07/05 Q1006=
200803071745 METAR LIRA 071745Z 12006KT 9999 FEW020 BKN090 07/05 Q1005=
200803071715 METAR LIRA 071715Z 12007KT 9999 FEW020 BKN090 07/05 Q1005=
200803071645 METAR LIRA 071645Z 06001KT 9999 FEW016 SCT040 BKN080 08/07
                        Q1005=
200803071615 METAR LIRA 071615Z 06004KT 9999 FEW016 SCT040 BKN080 08/06
                        Q1005=
200803071545 METAR LIRA 071545Z 07004KT 9999 FEW016 SCT040 BKN080 08/06
                        Q1005=
200803071515 METAR LIRA 071515Z 08005KT 9999 FEW007 SCT030 BKN070 08/06
                        Q1005=
200803071445 METAR LIRA 071445Z 08007KT 9999 FEW007 SCT030 BKN070 08/06
                        Q1005=
200803071415 METAR LIRA 071415Z 08007KT 9999 FEW007 SCT030 BKN070 07/07
                        Q1005=
200803071345 METAR LIRA 071345Z 07008KT 030V120 9999 -RA FEW002 SCT030
                        07/07 Q1005=
200803071315 METAR LIRA 071315Z 09004KT 8000 -RA FEW002 BKN025 07/05 Q1005=
200803071245 METAR LIRA 071245Z 09004KT 6000 -RA FEW002 BKN025 07/06 Q1005=
200803071215 METAR LIRA 071215Z 08003KT 6000 -RA FEW002 BKN025 07/07 Q1005=
200803071145 METAR LIRA 071145Z 04001KT 5000 -RA BR FEW002 BKN025 07/07
                        Q1005=
200803071115 METAR LIRA 071115Z 03003KT 4000 -RA BR FEW002 SCT018 BKN025
                        07/07 Q1005=
200803071045 METAR LIRA 071045Z 36004KT 3500 -RA BR FEW002 SCT018 BKN025
                        07/07 Q1005=
200803071015 METAR LIRA 071015Z 03005KT 3500 -RA BR FEW002 SCT018 BKN025
                        06/06 Q1004=
200803070945 METAR LIRA 070945Z 03005KT 350V070 3500 -RA BR FEW002 SCT018
                        BKN025 06/06 Q1004=
200803070915 METAR LIRA 070915Z 02004KT 330V060 3000 -RA BR SCT002 BKN023
                        06/06 Q1004=
200803070845 METAR LIRA 070845Z 03006KT 350V080 3000 -DZ BR FEW002 SCT015
                        BKN023 06/06 Q1004=
200803070815 METAR LIRA 070815Z 03005KT 350V070 3500 -RA BR SCT015 BKN023
                        06/06 Q1004=
200803070745 METAR LIRA 070745Z 03006KT 360V060 3500 -RA BR FEW005 SCT015
                        BKN023 06/06 Q1004=
200803070715 METAR LIRA 070715Z 02006KT 3500 -RA BR FEW005 SCT015 BKN023
                        06/06 Q1004=
200803070645 METAR LIRA 070645Z 04004KT 4500 -RA BR FEW004 SCT014 BKN023
                        06/06 Q1004=
200803070615 METAR LIRA 070615Z 02003KT 360V070 3500 -RA BR FEW004 SCT014
                        BKN023 06/06 Q1004=
200803070545 METAR LIRA 070545Z 03004KT 4000 -RA BR FEW002 SCT012 BKN025
                        06/06 Q1004=
200803070515 METAR LIRA 070515Z 03004KT 360V070 4000 -RA FEW002 SCT012
                        BKN025 06/06 Q1004=
200803070445 METAR LIRA 070445Z 04004KT 9999 -DZ SCT015 BKN030 06/06 Q1005=
200803070415 METAR LIRA 070415Z 05005KT 9999 -DZ SCT020 BKN035 06/06 Q1005=
200803070345 METAR LIRA 070345Z 04002KT 9999 -DZ SCT015 BKN030 06/06 Q1005=
200803070315 METAR LIRA 070315Z 36002KT 9999 -DZ SCT015 BKN030 06/06 Q1005=
200803070245 METAR LIRA 070245Z 33001KT 9999 -DZ SCT025 SCT060 06/06 Q1005=
200803070215 METAR LIRA 070215Z 04003KT 9999 -DZ SCT025 SCT060 06/06 Q1005=
200803070145 METAR LIRA 070145Z 35004KT 9999 -DZ SCT025 BKN070 07/06 Q1005=
200803070115 METAR LIRA 070115Z 05003KT 9999 -RA SCT025 BKN070 07/06 Q1005=
200803070045 METAR LIRA 070045Z 04003KT 9999 -DZ SCT025 BKN070 07/05 Q1005=
200803070015 METAR LIRA 070015Z 04003KT 9999 SCT025 BKN070 08/05 Q1005=
200803062350 METAR LIRA 070045Z 04003KT 9999 -DZ SCT025 BKN070 07/05 Q1005=
200803062315 METAR LIRA 062315Z 00000KT 9999 -RA FEW018 SCT025 BKN070
                        08/06 Q1006=
200803062245 METAR LIRA 062245Z 00000KT 9999 -RA FEW018 SCT025 BKN070
                        09/06 Q1006=
200803062215 METAR LIRA 062215Z 00000KT 9999 -RA FEW018 SCT025 BKN070
                        10/06 Q1006=
200803062145 METAR LIRA 062145Z 12005KT 9999 -RA SCT025 SCT070 10/06 Q1006=
200803062115 METAR LIRA 062115Z 13010KT 080V160 9999 -RA SCT020 BKN040
                        10/06 Q1006=
200803062045 METAR LIRA 062045Z 12010KT 9999 SCT030 SCT060 10/06 Q1005=
200803062015 METAR LIRA 062015Z 11007KT 060V150 9999 SCT025 SCT060 10/06
                        Q1005=
200803061945 METAR LIRA 061945Z 14008KT 9999 -DZ SCT020 FEW025CB SCT030
                        10/06 Q1005=
200803061915 METAR LIRA 061915Z 10003KT 090V190 9999 -DZ SCT015 FEW020CB
                        SCT025 10/06 Q1005=
200803061845 METAR LIRA 061845Z 11012KT 040V150 9999 SCT015 FEW020CB SCT025
                        10/06 Q1004=
200803061815 METAR LIRA 061815Z 09009G22KT 010V120 9999 FEW010 FEW020CB
                        BKN025 10/06 Q1005=
200803061745 METAR LIRA 061745Z 05015KT 020V110 9999 SCT015 FEW020CB SCT025
                        10/06 Q1005=
200803061715 METAR LIRA 061715Z 05009KT 360V090 9999 SCT015 FEW020CB SCT030
                        10/06 Q1005=
200803061645 METAR LIRA 061645Z 05008KT 010V110 9999 -DZ FEW015 FEW020CB
                        BKN025 10/07 Q1005=
200803061615 METAR LIRA 061615Z 09002KT 9999 -DZ FEW015 BKN025 11/05 Q1005=
200803061545 METAR LIRA 061545Z 06005KT 010V090 9999 FEW012 FEW020CB BKN025
                        12/06 Q1005=
200803061515 METAR LIRA 061515Z 12005KT 050V150 9999 FEW012 FEW020CB BKN025
                        12/06 Q1005=
200803061445 METAR LIRA 061445Z 00000KT 9999 FEW012 FEW020CB SCT025 12/07
                        Q1005=
200803061415 METAR LIRA 061415Z 13010KT 070V190 9999 FEW012 FEW020CB SCT025
                        11/06 Q1005=
200803061345 METAR LIRA 061345Z 11008KT 9999 FEW012 FEW017CB SCT025 10/06
                        Q1005=
200803061315 METAR LIRA 061315Z 12012KT 8000 -RA FEW012 FEW017CB BKN025
                        10/05 Q1005=
200803061245 METAR LIRA 061245Z 21003KT 110V220 6000 -RA FEW012 FEW017CB
                        BKN025 11/07 Q1005=
200803061215 METAR LIRA 061215Z 19009KT 160V240 6000 -RA SCT012 FEW017CB
                        SCT025 12/09 Q1005=
200803061145 METAR LIRA 061145Z 12010KT 080V150 9999 SCT017 FEW020CB SCT070
                        13/09 Q1005=
200803061115 METAR LIRA 061115Z 09009KT 060V140 9999 SCT020 SCT030 12/10
                        Q1005=
200803061045 METAR LIRA 061045Z 09002KT 9999 SCT020 SCT030 10/08 Q1005=
200803061015 METAR LIRA 061015Z 06004KT 360V110 9999 -RA SCT020 SCT030
                        10/08 Q1005=
200803061000 LIRA CONTUS=
200803060945 METAR LIRA 060945Z 05005KT 9999 -RA SCT020 SCT030 09/07 Q1005=
200803060915 METAR LIRA 060915Z 03005KT 330V090 9999 -RA SCT020 SCT030
                        07/07 Q1005=
200803060845 METAR LIRA 060845Z 04004KT 350V090 9999 -RA FEW020 SCT030
                        07/07 Q1004=
200803060815 METAR LIRA 060815Z 05006KT 300V090 9999 -RA FEW018 SCT030
                        07/07 Q1004=
200803060745 METAR LIRA 060745Z 06006KT 9999 -RA FEW020 BKN030 06/06 Q1004
                        RERA=
200803060715 METAR LIRA 060715Z 02001KT 8000 -RA FEW007 FEW020TCU BKN025
                        06/06 Q1004 RERA=
200803060700 METAR LIRA INTER SLT TS CB ALL QUADS/OVHD=
200803060645 METAR LIRA 060645Z 02001KT 5000 RA BR SCT004 FEW015TCU BKN022
                        06/06 Q1004=
200803060615 METAR LIRA 060615Z 15003KT 6000 -RA SCT005 FEW015TCU BKN025
                        06/05 Q1004=
200803060545 METAR LIRA 060545Z 30004KT 8000 -RA SCT007 SCT015 BKN030
                        06/05 Q1003=
200803060515 METAR LIRA 060515Z 03002KT 8000 -RA FEW007 SCT015 BKN030
                        07/05 Q1003 RERA=
200803060445 METAR LIRA 060445Z 07002KT 9999 -RA SCT015 BKN030 07/05 Q1003
                        RERA=
200803060415 METAR LIRA 060415Z 05005KT 360V090 9999 RA SCT015 BKN030
                        07/05 Q1003=
200803060345 METAR LIRA 060345Z 03006KT 340V090 9999 -RA SCT020 BKN035
                        07/05 Q1003=
200803060315 METAR LIRA 060315Z 04005KT 9999 -RA SCT020 BKN035 07/05 Q1003=
200803060245 METAR LIRA 060245Z 02002KT 360V070 9999 -RA SCT020 BKN035
                        07/05 Q1003=
200803060215 METAR LIRA 060215Z 34005KT 310V010 9999 -DZ SCT020 BKN035
                        07/06 Q1004=
200803060145 METAR LIRA 060145Z 01008KT 350V005 9999 -DZ SCT020 BKN035
                        07/06 Q1004=
200803060115 METAR LIRA 060115Z 02001KT 9999 -DZ SCT020 BKN030 07/06 Q1004=
200803060045 METAR LIRA 060045Z 04004KT 330V070 9999 -RA SCT020 SCT030
                        07/06 Q1004=
200803060015 METAR LIRA 060015Z 03003KT 9999 -RA SCT020 BKN030 07/06 Q1004=
200803052345 METAR LIRA 052345Z 00000KT 9999 -RA SCT020 BKN030 06/06 Q1005=
200803052315 METAR LIRA 052315Z 00000KT 9999 -RA SCT020 BKN035 06/05 Q1005=
200803052245 METAR LIRA 052245Z 00000KT 9999 -RA SCT020 BKN035 06/05 Q1005=
200803052215 METAR LIRA 052215Z 00000KT 9999 -RA SCT018 BKN035 06/05 Q1005=
200803052145 METAR LIRA 052145Z 00000KT 9999 -RA SCT018 BKN030 07/06 Q1005=
200803052115 METAR LIRA 052115Z 02001KT 9999 -RA SCT020 BKN030 07/06 Q1005=
200803052045 METAR LIRA 052045Z 35005KT 9999 -RA FEW010 SCT020 BKN030
                        07/06 Q1005=
200803052015 METAR LIRA 052015Z 01004KT 9999 -RA SCT020 BKN030 07/06 Q1005=
200803051945 METAR LIRA 051945Z 01004KT 340V050 9999 -RA SCT018 BKN025
                        07/06 Q1005=
200803051915 METAR LIRA 051915Z 36006KT 320V040 9999 -RA SCT018 BKN025
                        07/06 Q1005=
200803051845 METAR LIRA 051845Z 01004KT 9999 -RA SCT015 BKN025 08/06 Q1005=
200803051815 METAR LIRA 051815Z 02003KT 340V060 9999 -DZ SCT015 SCT025
                        08/06 Q1005=
200803051745 METAR LIRA 051745Z 36007KT 320V030 9999 SCT020 SCT070 08/06
                        Q1005=
200803051715 METAR LIRA 051715Z 01008KT 330V040 9999 FEW010 SCT015 09/07
                        Q1004=
200803051645 METAR LIRA 051645Z 04005KT 360V090 9999 FEW015 SCT030 BKN070
                        09/05 Q1004=
200803051615 METAR LIRA 051615Z 05005KT 010V110 9999 FEW015 BKN030 09/05
                        Q1004=
200803051545 METAR LIRA 051545Z 05006KT 010V090 9999 FEW015 BKN030 10/08
                        Q1004=
200803051515 METAR LIRA 051515Z 04007KT 350V100 9999 FEW015 SCT030 10/08
                        Q1004=
200803051445 METAR LIRA 051445Z 04008KT 360V090 9999 FEW015 SCT035 10/08
                        Q1004=
200803051415 METAR LIRA 051415Z 05009KT 350V090 9999 FEW015 SCT035 10/08
                        Q1004=
200803051345 METAR LIRA 051345Z 05006KT 360V090 9999 FEW017 BKN060 10/08
                        Q1004=
200803051315 METAR LIRA 051315Z 10005KT 9999 FEW017 BKN060 10/08 Q1004=
200803051245 METAR LIRA 051245Z 09005KT 9999 FEW017 BKN060 10/08 Q1004=
200803051215 METAR LIRA 051215Z 06004KT 9999 FEW017 BKN060 10/08 Q1004=
200803051145 METAR LIRA 051145Z 03002KT 9999 FEW017 BKN070 10/08 Q1005=
200803051115 METAR LIRA 051115Z 07004KT 030V120 9999 FEW017 BKN070 10/08
                        Q1005=
200803051045 METAR LIRA 051045Z 06004KT 9999 FEW017 SCT035 09/08 Q1005=
200803051015 METAR LIRA 051015Z 02004KT 9999 FEW017 SCT035 09/08 Q1005=
200803050945 METAR LIRA 050945Z 03003KT 9999 FEW014 SCT035 09/08 Q1005=
200803050915 METAR LIRA 050915Z 12004KT 9999 FEW014 SCT035 09/08 Q1005=
200803050845 METAR LIRA 050845Z 17005KT 140V220 9000 -RA FEW018 SCT035
                        08/08 Q1005=
200803050815 METAR LIRA 050815Z 22006KT 9000 -RA FEW015 BKN035 09/07 Q1005=
200803050745 METAR LIRA 050745Z 15010KT 110V190 9000 -RA FEW018 SCT030
                        BKN080 10/07 Q1005=
200803050715 METAR LIRA 050715Z 15007KT 130V210 9999 FEW018 SCT030 10/06
                        Q1004=
200803050645 METAR LIRA 050645Z 16004KT 9999 FEW018 SCT030 09/06 Q1004=
200803050615 METAR LIRA 050615Z 16005KT 9999 FEW020 BKN070 09/06 Q1004=
200803050545 METAR LIRA 050545Z 14006KT 9999 SCT014 SCT070 09/06 Q1004=
200803050515 METAR LIRA 050515Z 15005KT 9999 SCT014 SCT070 09/05 Q1005=
200803050445 METAR LIRA 050445Z 14004KT 9999 SCT014 SCT070 09/05 Q1005=
200803050415 METAR LIRA 050415Z 16005KT 9999 SCT014 SCT070 09/06 Q1005=
200803050345 METAR LIRA 050345Z 16006KT 9999 SCT014 SCT070 09/06 Q1005=
200803050315 METAR LIRA 050315Z 18004KT 9999 SCT014 SCT070 09/06 Q1005=
200803050245 METAR LIRA 050245Z 17005KT 9999 SCT014 SCT070 09/05 Q1005=
200803050215 METAR LIRA 050215Z 18004KT 9999 FEW024 SCT070 09/05 Q1005=
200803050145 METAR LIRA 050145Z 17004KT 9999 FEW024 SCT070 09/05 Q1006=
200803050115 METAR LIRA 050115Z 18005KT 170V220 9999 FEW025 SCT070 09/05
                        Q1006=
200803050045 METAR LIRA 050045Z 19005KT 9999 FEW025 SCT070 10/06 Q1006=
200803050015 METAR LIRA 050015Z 19005KT 9999 FEW025 SCT070 10/06 Q1006=
200803042345 METAR LIRA 042345Z 19006KT 9999 FEW025 SCT070 10/06 Q1006=
200803042315 METAR LIRA 042315Z 18006KT 9999 FEW080 SCT200 10/06 Q1006=
200803042245 METAR LIRA 042245Z 16007KT 9999 FEW080 10/06 Q1006=
200803042215 METAR LIRA 042215Z 16006KT 9999 FEW080 10/07 Q1007=
200803042145 METAR LIRA 042145Z 18006KT 9999 FEW080 11/08 Q1007=
200803042115 METAR LIRA 042115Z 18005KT 9999 FEW080 11/08 Q1007=
200803042045 METAR LIRA 042045Z 19005KT 9999 FEW018 SCT027 11/08 Q1006=
200803042015 METAR LIRA 042015Z 18006KT 130V210 9999 FEW018 11/08 Q1006=
200803041945 METAR LIRA 041945Z 18008KT 9999 FEW018 SCT070 11/08 Q1006=
200803041915 METAR LIRA 041915Z 19005KT 9999 FEW018 SCT070 11/08 Q1006=
200803041845 METAR LIRA 041845Z 18005KT 150V220 9999 FEW080 SCT200 11/07
                        Q1006=
200803041815 METAR LIRA 041815Z 18006KT 9999 FEW080 SCT200 11/08 Q1006=
200803041745 METAR LIRA 041745Z 18006KT 150V240 9999 FEW017 SCT200 12/08
                        Q1006=
200803041715 METAR LIRA 041715Z 23005KT 190V270 9999 FEW017 SCT080 12/08
                        Q1006=
200803041645 METAR LIRA 041645Z 23009KT 210V280 9000 SCT017 SCT070 14/10
                        Q1006=
200803041615 METAR LIRA 041615Z 21013KT 160V240 9999 FEW018 SCT060 15/10
                        Q1005=
200803041545 METAR LIRA 041545Z 22011KT 180V260 9999 FEW020 SCT200 16/11
                        Q1005=
200803041515 METAR LIRA 041515Z 22008KT 180V260 9999 FEW020 SCT200 17/09
                        Q1005=
200803041445 METAR LIRA 041445Z 22006KT 170V280 9999 FEW018 SCT200 17/09
                        Q1005=
200803041415 METAR LIRA 041415Z 23008KT 160V270 9999 FEW018 SCT200 17/09
                        Q1005=
200803041345 METAR LIRA 041345Z 23009KT 180V270 9999 FEW018 SCT200 18/09
                        Q1005=
200803041315 METAR LIRA 041315Z 21006KT 170V270 9999 SCT018 SCT200 18/09
                        Q1006=
200803041245 METAR LIRA 041245Z 19008KT 150V240 9999 SCT018 SCT200 18/09
                        Q1006=
200803041215 METAR LIRA 041215Z 19006KT 160V250 9999 SCT018 SCT200 17/09
                        Q1007=
200803041145 METAR LIRA 041145Z 21007KT 160V250 9999 SCT018 SCT200 17/10
                        Q1007=
200803041115 METAR LIRA 041115Z 18011KT 150V220 9999 SCT018 SCT200 16/11
                        Q1008=
200803041045 METAR LIRA 041045Z 17011KT 130V210 9999 SCT018 16/11 Q1008=
200803041015 METAR LIRA 041015Z 18011KT 140V220 9999 SCT018 15/11 Q1008=
200803040945 METAR LIRA 040945Z 18014KT 140V220 9999 6000S FEW015 SCT018
                        15/12 Q1008=
200803040915 METAR LIRA 040915Z 16012KT 130V210 9999 6000S FEW015 SCT018
                        14/11 Q1008=
200803040845 METAR LIRA 040845Z 16013KT 120V190 9999 FEW015 SCT018 14/11
                        Q1008=
200803040815 METAR LIRA 040815Z 16013KT 9999 SCT018 13/11 Q1008=
200803040745 METAR LIRA 040745Z 16013KT 9999 FEW015 SCT018 13/11 Q1008=
200803040715 METAR LIRA 040715Z 16013KT 9999 FEW015 SCT018 12/10 Q1008=
200803040645 METAR LIRA 040645Z 16013KT 9999 FEW015 SCT018 12/10 Q1008=
200803040615 METAR LIRA 040615Z 16012KT 9999 FEW015 SCT018 12/10 Q1008=
200803040545 METAR LIRA 040545Z 16015KT 9999 SCT018 SCT035 12/10 Q1008=
200803040515 METAR LIRA 040515Z 17013KT 9999 SCT018 SCT070 12/10 Q1009=
200803040445 METAR LIRA 040445Z 18009KT 9999 SCT015 SCT070 12/09 Q1009=
200803040415 METAR LIRA 040415Z 16013KT 9999 FEW017 SCT070 12/09 Q1009=
200803040345 METAR LIRA 040345Z 17012KT 9999 FEW017 SCT070 12/09 Q1009=
200803040315 METAR LIRA 040315Z 15017KT 9999 FEW017 12/09 Q1009=
200803040245 METAR LIRA 040245Z 15012KT 9999 FEW017 12/09 Q1010=
200803040215 METAR LIRA 040215Z 17012KT 9999 FEW017 12/08 Q1010=
200803040145 METAR LIRA 040145Z 18012KT 160V240 9999 FEW017 12/09 Q1011=
200803040115 METAR LIRA 040115Z 15007KT 110V230 CAVOK 13/10 Q1011=
200803040045 METAR LIRA 040045Z 17007KT 150V220 CAVOK 12/10 Q1011=
200803040015 METAR LIRA 040015Z 16009KT 9999 FEW030 12/10 Q1011=
200803032350 METAR LIRA 040045Z 17007KT 150V220 CAVOK 12/10 Q1011=
200803032345 METAR LIRA 032345Z 15009KT 9999 FEW030 12/10 Q1011=
200803032315 METAR LIRA 032315Z 18013KT 9999 FEW030 12/10 Q1012=
200803032245 METAR LIRA 032245Z 17016KT 9999 FEW020 12/10 Q1012=
200803032215 METAR LIRA 032215Z 18014KT 9999 FEW020 12/10 Q1013=
200803032145 METAR LIRA 032145Z 18010KT 150V220 CAVOK 13/11 Q1013=
200803032115 METAR LIRA 032115Z 19010KT 170V230 CAVOK 10/08 Q1013=
200803032045 METAR LIRA 032045Z 17011KT 140V210 CAVOK 11/08 Q1013=
200803032015 METAR LIRA 032015Z 18004KT CAVOK 11/09 Q1013=
200803031945 METAR LIRA 031945Z 18002KT CAVOK 12/09 Q1013=
200803031915 METAR LIRA 031915Z 27002KT CAVOK 12/09 Q1013=
200803031845 METAR LIRA 031845Z 00000KT CAVOK 12/09 Q1013=
200803031815 METAR LIRA 031815Z 00000KT CAVOK 14/08 Q1013=
200803031745 METAR LIRA 031745Z 16005KT 9999 FEW018 15/09 Q1013=
200803031715 METAR LIRA 031715Z 17007KT 9999 FEW018 15/09 Q1013=
200803031645 METAR LIRA 031645Z 20007KT 9999 FEW018 15/08 Q1014=
200803031615 METAR LIRA 031615Z 19009KT 150V240 9999 FEW018 16/09 Q1014=
200803031545 METAR LIRA 031545Z 21009KT 170V240 9999 FEW018 17/10 Q1014=
200803031515 METAR LIRA 031515Z 21008KT 150V250 9999 FEW018 17/09 Q1014=
200803031445 METAR LIRA 031445Z 19008KT 150V270 9999 FEW018 18/09 Q1014=
200803031415 METAR LIRA 031415Z 21010KT 160V240 9999 FEW018 18/09 Q1014=
200803031345 METAR LIRA 031345Z 23002KT 9999 FEW018 SCT025 17/09 Q1015=
200803031315 METAR LIRA 031315Z 21007KT 170V270 9999 FEW018 SCT025 18/10
                        Q1015=
200803031245 METAR LIRA 031245Z 22007KT 100V270 9999 FEW018 SCT025 18/11
                        Q1015=
200803031215 METAR LIRA 031215Z 21007KT 9999 FEW018 SCT025 17/11 Q1015=
200803031145 METAR LIRA 031145Z 18009KT 9999 FEW018 BKN025 16/11 Q1016=
200803031115 METAR LIRA 031115Z 19010KT 100V220 9999 FEW018 BKN025 16/11
                        Q1016=
200803031045 METAR LIRA 031045Z 16007KT 130V210 9999 FEW018 BKN025 15/10
                        Q1016=
200803031015 METAR LIRA 031015Z 17010KT 9999 FEW018 BKN025 15/10 Q1016=
200803030945 METAR LIRA 030945Z 15011KT 100V210 9999 FEW018 BKN025 15/10
                        Q1016=
200803030915 METAR LIRA 030915Z 17009KT 130V230 9999 FEW018 BKN025 15/10
                        Q1016=
200803030845 METAR LIRA 030845Z 17009KT 120V210 9999 FEW018 SCT027 14/10
                        Q1016=
200803030815 METAR LIRA 030815Z 17008KT 9999 FEW018 SCT027 13/10 Q1016=
200803030745 METAR LIRA 030745Z 00000KT 9999 FEW018 SCT027 11/09 Q1016=
200803030715 METAR LIRA 030715Z 00000KT 9999 FEW018 SCT027 10/09 Q1016=
200803030645 METAR LIRA 030645Z 00000KT 9999 FEW018 10/08 Q1016=
200803030615 METAR LIRA 030615Z 15005KT 9999 FEW018 09/08 Q1016=
200803030545 METAR LIRA 030545Z 15007KT 9999 FEW018 10/08 Q1016=
200803030515 METAR LIRA 030515Z 16006KT 9999 FEW018 10/09 Q1016=
200803030445 METAR LIRA 030445Z 19005KT 9999 FEW018 10/09 Q1016=
200803030415 METAR LIRA 030415Z 16007KT CAVOK 08/06 Q1016=
200803030345 METAR LIRA 030345Z 16006KT CAVOK 08/06 Q1016=
200803030315 METAR LIRA 030315Z 16005KT CAVOK 08/07 Q1016=
200803030245 METAR LIRA 030245Z 16005KT CAVOK 08/07 Q1016=
200803030115 METAR LIRA 030115Z 00000KT 6000 SKC 09/07 Q1016=
200803030045 METAR LIRA 030045Z 14001KT 6000 SKC 09/08 Q1016=
200803030015 METAR LIRA 030015Z 14005KT 6000 SKC 09/08 Q1016=
200803022350 METAR LIRA 030045Z 14001KT 6000 SKC 09/08 Q1016=
200803022345 METAR LIRA 022345Z 17009KT 7000 FEW070 09/08 Q1016=
200803022315 METAR LIRA 022315Z 16007KT 4000 BR FEW070 09/07 Q1016=
200803022245 METAR LIRA 022245Z 24002KT 4000 BR FEW015 09/07 Q1017=
200803022215 METAR LIRA 022215Z 24002KT 3000 BR FEW070 10/07 Q1017=
200803022145 METAR LIRA 022145Z 00000KT 5000 BR FEW070 10/08 Q1016=
200803022115 METAR LIRA 022115Z 15001KT 3000 BR SCT070 11/09 Q1016=
200803022045 METAR LIRA 022045Z 00000KT 4000 BR SCT070 12/10 Q1016=
200803022015 METAR LIRA 022015Z 00000KT 4000 BR SCT070 12/09 Q1016=
200803021945 METAR LIRA 021945Z 17005KT 4000 BR FEW015 11/08 Q1016=
200803021915 METAR LIRA 021915Z 23004KT 4000 BR FEW070 11/08 Q1016=
200803021845 METAR LIRA 021845Z 25005KT 6000 FEW070 12/09 Q1016=
200803021815 METAR LIRA 021815Z 24006KT 8000 FEW070 12/09 Q1015=
200803021745 METAR LIRA 021745Z 23006KT 170V280 9999 FEW070 13/09 Q1014=
200803021715 METAR LIRA 021715Z 23007KT 9999 SCT070 SCT200 13/10 Q1014=
200803021645 METAR LIRA 021645Z 23007KT 190V270 9999 FEW020 SCT070 17/13
                        Q1014=
200803021615 METAR LIRA 021615Z 23006KT 190V260 9999 SCT080 SCT200 17/12
                        Q1014=
200803021545 METAR LIRA 021545Z 24007KT 210V280 9999 FEW020 BKN200 18/12
                        Q1014=
200803021515 METAR LIRA 021515Z 22006KT 180V250 9999 FEW020 BKN200 18/12
                        Q1014=
200803021445 METAR LIRA 021445Z 22005KT 150V270 9999 FEW016 BKN200 18/12
                        Q1014=
200803021415 METAR LIRA 021415Z 21007KT 180V280 9999 FEW016 BKN200 18/12
                        Q1014=
200803021345 METAR LIRA 021345Z 21006KT 160V260 9999 FEW016 BKN200 18/12
                        Q1014=
200803021315 METAR LIRA 021315Z 22005KT 9999 FEW016 18/12 Q1015=
200803021245 METAR LIRA 021245Z 21007KT 160V270 9999 FEW016 18/13 Q1015=
200803021215 METAR LIRA 021215Z 23004KT 150V260 9999 FEW016 18/12 Q1015=
200803021145 METAR LIRA 021145Z 24006KT 170V270 9999 SCT016 17/12 Q1015=
200803021115 METAR LIRA 021115Z 21004KT 180V250 9999 FEW016 17/12 Q1015=
200803021045 METAR LIRA 021045Z 23006KT 180V300 9999 FEW016 16/12 Q1015=
200803021015 METAR LIRA 021015Z 24003KT 9999 FEW016 15/12 Q1015=
200803020945 METAR LIRA 020945Z 33003KT 9000 SKC 14/11 Q1015=
200803020915 METAR LIRA 020915Z 14002KT 9000 SKC 13/11 Q1015=
200803020845 METAR LIRA 020845Z 00000KT 8000 SKC 11/10 Q1015=
200803020815 METAR LIRA 020815Z 04003KT 7000 SKC 10/10 Q1015=
200803020745 METAR LIRA 020745Z 32002KT 7000 SKC 09/09 Q1015=
200803020715 METAR LIRA 020715Z 00000KT 7000 SKC 08/08 Q1015=
200803020645 METAR LIRA 020645Z 08002KT 7000 SKC 06/06 Q1014=
200803020615 METAR LIRA 020615Z 03002KT 7000 SKC 05/05 Q1013=
200803020545 METAR LIRA 020545Z 15003KT 7000 SKC 07/07 Q1012=
200803020515 METAR LIRA 020515Z 08002KT 6000 SKC 07/07 Q1012=
200803020445 METAR LIRA 020445Z 08002KT 6000 SKC 07/07 Q1012=
200803020415 METAR LIRA 020415Z 08003KT 6000 SKC 07/07 Q1012=
200803020345 METAR LIRA 020345Z 10001KT 6000 SKC 08/08 Q1012=
200803020315 METAR LIRA 020315Z 05005KT 6000 SKC 08/08 Q1012=
200803020245 METAR LIRA 020245Z 03003KT 5000 1500S MIFG BR FEW004 08/08
                        Q1011=
200803020215 METAR LIRA 020215Z 03002KT 5000 1500S MIFG BR FEW004 08/08
                        Q1011=
200803020145 METAR LIRA 020145Z 09003KT 6000 FEW010 08/08 Q1011=
200803020115 METAR LIRA 020115Z 35003KT 8000 NSC 08/08 Q1011=
200803020045 METAR LIRA 020045Z 14001KT 6000 FEW070 09/08 Q1011=
200803020015 METAR LIRA 020015Z 12004KT 6000 FEW070 09/08 Q1011=
200803012345 METAR LIRA 012345Z 36001KT 6000 FEW070 09/09 Q1011=
200803012315 METAR LIRA 012315Z 12002KT 6000 FEW070 10/09 Q1011=
200803012245 METAR LIRA 012245Z 00000KT 6000 FEW070 11/10 Q1011=
200803012215 METAR LIRA 012215Z 16005KT 6000 FEW018 SCT070 11/11 Q1011=
200803012145 METAR LIRA 012145Z 17004KT 6000 SCT018 BKN060 12/12 Q1011=
200803012115 METAR LIRA 012115Z 18006KT 6000 SCT020 SCT060 12/12 Q1011=
200803012045 METAR LIRA 012045Z 18005KT 5000 BR SCT015 SCT040 12/12 Q1011=
200803012015 METAR LIRA 012015Z 19006KT 6000 SCT025 SCT070 12/12 Q1011=
200803011945 METAR LIRA 011945Z 19007KT 6000 FEW020 SCT040 BKN060 12/12
                        Q1011=
200803011915 METAR LIRA 011915Z 17008KT 5000 BR FEW020 SCT040 12/12 Q1011=
200803011845 METAR LIRA 011845Z 18005KT 5000 BR FEW020 SCT040 BKN070 12/11
                        Q1011=
200803011815 METAR LIRA 011815Z 16007KT 5000 BR SCT020 SCT040 12/11 Q1011=
200803011745 METAR LIRA 011745Z 15007KT 5000 BR SCT015 BKN030 13/12 Q1011=
200803011715 METAR LIRA 011715Z 17004KT 4000 BR SCT015 BKN025 13/12 Q1011=
200803011645 METAR LIRA 011645Z 17006KT 4000 -DZ BR SCT015 BKN023 13/12
                        Q1011=
200803011615 METAR LIRA 011615Z 17006KT 6000 -DZ SCT015 BKN025 13/12 Q1010=
200803011545 METAR LIRA 011545Z 18007KT 6000 -DZ SCT015 BKN025 13/13 Q1010=
200803011515 METAR LIRA 011515Z 19008KT 6000 -DZ SCT015 BKN025 13/12 Q1011=
200803011445 METAR LIRA 011445Z 19009KT 6000 -DZ SCT015 BKN025 13/12 Q1011=
200803011415 METAR LIRA 011415Z 19007KT 6000 SCT015 BKN025 13/12 Q1012=
200803011345 METAR LIRA 011345Z 19008KT 6000 -DZ SCT015 BKN025 13/12 Q1012=
200803011315 METAR LIRA 011315Z 17012KT 4000 -DZ BR SCT015 BKN025 13/12
                        Q1012=
200803011245 METAR LIRA 011245Z 18011KT 150V220 5000 -DZ BR SCT015 BKN025
                        13/12 Q1012=
200803011215 METAR LIRA 011215Z 19010KT 160V230 6000 -DZ SCT015 BKN025
                        13/12 Q1013=
200803011145 METAR LIRA 011145Z 18010KT 150V240 6000 -DZ SCT015 BKN025
                        13/12 Q1014=
200803011115 METAR LIRA 011115Z 18011KT 6000 SCT015 BKN025 12/12 Q1014=
200803011045 METAR LIRA 011045Z 18011KT 150V210 5000 -DZ BR SCT014 BKN022
                        12/12 Q1015=
200803011015 METAR LIRA 011015Z 18009KT 160V220 3000 -DZ BR SCT014 BKN022
                        12/12 Q1016=
200803010945 METAR LIRA 010945Z 18005KT 160V220 4000 -DZ BR FEW015 BKN023
                        12/12 Q1016=
200803010915 METAR LIRA 010915Z 18008KT 3000 -DZ BR FEW015 BKN023 12/11
                        Q1016=
200803010845 METAR LIRA 010845Z 18006KT 3000 -DZ BR FEW015 BKN023 12/11
                        Q1017=
200803010815 METAR LIRA 010815Z 18007KT 5000 BR FEW015 SCT025 BKN070 12/12
                        Q1017=
200803010745 METAR LIRA 010745Z 19005KT 160V220 5000 BR FEW015 SCT025
                        BKN070 12/12 Q1017=
200803010715 METAR LIRA 010715Z 20004KT 5000 BR FEW015 BKN025 12/12 Q1017=
200803010645 METAR LIRA 010645Z 19006KT 160V220 4000 -DZ BR FEW015 BKN025
                        12/12 Q1017=
200803010615 METAR LIRA 010615Z 20006KT 3000 -DZ BR FEW015 BKN023 11/11
                        Q1017=
200803010545 METAR LIRA 010545Z 19004KT 4000 -DZ FEW015 BKN023 11/11 Q1018=
200803010515 METAR LIRA 010515Z 18004KT 5000 BR SCT018 BKN025 11/11 Q1018=
200803010445 METAR LIRA 010445Z 18004KT 4000 BR SCT015 BKN030 12/12 Q1018=
200803010415 METAR LIRA 010415Z 21004KT 5000 BR SCT015 BKN025 12/12 Q1018=
200803010345 METAR LIRA 010345Z 19005KT 6000 SCT015 SCT025 11/11 Q1018=
200803010315 METAR LIRA 010315Z 19004KT 5000 BR SCT015 SCT025 11/11 Q1019=
200803010245 METAR LIRA 010245Z 15006KT 5000 BR FEW015 SCT030 11/11 Q1019=
200803010215 METAR LIRA 010215Z 19004KT 4000 BR SCT015 SCT025 13/12 Q1020=
200803010145 METAR LIRA 010145Z 19003KT 4000 BR SCT010 SCT025 13/12 Q1020=
200803010115 METAR LIRA 010115Z 21001KT 5000 BR SCT010 SCT025 12/11 Q1021=
200803010045 METAR LIRA 010045Z 23002KT 6000 -DZ SCT018 BKN025 12/11 Q1021=
200803010015 METAR LIRA 010015Z 21002KT 6000 -DZ SCT010 BKN025 11/10 Q1021=

</pre>

</body>
</html>
