##########################################################
# Query made at 11/10/2014 15:28:02 UTC
# Time interval: from 03/01/2010 00:00  to 03/31/2010 23:59  UTC
##########################################################

##########################################################
# LIRA, Roma / Ciampino (Italy)
# WMO index: 16239
# Latitude 41-47N. Longitude 012-35E. Altitude 129 m.
##########################################################

###################################
#  METAR/SPECI from LIRA
###################################
201003312350 METAR LIRA 010045Z 15005KT 9999 FEW080 08/05 Q1014=
201003312345 METAR LIRA 312345Z 15005KT CAVOK 09/07 Q1014=
201003312315 METAR LIRA 312315Z 13007KT CAVOK 09/08 Q1014=
201003312245 METAR LIRA 312245Z 16008KT CAVOK 11/09 Q1014=
201003312215 METAR LIRA 312215Z 16007KT CAVOK 11/09 Q1014=
201003312145 METAR LIRA 312145Z 16007KT 140V210 CAVOK 11/09 Q1013=
201003312115 METAR LIRA 312115Z 16005KT CAVOK 11/09 Q1013=
201003312045 METAR LIRA 312045Z 16007KT 9999 FEW018 11/09 Q1013=
201003312015 METAR LIRA 312015Z 17007KT CAVOK 11/09 Q1013=
201003311945 METAR LIRA 311945Z 16006KT CAVOK 11/08 Q1012=
201003311915 METAR LIRA 311915Z 16005KT CAVOK 11/08 Q1012=
201003311845 METAR LIRA 311845Z 15005KT 9999 FEW018 11/09 Q1012=
201003311815 METAR LIRA 311815Z 20003KT 9999 FEW017 12/08 Q1012=
201003311745 METAR LIRA 311745Z 22004KT 9999 FEW017 12/08 Q1012=
201003311715 METAR LIRA 311715Z 23005KT 200V270 9999 SCT017 13/09 Q1012=
201003311645 METAR LIRA 311645Z 25005KT 180V290 9999 FEW017TCU 13/09 Q1011=
201003311615 METAR LIRA 311615Z 25007KT 190V310 9999 FEW016TCU SCT017
                        13/08 Q1011=
201003311545 METAR LIRA 311545Z 24008KT 210V290 9999 FEW017 14/09 Q1011=
201003311515 METAR LIRA 311515Z 25009KT 200V300 9999 SCT017 15/09 Q1011=
201003311445 METAR LIRA 311445Z 25011KT 170V290 9999 SCT017 15/09 Q1011=
201003311415 METAR LIRA 311415Z 25011KT 220V300 9999 SCT017 15/09 Q1011=
201003311345 METAR LIRA 311345Z 24009KT 190V280 9999 SCT017 SCT080 15/09
                        Q1011=
201003311315 METAR LIRA 311315Z 22010KT 180V260 9999 FEW017 SCT080 15/08
                        Q1011=
201003311245 METAR LIRA 311245Z 23011KT 200V300 9999 FEW017 SCT080 16/09
                        Q1011=
201003311215 METAR LIRA 311215Z 23010KT 180V270 9999 SCT016 16/09 Q1011=
201003310915 METAR LIRA 310915Z 23006KT 180V270 9999 FEW016 SCT023 15/07
                        Q1011=
201003310845 METAR LIRA 310845Z 19007KT 150V260 9999 FEW016 SCT023 15/08
                        Q1010=
201003310815 METAR LIRA 310815Z 20005KT 200V320 9999 FEW016 SCT023 14/08
                        Q1010=
201003310745 METAR LIRA 310745Z 19004KT 150V250 9999 SCT016 SCT023 13/09
                        Q1010=
201003310715 METAR LIRA 310715Z 17008KT 9999 SCT016 SCT023 12/09 Q1009=
201003310645 METAR LIRA 310645Z 16007KT 120V210 9999 SCT016 SCT023 12/08
                        Q1009=
201003310615 METAR LIRA 310615Z 17006KT 9999 FEW016 SCT023 11/09 Q1009=
201003310545 METAR LIRA 310545Z 17005KT 9999 SCT016 SCT023 11/08 Q1009=
201003310515 METAR LIRA 310515Z 16006KT 9999 SCT016 SCT023 11/09 Q1008=
201003310445 METAR LIRA 310445Z 18003KT 9999 SCT016 SCT023 11/09 Q1008=
201003310415 METAR LIRA 310415Z 16006KT 9999 SCT018 SCT070 11/09 Q1008=
201003310345 METAR LIRA 310345Z 18006KT 9999 SCT018 SCT070 11/09 Q1008=
201003310315 METAR LIRA 310315Z 16006KT 9999 FEW018 SCT070 11/09 Q1007=
201003310245 METAR LIRA 310245Z 15006KT 9999 SCT016 SCT070 11/09 Q1007=
201003310215 METAR LIRA 310215Z 16006KT 9999 SCT016 SCT070 11/09 Q1007=
201003310145 METAR LIRA 310145Z 16006KT 9999 SCT016 SCT070 11/09 Q1007=
201003310115 METAR LIRA 310115Z 17008KT 9999 SCT016 SCT025 11/09 Q1007=
201003310045 METAR LIRA 310045Z 16007KT 9999 SCT016 SCT025 12/09 Q1007=
201003310015 METAR LIRA 310015Z 17006KT 130V200 9999 SCT030 SCT070 12/08
                        Q1007=
201003302350 METAR LIRA 310045Z 16007KT 9999 SCT016 SCT025 12/09 Q1007=
201003302345 METAR LIRA 302345Z 19009KT 170V240 9999 SCT030 SCT070 12/07
                        Q1007=
201003302315 METAR LIRA 302315Z 19008KT 150V220 9999 SCT030 12/07 Q1007=
201003302245 METAR LIRA 302245Z 19007KT 120V220 9999 SCT030 12/08 Q1007=
201003302215 METAR LIRA 302215Z 19008KT 150V230 9999 FEW030 13/09 Q1007=
201003302145 METAR LIRA 302145Z 19006KT 160V220 8000 FEW030 12/10 Q1007=
201003302115 METAR LIRA 302115Z 19010KT 140V210 7000 FEW010 SCT030 12/11
                        Q1007=
201003302045 METAR LIRA 302045Z 15010KT 120V180 6000 BKN007 SCT023 12/12
                        Q1007=
201003302015 METAR LIRA 302015Z 15009KT 6000 SCT007 SCT030 13/12 Q1007=
201003301945 METAR LIRA 301945Z 16008KT 130V200 8000 FEW018 SCT030 13/12
                        Q1006=
201003301915 METAR LIRA 301915Z 18006KT 130V220 9999 SCT018 13/12 Q1006=
201003301845 METAR LIRA 301845Z 19010KT 160V220 9999 SCT018 13/12 Q1006=
201003301815 METAR LIRA 301815Z 19009KT 140V230 9999 SCT018 14/11 Q1006=
201003301745 METAR LIRA 301745Z 18011KT 150V210 9999 FEW018 SCT070 15/10
                        Q1005=
201003301715 METAR LIRA 301715Z 18007KT 140V210 9999 FEW018 SCT070 15/10
                        Q1005=
201003301645 METAR LIRA 301645Z 17008KT 150V220 9999 FEW018 BKN070 15/11
                        Q1005=
201003301615 METAR LIRA 301615Z 17013KT 9999 FEW018 SCT070 15/11 Q1005=
201003301545 METAR LIRA 301545Z 16012KT 120V210 9999 FEW018 SCT025 15/11
                        Q1005=
201003301515 METAR LIRA 301515Z 15016KT 9999 FEW018 FEW020TCU SCT025 15/11
                        Q1006=
201003301445 METAR LIRA 301445Z 16012KT 130V200 9999 FEW015 FEW020TCU
                        SCT025 14/12 Q1006=
201003301415 METAR LIRA 301415Z 19010KT 160V230 9000 -RA FEW018 FEW020TCU
                        BKN025 14/11 Q1007=
201003301345 METAR LIRA 301345Z 17014KT 150V220 9999 -RA FEW018 FEW020TCU
                        BKN025 15/09 Q1007=
201003301315 METAR LIRA 301315Z 18012KT 150V220 9999 FEW018 BKN025 16/08
                        Q1007=
201003301245 METAR LIRA 301245Z 18011KT 120V230 9999 FEW018 BKN025 16/07
                        Q1007=
201003301215 METAR LIRA 301215Z 17016KT 120V200 9999 FEW018 BKN025 16/07
                        Q1007=
201003301145 METAR LIRA 301145Z 16020KT 130V200 9999 FEW018 BKN025 18/09
                        Q1007=
201003301115 METAR LIRA 301115Z 14018G30KT 110V210 9999 FEW018 18/08 Q1008=
201003301045 METAR LIRA 301045Z 15021KT 120V200 9999 FEW020 18/08 Q1008=
201003301015 METAR LIRA 301015Z 15019G31KT 120V190 9999 FEW020 SCT060
                        17/07 Q1009=
201003300945 METAR LIRA 300945Z 15020KT 9999 SCT020 SCT035 16/07 Q1009=
201003300915 METAR LIRA 300915Z 15021G31KT 9999 SCT020 SCT035 17/07 Q1009=
201003300845 METAR LIRA 300845Z 15020KT 120V180 9999 FEW020 SCT035 17/07
                        Q1009=
201003300815 METAR LIRA 300815Z 15021KT 120V190 9999 FEW020 16/07 Q1009=
201003300745 METAR LIRA 300745Z 15020G32KT 9999 FEW020 SCT035 16/08 Q1009=
201003300715 METAR LIRA 300715Z 15016KT 130V200 9999 FEW020 15/07 Q1009=
201003300645 METAR LIRA 300645Z 16010KT 120V230 9999 FEW020 SCT040 14/06
                        Q1009=
201003300615 METAR LIRA 300615Z 15013G23KT 120V200 9999 FEW020 SCT060
                        15/06 Q1009=
201003300545 METAR LIRA 300545Z 15013KT 100V200 9999 FEW025 SCT030 15/05
                        Q1009=
201003300515 METAR LIRA 300515Z 15019G35KT 120V180 9999 FEW025 SCT030
                        14/04 Q1009=
201003300445 METAR LIRA 300445Z 12022G33KT 9999 FEW025 SCT030 14/05 Q1008=
201003300415 METAR LIRA 300415Z 14021KT 120V180 9999 FEW021 BKN070 14/03
                        Q1010=
201003300345 METAR LIRA 300345Z 16015KT 120V180 9999 FEW035 SCT070 13/02
                        Q1011=
201003300315 METAR LIRA 300315Z 15014KT 100V190 9999 SCT035 SCT070 13/02
                        Q1011=
201003300245 METAR LIRA 300245Z 14015KT 110V180 9999 SCT035 SCT070 13/04
                        Q1011=
201003300215 METAR LIRA 300215Z 14011KT 090V170 9999 FEW035 SCT060 12/04
                        Q1011=
201003300145 METAR LIRA 300145Z 15008KT 9999 SCT060 11/04 Q1011=
201003300115 METAR LIRA 300115Z 29002KT 9999 FEW010 08/06 Q1012=
201003300045 METAR LIRA 300045Z 32002KT 9999 FEW010 08/06 Q1012=
201003300015 METAR LIRA 300015Z 00000KT 9999 FEW010 09/07 Q1013=
201003292350 METAR LIRA 300045Z 32002KT 9999 FEW010 08/06 Q1012=
201003292345 METAR LIRA 292345Z 03002KT 9999 FEW010 SCT200 09/06 Q1013=
201003292315 METAR LIRA 292315Z 02003KT 9999 FEW010 10/07 Q1014=
201003292245 METAR LIRA 292245Z 11002KT 9999 FEW010 10/07 Q1014=
201003292215 METAR LIRA 292215Z 12008KT 9999 FEW010 11/08 Q1014=
201003292145 METAR LIRA 292145Z 13010KT 9999 FEW010 11/09 Q1014=
201003292115 METAR LIRA 292115Z 14010KT 120V190 9999 FEW018 11/08 Q1014=
201003292045 METAR LIRA 292045Z 16009KT 9999 FEW018 11/09 Q1014=
201003292015 METAR LIRA 292015Z 13009KT 9999 FEW018 11/09 Q1014=
201003291945 METAR LIRA 291945Z 14013KT 9999 FEW018 12/10 Q1015=
201003291915 METAR LIRA 291915Z 15013KT 100V180 9999 FEW070 12/10 Q1014=
201003291845 METAR LIRA 291845Z 17010KT 9999 FEW070 12/09 Q1014=
201003291815 METAR LIRA 291815Z 16013KT 9999 FEW020 SCT200 12/09 Q1014=
201003291745 METAR LIRA 291745Z 17014KT 140V200 9999 FEW020 SCT200 12/09
                        Q1015=
201003291715 METAR LIRA 291715Z 18013KT 140V220 9999 FEW020 14/10 Q1015=
201003291645 METAR LIRA 291645Z 17014KT 9999 FEW020 SCT200 14/10 Q1015=
201003291615 METAR LIRA 291615Z 17013KT 9999 FEW020 SCT200 15/10 Q1015=
201003291545 METAR LIRA 291545Z 17014KT 140V200 9999 FEW018 16/10 Q1015=
201003291515 METAR LIRA 291515Z 17012KT 150V220 9999 FEW018 16/10 Q1015=
201003291445 METAR LIRA 291445Z 18011KT 140V220 9999 FEW018 16/09 Q1015=
201003291415 METAR LIRA 291415Z 16011KT 130V200 9999 FEW018 16/09 Q1016=
201003291345 METAR LIRA 291345Z 18010KT 140V210 9999 FEW018 16/10 Q1016=
201003291315 METAR LIRA 291315Z 19010KT 160V230 9999 FEW018 17/09 Q1017=
201003291245 METAR LIRA 291245Z 18010KT 130V240 9999 SCT018 SCT080 16/09
                        Q1017=
201003291215 METAR LIRA 291215Z 19010KT 150V240 9999 SCT018 SCT080 17/10
                        Q1017=
201003291145 METAR LIRA 291145Z 17010KT 140V210 9999 SCT018 SCT080 16/10
                        Q1017=
201003291115 METAR LIRA 291115Z 18011KT 140V230 9999 SCT018 SCT080 16/10
                        Q1018=
201003291045 METAR LIRA 291045Z 16012KT 130V210 9999 SCT018 SCT080 16/10
                        Q1018=
201003291015 METAR LIRA 291015Z 16011KT 120V200 9999 SCT018 SCT080 16/10
                        Q1018=
201003290945 METAR LIRA 290945Z 15012KT 120V190 9999 SCT018 SCT080 15/09
                        Q1018=
201003290915 METAR LIRA 290915Z 16013KT 110V190 9999 SCT018 SCT080 15/09
                        Q1018=
201003290845 METAR LIRA 290845Z 15014KT 120V180 9999 FEW018 15/09 Q1018=
201003290815 METAR LIRA 290815Z 15014KT 9999 FEW018 14/08 Q1018=
201003290745 METAR LIRA 290745Z 15013KT 9999 FEW018 13/09 Q1018=
201003290715 METAR LIRA 290715Z 15012KT 130V190 9999 FEW018 12/07 Q1018=
201003290545 METAR LIRA 290545Z 34002KT 9999 SCT080 07/05 Q1016=
201003290515 METAR LIRA 290515Z 00000KT 9999 SCT080 07/05 Q1016=
201003290445 METAR LIRA 290445Z 14004KT 9999 SCT080 07/05 Q1016=
201003290415 METAR LIRA 290415Z 26002KT 9999 FEW080 07/04 Q1016=
201003290345 METAR LIRA 290345Z 12003KT 9999 FEW080 07/04 Q1016=
201003290315 METAR LIRA 290315Z 16002KT 9999 FEW080 06/04 Q1016=
201003290245 METAR LIRA 290245Z 24002KT 9999 FEW080 07/04 Q1016=
201003290145 METAR LIRA 290145Z 10002KT 9999 FEW080 08/05 Q1016=
201003290115 METAR LIRA 290115Z 10003KT CAVOK 08/07 Q1016=
201003290045 METAR LIRA 290045Z 16003KT CAVOK 08/06 Q1016=
201003290015 METAR LIRA 290015Z 15004KT CAVOK 08/06 Q1016=
201003282350 METAR LIRA 290045Z 16003KT CAVOK 08/06 Q1016=
201003282345 METAR LIRA 282345Z 15004KT CAVOK 09/06 Q1016=
201003282315 METAR LIRA 282315Z 16003KT CAVOK 09/06 Q1016=
201003282245 METAR LIRA 282245Z 17002KT CAVOK 08/05 Q1016=
201003282215 METAR LIRA 282215Z 16003KT CAVOK 09/06 Q1016=
201003282145 METAR LIRA 282145Z 15003KT CAVOK 08/05 Q1016=
201003282115 METAR LIRA 282115Z 16003KT CAVOK 09/05 Q1016=
201003282015 METAR LIRA 282015Z 15002KT CAVOK 11/07 Q1016=
201003281945 METAR LIRA 281945Z 17002KT CAVOK 11/07 Q1016=
201003281915 METAR LIRA 281915Z 20002KT CAVOK 11/08 Q1015=
201003281845 METAR LIRA 281845Z 20001KT CAVOK 12/07 Q1015=
201003281815 METAR LIRA 281815Z 20002KT CAVOK 13/08 Q1015=
201003281745 METAR LIRA 281745Z 21003KT CAVOK 13/07 Q1015=
201003281715 METAR LIRA 281715Z 25004KT CAVOK 14/06 Q1015=
201003281645 METAR LIRA 281645Z 26005KT 180V330 CAVOK 15/06 Q1015=
201003281615 METAR LIRA 281615Z 26006KT 200V330 9999 FEW020 16/04 Q1015=
201003281545 METAR LIRA 281545Z 26006KT 200V360 9999 FEW022 18/08 Q1015=
201003281515 METAR LIRA 281515Z 24007KT 180V290 9999 SCT022 17/08 Q1015=
201003281445 METAR LIRA 281445Z 25007KT 200V310 9999 SCT022 18/08 Q1015=
201003281415 METAR LIRA 281415Z 23008KT 180V290 9999 SCT022 17/08 Q1015=
201003281345 METAR LIRA 281345Z 24007KT 180V300 9999 SCT022 18/07 Q1015=
201003281315 METAR LIRA 281315Z 23008KT 160V310 9999 SCT022 18/07 Q1015=
201003281245 METAR LIRA 281245Z 28005KT 230V310 9999 SCT022 17/03 Q1015=
201003281215 METAR LIRA 281215Z 25005KT 200V300 9999 SCT022 17/04 Q1015=
201003281145 METAR LIRA 281145Z 31003KT 290V360 9999 SCT022 17/04 Q1016=
201003281115 METAR LIRA 281115Z 09003KT 9999 SCT022 17/05 Q1016=
201003281045 METAR LIRA 281045Z 27002KT 9999 SCT022 16/03 Q1016=
201003281015 METAR LIRA 281015Z 32004KT 9999 SCT022 16/04 Q1016=
201003280945 METAR LIRA 280945Z 30003KT 330V100 9999 FEW022 15/05 Q1016=
201003280915 METAR LIRA 280915Z 36004KT 310V060 9999 FEW022 15/06 Q1016=
201003280845 METAR LIRA 280845Z 34003KT 9999 FEW022 14/06 Q1016=
201003280815 METAR LIRA 280815Z 02003KT 9999 FEW022 14/08 Q1016=
201003280615 METAR LIRA 280615Z 16001KT 9999 FEW070 06/05 Q1015=
201003280545 METAR LIRA 280545Z 00000KT 9999 FEW070 06/05 Q1014=
201003280515 METAR LIRA 280515Z 00000KT 9999 FEW070 06/04 Q1014=
201003280445 METAR LIRA 280445Z 01001KT CAVOK 06/04 Q1014=
201003280415 METAR LIRA 280415Z 16002KT CAVOK 07/04 Q1014=
201003280345 METAR LIRA 280345Z 10003KT CAVOK 06/04 Q1014=
201003280315 METAR LIRA 280315Z 13002KT CAVOK 06/05 Q1014=
201003280245 METAR LIRA 280245Z 05002KT CAVOK 06/05 Q1014=
201003280215 METAR LIRA 280215Z 02002KT CAVOK 07/06 Q1014=
201003280145 METAR LIRA 280145Z 15001KT 9999 FEW060 07/06 Q1014=
201003280115 METAR LIRA 280115Z 13003KT 9999 FEW030 08/07 Q1014=
201003280045 METAR LIRA 280045Z 05003KT 9999 FEW030 BKN070 07/07 Q1014=
201003280015 METAR LIRA 280015Z 08002KT 9999 FEW030 BKN070 08/07 Q1014=
201003272350 METAR LIRA 280045Z 05003KT 9999 FEW030 BKN070 07/07 Q1014=
201003272345 METAR LIRA 272345Z 00000KT 9999 SCT070 08/07 Q1014=
201003272315 METAR LIRA 272315Z 17002KT 9999 SCT070 08/07 Q1014=
201003272245 METAR LIRA 272245Z 00000KT 9999 BKN070 08/07 Q1014=
201003272215 METAR LIRA 272215Z 00000KT 9999 SCT070 09/07 Q1014=
201003272145 METAR LIRA 272145Z 09002KT 9999 SCT070 09/08 Q1014=
201003272115 METAR LIRA 272115Z 11004KT 9999 FEW070 09/08 Q1014=
201003272045 METAR LIRA 272045Z 11002KT 9999 FEW070 10/09 Q1013=
201003272015 METAR LIRA 272015Z 15005KT 9999 FEW070 10/09 Q1013=
201003271945 METAR LIRA 271945Z 16004KT 9999 SCT070 11/10 Q1013=
201003271915 METAR LIRA 271915Z 18004KT 9999 SCT070 11/09 Q1013=
201003271845 METAR LIRA 271845Z 18005KT 9999 FEW025 12/10 Q1012=
201003271815 METAR LIRA 271815Z 19005KT 170V230 9999 FEW025 12/10 Q1013=
201003271745 METAR LIRA 271745Z 19005KT 160V220 9999 FEW016 SCT025 12/10
                        Q1012=
201003271715 METAR LIRA 271715Z 22004KT 9999 FEW016 13/10 Q1012=
201003271645 METAR LIRA 271645Z 23003KT 9999 FEW015 FEW017CB 14/08 Q1012=
201003271615 METAR LIRA 271615Z 26005KT 210V310 9999 SCT015 FEW017TCU
                        14/08 Q1012=
201003271545 METAR LIRA 271545Z 23007KT 180V290 9999 SCT015 FEW017TCU
                        14/08 Q1012=
201003271515 METAR LIRA 271515Z 23009KT 180V280 9999 SCT015 FEW017TCU
                        15/09 Q1012=
201003271445 METAR LIRA 271445Z 23010KT 180V280 9999 SCT015 FEW017TCU
                        15/09 Q1012=
201003271415 METAR LIRA 271415Z 22008KT 180V260 9999 SCT015 FEW017TCU
                        14/08 Q1013=
201003271345 METAR LIRA 271345Z 22008KT 170V260 9999 SCT015 FEW017TCU
                        14/08 Q1013=
201003271315 METAR LIRA 271315Z 22009KT 170V270 9999 SCT015 FEW017TCU
                        14/08 Q1014=
201003271245 METAR LIRA 271245Z 22009KT 160V280 9999 SCT015 FEW017TCU
                        15/07 Q1014=
201003271215 METAR LIRA 271215Z 22009KT 170V260 9999 SCT015 FEW017TCU
                        14/07 Q1014=
201003271145 METAR LIRA 271145Z 20009KT 150V250 9999 SCT015 FEW017TCU
                        15/08 Q1015=
201003271115 METAR LIRA 271115Z 20009KT 160V260 9999 FEW015 FEW017TCU
                        15/07 Q1015=
201003271045 METAR LIRA 271045Z 22009KT 150V270 9999 FEW015 FEW017TCU
                        15/07 Q1015=
201003271015 METAR LIRA 271015Z 22008KT 180V280 9999 SCT015 FEW017TCU
                        15/07 Q1015=
201003270945 METAR LIRA 270945Z 22009KT 170V280 9999 SCT015 14/06 Q1015=
201003270915 METAR LIRA 270915Z 23008KT 160V280 9999 BKN015 14/08 Q1015=
201003270845 METAR LIRA 270845Z 21007KT 150V260 9999 SCT014 14/08 Q1015=
201003270815 METAR LIRA 270815Z 22005KT 180V290 9999 SCT014 14/09 Q1015=
201003270745 METAR LIRA 270745Z 21006KT 160V270 9999 SCT013 14/09 Q1015=
201003270715 METAR LIRA 270715Z 19006KT 9999 FEW013 SCT024 13/10 Q1015=
201003270645 METAR LIRA 270645Z 17007KT 140V210 9999 FEW013 SCT024 12/09
                        Q1015=
201003270615 METAR LIRA 270615Z 18005KT 9999 FEW013 SCT024 12/09 Q1014=
201003270545 METAR LIRA 270545Z 16004KT 9999 FEW013 SCT024 11/08 Q1014=
201003270515 METAR LIRA 270515Z 18005KT 9999 FEW013 11/08 Q1014=
201003270445 METAR LIRA 270445Z 17005KT 9999 SCT013 11/07 Q1014=
201003270415 METAR LIRA 270415Z 18005KT 9999 SCT013 11/07 Q1014=
201003270345 METAR LIRA 270345Z 18005KT 9999 FEW013 11/07 Q1015=
201003270315 METAR LIRA 270315Z 17005KT 9999 FEW070 11/08 Q1015=
201003270245 METAR LIRA 270245Z 16005KT 9999 FEW015 11/09 Q1015=
201003270215 METAR LIRA 270215Z 17006KT 9999 FEW015 SCT060 12/09 Q1015=
201003270145 METAR LIRA 270145Z 17003KT 9000 SCT015 11/09 Q1016=
201003270115 METAR LIRA 270115Z 15004KT 8000 SCT014 11/09 Q1016=
201003270045 METAR LIRA 270045Z 16005KT 8000 SCT015 11/10 Q1016=
201003270015 METAR LIRA 270015Z 13005KT 8000 SCT015 11/10 Q1016=
201003262350 METAR LIRA 270045Z 16005KT 8000 SCT015 11/10 Q1016=
201003262345 METAR LIRA 262345Z 16005KT 8000 SCT014 SCT020 12/11 Q1016=
201003262315 METAR LIRA 262315Z 22003KT 8000 SCT014 SCT020 13/11 Q1016=
201003262245 METAR LIRA 262245Z 21002KT 8000 SCT015 13/11 Q1016=
201003262215 METAR LIRA 262215Z 17005KT 8000 SCT015 13/11 Q1017=
201003262145 METAR LIRA 262145Z 21002KT 8000 SCT018 12/10 Q1016=
201003262115 METAR LIRA 262115Z 18006KT 130V210 8000 FEW015 13/10 Q1016=
201003262045 METAR LIRA 262045Z 17009KT 140V220 8000 FEW015 13/10 Q1017=
201003262015 METAR LIRA 262015Z 17010KT 8000 SCT015 13/10 Q1016=
201003261945 METAR LIRA 261945Z 18007KT 130V200 8000 SCT015 13/10 Q1016=
201003261915 METAR LIRA 261915Z 17007KT 130V200 7000 SCT015 13/11 Q1016=
201003261845 METAR LIRA 261845Z 15009KT 7000 FEW015 13/11 Q1017=
201003261815 METAR LIRA 261815Z 16008KT 140V200 7000 SCT015 14/12 Q1017=
201003261745 METAR LIRA 261745Z 18007KT 160V230 6000 BKN015 14/12 Q1017=
201003261715 METAR LIRA 261715Z 19008KT 140V230 6000 BKN015 14/12 Q1017=
201003261645 METAR LIRA 261645Z 22008KT 160V260 7000 SCT015 14/12 Q1017=
201003261615 METAR LIRA 261615Z 22008KT 9999 FEW030 SCT200 14/13 Q1017=
201003261545 METAR LIRA 261545Z 21011KT 160V240 CAVOK 15/12 Q1016=
201003261515 METAR LIRA 261515Z 21010KT 160V240 CAVOK 16/12 Q1016=
201003261415 METAR LIRA 261415Z 20011KT CAVOK 19/10 Q1016=
201003261215 METAR LIRA 261215Z 21010KT 150V250 9999 FEW040 18/11 Q1019=
201003261145 METAR LIRA 261145Z 21010KT 160V250 9999 SCT040 18/09 Q1019=
201003261115 METAR LIRA 261115Z 19010KT 130V240 9999 SCT035 18/07 Q1019=
201003261045 METAR LIRA 261045Z 19010KT 130V220 9999 SCT035 18/08 Q1019=
201003261015 METAR LIRA 261015Z 17011KT 150V220 9999 SCT035 18/08 Q1019=
201003260945 METAR LIRA 260945Z 19010KT 160V230 9999 FEW020 SCT200 18/07
                        Q1019=
201003260915 METAR LIRA 260915Z 18012KT 9999 FEW020 SCT200 18/07 Q1019=
201003260845 METAR LIRA 260845Z 16013KT 130V210 9999 FEW080 17/09 Q1019=
201003260815 METAR LIRA 260815Z 17011KT 130V220 9999 FEW080 16/08 Q1019=
201003260745 METAR LIRA 260745Z 19003KT 9999 FEW080 14/09 Q1019=
201003260715 METAR LIRA 260715Z 07002KT 9999 FEW080 SCT200 11/09 Q1019=
201003260645 METAR LIRA 260645Z 07003KT 8000 FEW080 SCT200 09/08 Q1019=
201003260615 METAR LIRA 260615Z 03003KT 8000 FEW080 BKN200 09/07 Q1019=
201003260545 METAR LIRA 260545Z 00000KT 8000 FEW080 07/05 Q1019=
201003260515 METAR LIRA 260515Z 00000KT 8000 FEW080 07/05 Q1019=
201003260445 METAR LIRA 260445Z 00000KT 8000 NSC 07/05 Q1019=
201003260415 METAR LIRA 260415Z 00000KT 8000 NSC 07/05 Q1019=
201003260345 METAR LIRA 260345Z 00000KT 8000 NSC 08/07 Q1019=
201003260315 METAR LIRA 260315Z 00000KT 8000 NSC 08/06 Q1019=
201003260245 METAR LIRA 260245Z 09002KT 8000 NSC 08/07 Q1019=
201003260215 METAR LIRA 260215Z 08002KT 8000 NSC 08/07 Q1019=
201003260145 METAR LIRA 260145Z 11002KT 8000 NSC 08/07 Q1020=
201003260115 METAR LIRA 260115Z 00000KT CAVOK 09/08 Q1020=
201003260045 METAR LIRA 260045Z 00000KT CAVOK 10/09 Q1020=
201003260015 METAR LIRA 260015Z 03001KT CAVOK 10/09 Q1020=
201003252350 METAR LIRA 260045Z 00000KT CAVOK 10/09 Q1020=
201003252345 METAR LIRA 252345Z 03002KT CAVOK 10/09 Q1020=
201003252315 METAR LIRA 252315Z 04002KT CAVOK 10/09 Q1020=
201003252245 METAR LIRA 252245Z 03002KT CAVOK 11/10 Q1020=
201003252215 METAR LIRA 252215Z 03002KT CAVOK 11/10 Q1020=
201003252145 METAR LIRA 252145Z 06005KT 030V110 CAVOK 11/10 Q1020=
201003252115 METAR LIRA 252115Z 08005KT CAVOK 11/09 Q1020=
201003252045 METAR LIRA 252045Z 10003KT CAVOK 11/08 Q1020=
201003252015 METAR LIRA 252015Z 17005KT CAVOK 12/10 Q1020=
201003251945 METAR LIRA 251945Z 17005KT 140V200 CAVOK 12/10 Q1019=
201003251915 METAR LIRA 251915Z 19005KT 140V230 CAVOK 13/10 Q1019=
201003251845 METAR LIRA 251845Z 17004KT CAVOK 13/11 Q1019=
201003251815 METAR LIRA 251815Z 17006KT CAVOK 13/11 Q1018=
201003251745 METAR LIRA 251745Z 19008KT CAVOK 14/11 Q1018=
201003251715 METAR LIRA 251715Z 19007KT 160V220 CAVOK 15/11 Q1018=
201003251645 METAR LIRA 251645Z 19011KT CAVOK 16/10 Q1017=
201003251615 METAR LIRA 251615Z 19011KT 150V240 9999 FEW025 16/10 Q1017=
201003251545 METAR LIRA 251545Z 19009KT 150V240 9999 FEW020 18/11 Q1017=
201003251515 METAR LIRA 251515Z 19009KT 150V240 9999 FEW020 18/11 Q1017=
201003251445 METAR LIRA 251445Z 21007KT 150V260 9999 FEW022 18/12 Q1017=
201003251415 METAR LIRA 251415Z 19008KT 150V240 9999 FEW025 18/12 Q1017=
201003251315 METAR LIRA 251315Z 17009KT 140V230 9999 FEW017 SCT070 17/11
                        Q1018=
201003251245 METAR LIRA 251245Z 19009KT 140V250 9000 FEW018 SCT060 17/12
                        Q1018=
201003251215 METAR LIRA 251215Z 20008KT 150V240 9000 FEW018 SCT030 17/12
                        Q1018=
201003251145 METAR LIRA 251145Z 15009KT 110V190 9000 FEW018 SCT030 17/11
                        Q1018=
201003251115 METAR LIRA 251115Z 17011KT 130V230 8000 FEW018 SCT030 16/10
                        Q1018=
201003251045 METAR LIRA 251045Z 17009KT 130V210 9000 FEW018 SCT030 15/10
                        Q1018=
201003251015 METAR LIRA 251015Z 18008KT 140V230 9000 FEW018 SCT030 15/10
                        Q1019=
201003250945 METAR LIRA 250945Z 19007KT 140V230 9000 FEW018 SCT030 15/11
                        Q1019=
201003250915 METAR LIRA 250915Z 15007KT 110V190 9000 FEW018 SCT030 15/11
                        Q1019=
201003250845 METAR LIRA 250845Z 16011KT 8000 FEW018 SCT025 14/10 Q1019=
201003250815 METAR LIRA 250815Z 16010KT 130V210 8000 FEW018 SCT025 14/10
                        Q1019=
201003250745 METAR LIRA 250745Z 16009KT 110V200 9999 FEW018 SCT025 14/10
                        Q1018=
201003250715 METAR LIRA 250715Z 17008KT 140V220 7000 FEW018 13/10 Q1018=
201003250645 METAR LIRA 250645Z 19004KT 150V210 8000 FEW025 11/09 Q1018=
201003250615 METAR LIRA 250615Z 00000KT 9999 FEW025 08/07 Q1018=
201003250545 METAR LIRA 250545Z 22003KT CAVOK 07/06 Q1018=
201003250445 METAR LIRA 250445Z 00000KT 9999 FEW070 07/06 Q1017=
201003250145 METAR LIRA 250145Z 03004KT 9999 FEW010 09/07 Q1017=
201003250045 METAR LIRA 250045Z 16003KT 9999 FEW010 08/07 Q1017=
201003250015 METAR LIRA 250015Z 11003KT 9999 FEW010 07/05 Q1017=
201003242350 METAR LIRA 250045Z 16003KT 9999 FEW010 08/07 Q1017=
201003242345 METAR LIRA 242345Z 14007KT 9999 FEW010 08/06 Q1017=
201003242315 METAR LIRA 242315Z 17001KT 9999 FEW010 09/07 Q1017=
201003242245 METAR LIRA 242245Z 11002KT 9999 FEW070 09/07 Q1017=
201003242215 METAR LIRA 242215Z 13002KT 9999 FEW070 10/07 Q1017=
201003242145 METAR LIRA 242145Z 16004KT 9999 FEW070 10/08 Q1017=
201003242115 METAR LIRA 242115Z 19002KT 9999 FEW070 10/08 Q1017=
201003242045 METAR LIRA 242045Z 27002KT 9999 FEW070 10/08 Q1017=
201003242015 METAR LIRA 242015Z 14002KT 9999 FEW070 11/08 Q1016=
201003241945 METAR LIRA 241945Z 15003KT 9999 FEW070 12/09 Q1016=
201003241915 METAR LIRA 241915Z 17006KT 9999 FEW070 13/10 Q1016=
201003241845 METAR LIRA 241845Z 18005KT 9999 FEW080 SCT200 13/09 Q1016=
201003241815 METAR LIRA 241815Z 18005KT 160V220 9999 FEW020 SCT200 13/09
                        Q1015=
201003241745 METAR LIRA 241745Z 21005KT 9999 FEW020 SCT200 14/08 Q1015=
201003241715 METAR LIRA 241715Z 23002KT 9999 FEW020 SCT200 15/09 Q1015=
201003241645 METAR LIRA 241645Z 25004KT 9999 FEW020 SCT080 17/08 Q1015=
201003241615 METAR LIRA 241615Z 29004KT 9999 FEW020 SCT080 17/08 Q1015=
201003241545 METAR LIRA 241545Z 26003KT 9999 FEW020 SCT080 17/08 Q1015=
201003241515 METAR LIRA 241515Z 27005KT 9999 FEW020 SCT080 17/08 Q1015=
201003241445 METAR LIRA 241445Z 25006KT 200V300 9999 FEW020 SCT080 17/09
                        Q1015=
201003241415 METAR LIRA 241415Z 27004KT 9999 FEW020 SCT080 17/09 Q1015=
201003241345 METAR LIRA 241345Z 23005KT 9999 FEW020 SCT080 17/09 Q1015=
201003241315 METAR LIRA 241315Z 19003KT 9999 FEW020 SCT080 17/09 Q1015=
201003241245 METAR LIRA 241245Z 33003KT 9999 FEW020 SCT080 17/09 Q1016=
201003241215 METAR LIRA 241215Z 31003KT 9999 FEW020 SCT080 17/09 Q1016=
201003241200 METAR LIRA INTER=
201003241145 METAR LIRA 241145Z 30003KT 9999 FEW020 SCT080 17/09 Q1016=
201003241115 METAR LIRA 241115Z 30004KT 9999 SCT080 17/09 Q1017=
201003241045 METAR LIRA 241045Z 33001KT 9999 SCT080 16/09 Q1017=
201003241015 METAR LIRA 241015Z 30003KT 9999 SCT080 16/09 Q1017=
201003240945 METAR LIRA 240945Z 06002KT 9999 SCT080 15/10 Q1017=
201003240915 METAR LIRA 240915Z 35002KT 9999 FEW040 SCT080 14/09 Q1017=
201003240845 METAR LIRA 240845Z 36001KT 9999 FEW035 BKN080 13/09 Q1016=
201003240815 METAR LIRA 240815Z 34002KT 9999 FEW035 BKN080 12/09 Q1016=
201003240745 METAR LIRA 240745Z 00000KT 9999 FEW035 BKN080 12/09 Q1016=
201003240715 METAR LIRA 240715Z 00000KT 9999 FEW035 BKN080 11/09 Q1016=
201003240645 METAR LIRA 240645Z 00000KT 9999 FEW030 BKN080 10/09 Q1015=
201003240615 METAR LIRA 240615Z 05002KT 9999 OVC080 10/09 Q1015=
201003240545 METAR LIRA 240545Z 04002KT 9999 BKN080 10/09 Q1015=
201003240515 METAR LIRA 240515Z 32002KT 9999 SCT080 10/09 Q1015=
201003240445 METAR LIRA 240445Z 06002KT 9999 SCT070 10/09 Q1015=
201003240415 METAR LIRA 240415Z 05002KT 9999 FEW070 10/09 Q1015=
201003240345 METAR LIRA 240345Z 03003KT 9999 FEW070 10/09 Q1015=
201003240315 METAR LIRA 240315Z 01001KT 9999 FEW070 10/09 Q1015=
201003240245 METAR LIRA 240245Z 04003KT 9999 FEW070 10/09 Q1015=
201003240215 METAR LIRA 240215Z 32001KT 9999 FEW070 10/09 Q1015=
201003240145 METAR LIRA 240145Z 03002KT 9999 FEW070 10/08 Q1015=
201003240115 METAR LIRA 240115Z 04004KT 9999 SCT070 10/09 Q1016=
201003240045 METAR LIRA 240045Z 04003KT 9999 SCT070 10/09 Q1016=
201003240015 METAR LIRA 240015Z 04003KT 9999 SCT070 11/09 Q1016=
201003232350 METAR LIRA 240045Z 04003KT 9999 SCT070 10/09 Q1016=
201003232345 METAR LIRA 232345Z 09002KT 9999 SCT070 11/09 Q1016=
201003232315 METAR LIRA 232315Z 11002KT 9999 SCT070 11/09 Q1016=
201003232245 METAR LIRA 232245Z 10002KT 9999 SCT080 11/09 Q1016=
201003232215 METAR LIRA 232215Z 13002KT 9999 SCT080 11/09 Q1016=
201003232145 METAR LIRA 232145Z 14001KT 9999 SCT070 12/10 Q1016=
201003232115 METAR LIRA 232115Z 13001KT 9999 FEW030 SCT070 12/10 Q1016=
201003232045 METAR LIRA 232045Z 13002KT 9999 FEW030 SCT060 13/11 Q1016=
201003232015 METAR LIRA 232015Z 20003KT 9999 FEW030 SCT060 13/10 Q1016=
201003231945 METAR LIRA 231945Z 18004KT 9999 FEW030 SCT060 13/11 Q1016=
201003231915 METAR LIRA 231915Z 16004KT 9999 FEW035 SCT070 13/11 Q1016=
201003231845 METAR LIRA 231845Z 16003KT 9999 FEW035 SCT070 13/11 Q1016=
201003231815 METAR LIRA 231815Z 17002KT 9999 FEW035 BKN070 13/11 Q1016=
201003231745 METAR LIRA 231745Z 08003KT 9999 FEW035 SCT070 14/09 Q1016=
201003231715 METAR LIRA 231715Z 04002KT 9999 SCT070 15/10 Q1016=
201003231645 METAR LIRA 231645Z 06005KT 020V110 9999 FEW020 SCT070 BKN200
                        15/08 Q1017=
201003231615 METAR LIRA 231615Z 05003KT 9999 FEW020 SCT070 BKN200 15/10
                        Q1017=
201003231545 METAR LIRA 231545Z 04005KT 350V090 9999 FEW020 SCT070 BKN200
                        16/10 Q1017=
201003231515 METAR LIRA 231515Z 01005KT 300V060 9999 FEW020 BKN070 16/10
                        Q1017=
201003231445 METAR LIRA 231445Z 02006KT 310V100 9999 FEW020 BKN070 17/10
                        Q1017=
201003231415 METAR LIRA 231415Z 36007KT 330V080 9999 FEW020 BKN080 17/10
                        Q1017=
201003231345 METAR LIRA 231345Z 36003KT 9999 FEW020 SCT080 17/10 Q1017=
201003231315 METAR LIRA 231315Z 33004KT 9999 FEW020 SCT070 16/09 Q1017=
201003231245 METAR LIRA 231245Z 01001KT 9999 FEW020 SCT080 16/10 Q1018=
201003231215 METAR LIRA 231215Z 08003KT 9999 SCT030 SCT070 BKN080 15/12
                        Q1018=
201003231145 METAR LIRA 231145Z 01004KT 9999 -RA SCT030 SCT070 BKN080
                        14/12 Q1019=
201003231115 METAR LIRA 231115Z 35002KT 9999 -RA SCT030 SCT070 BKN080
                        14/12 Q1019=
201003231045 METAR LIRA 231045Z 06002KT 9999 -RA SCT030 SCT070 BKN090
                        14/12 Q1019=
201003231015 METAR LIRA 231015Z 04003KT 9999 -RA SCT030 BKN090 14/11 Q1019=
201003230945 METAR LIRA 230945Z 03004KT 9999 SCT030 BKN090 14/10 Q1019=
201003230915 METAR LIRA 230915Z 02003KT 9999 FEW030 SCT070 BKN090 14/09
                        Q1019=
201003230845 METAR LIRA 230845Z 36003KT 9999 FEW030 SCT070 BKN090 13/09
                        Q1018=
201003230815 METAR LIRA 230815Z 03004KT 010V070 9999 FEW030 SCT070 13/10
                        Q1018=
201003230745 METAR LIRA 230745Z 02003KT 9999 FEW030 SCT070 12/10 Q1018=
201003230715 METAR LIRA 230715Z 04005KT 360V090 9999 FEW030 BKN070 12/10
                        Q1018=
201003230645 METAR LIRA 230645Z 04005KT 340V090 9999 FEW030 BKN070 11/09
                        Q1018=
201003230615 METAR LIRA 230615Z 05004KT 9999 FEW030 SCT070 10/09 Q1018=
201003230545 METAR LIRA 230545Z 05004KT 9999 FEW030 SCT070 09/09 Q1018=
201003230515 METAR LIRA 230515Z 05003KT 9999 FEW030 SCT070 09/08 Q1018=
201003230445 METAR LIRA 230445Z 00000KT 9999 FEW030 SCT070 09/09 Q1018=
201003230415 METAR LIRA 230415Z 00000KT 9999 SCT080 10/09 Q1018=
201003230345 METAR LIRA 230345Z 06003KT 9999 SCT080 10/09 Q1018=
201003230315 METAR LIRA 230315Z 05004KT 9999 FEW010 09/08 Q1019=
201003230245 METAR LIRA 230245Z 08005KT 9999 FEW080 08/08 Q1019=
201003230215 METAR LIRA 230215Z 19001KT 9999 FEW080 09/08 Q1019=
201003230145 METAR LIRA 230145Z 19002KT 9999 FEW080 09/08 Q1019=
201003222345 METAR LIRA 222345Z 19002KT 9999 FEW030 SCT070 11/09 Q1019=
201003222315 METAR LIRA 222315Z 26004KT 9999 SCT070 11/09 Q1019=
201003222245 METAR LIRA 222245Z 22003KT 9999 SCT070 12/08 Q1019=
201003222215 METAR LIRA 222215Z 07004KT 9999 SCT060 12/08 Q1019=
201003222145 METAR LIRA 222145Z 08002KT 9999 FEW035 SCT080 13/07 Q1019=
201003222115 METAR LIRA 222115Z 00000KT 9999 FEW030 BKN080 14/08 Q1019=
201003222045 METAR LIRA 222045Z 22002KT 9999 FEW030 BKN080 14/08 Q1019=
201003222015 METAR LIRA 222015Z 23001KT 9999 FEW030 BKN080 15/09 Q1019=
201003221945 METAR LIRA 221945Z 20002KT 9999 FEW030 BKN080 15/08 Q1019=
201003221915 METAR LIRA 221915Z 29002KT 9999 FEW030 15/09 Q1019=
201003221845 METAR LIRA 221845Z 31005KT 300V010 9999 SCT035 16/09 Q1018=
201003221815 METAR LIRA 221815Z 10002KT 020V110 9999 SCT030 16/07 Q1018=
201003221745 METAR LIRA 221745Z 12003KT 9999 FEW030 SCT070 16/07 Q1019=
201003221715 METAR LIRA 221715Z 16005KT 100V180 9999 FEW030 SCT070 17/07
                        Q1019=
201003221645 METAR LIRA 221645Z 13005KT 090V180 9999 SCT080 17/08 Q1019=
201003221615 METAR LIRA 221615Z 16008KT 9999 SCT070 17/09 Q1019=
201003221545 METAR LIRA 221545Z 18005KT 130V210 9999 SCT070 18/10 Q1019=
201003221515 METAR LIRA 221515Z 15007KT 120V210 9999 SCT080 BKN100 19/09
                        Q1019=
201003221445 METAR LIRA 221445Z 17006KT 110V210 9999 SCT080 19/10 Q1019=
201003221415 METAR LIRA 221415Z 14007KT 9999 SCT080 19/11 Q1019=
201003221345 METAR LIRA 221345Z 31004KT 9999 SCT080 19/09 Q1019=
201003221315 METAR LIRA 221315Z 32004KT 9999 SCT080 18/08 Q1019=
201003221245 METAR LIRA 221245Z 31001KT 9999 SCT080 18/08 Q1019=
201003221215 METAR LIRA 221215Z 33002KT 9999 SCT080 18/08 Q1020=
201003221145 METAR LIRA 221145Z 32004KT 9999 SCT080 17/08 Q1020=
201003221115 METAR LIRA 221115Z 33004KT 9999 SCT080 17/08 Q1020=
201003221045 METAR LIRA 221045Z 24001KT 9999 BKN080 BKN100 16/08 Q1021=
201003221015 METAR LIRA 221015Z 32002KT 9999 BKN080 BKN100 16/09 Q1021=
201003220945 METAR LIRA 220945Z 07005KT 9999 BKN080 15/10 Q1021=
201003220915 METAR LIRA 220915Z 08005KT 9999 BKN070 14/09 Q1021=
201003220845 METAR LIRA 220845Z 20003KT 9999 -RA BKN070 13/08 Q1021=
201003220815 METAR LIRA 220815Z 25004KT 9999 -RA SCT080 14/07 Q1021=
201003220745 METAR LIRA 220745Z 25003KT 9999 SCT080 BKN100 15/06 Q1021=
201003220715 METAR LIRA 220715Z 22003KT 9999 SCT080 14/06 Q1021=
201003220645 METAR LIRA 220645Z 09003KT 9999 SCT080 13/05 Q1021=
201003220615 METAR LIRA 220615Z 09003KT 9999 SCT080 13/06 Q1021=
201003220545 METAR LIRA 220545Z 09003KT 9999 SCT080 13/06 Q1021=
201003220515 METAR LIRA 220515Z 18003KT 9999 SCT080 12/05 Q1021=
201003220445 METAR LIRA 220445Z 10006KT 9999 SCT080 12/05 Q1022=
201003220415 METAR LIRA 220415Z 14004KT 9999 SCT080 11/07 Q1022=
201003220345 METAR LIRA 220345Z 23001KT 9999 -RA SCT070 11/07 Q1022=
201003220315 METAR LIRA 220315Z 09002KT 9999 -RA SCT070 11/07 Q1022=
201003220245 METAR LIRA 220245Z 02003KT 9999 SCT070 11/06 Q1022=
201003220215 METAR LIRA 220215Z 34002KT 9999 SCT070 11/05 Q1022=
201003220145 METAR LIRA 220145Z 09001KT 9999 SCT070 11/04 Q1023=
201003220115 METAR LIRA 220115Z 00000KT 9999 SCT070 11/04 Q1023=
201003220045 METAR LIRA 220045Z 07003KT 9999 SCT070 11/04 Q1024=
201003220015 METAR LIRA 220015Z 07002KT 9999 SCT070 11/05 Q1024=
201003212350 METAR LIRA 220045Z 07003KT 9999 SCT070 11/04 Q1024=
201003212345 METAR LIRA 212345Z 35001KT 9999 SCT070 12/04 Q1024=
201003212315 METAR LIRA 212315Z 04001KT 9999 SCT070 12/04 Q1024=
201003212245 METAR LIRA 212245Z 04002KT 9999 SCT070 12/05 Q1025=
201003212215 METAR LIRA 212215Z 06001KT 9999 SCT080 12/04 Q1025=
201003212145 METAR LIRA 212145Z 02002KT 9999 SCT080 12/04 Q1025=
201003212115 METAR LIRA 212115Z 02001KT 9999 SCT080 12/03 Q1025=
201003212045 METAR LIRA 212045Z 18001KT 9999 SCT080 11/02 Q1025=
201003212015 METAR LIRA 212015Z 07003KT 9999 SCT080 11/01 Q1025=
201003211945 METAR LIRA 211945Z 08002KT 9999 SCT080 11/02 Q1025=
201003211915 METAR LIRA 211915Z 10002KT 9999 SCT080 12/01 Q1025=
201003211845 METAR LIRA 211845Z 08002KT 9999 SCT080 12/02 Q1025=
201003211815 METAR LIRA 211815Z 08004KT 9999 SCT080 12/03 Q1025=
201003211745 METAR LIRA 211745Z 08002KT 9999 SCT080 13/02 Q1025=
201003211715 METAR LIRA 211715Z 12004KT 9999 SCT080 14/03 Q1025=
201003211645 METAR LIRA 211645Z 16003KT 9999 BKN080 15/04 Q1025=
201003211615 METAR LIRA 211615Z 18005KT 9999 BKN080 15/03 Q1025=
201003211545 METAR LIRA 211545Z 17005KT 130V220 9999 BKN080 15/04 Q1025=
201003211515 METAR LIRA 211515Z 16007KT 120V210 9999 BKN080 16/05 Q1025=
201003211445 METAR LIRA 211445Z 16011KT 120V210 9999 BKN080 16/06 Q1025=
201003211415 METAR LIRA 211415Z 16012KT 120V210 9999 BKN080 16/05 Q1025=
201003211345 METAR LIRA 211345Z 17012KT 130V220 9999 BKN080 16/05 Q1025=
201003211315 METAR LIRA 211315Z 18013KT 120V210 9999 BKN080 16/05 Q1024=
201003211245 METAR LIRA 211245Z 18012G22KT 150V240 9999 BKN080 16/05 Q1024=
201003211215 METAR LIRA 211215Z 18012KT 130V220 9999 BKN080 16/05 Q1024=
201003211145 METAR LIRA 211145Z 32003KT 9999 BKN080 16/04 Q1025=
201003211115 METAR LIRA 211115Z 14012KT 090V180 9999 BKN080 16/03 Q1025=
201003211045 METAR LIRA 211045Z 16010KT 140V230 9999 BKN080 16/03 Q1025=
201003211015 METAR LIRA 211015Z 13009KT 9999 BKN080 15/05 Q1025=
201003210945 METAR LIRA 210945Z 31001KT 9999 BKN080 15/07 Q1025=
201003210915 METAR LIRA 210915Z 01002KT 9999 BKN080 13/07 Q1025=
201003210845 METAR LIRA 210845Z 03003KT 9999 BKN080 13/08 Q1025=
201003210815 METAR LIRA 210815Z 01002KT 9999 BKN080 12/08 Q1025=
201003210745 METAR LIRA 210745Z 02003KT 9999 BKN080 11/08 Q1025=
201003210715 METAR LIRA 210715Z 13001KT 9000 BKN080 10/07 Q1025=
201003210645 METAR LIRA 210645Z 00000KT 8000 BKN080 09/08 Q1025=
201003210615 METAR LIRA 210615Z 36002KT 8000 SCT080 09/07 Q1025=
201003210545 METAR LIRA 210545Z 06003KT 8000 SCT080 09/08 Q1025=
201003210515 METAR LIRA 210515Z 33004KT 8000 SCT080 09/07 Q1025=
201003210445 METAR LIRA 210445Z 32004KT 9999 FEW080 09/05 Q1025=
201003210415 METAR LIRA 210415Z 17005KT 9999 FEW021 11/05 Q1025=
201003210345 METAR LIRA 210345Z 18005KT 120V210 CAVOK 11/04 Q1025=
201003210315 METAR LIRA 210315Z 00000KT CAVOK 08/05 Q1025=
201003210245 METAR LIRA 210245Z 00000KT CAVOK 08/07 Q1025=
201003210215 METAR LIRA 210215Z 00000KT 9999 FEW080 08/06 Q1025=
201003210145 METAR LIRA 210145Z 22001KT 9999 FEW080 08/07 Q1026=
201003210115 METAR LIRA 210115Z 00000KT 9999 FEW080 09/07 Q1026=
201003210045 METAR LIRA 210045Z 05003KT 9999 FEW080 09/07 Q1026=
201003210015 METAR LIRA 210015Z 36002KT 9999 FEW080 09/07 Q1026=
201003202350 METAR LIRA 210045Z 05003KT 9999 FEW080 09/07 Q1026=
201003202345 METAR LIRA 202345Z 00000KT 9999 FEW080 10/07 Q1026=
201003202315 METAR LIRA 202315Z 34002KT 9999 FEW080 10/05 Q1026=
201003202245 METAR LIRA 202245Z 14002KT 9999 SCT080 11/04 Q1026=
201003202215 METAR LIRA 202215Z 14005KT 9999 SCT080 11/05 Q1026=
201003202145 METAR LIRA 202145Z 00000KT 9999 FEW080 11/07 Q1026=
201003202115 METAR LIRA 202115Z 24003KT 9999 SCT080 10/07 Q1026=
201003202045 METAR LIRA 202045Z 11005KT 9999 FEW080 11/07 Q1026=
201003202015 METAR LIRA 202015Z 16004KT 9999 BKN080 12/07 Q1027=
201003201945 METAR LIRA 201945Z 19003KT 9999 BKN080 12/07 Q1026=
201003201915 METAR LIRA 201915Z 19004KT 9999 BKN080 12/07 Q1026=
201003201845 METAR LIRA 201845Z 18004KT 9999 BKN080 12/07 Q1026=
201003201815 METAR LIRA 201815Z 17006KT 9999 BKN080 12/09 Q1026=
201003201745 METAR LIRA 201745Z 18004KT 9999 BKN080 13/08 Q1026=
201003201715 METAR LIRA 201715Z 14008KT 9999 SCT080 12/06 Q1026=
201003201645 METAR LIRA 201645Z 15011KT 110V180 9999 SCT080 13/06 Q1026=
201003201615 METAR LIRA 201615Z 17009KT 120V210 9999 SCT080 13/08 Q1026=
201003201545 METAR LIRA 201545Z 16010KT 140V200 9999 SCT080 13/08 Q1026=
201003201515 METAR LIRA 201515Z 17008KT 130V200 9999 SCT080 13/07 Q1026=
201003201445 METAR LIRA 201445Z 17013KT 140V210 9999 SCT080 14/07 Q1026=
201003201415 METAR LIRA 201415Z 17010KT 140V210 9999 SCT080 14/07 Q1026=
201003201345 METAR LIRA 201345Z 18010KT 140V210 9999 SCT080 15/07 Q1026=
201003201315 METAR LIRA 201315Z 19011KT 160V220 9999 SCT080 15/08 Q1026=
201003201245 METAR LIRA 201245Z 18012KT 9999 FEW080 14/08 Q1026=
201003201215 METAR LIRA 201215Z 18009KT 160V220 CAVOK 14/08 Q1027=
201003201145 METAR LIRA 201145Z 18009KT 150V230 CAVOK 15/08 Q1027=
201003201115 METAR LIRA 201115Z 18009KT 150V220 CAVOK 15/08 Q1027=
201003201045 METAR LIRA 201045Z 19011KT 150V240 CAVOK 15/08 Q1028=
201003201015 METAR LIRA 201015Z 19009KT 120V220 9999 FEW080 15/08 Q1028=
201003200945 METAR LIRA 200945Z 18011KT 140V200 9999 FEW080 15/07 Q1028=
201003200915 METAR LIRA 200915Z 16007KT 9999 FEW070 15/08 Q1028=
201003200845 METAR LIRA 200845Z 08004KT 9000 FEW070 14/08 Q1028=
201003200815 METAR LIRA 200815Z 04002KT 9000 FEW070 12/09 Q1029=
201003200745 METAR LIRA 200745Z 36002KT 9000 FEW070 11/09 Q1029=
201003200715 METAR LIRA 200715Z 04002KT 9999 FEW070 09/08 Q1029=
201003200645 METAR LIRA 200645Z 08004KT 9999 SCT070 08/07 Q1029=
201003200615 METAR LIRA 200615Z 00000KT 9999 SCT070 07/06 Q1029=
201003200545 METAR LIRA 200545Z 00000KT 9999 SCT070 06/05 Q1028=
201003200515 METAR LIRA 200515Z 14002KT 9999 FEW070 06/04 Q1028=
201003200445 METAR LIRA 200445Z 15002KT 9999 FEW030 SCT200 07/05 Q1028=
201003200415 METAR LIRA 200415Z 14002KT 9999 FEW030 SCT070 07/05 Q1028=
201003200345 METAR LIRA 200345Z 15002KT 9999 FEW030 SCT070 07/06 Q1028=
201003200315 METAR LIRA 200315Z 00000KT 9999 FEW030 SCT070 09/07 Q1028=
201003200245 METAR LIRA 200245Z 09004KT 9999 FEW030 SCT070 09/07 Q1029=
201003200215 METAR LIRA 200215Z 10004KT 9999 FEW030 SCT070 09/07 Q1029=
201003200145 METAR LIRA 200145Z 00000KT 9999 FEW030 SCT070 09/07 Q1030=
201003200115 METAR LIRA 200115Z 10003KT 9999 FEW030 SCT070 09/07 Q1030=
201003200045 METAR LIRA 200045Z 10005KT 9999 FEW030 SCT080 09/07 Q1030=
201003200015 METAR LIRA 200015Z 02004KT 9999 FEW030 SCT080 09/07 Q1030=
201003192350 METAR LIRA 200045Z 10005KT 9999 FEW030 SCT080 09/07 Q1030=
201003192345 METAR LIRA 192345Z 18004KT 9999 FEW030 SCT080 10/08 Q1030=
201003192315 METAR LIRA 192315Z 16005KT 9999 FEW030 SCT080 11/09 Q1030=
201003192245 METAR LIRA 192245Z 14005KT 9999 FEW030 SCT060 BKN080 11/09
                        Q1030=
201003192215 METAR LIRA 192215Z 13005KT 9999 FEW030 SCT060 BKN080 10/08
                        Q1030=
201003192145 METAR LIRA 192145Z 14005KT 9999 FEW030 SCT060 BKN080 11/08
                        Q1030=
201003192115 METAR LIRA 192115Z 16005KT 9999 FEW030 SCT060 BKN080 11/09
                        Q1030=
201003192045 METAR LIRA 192045Z 17005KT 9999 FEW030 SCT060 BKN080 11/09
                        Q1030=
201003192015 METAR LIRA 192015Z 16006KT 9999 FEW030 SCT060 BKN080 11/09
                        Q1030=
201003191945 METAR LIRA 191945Z 16006KT 9999 FEW030 SCT060 BKN080 11/08
                        Q1030=
201003191915 METAR LIRA 191915Z 16006KT 9999 FEW030 SCT060 BKN080 11/08
                        Q1030=
201003191845 METAR LIRA 191845Z 16007KT 9999 SCT018 BKN070 12/09 Q1030=
201003191815 METAR LIRA 191815Z 16006KT 9999 SCT018 BKN070 12/10 Q1030=
201003191745 METAR LIRA 191745Z 19004KT 9999 SCT018 BKN070 12/10 Q1030=
201003191715 METAR LIRA 191715Z 20004KT 9999 SCT018 BKN070 12/09 Q1030=
201003191645 METAR LIRA 191645Z 19008KT 150V260 9999 SCT018 SCT070 13/09
                        Q1030=
201003191615 METAR LIRA 191615Z 21007KT 150V260 9999 SCT018 BKN070 13/08
                        Q1030=
201003191545 METAR LIRA 191545Z 22007KT 170V250 9999 FEW018 SCT070 13/09
                        Q1030=
201003191515 METAR LIRA 191515Z 21008KT 170V250 9999 FEW018 SCT080 13/08
                        Q1030=
201003191445 METAR LIRA 191445Z 22008KT 180V270 9999 SCT018 13/08 Q1030=
201003191415 METAR LIRA 191415Z 22006KT 140V270 9999 SCT018 14/08 Q1030=
201003191345 METAR LIRA 191345Z 19007KT 160V260 9999 SCT018 15/07 Q1030=
201003191315 METAR LIRA 191315Z 19007KT 160V250 9999 SCT018 BKN200 15/07
                        Q1031=
201003191245 METAR LIRA 191245Z 18005KT 160V300 9999 SCT020 15/07 Q1031=
201003191215 METAR LIRA 191215Z 22006KT 170V260 9999 SCT018 15/07 Q1031=
201003191145 METAR LIRA 191145Z 18007KT 140V230 9999 SCT018 15/07 Q1032=
201003191115 METAR LIRA 191115Z 21005KT 150V240 9999 SCT020 14/07 Q1032=
201003191045 METAR LIRA 191045Z 21005KT 150V250 9999 SCT020 14/08 Q1032=
201003191015 METAR LIRA 191015Z 20006KT 130V240 9999 SCT020 SCT200 14/07
                        Q1032=
201003190945 METAR LIRA 190945Z 19006KT 9999 SCT020 SCT200 14/06 Q1032=
201003190915 METAR LIRA 190915Z 16002KT CAVOK 13/05 Q1032=
201003190845 METAR LIRA 190845Z 31003KT CAVOK 11/05 Q1032=
201003190815 METAR LIRA 190815Z 01002KT CAVOK 10/04 Q1032=
201003190745 METAR LIRA 190745Z 35003KT CAVOK 10/05 Q1032=
201003190715 METAR LIRA 190715Z 05003KT CAVOK 07/03 Q1032=
201003190645 METAR LIRA 190645Z 03003KT 9999 FEW080 BKN200 06/01 Q1031=
201003190615 METAR LIRA 190615Z 10005KT 9999 FEW080 BKN200 06/00 Q1031=
201003190545 METAR LIRA 190545Z 11003KT 9999 FEW080 SCT200 05/M01 Q1031=
201003190515 METAR LIRA 190515Z 11002KT 8000 FEW080 05/M01 Q1031=
201003190445 METAR LIRA 190445Z 12003KT 8000 NSC 05/M01 Q1031=
201003190415 METAR LIRA 190415Z 10004KT 8000 NSC 05/M00 Q1032=
201003190345 METAR LIRA 190345Z 11002KT 8000 NSC 05/00 Q1032=
201003190315 METAR LIRA 190315Z 00000KT 8000 NSC 04/M01 Q1032=
201003190245 METAR LIRA 190245Z 09005KT 8000 NSC 04/01 Q1032=
201003190215 METAR LIRA 190215Z 09004KT 8000 NSC 05/00 Q1032=
201003190145 METAR LIRA 190145Z 11003KT 8000 NSC 05/01 Q1032=
201003190115 METAR LIRA 190115Z 10005KT 8000 FEW070 05/02 Q1032=
201003190045 METAR LIRA 190045Z 10007KT 8000 FEW070 05/01 Q1032=
201003190015 METAR LIRA 190015Z 11004KT 8000 FEW010 05/00 Q1032=
201003182350 METAR LIRA 190045Z 10007KT 8000 FEW070 05/01 Q1032=
201003182345 METAR LIRA 182345Z 11004KT 8000 FEW010 05/02 Q1032=
201003182315 METAR LIRA 182315Z 10005KT 8000 FEW010 05/03 Q1032=
201003182245 METAR LIRA 182245Z 12004KT 8000 FEW010 05/03 Q1032=
201003182215 METAR LIRA 182215Z 13005KT 8000 FEW010 06/02 Q1032=
201003182145 METAR LIRA 182145Z 11002KT 8000 FEW010 07/03 Q1032=
201003182115 METAR LIRA 182115Z 00000KT CAVOK 07/03 Q1032=
201003182045 METAR LIRA 182045Z 10002KT CAVOK 08/05 Q1032=
201003182015 METAR LIRA 182015Z 00000KT CAVOK 08/06 Q1032=
201003181945 METAR LIRA 181945Z 17002KT 9999 FEW005 09/07 Q1032=
201003181915 METAR LIRA 181915Z 12005KT 9999 FEW005 09/07 Q1032=
201003181845 METAR LIRA 181845Z 17004KT CAVOK 10/08 Q1032=
201003181815 METAR LIRA 181815Z 19004KT CAVOK 10/08 Q1032=
201003181745 METAR LIRA 181745Z 18004KT CAVOK 10/07 Q1032=
201003181715 METAR LIRA 181715Z 21003KT 9999 FEW020 SCT200 10/06 Q1033=
201003181645 METAR LIRA 181645Z 22004KT 190V260 9999 FEW020 12/06 Q1033=
201003181615 METAR LIRA 181615Z 21006KT 150V260 9999 FEW020 12/06 Q1033=
201003181545 METAR LIRA 181545Z 21007KT 170V260 9999 FEW020 13/05 Q1033=
201003181515 METAR LIRA 181515Z 22006KT 180V260 9999 FEW020 13/05 Q1033=
201003181445 METAR LIRA 181445Z 23006KT 180V260 9999 FEW020 14/04 Q1033=
201003181415 METAR LIRA 181415Z 21007KT 160V260 9999 FEW020 14/04 Q1033=
201003181345 METAR LIRA 181345Z 22006KT 130V270 9999 FEW020 15/05 Q1033=
201003181315 METAR LIRA 181315Z 26007KT 170V290 9999 FEW020 15/05 Q1033=
201003181245 METAR LIRA 181245Z 18007KT 140V250 9999 FEW020 15/04 Q1033=
201003181215 METAR LIRA 181215Z 21006KT 140V250 9999 FEW020 14/04 Q1034=
201003181145 METAR LIRA 181145Z 21006KT 180V290 9999 FEW025 14/04 Q1034=
201003181115 METAR LIRA 181115Z 23009KT 160V270 9999 FEW025 14/05 Q1034=
201003181045 METAR LIRA 181045Z 19008KT 150V290 9999 FEW020 14/04 Q1034=
201003181015 METAR LIRA 181015Z 21004KT 160V310 9999 FEW023TCU 14/04 Q1034=
201003180945 METAR LIRA 180945Z 17004KT 9999 FEW025 14/05 Q1034=
201003180915 METAR LIRA 180915Z 19004KT CAVOK 13/05 Q1034=
201003180845 METAR LIRA 180845Z 00000KT CAVOK 12/05 Q1034=
201003180815 METAR LIRA 180815Z 05002KT CAVOK 10/04 Q1034=
201003180745 METAR LIRA 180745Z 35002KT CAVOK 07/03 Q1034=
201003180715 METAR LIRA 180715Z 04002KT CAVOK 05/02 Q1034=
201003180645 METAR LIRA 180645Z 03003KT CAVOK 04/02 Q1034=
201003180615 METAR LIRA 180615Z 36002KT CAVOK 03/01 Q1033=
201003180545 METAR LIRA 180545Z 04002KT CAVOK 02/01 Q1033=
201003180515 METAR LIRA 180515Z 07001KT CAVOK 03/01 Q1033=
201003180445 METAR LIRA 180445Z 06003KT CAVOK 03/01 Q1033=
201003180415 METAR LIRA 180415Z 01003KT CAVOK 03/M01 Q1033=
201003180345 METAR LIRA 180345Z 14004KT CAVOK 03/M01 Q1033=
201003180315 METAR LIRA 180315Z 11002KT CAVOK 02/M01 Q1033=
201003180245 METAR LIRA 180245Z 00000KT CAVOK 02/M01 Q1033=
201003180215 METAR LIRA 180215Z 11002KT CAVOK 03/M00 Q1033=
201003180145 METAR LIRA 180145Z 00000KT CAVOK 03/M01 Q1033=
201003180115 METAR LIRA 180115Z 00000KT CAVOK 04/M01 Q1033=
201003180045 METAR LIRA 180045Z 11001KT CAVOK 04/M01 Q1033=
201003180015 METAR LIRA 180015Z 15002KT CAVOK 04/M01 Q1033=
201003172350 METAR LIRA 180045Z 11001KT CAVOK 04/M01 Q1033=
201003172345 METAR LIRA 172345Z 14003KT CAVOK 04/01 Q1033=
201003172315 METAR LIRA 172315Z 14002KT CAVOK 05/02 Q1033=
201003172245 METAR LIRA 172245Z 15002KT CAVOK 06/04 Q1033=
201003172215 METAR LIRA 172215Z 00000KT CAVOK 06/05 Q1033=
201003172145 METAR LIRA 172145Z 15003KT CAVOK 06/04 Q1033=
201003172115 METAR LIRA 172115Z 18003KT CAVOK 08/05 Q1033=
201003172045 METAR LIRA 172045Z 15004KT CAVOK 08/05 Q1033=
201003172015 METAR LIRA 172015Z 17003KT CAVOK 08/06 Q1033=
201003171945 METAR LIRA 171945Z 18003KT CAVOK 08/06 Q1033=
201003171915 METAR LIRA 171915Z 18003KT CAVOK 09/05 Q1033=
201003171845 METAR LIRA 171845Z 17004KT CAVOK 10/05 Q1032=
201003171815 METAR LIRA 171815Z 19003KT 9999 FEW080 11/05 Q1032=
201003171745 METAR LIRA 171745Z 20003KT 9999 FEW080 11/04 Q1032=
201003171715 METAR LIRA 171715Z 20004KT 9999 FEW080 12/04 Q1031=
201003171645 METAR LIRA 171645Z 22004KT 9999 FEW080 12/06 Q1032=
201003171615 METAR LIRA 171615Z 24005KT 190V290 9999 FEW080 13/01 Q1032=
201003171545 METAR LIRA 171545Z 26006KT 210V310 CAVOK 14/M00 Q1032=
201003171515 METAR LIRA 171515Z 26008KT 210V330 CAVOK 14/M01 Q1031=
201003171445 METAR LIRA 171445Z 25006KT 200V300 CAVOK 16/M02 Q1031=
201003171415 METAR LIRA 171415Z 27007KT 210V310 CAVOK 15/M00 Q1031=
201003171345 METAR LIRA 171345Z 27007KT 210V310 CAVOK 16/01 Q1031=
201003171315 METAR LIRA 171315Z 24008KT 200V300 CAVOK 16/01 Q1031=
201003171245 METAR LIRA 171245Z 27005KT 210V310 CAVOK 16/M01 Q1032=
201003171215 METAR LIRA 171215Z 23002KT 9999 FEW022 16/M01 Q1032=
201003171145 METAR LIRA 171145Z 28004KT 9999 FEW022 15/00 Q1032=
201003171115 METAR LIRA 171115Z 33003KT 9999 FEW022 14/00 Q1031=
201003171045 METAR LIRA 171045Z 31003KT 9999 FEW023 14/01 Q1031=
201003171015 METAR LIRA 171015Z 29003KT 9999 FEW023 13/01 Q1031=
201003170945 METAR LIRA 170945Z 35001KT CAVOK 11/02 Q1031=
201003170915 METAR LIRA 170915Z 35003KT CAVOK 10/02 Q1031=
201003170845 METAR LIRA 170845Z 04004KT CAVOK 09/03 Q1031=
201003170815 METAR LIRA 170815Z 36005KT 330V040 CAVOK 08/03 Q1031=
201003170745 METAR LIRA 170745Z 01003KT 9000 NSC 07/03 Q1030=
201003170715 METAR LIRA 170715Z 02002KT 8000 NSC 05/02 Q1030=
201003170645 METAR LIRA 170645Z 05003KT 8000 NSC 04/02 Q1029=
201003170615 METAR LIRA 170615Z 05003KT 7000 NSC 02/02 Q1029=
201003170545 METAR LIRA 170545Z 06003KT 7000 NSC 02/02 Q1029=
201003170515 METAR LIRA 170515Z 00000KT 6000 NSC 02/01 Q1028=
201003170445 METAR LIRA 170445Z 00000KT CAVOK 02/01 Q1028=
201003170415 METAR LIRA 170415Z 00000KT CAVOK 02/01 Q1028=
201003170345 METAR LIRA 170345Z 00000KT CAVOK 02/02 Q1027=
201003170315 METAR LIRA 170315Z 00000KT CAVOK 03/02 Q1027=
201003170245 METAR LIRA 170245Z 00000KT CAVOK 03/02 Q1027=
201003170215 METAR LIRA 170215Z 00000KT CAVOK 03/02 Q1027=
201003170145 METAR LIRA 170145Z 00000KT CAVOK 04/03 Q1027=
201003170115 METAR LIRA 170115Z 00000KT CAVOK 04/03 Q1027=
201003170045 METAR LIRA 170045Z 15001KT CAVOK 04/03 Q1027=
201003170015 METAR LIRA 170015Z 12002KT CAVOK 05/04 Q1026=
201003162350 METAR LIRA 170045Z 15001KT CAVOK 04/03 Q1027=
201003162345 METAR LIRA 162345Z 00000KT CAVOK 05/04 Q1026=
201003162315 METAR LIRA 162315Z 00000KT CAVOK 06/04 Q1026=
201003162245 METAR LIRA 162245Z 10001KT CAVOK 07/05 Q1026=
201003162215 METAR LIRA 162215Z 10002KT CAVOK 07/05 Q1026=
201003162145 METAR LIRA 162145Z 12001KT CAVOK 07/05 Q1025=
201003162115 METAR LIRA 162115Z 16002KT CAVOK 07/05 Q1025=
201003162045 METAR LIRA 162045Z 20001KT CAVOK 07/06 Q1025=
201003162015 METAR LIRA 162015Z 14004KT 8000 NSC 08/07 Q1024=
201003161945 METAR LIRA 161945Z 18003KT 8000 SKC 08/07 Q1024=
201003161915 METAR LIRA 161915Z 18002KT 8000 FEW080 09/07 Q1024=
201003161845 METAR LIRA 161845Z 20002KT 9999 FEW020 10/08 Q1023=
201003161815 METAR LIRA 161815Z 19002KT 9999 FEW020 10/08 Q1023=
201003161745 METAR LIRA 161745Z 17003KT 9999 FEW020 10/06 Q1022=
201003161715 METAR LIRA 161715Z 26003KT 9999 FEW020 11/07 Q1022=
201003161645 METAR LIRA 161645Z 27005KT 220V320 9999 FEW020 11/07 Q1022=
201003161615 METAR LIRA 161615Z 27007KT 220V330 9999 FEW020 11/07 Q1022=
201003161545 METAR LIRA 161545Z 27009KT 220V330 9999 FEW020 13/05 Q1022=
201003161515 METAR LIRA 161515Z 27008KT 240V340 9999 FEW020 14/05 Q1021=
201003161445 METAR LIRA 161445Z 28010KT 200V300 9999 FEW020 14/06 Q1021=
201003161415 METAR LIRA 161415Z 27009KT 190V320 9999 FEW020 14/05 Q1021=
201003161345 METAR LIRA 161345Z 33005KT 270V030 9999 FEW020 14/M01 Q1021=
201003161315 METAR LIRA 161315Z 03004KT 9999 FEW020 14/00 Q1021=
201003161245 METAR LIRA 161245Z 00000KT 9999 FEW020 14/00 Q1021=
201003161215 METAR LIRA 161215Z 31007KT 270V340 9999 FEW020 13/M00 Q1022=
201003161145 METAR LIRA 161145Z 24003KT 9999 FEW020 13/01 Q1022=
201003161115 METAR LIRA 161115Z 31003KT 9999 FEW020 13/02 Q1022=
201003161045 METAR LIRA 161045Z 33005KT 270V360 9999 FEW020 12/02 Q1022=
201003161015 METAR LIRA 161015Z 33003KT 280V360 9999 FEW020 12/03 Q1022=
201003160945 METAR LIRA 160945Z 01004KT 9999 FEW020 11/05 Q1022=
201003160915 METAR LIRA 160915Z 33004KT 300V030 8000 FEW020 10/05 Q1022=
201003160845 METAR LIRA 160845Z 02005KT 8000 FEW020 09/05 Q1022=
201003160815 METAR LIRA 160815Z 02004KT 7000 FEW020 09/05 Q1022=
201003160745 METAR LIRA 160745Z 33004KT 290V030 9000 NSC 07/04 Q1021=
201003160715 METAR LIRA 160715Z 15002KT 9000 FEW023 07/04 Q1021=
201003160645 METAR LIRA 160645Z 00000KT 8000 FEW023 04/03 Q1021=
201003160615 METAR LIRA 160615Z 03002KT 8000 FEW030 03/03 Q1021=
201003160545 METAR LIRA 160545Z 35002KT 8000 FEW030 03/03 Q1021=
201003160515 METAR LIRA 160515Z 11002KT 8000 FEW040 03/03 Q1021=
201003160445 METAR LIRA 160445Z 03003KT 8000 FEW080 03/03 Q1020=
201003160415 METAR LIRA 160415Z 04002KT 8000 SKC 03/02 Q1020=
201003160345 METAR LIRA 160345Z 35004KT 8000 SKC 03/02 Q1020=
201003160315 METAR LIRA 160315Z 35002KT 8000 SKC 03/02 Q1020=
201003160245 METAR LIRA 160245Z 16003KT CAVOK 04/02 Q1020=
201003160215 METAR LIRA 160215Z 11001KT CAVOK 05/03 Q1020=
201003160145 METAR LIRA 160145Z 05003KT CAVOK 05/03 Q1020=
201003160115 METAR LIRA 160115Z 11005KT CAVOK 05/03 Q1021=
201003160045 METAR LIRA 160045Z 11003KT CAVOK 05/03 Q1021=
201003160015 METAR LIRA 160015Z 14002KT CAVOK 05/04 Q1021=
201003152350 METAR LIRA 160045Z 11003KT CAVOK 05/03 Q1021=
201003152345 METAR LIRA 152345Z 11002KT CAVOK 05/04 Q1021=
201003152315 METAR LIRA 152315Z 14003KT CAVOK 06/04 Q1021=
201003152245 METAR LIRA 152245Z 15002KT CAVOK 06/05 Q1021=
201003152215 METAR LIRA 152215Z 10005KT 9999 FEW010 06/04 Q1021=
201003152145 METAR LIRA 152145Z 12002KT 9999 FEW010 06/04 Q1021=
201003152115 METAR LIRA 152115Z 11003KT 9999 FEW010 07/05 Q1020=
201003152045 METAR LIRA 152045Z 16002KT 9999 FEW012 07/05 Q1020=
201003152015 METAR LIRA 152015Z 14002KT 9999 FEW020 07/06 Q1020=
201003151945 METAR LIRA 151945Z 10004KT 9999 FEW020 08/06 Q1020=
201003151915 METAR LIRA 151915Z 15002KT 9999 FEW020 08/06 Q1019=
201003151845 METAR LIRA 151845Z 17003KT 9999 FEW020 08/06 Q1019=
201003151815 METAR LIRA 151815Z 19003KT 9999 FEW020 09/06 Q1019=
201003151745 METAR LIRA 151745Z 21003KT 9999 FEW020 09/06 Q1018=
201003151715 METAR LIRA 151715Z 23003KT 9999 FEW020 SCT200 10/06 Q1018=
201003151645 METAR LIRA 151645Z 25003KT 9999 FEW020 12/07 Q1018=
201003151615 METAR LIRA 151615Z 26005KT 140V330 9999 FEW020 13/06 Q1018=
201003151545 METAR LIRA 151545Z 26006KT 210V320 9999 FEW020 13/06 Q1018=
201003151515 METAR LIRA 151515Z 26006KT 200V300 9999 SCT020 13/04 Q1018=
201003151445 METAR LIRA 151445Z 26006KT 190V310 9999 SCT020 14/03 Q1018=
201003151415 METAR LIRA 151415Z 28006KT 240V330 9999 SCT020 13/03 Q1018=
201003151345 METAR LIRA 151345Z 27006KT 190V320 9999 SCT020 14/03 Q1018=
201003151315 METAR LIRA 151315Z 27007KT 210V330 9999 SCT020 14/03 Q1018=
201003151245 METAR LIRA 151245Z 24007KT 180V300 9999 SCT020 14/03 Q1018=
201003151215 METAR LIRA 151215Z 29003KT 260V330 9999 SCT020 13/03 Q1018=
201003151145 METAR LIRA 151145Z 28005KT 270V330 9999 SCT020 13/03 Q1018=
201003151115 METAR LIRA 151115Z 29004KT 260V330 9000 SCT020 13/04 Q1019=
201003151045 METAR LIRA 151045Z 28003KT 220V300 9000 FEW020 12/04 Q1018=
201003151015 METAR LIRA 151015Z 27004KT 8000 FEW020 12/04 Q1018=
201003150945 METAR LIRA 150945Z 31003KT 7000 FEW020 11/04 Q1018=
201003150915 METAR LIRA 150915Z 33002KT 7000 FEW020 10/03 Q1018=
201003150845 METAR LIRA 150845Z 32003KT 7000 FEW020 08/04 Q1018=
201003150815 METAR LIRA 150815Z 31003KT 7000 NSC 08/03 Q1018=
201003150745 METAR LIRA 150745Z 32002KT 8000 NSC 08/04 Q1017=
201003142045 METAR LIRA 142045Z 15003KT 9999 FEW070 07/04 Q1017=
201003142015 METAR LIRA 142015Z 15003KT 9999 FEW070 08/04 Q1017=
201003141945 METAR LIRA 141945Z 16003KT 9999 FEW070 07/03 Q1017=
201003141915 METAR LIRA 141915Z 15005KT 9999 FEW070 07/03 Q1017=
201003141845 METAR LIRA 141845Z 14006KT 9999 FEW070 08/03 Q1017=
201003141815 METAR LIRA 141815Z 16004KT 9999 FEW025 08/02 Q1017=
201003141745 METAR LIRA 141745Z 17003KT 9999 FEW025 09/04 Q1017=
201003141715 METAR LIRA 141715Z 23003KT 9999 FEW025 10/02 Q1017=
201003141645 METAR LIRA 141645Z 20004KT 9999 SCT018 11/03 Q1017=
201003141615 METAR LIRA 141615Z 19005KT 160V220 9999 SCT018 12/03 Q1017=
201003141545 METAR LIRA 141545Z 23007KT 9999 SCT018 12/04 Q1017=
201003141515 METAR LIRA 141515Z 23008KT 200V260 9999 SCT018 12/04 Q1017=
201003141445 METAR LIRA 141445Z 22007KT 150V300 9999 SCT018 12/04 Q1017=
201003141415 METAR LIRA 141415Z 22008KT 180V270 9999 SCT018 13/04 Q1017=
201003141345 METAR LIRA 141345Z 23009KT 170V300 9999 SCT018 13/04 Q1017=
201003141315 METAR LIRA 141315Z 22007KT 170V310 9999 SCT018 FEW020TCU
                        13/04 Q1017=
201003141245 METAR LIRA 141245Z 22005KT 200V300 9999 SCT018 FEW020TCU
                        12/04 Q1018=
201003141215 METAR LIRA 141215Z 17007KT 140V240 9999 SCT018 FEW020TCU
                        12/04 Q1018=
201003141145 METAR LIRA 141145Z 20005KT 9999 SCT018 12/04 Q1018=
201003141115 METAR LIRA 141115Z 23004KT 9999 SCT018 12/05 Q1018=
201003141045 METAR LIRA 141045Z 22004KT 9999 SCT018 11/05 Q1018=
201003141015 METAR LIRA 141015Z 24005KT 9999 SCT018 11/06 Q1018=
201003140945 METAR LIRA 140945Z 00000KT 9999 SCT018 10/05 Q1018=
201003140915 METAR LIRA 140915Z 02003KT 9999 SCT018 07/04 Q1018=
201003140845 METAR LIRA 140845Z 03003KT 9999 SCT018 06/03 Q1018=
201003140815 METAR LIRA 140815Z 01003KT 9999 SCT018 05/02 Q1018=
201003140745 METAR LIRA 140745Z 01008KT 8000 SCT018 SCT030 04/02 Q1018=
201003140715 METAR LIRA 140715Z 03003KT 8000 SCT018 SCT030 03/01 Q1018=
201003140645 METAR LIRA 140645Z 02003KT 8000 SCT018 03/01 Q1017=
201003140615 METAR LIRA 140615Z 01003KT 8000 SCT018 02/00 Q1017=
201003140545 METAR LIRA 140545Z 02003KT 8000 SCT018 03/01 Q1017=
201003140515 METAR LIRA 140515Z 02002KT 9999 FEW001 SCT070 03/01 Q1017=
201003140445 METAR LIRA 140445Z 04004KT 9999 FEW020 SCT070 02/00 Q1017=
201003140415 METAR LIRA 140415Z 04004KT 9999 SCT070 02/M00 Q1017=
201003140345 METAR LIRA 140345Z 05006KT 9999 SCT070 02/00 Q1017=
201003140315 METAR LIRA 140315Z 06004KT 9999 FEW080 03/01 Q1017=
201003140245 METAR LIRA 140245Z 05004KT 9999 FEW070 03/01 Q1017=
201003140215 METAR LIRA 140215Z 07004KT CAVOK 03/01 Q1017=
201003140145 METAR LIRA 140145Z 04005KT CAVOK 03/01 Q1017=
201003140115 METAR LIRA 140115Z 06003KT CAVOK 03/01 Q1017=
201003140045 METAR LIRA 140045Z 03003KT CAVOK 03/02 Q1017=
201003140015 METAR LIRA 140015Z 04002KT CAVOK 03/02 Q1017=
201003132350 METAR LIRA 140045Z 03003KT CAVOK 03/02 Q1017=
201003132345 METAR LIRA 132345Z 05004KT CAVOK 04/02 Q1017=
201003132315 METAR LIRA 132315Z 03002KT CAVOK 04/02 Q1017=
201003132245 METAR LIRA 132245Z 04003KT CAVOK 04/03 Q1017=
201003132215 METAR LIRA 132215Z 36002KT CAVOK 04/02 Q1017=
201003132145 METAR LIRA 132145Z 00000KT CAVOK 04/03 Q1017=
201003132115 METAR LIRA 132115Z 00000KT CAVOK 06/03 Q1017=
201003132045 METAR LIRA 132045Z 00000KT CAVOK 06/04 Q1017=
201003132015 METAR LIRA 132015Z 11002KT CAVOK 07/04 Q1017=
201003131945 METAR LIRA 131945Z 15004KT CAVOK 07/04 Q1017=
201003131915 METAR LIRA 131915Z 16001KT 9999 FEW070 08/04 Q1017=
201003131845 METAR LIRA 131845Z 15001KT 9999 FEW070 08/04 Q1016=
201003131815 METAR LIRA 131815Z 21001KT 9999 FEW030 SCT070 09/04 Q1016=
201003131745 METAR LIRA 131745Z 26002KT 9999 FEW030 SCT070 10/04 Q1016=
201003131715 METAR LIRA 131715Z 28003KT 9999 FEW025 BKN070 10/04 Q1016=
201003131645 METAR LIRA 131645Z 27003KT 9999 FEW020 BKN070 11/04 Q1016=
201003131615 METAR LIRA 131615Z 26004KT 9999 FEW020 BKN070 11/05 Q1016=
201003131545 METAR LIRA 131545Z 27006KT 9999 FEW020 BKN070 12/03 Q1016=
201003131515 METAR LIRA 131515Z 28007KT 9999 FEW020 BKN070 12/03 Q1016=
201003131445 METAR LIRA 131445Z 33004KT 330V030 9999 SCT020 BKN070 12/M05
                        Q1016=
201003131415 METAR LIRA 131415Z 32004KT 270V360 9999 SCT020 BKN070 12/M05
                        Q1016=
201003131345 METAR LIRA 131345Z 02005KT 310V060 9999 SCT020 SCT070 12/M03
                        Q1016=
201003131315 METAR LIRA 131315Z 01004KT 310V060 9999 SCT020 SCT070 12/M03
                        Q1017=
201003131245 METAR LIRA 131245Z 33004KT 290V010 9999 SCT020 SCT070 12/M02
                        Q1017=
201003131215 METAR LIRA 131215Z 34006KT 280V030 9999 SCT020 SCT070 12/M01
                        Q1017=
201003131145 METAR LIRA 131145Z 34005KT 310V040 9999 SCT020 SCT070 12/01
                        Q1017=
201003131115 METAR LIRA 131115Z 01004KT 9999 FEW020 SCT070 12/02 Q1018=
201003131045 METAR LIRA 131045Z 35006KT 320V150 9999 FEW020 11/03 Q1018=
201003131015 METAR LIRA 131015Z 36005KT 300V060 9999 FEW020 10/04 Q1018=
201003130945 METAR LIRA 130945Z 36006KT 300V090 9999 FEW020 09/03 Q1018=
201003130915 METAR LIRA 130915Z 35005KT 300V040 9999 FEW020 08/04 Q1018=
201003130845 METAR LIRA 130845Z 01005KT 330V050 9999 FEW080 07/03 Q1018=
201003130815 METAR LIRA 130815Z 36006KT 9999 FEW080 06/03 Q1018=
201003130745 METAR LIRA 130745Z 01004KT 9999 FEW080 04/02 Q1018=
201003130715 METAR LIRA 130715Z 03004KT 9999 FEW080 03/01 Q1018=
201003130645 METAR LIRA 130645Z 03004KT 9999 4000S BR SCT004 02/01 Q1018=
201003130615 METAR LIRA 130615Z 04003KT 9999 FEW080 01/00 Q1017=
201003130545 METAR LIRA 130545Z 01001KT 9999 FEW080 01/M00 Q1017=
201003130515 METAR LIRA 130515Z 00000KT 9999 FEW080 01/M00 Q1017=
201003130445 METAR LIRA 130445Z 05004KT 8000 NSC 01/00 Q1017=
201003130415 METAR LIRA 130415Z 05005KT 8000 NSC 01/00 Q1017=
201003130345 METAR LIRA 130345Z 04003KT 7000 NSC 01/00 Q1017=
201003130315 METAR LIRA 130315Z 05004KT 7000 NSC 01/00 Q1017=
201003130245 METAR LIRA 130245Z 00000KT 7000 NSC 01/00 Q1017=
201003130215 METAR LIRA 130215Z 03002KT 7000 NSC 01/01 Q1017=
201003130145 METAR LIRA 130145Z 01003KT 7000 NSC 02/01 Q1017=
201003130115 METAR LIRA 130115Z 03001KT 8000 NSC 02/01 Q1017=
201003130045 METAR LIRA 130045Z 02002KT 7000 FEW010 03/02 Q1017=
201003130015 METAR LIRA 130015Z 04002KT 8000 NSC 03/02 Q1017=
201003122350 METAR LIRA 130045Z 02002KT 7000 FEW010 03/02 Q1017=
201003122345 METAR LIRA 122345Z 04003KT CAVOK 03/02 Q1017=
201003122315 METAR LIRA 122315Z 06002KT CAVOK 03/02 Q1017=
201003122245 METAR LIRA 122245Z 05002KT CAVOK 03/02 Q1017=
201003122215 METAR LIRA 122215Z 10002KT CAVOK 04/03 Q1017=
201003122145 METAR LIRA 122145Z 05002KT 9999 FEW070 04/02 Q1017=
201003122115 METAR LIRA 122115Z 08003KT 9999 FEW070 04/03 Q1017=
201003122045 METAR LIRA 122045Z 06004KT 9999 FEW060 05/03 Q1017=
201003122015 METAR LIRA 122015Z 06004KT 9999 SCT060 05/03 Q1017=
201003121945 METAR LIRA 121945Z 05004KT 9999 FEW035 SCT070 05/04 Q1016=
201003121915 METAR LIRA 121915Z 05005KT 9999 SCT035 SCT070 06/04 Q1016=
201003121845 METAR LIRA 121845Z 06002KT 9999 SCT035 SCT070 06/04 Q1016=
201003121815 METAR LIRA 121815Z 32002KT 9999 FEW017 BKN030 06/04 Q1016=
201003121745 METAR LIRA 121745Z 32005KT 8000 -RA FEW017 BKN030 07/04 Q1016=
201003121715 METAR LIRA 121715Z 36004KT 8000 -RA FEW017 BKN030 07/05 Q1015=
201003121645 METAR LIRA 121645Z 03004KT 9999 FEW018 SCT030 BKN070 08/05
                        Q1016=
201003121615 METAR LIRA 121615Z 05005KT 360V080 9999 FEW018 SCT030 BKN070
                        08/05 Q1016=
201003121545 METAR LIRA 121545Z 04005KT 010V070 9999 FEW018 SCT030 BKN070
                        08/05 Q1016=
201003121515 METAR LIRA 121515Z 04005KT 360V070 9999 FEW018 SCT025 BKN070
                        08/05 Q1016=
201003121445 METAR LIRA 121445Z 02005KT 9999 FEW018 FEW020TCU BKN070 08/06
                        Q1016=
201003121415 METAR LIRA 121415Z 33004KT 9999 -RA FEW018 FEW020TCU SCT025
                        BKN070 09/06 Q1016=
201003121345 METAR LIRA 121345Z 30007KT 260V350 9999 -RA FEW018 FEW020TCU
                        BKN025 08/05 Q1016=
201003121315 METAR LIRA 121315Z 09004KT 080V150 9999 -RA FEW018 BKN025
                        09/05 Q1016=
201003121245 METAR LIRA 121245Z 10002KT 9999 -RA FEW018 BKN025 09/05 Q1016=
201003121215 METAR LIRA 121215Z 00000KT 9999 -RA FEW018 BKN025 08/04 Q1016=
201003121145 METAR LIRA 121145Z 00000KT 9999 FEW018 BKN025 08/04 Q1016=
201003121115 METAR LIRA 121115Z 19002KT 9999 -RA FEW018 BKN025 08/04 Q1016=
201003121045 METAR LIRA 121045Z 21008KT 9999 -RA FEW018 BKN025 07/05 Q1016=
201003121015 METAR LIRA 121015Z 20006KT 150V240 9999 FEW018 SCT030 10/03
                        Q1016=
201003120945 METAR LIRA 120945Z 16004KT 120V210 9999 FEW020 SCT070 10/04
                        Q1016=
201003120915 METAR LIRA 120915Z 11005KT 070V160 9999 FEW030 SCT070 08/03
                        Q1016=
201003120845 METAR LIRA 120845Z 14007KT 120V200 9999 FEW030 08/03 Q1016=
201003120815 METAR LIRA 120815Z 15004KT 9999 FEW030 08/06 Q1015=
201003120745 METAR LIRA 120745Z 15001KT 9999 FEW030 05/03 Q1015=
201003120715 METAR LIRA 120715Z 07002KT 9999 FEW030 05/03 Q1015=
201003120645 METAR LIRA 120645Z 00000KT 9999 FEW030 03/02 Q1015=
201003120615 METAR LIRA 120615Z 02004KT 9999 FEW030 03/01 Q1014=
201003120545 METAR LIRA 120545Z 14008KT 9999 FEW030 03/01 Q1014=
201003120515 METAR LIRA 120515Z 08001KT 9999 FEW020 02/01 Q1014=
201003120445 METAR LIRA 120445Z 04003KT 9999 FEW020 02/01 Q1013=
201003120415 METAR LIRA 120415Z 03003KT 9999 FEW030 03/01 Q1013=
201003120345 METAR LIRA 120345Z 09003KT 9999 FEW030 03/02 Q1013=
201003120315 METAR LIRA 120315Z 09002KT 9999 FEW030 SCT060 03/02 Q1013=
201003120245 METAR LIRA 120245Z 08003KT 9999 FEW018TCU SCT060 03/02 Q1013=
201003120215 METAR LIRA 120215Z 12002KT 9999 FEW018TCU SCT060 03/02 Q1013=
201003120145 METAR LIRA 120145Z 00000KT 9999 FEW035 SCT070 03/02 Q1013=
201003120115 METAR LIRA 120115Z 00000KT 9999 SCT070 03/02 Q1013=
201003120045 METAR LIRA 120045Z 09002KT 9999 BKN070 02/02 Q1013=
201003120015 METAR LIRA 120015Z 10003KT 9999 FEW030 BKN070 02/01 Q1013=
201003112350 METAR LIRA 120045Z 09002KT 9999 BKN070 02/02 Q1013=
201003112345 METAR LIRA 112345Z 14005KT 9999 FEW027 SCT080 03/02 Q1013=
201003112315 METAR LIRA 112315Z 15002KT 9999 FEW027 SCT070 03/02 Q1013=
201003112245 METAR LIRA 112245Z 16003KT 9999 FEW005 SCT060 03/02 Q1013=
201003112215 METAR LIRA 112215Z 16003KT 9999 FEW003 SCT060 03/02 Q1012=
201003112145 METAR LIRA 112145Z 20004KT 9999 SCT060 03/02 Q1012=
201003112115 METAR LIRA 112115Z 17003KT 9999 FEW080 03/02 Q1012=
201003112045 METAR LIRA 112045Z 00000KT 9999 FEW080 04/02 Q1012=
201003112015 METAR LIRA 112015Z 30001KT 9999 FEW070 04/03 Q1012=
201003111945 METAR LIRA 111945Z 21003KT 9999 FEW013 05/03 Q1011=
201003111915 METAR LIRA 111915Z 18003KT 9999 FEW013 FEW017CB 05/03 Q1011=
201003111845 METAR LIRA 111845Z 23004KT 9999 FEW013 FEW017CB 05/03 Q1010=
201003111815 METAR LIRA 111815Z 17006KT 150V240 9999 FEW013 FEW017CB SCT018
                        05/04 Q1010=
201003111745 METAR LIRA 111745Z 18005KT 150V220 9999 -RA FEW013 FEW017CB
                        SCT025 05/04 Q1010=
201003111715 METAR LIRA 111715Z 20005KT 150V250 9999 -RA FEW013 FEW017CB
                        SCT025 06/04 Q1010=
201003111645 METAR LIRA 111645Z 19006KT 160V240 9999 -RA FEW013 FEW020CB
                        SCT025 05/04 Q1009=
201003111615 METAR LIRA 111615Z 24008KT 200V300 9999 -RA FEW012 FEW020CB
                        BKN025 06/04 Q1009=
201003111545 METAR LIRA 111545Z 13002KT 9999 -RA SCT018 FEW020CB SCT025
                        07/02 Q1008=
201003111515 METAR LIRA 111515Z 22006KT 190V310 9999 -RA SCT018 FEW020CB
                        SCT025 07/02 Q1008=
201003111445 METAR LIRA 111445Z 18006KT 9999 -RA SCT018 FEW020CB SCT025
                        07/02 Q1008=
201003111415 METAR LIRA 111415Z 16003KT 9999 -RA SCT018 FEW020CB SCT025
                        07/01 Q1008=
201003111345 METAR LIRA 111345Z 17013G23KT 120V200 9999 -RA SCT018 FEW020CB
                        SCT025 08/03 Q1008=
201003111315 METAR LIRA 111315Z 15007KT 9999 SCT018 FEW020CB SCT025 08/03
                        Q1008 WS RWY 15=
201003111245 METAR LIRA 111245Z 15005KT 130V250 9999 SCT013 FEW018CB BKN023
                        06/03 Q1008 WS RWY 15=
201003111215 METAR LIRA 111215Z 23011KT 190V280 9999 FEW015 FEW018TCU
                        BKN025 08/01 Q1008=
201003111145 METAR LIRA 111145Z 19007KT 150V240 9999 FEW015 FEW017TCU
                        BKN025 08/03 Q1008=
201003111115 METAR LIRA 111115Z 17008KT 130V230 9999 FEW015 FEW017TCU
                        BKN025 08/04 Q1008=
201003111045 METAR LIRA 111045Z 16009KT 9999 FEW015 FEW017TCU BKN025 08/03
                        Q1008=
201003111015 METAR LIRA 111015Z 17007KT 130V220 9999 -RA FEW015 FEW017CB
                        BKN025 08/03 Q1008=
201003110945 METAR LIRA 110945Z 17005KT 120V210 9999 -RA FEW015 FEW017CB
                        SCT030 07/04 Q1008=
201003110915 METAR COR LIRA 110915Z 16009KT 9999 -RA FEW016 SCT030 07/03
                        Q1008=
201003110845 METAR LIRA 110845Z 16011KT 120V210 9999 FEW016 SCT030 07/04
                        Q1008=
201003110815 METAR LIRA 110815Z 17006KT 9999 FEW016 SCT030 07/04 Q1008=
201003110745 METAR LIRA 110745Z 17005KT 9999 FEW016 SCT080 06/04 Q1007=
201003110715 METAR LIRA 110715Z 16004KT 080V180 9999 FEW015 SCT030 05/03
                        Q1007=
201003110645 METAR LIRA 110645Z 13006KT 9999 FEW015 BKN030 04/03 Q1007=
201003110615 METAR LIRA 110615Z 13004KT 9000 -RA FEW012 BKN027 04/03 Q1006=
201003110545 METAR LIRA 110545Z 21004KT 180V270 8000 -RA BKN012 SCT027
                        04/03 Q1006=
201003110515 METAR LIRA 110515Z 25008KT 210V300 7000 -RA FEW015 BKN027
                        04/03 Q1005=
201003110445 METAR LIRA 110445Z 14008KT 090V170 8000 -RA FEW015 BKN027
                        05/04 Q1005=
201003110415 METAR LIRA 110415Z 08008KT 050V130 8000 -RA FEW015 BKN027
                        05/04 Q1005=
201003110345 METAR LIRA 110345Z 09006KT 060V150 7000 -RA FEW015 BKN027
                        06/05 Q1005=
201003110315 METAR LIRA 110315Z 09009KT 050V160 9999 -RA FEW015 BKN027
                        06/04 Q1005=
201003110245 METAR LIRA 110245Z 09009KT 050V110 9999 -RA FEW015 BKN027
                        06/03 Q1005=
201003110215 METAR LIRA 110215Z 10012KT 9999 SCT017 BKN027 06/02 Q1006=
201003110145 METAR LIRA 110145Z 09009KT 9999 SCT017 SCT070 06/03 Q1006=
201003110115 METAR LIRA 110115Z 10009KT 9999 SCT017 SCT070 06/04 Q1007=
201003110045 METAR LIRA 110045Z 09007KT 9999 SCT017 SCT070 06/05 Q1007=
201003110015 METAR LIRA 110015Z 11006KT 9999 SCT017 SCT070 06/04 Q1007=
201003102350 METAR LIRA 110045Z 09007KT 9999 SCT017 SCT070 06/05 Q1007=
201003102345 METAR LIRA 102345Z 15007KT 9999 SCT017 SCT070 07/04 Q1007=
201003102315 METAR LIRA 102315Z 14005KT 9999 SCT017 SCT070 06/03 Q1007=
201003102245 METAR LIRA 102245Z 15007KT 9999 FEW017 SCT070 05/04 Q1007=
201003102215 METAR LIRA 102215Z 16005KT 9999 FEW017 05/03 Q1007=
201003102145 METAR LIRA 102145Z 15007KT 9999 SCT017 06/04 Q1007=
201003102115 METAR LIRA 102115Z 14007KT 100V180 9999 FEW015 SCT070 06/04
                        Q1007=
201003102045 METAR LIRA 102045Z 15006KT 9999 FEW015 SCT070 06/04 Q1007=
201003102015 METAR LIRA 102015Z 13008KT 9999 FEW015 SCT070 06/04 Q1007=
201003101945 METAR LIRA 101945Z 16007KT 9999 SCT015 FEW018CB SCT070 06/04
                        Q1007=
201003101915 METAR LIRA 101915Z 14006KT 9999 SCT017 FEW018TCU SCT070 06/04
                        Q1007=
201003101845 METAR LIRA 101845Z 14006KT 9999 SCT017 FEW018CB 05/02 Q1007=
201003101815 METAR LIRA 101815Z 16003KT 9999 FEW017 FEW018CB 05/03 Q1006=
201003101745 METAR LIRA 101745Z 16004KT 9999 FEW017 FEW018CB 07/04 Q1006=
201003101715 METAR LIRA 101715Z 17005KT 9999 FEW017CB SCT018 07/05 Q1005=
201003101645 METAR LIRA 101645Z 19005KT 9999 FEW017CB SCT070 08/05 Q1005=
201003101615 METAR LIRA 101615Z 23010KT 180V300 9999 -SHRA SCT017CB SCT070
                        07/05 Q1005=
201003101545 METAR LIRA 101545Z 22007KT 170V260 9999 SCT017CB 08/03 Q1004=
201003101515 METAR LIRA 101515Z 21007KT 170V260 9999 FEW017CB SCT018 09/02
                        Q1004=
201003101445 METAR LIRA 101445Z 21008KT 150V250 9999 FEW017TCU SCT018
                        10/02 Q1004=
201003101415 METAR LIRA 101415Z 20009KT 150V250 9999 FEW017CB SCT018 11/04
                        Q1003=
201003101345 METAR LIRA 101345Z 22008KT 170V260 9999 FEW017CB SCT018 11/04
                        Q1003=
201003101315 METAR LIRA 101315Z 22008KT 170V280 9999 FEW017CB SCT018 11/05
                        Q1003=
201003101245 METAR LIRA 101245Z 21005KT 150V250 9999 -RA SCT016 FEW017CB
                        FEW018TCU SCT070 11/04 Q1003=
201003101215 METAR LIRA 101215Z 18009KT 150V230 9999 -RA SCT016 FEW017CB
                        FEW018TCU 10/05 Q1003=
201003101145 METAR LIRA 101145Z 20011G22KT 150V250 9999 FEW016 FEW017CB
                        FEW018TCU SCT025 10/04 Q1003=
201003101115 METAR LIRA 101115Z 22009KT 170V270 9999 SCT016 FEW017CB SCT070
                        10/06 Q1003=
201003101045 METAR LIRA 101045Z 19008KT 150V240 9000 FEW016CB SCT017 10/05
                        Q1003=
201003101015 METAR LIRA 101015Z 21008KT 160V270 9000 FEW016CB SCT017 10/06
                        Q1002=
201003100945 METAR LIRA 100945Z 22007KT 160V260 9000 FEW016CB SCT017 10/06
                        Q1002=
201003100915 METAR LIRA 100915Z 19005KT 150V260 9000 FEW016CB SCT025 10/07
                        Q1002=
201003100845 METAR LIRA 100845Z 16007KT 130V200 9000 FEW016TCU SCT025
                        09/07 Q1001=
201003100815 METAR LIRA 100815Z 16008KT 120V210 6000 -RA FEW016TCU BKN025
                        09/07 Q1001=
201003100745 METAR LIRA 100745Z 16007KT 120V210 9000 FEW016TCU SCT025
                        09/07 Q1000=
201003100715 METAR LIRA 100715Z 14009KT 100V170 9000 -RA FEW013 FEW016TCU
                        SCT025 08/07 Q1000=
201003100645 METAR LIRA 100645Z 11009KT 7000 -RA FEW010 FEW016TCU SCT025
                        08/07 Q0999=
201003100615 METAR LIRA 100615Z 16007KT 130V200 5000 -RA BR FEW010 SCT015TCU
                        08/06 Q0999=
201003100545 METAR LIRA 100545Z 14007KT 110V170 9999 FEW013 FEW015TCU
                        SCT025 08/06 Q0999=
201003100515 METAR LIRA 100515Z 13008KT 9999 -DZ FEW010 FEW015TCU BKN025
                        08/05 Q0998=
201003100445 METAR LIRA 100445Z 14009KT 7000 -DZ FEW004 SCT015 08/05 Q0998=
201003100415 METAR LIRA 100415Z 16009KT 7000 -DZ FEW004 SCT015 08/05 Q0998=
201003100345 METAR LIRA 100345Z 15011KT 7000 FEW004 SCT015 BKN070 07/05
                        Q0998=
201003100315 METAR LIRA 100315Z 15010KT 7000 -RA FEW004 SCT015 07/05 Q0997=
201003100245 METAR LIRA 100245Z 14008KT 7000 -RA FEW004 SCT015 07/06 Q0997=
201003100215 METAR LIRA 100215Z 00000KT 6000 -RA SCT004 SCT015 BKN025
                        06/05 Q0997=
201003100145 METAR LIRA 100145Z 14002KT 6000 -RA SCT015 BKN025 06/05 Q0996=
201003100115 METAR LIRA 100115Z 00000KT 6000 -RA SCT015 BKN025 05/04 Q0996=
201003100045 METAR LIRA 100045Z 00000KT 3000 -RA BR SCT004 SCT015 BKN025
                        05/04 Q0996=
201003100015 METAR LIRA 100015Z 31004KT 6000 -RA SCT015 BKN025 05/04 Q0996=
201003092350 METAR LIRA 100045Z 00000KT 3000 -RA BR SCT004 SCT015 BKN025
                        05/04 Q0996=
201003092345 METAR LIRA 092345Z 01003KT 350V060 6000 -RA SCT015 BKN025
                        06/05 Q0995=
201003092315 METAR LIRA 092315Z 03007KT 360V080 6000 -RA SCT015 BKN025
                        05/05 Q0995=
201003092245 METAR LIRA 092245Z 05009KT 010V090 6000 -RA SCT015 BKN025
                        06/05 Q0995=
201003092215 METAR LIRA 092215Z 05006KT 010V130 6000 -RA SCT015 BKN025
                        06/06 Q0995=
201003092145 METAR LIRA 092145Z 07007KT 030V110 5000 -RA BR SCT013 BKN025
                        07/06 Q0995=
201003092115 METAR LIRA 092115Z 06008KT 350V100 5000 -RA BR SCT013 BKN025
                        07/05 Q0995=
201003092045 METAR LIRA 092045Z 10013G26KT 070V150 5000 -RA BR SCT013
                        BKN025 08/06 Q0994=
201003092015 METAR LIRA 092015Z 09011KT 050V120 5000 -RA BR SCT013 BKN025
                        07/05 Q0994=
201003091945 METAR LIRA 091945Z 09011KT 5000 -RA BR FEW013 BKN022 07/05
                        Q0994=
201003091915 METAR LIRA 091915Z 09013KT 050V120 5000 -RA BR FEW013 BKN022
                        07/05 Q0994=
201003091845 METAR LIRA 091845Z 10015KT 5000 -RA BR FEW008 BKN022 07/05
                        Q0994=
201003091815 METAR LIRA 091815Z 09014KT 040V120 5000 -RA BR SCT008 BKN025
                        07/05 Q0994=
201003091745 METAR LIRA 091745Z 09012KT 060V130 5000 -RA BR SCT008 BKN025
                        06/04 Q0994=
201003091715 METAR LIRA 091715Z 10010KT 060V150 5000 -RA BR SCT008 BKN025
                        06/04 Q0994=
201003091645 METAR LIRA 091645Z 10014KT 060V130 5000 -RA BR SCT008 SCT020
                        BKN070 06/04 Q0993=
201003091615 METAR LIRA 091615Z 09019KT 5000 -RA BR SCT008 SCT020 BKN070
                        06/04 Q0993=
201003091545 METAR LIRA 091545Z 11021KT 080V140 5000 -RA BR SCT008 SCT020
                        BKN070 06/04 Q0993=
201003091515 METAR LIRA 091515Z 11022KT 080V140 5000 -RA BR SCT008 SCT020
                        BKN070 06/04 Q0993=
201003091445 METAR LIRA 091445Z 10021G37KT 080V140 5000 -RA BR SCT008
                        SCT020 BKN070 06/04 Q0993=
201003091415 METAR LIRA 091415Z 10021G31KT 070V130 6000 -RA SCT008 SCT020
                        BKN070 06/04 Q0993=
201003091345 METAR LIRA 091345Z 09019G30KT 060V130 6000 -RA SCT008 SCT020
                        BKN070 06/04 Q0994 WS RWY 15=
201003091315 METAR LIRA 091315Z 10018G28KT 050V140 6000 -RA SCT008 SCT020
                        BKN070 06/03 Q0994 WS RWY 15=
201003091245 METAR LIRA 091245Z 07012G25KT 020V130 7000 -RA SCT008 SCT020
                        BKN070 05/03 Q0995 WS RWY 15=
201003091215 METAR LIRA 091215Z 08014G24KT 010V020 5000 -RA BR SCT008
                        SCT020 BKN070 05/03 Q0995 WS RWY
                        15=
201003091145 METAR LIRA 091145Z 05013KT 360V100 5000 -RA BR SCT008 SCT020
                        BKN070 05/03 Q0997 WS RWY 15=
201003091115 METAR LIRA 091115Z 03011KT 350V080 5000 -RA BR SCT008 SCT020
                        BKN070 04/03 Q0997 WS RWY 15=
201003091045 METAR LIRA 091045Z 03012G25KT 330V007 5000 -RA BR SCT008
                        SCT020 BKN070 04/03 Q0998 WS RWY
                        15=
201003091015 METAR LIRA 091015Z 03010KT 350V080 6000 -RA SCT008 SCT020
                        BKN070 04/03 Q0998 WS RWY 15=
201003090945 METAR LIRA 090945Z 05012KT 010V090 5000 -RA BR SCT008 SCT020
                        BKN070 05/04 Q0998 WS RWY 15=
201003090915 METAR LIRA 090915Z 07009KT 030V120 5000 -RA BR SCT008 SCT020
                        BKN070 05/03 Q0999 WS RWY 15=
201003090845 METAR LIRA 090845Z 09010G20KT 050V140 4000 -RA BR SCT008
                        SCT020 BKN070 05/02 Q0999 WS RWY
                        15=
201003090815 METAR LIRA 090815Z 06010KT 020V100 8000 -DZ SCT025 BKN070
                        06/00 Q0999 WS RWY 15=
201003090745 METAR LIRA 090745Z 06009KT 030V140 9999 SCT025 BKN070 06/01
                        Q1000=
201003090715 METAR LIRA 090715Z 06010KT 360V100 9999 -RA SCT025 BKN070
                        06/01 Q1000=
201003090645 METAR LIRA 090645Z 07011KT 030V120 9999 FEW030 BKN070 05/M01
                        Q1000=
201003090615 METAR LIRA 090615Z 06011KT 360V100 9999 FEW030 BKN070 06/M00
                        Q1000=
201003090545 METAR LIRA 090545Z 08014G24KT 9999 FEW030 BKN070 05/M01 Q1000=
201003090515 METAR LIRA 090515Z 07015G25KT 030V110 9999 FEW030 BKN070
                        05/M03 Q1000=
201003090445 METAR LIRA 090445Z 08011G22KT 030V120 9999 FEW030 BKN070
                        05/M02 Q1001=
201003090415 METAR LIRA 090415Z 06006KT 030V100 9999 SCT025 SCT060 05/M02
                        Q1002=
201003090345 METAR LIRA 090345Z 05008KT 010V100 9999 SCT025 SCT060 05/M01
                        Q1002=
201003090315 METAR LIRA 090315Z 07007KT 030V110 9999 -DZ SCT025 SCT060
                        05/M00 Q1003=
201003090245 METAR LIRA 090245Z 11007KT 9999 -DZ SCT025 SCT060 05/00 Q1003=
201003090215 METAR LIRA 090215Z 09009KT 9999 -DZ SCT025 SCT060 05/M02
                        Q1003=
201003090145 METAR LIRA 090145Z 11004KT 9999 SCT025 SCT060 05/M02 Q1003=
201003090115 METAR LIRA 090115Z 10004KT 9999 SCT025 SCT060 05/M01 Q1004=
201003090045 METAR LIRA 090045Z 28002KT 9999 SCT030 SCT070 05/00 Q1004=
201003090015 METAR LIRA 090015Z 06003KT 9999 SCT030 SCT060 05/M00 Q1004=
201003082350 METAR LIRA 090045Z 28002KT 9999 SCT030 SCT070 05/00 Q1004=
201003082345 METAR LIRA 082345Z 01002KT 9999 SCT030 SCT070 05/M02 Q1005=
201003082315 METAR LIRA 082315Z 35003KT 9999 SCT030 SCT070 05/M02 Q1005=
201003082245 METAR LIRA 082245Z 01004KT 9999 SCT030 SCT070 05/M02 Q1005=
201003082215 METAR LIRA 082215Z 36004KT 9999 SCT030 SCT060 05/M02 Q1005=
201003082145 METAR LIRA 082145Z 01004KT 330V040 9999 SCT030 SCT070 05/M02
                        Q1006=
201003082115 METAR LIRA 082115Z 36005KT 330V040 9999 SCT030 SCT070 05/M02
                        Q1006=
201003082045 METAR LIRA 082045Z 35005KT 310V020 9999 FEW030 SCT070 06/M01
                        Q1005=
201003082015 METAR LIRA 082015Z 36004KT 9999 FEW030 SCT070 06/M01 Q1006=
201003081945 METAR LIRA 081945Z 02004KT 9999 FEW030 SCT070 07/M01 Q1005=
201003081915 METAR LIRA 081915Z 34003KT 320V060 9999 FEW030 SCT070 07/00
                        Q1005=
201003081845 METAR LIRA 081845Z 16002KT 9999 BKN060 08/02 Q1005=
201003081815 METAR LIRA 081815Z 16007KT 9999 SCT060 08/02 Q1005=
201003081745 METAR LIRA 081745Z 16007KT 130V190 9999 SCT080 08/02 Q1005=
201003081715 METAR LIRA 081715Z 17006KT 140V220 9999 FEW080 SCT200 09/M01
                        Q1004=
201003081645 METAR LIRA 081645Z 18006KT 160V220 9999 FEW080 SCT200 09/M01
                        Q1004=
201003081615 METAR LIRA 081615Z 21007KT 150V250 9999 FEW070 SCT200 10/00
                        Q1004=
201003081545 METAR LIRA 081545Z 19010KT 9999 FEW030 10/M01 Q1004=
201003081515 METAR LIRA 081515Z 19009KT 160V230 9999 FEW030 SCT200 11/M01
                        Q1004=
201003081445 METAR LIRA 081445Z 19009KT 150V230 9999 FEW030 SCT200 11/M03
                        Q1004=
201003081415 METAR LIRA 081415Z 30005KT 240V320 9999 FEW070 SCT200 12/M03
                        Q1005=
201003081345 METAR LIRA 081345Z 31006KT 260V340 9999 FEW070 SCT200 12/M04
                        Q1005=
201003081315 METAR LIRA 081315Z 36005KT 9999 FEW070 SCT200 12/M03 Q1005=
201003081245 METAR LIRA 081245Z 29003KT 9999 FEW070 SCT200 12/M04 Q1005=
201003081215 METAR LIRA 081215Z 31005KT 240V010 9999 FEW070 SCT200 11/M04
                        Q1006=
201003081145 METAR LIRA 081145Z 36003KT 9999 FEW070 SCT200 11/M03 Q1006=
201003081115 METAR LIRA 081115Z 34004KT 9999 FEW070 SCT200 11/M04 Q1006=
201003081045 METAR LIRA 081045Z 35003KT 9999 FEW070 SCT200 10/M02 Q1006=
201003081015 METAR LIRA 081015Z 01005KT 310V100 9999 FEW070 SCT200 10/M01
                        Q1007=
201003080945 METAR LIRA 080945Z 01007KT 310V100 9999 FEW070 SCT200 09/M01
                        Q1007=
201003080915 METAR LIRA 080915Z 02007KT 320V100 9999 FEW070 SCT200 08/M01
                        Q1007=
201003080845 METAR LIRA 080845Z 01008KT 270V070 9999 FEW070 SCT200 07/M01
                        Q1008=
201003080815 METAR LIRA 080815Z 36007KT 310V070 9999 FEW070 SCT200 06/M01
                        Q1008=
201003080745 METAR LIRA 080745Z 36007KT 300V040 9999 FEW030 05/M01 Q1008=
201003080715 METAR LIRA 080715Z 01005KT 9999 FEW030 SCT200 03/M01 Q1008=
201003080645 METAR LIRA 080645Z 04004KT 9999 FEW030 SCT070 02/M02 Q1008=
201003080615 METAR LIRA 080615Z 04004KT 9999 FEW030 SCT060 02/M02 Q1008=
201003080545 METAR LIRA 080545Z 02005KT 340V050 9999 SCT030 SCT060 02/M03
                        Q1008=
201003080515 METAR LIRA 080515Z 36005KT 9999 SCT030 SCT060 02/M03 Q1008=
201003080445 METAR LIRA 080445Z 01004KT 9999 FEW030 SCT070 02/M04 Q1008=
201003080415 METAR LIRA 080415Z 03005KT 9999 FEW025 SCT060 02/M04 Q1008=
201003080345 METAR LIRA 080345Z 03004KT 9999 FEW030 SCT060 02/M05 Q1009=
201003080315 METAR LIRA 080315Z 04006KT 9999 FEW030 SCT060 02/M05 Q1009=
201003080245 METAR LIRA 080245Z 35006KT 310V030 9999 SCT060 02/M05 Q1009=
201003080215 METAR LIRA 080215Z 34003KT 9999 SCT060 02/M05 Q1009=
201003080145 METAR LIRA 080145Z 01004KT 9999 FEW025 SCT070 03/M05 Q1009=
201003080115 METAR LIRA 080115Z 02005KT 9999 SCT025 03/M05 Q1010=
201003080045 METAR LIRA 080045Z 01004KT 9999 SCT027 SCT070 04/M05 Q1010=
201003080015 METAR LIRA 080015Z 01005KT 330V060 9999 SCT027 SCT070 04/M04
                        Q1010=
201003072350 METAR LIRA 080045Z 01004KT 9999 SCT027 SCT070 04/M05 Q1010=
201003072345 METAR LIRA 072345Z 36006KT 300V040 9999 SCT032 SCT070 05/M03
                        Q1010=
201003072315 METAR LIRA 072315Z 36007KT 320V050 9999 SCT033 SCT070 05/M03
                        Q1010=
201003072245 METAR LIRA 072245Z 35007KT 310V030 9999 SCT033 SCT070 05/M03
                        Q1010=
201003072215 METAR LIRA 072215Z 35006KT 9999 FEW030 SCT070 05/M03 Q1010=
201003072145 METAR LIRA 072145Z 02006KT 330V070 9999 FEW030 SCT070 06/M00
                        Q1010=
201003072115 METAR LIRA 072115Z 04005KT 010V110 9999 FEW030 SCT070 06/M03
                        Q1010=
201003072045 METAR LIRA 072045Z 05006KT 9999 FEW030 SCT070 06/M03 Q1010=
201003072015 METAR LIRA 072015Z 05007KT 020V080 9999 FEW030 SCT070 07/M02
                        Q1010=
201003071945 METAR LIRA 071945Z 07008KT 030V120 9999 FEW025 SCT070 08/01
                        Q1010=
201003071915 METAR LIRA 071915Z 07005KT 050V120 9999 FEW025 SCT060 08/02
                        Q1010=
201003071845 METAR LIRA 071845Z 14004KT 9999 FEW020 SCT070 08/02 Q1010=
201003071815 METAR LIRA 071815Z 14006KT 9999 FEW020 SCT070 08/02 Q1010=
201003071745 METAR LIRA 071745Z 16005KT 140V210 9999 FEW020 SCT060 08/03
                        Q1010=
201003071715 METAR LIRA 071715Z 18005KT 9999 FEW020 SCT040 09/03 Q1010=
201003071645 METAR LIRA 071645Z 20003KT 9999 FEW020 BKN080 09/02 Q1010=
201003071615 METAR LIRA 071615Z 24004KT 9999 FEW020 SCT080 10/01 Q1010=
201003071545 METAR LIRA 071545Z 27006KT 240V330 9999 FEW020 SCT080 11/02
                        Q1010=
201003071515 METAR LIRA 071515Z 26006KT 210V310 9999 FEW020 SCT080 11/01
                        Q1011=
201003071445 METAR LIRA 071445Z 27004KT 220V330 9999 FEW020 SCT080 12/01
                        Q1011=
201003071415 METAR LIRA 071415Z 26006KT 200V300 9999 FEW020 SCT080 12/01
                        Q1011=
201003071345 METAR LIRA 071345Z 23004KT 200V280 9999 FEW020 SCT080 12/01
                        Q1012=
201003071315 METAR LIRA 071315Z 25002KT 9999 FEW020 SCT080 13/01 Q1012=
201003071245 METAR LIRA 071245Z 35002KT 9999 FEW020 12/01 Q1012=
201003071215 METAR LIRA 071215Z 32003KT 9999 FEW035 12/01 Q1013=
201003071145 METAR LIRA 071145Z 29003KT 9999 FEW035 12/00 Q1013=
201003071115 METAR LIRA 071115Z 27002KT 9999 FEW040 11/00 Q1013=
201003071045 METAR LIRA 071045Z 04004KT 9999 FEW040 10/M00 Q1013=
201003071015 METAR LIRA 071015Z 32006KT 260V360 9999 FEW040 10/M00 Q1013=
201003070945 METAR LIRA 070945Z 32006KT 270V010 CAVOK 09/M00 Q1013=
201003070915 METAR LIRA 070915Z 32006KT 300V060 CAVOK 08/00 Q1013=
201003070845 METAR LIRA 070845Z 01006KT 320V080 CAVOK 07/01 Q1013=
201003070815 METAR LIRA 070815Z 03007KT CAVOK 07/01 Q1013=
201003070745 METAR LIRA 070745Z 02006KT CAVOK 05/00 Q1013=
201003070715 METAR LIRA 070715Z 03005KT CAVOK 03/M01 Q1013=
201003070645 METAR LIRA 070645Z 02006KT CAVOK 01/M01 Q1013=
201003070615 METAR LIRA 070615Z 02004KT CAVOK 01/M01 Q1013=
201003070545 METAR LIRA 070545Z 01004KT CAVOK 01/M01 Q1014=
201003070515 METAR LIRA 070515Z 02003KT CAVOK 01/M01 Q1014=
201003070445 METAR LIRA 070445Z 02003KT CAVOK 01/M01 Q1014=
201003070415 METAR LIRA 070415Z 04002KT CAVOK 01/M00 Q1014=
201003070345 METAR LIRA 070345Z 05003KT CAVOK 02/00 Q1014=
201003070315 METAR LIRA 070315Z 01002KT CAVOK 02/M00 Q1014=
201003070245 METAR LIRA 070245Z 36003KT CAVOK 03/00 Q1014=
201003070215 METAR LIRA 070215Z 10007KT CAVOK 03/M00 Q1014=
201003070145 METAR LIRA 070145Z 09005KT 9999 FEW070 SCT200 03/M00 Q1014=
201003070115 METAR LIRA 070115Z 10001KT 9999 FEW080 03/00 Q1014=
201003070045 METAR LIRA 070045Z 00000KT 9999 SCT080 03/00 Q1015=
201003070015 METAR LIRA 070015Z 07001KT 9999 SCT080 03/00 Q1015=
201003062350 METAR LIRA 070045Z 00000KT 9999 SCT080 03/00 Q1015=
201003062345 METAR LIRA 062345Z 09002KT 9999 SCT080 03/00 Q1015=
201003062315 METAR LIRA 062315Z 09002KT 9999 SCT080 04/01 Q1015=
201003062245 METAR LIRA 062245Z 03002KT 9999 FEW040 BKN080 03/01 Q1015=
201003062215 METAR LIRA 062215Z 04001KT 9999 FEW040 SCT080 03/01 Q1015=
201003062145 METAR LIRA 062145Z 08003KT 9999 SCT080 04/01 Q1015=
201003062115 METAR LIRA 062115Z 13004KT 9999 SCT080 04/01 Q1015=
201003062045 METAR LIRA 062045Z 14005KT 9999 SCT080 05/01 Q1015=
201003062015 METAR LIRA 062015Z 15005KT CAVOK 05/01 Q1015=
201003061945 METAR LIRA 061945Z 14005KT CAVOK 05/01 Q1015=
201003061915 METAR LIRA 061915Z 16004KT CAVOK 06/01 Q1015=
201003061845 METAR LIRA 061845Z 17004KT CAVOK 06/01 Q1015=
201003061815 METAR LIRA 061815Z 17004KT CAVOK 06/M00 Q1014=
201003061745 METAR LIRA 061745Z 21004KT CAVOK 07/M00 Q1014=
201003061715 METAR LIRA 061715Z 22003KT CAVOK 07/M01 Q1014=
201003061645 METAR LIRA 061645Z 22004KT CAVOK 08/M01 Q1014=
201003061615 METAR LIRA 061615Z 22005KT 180V260 CAVOK 09/M06 Q1014=
201003061545 METAR LIRA 061545Z 24001KT CAVOK 09/M08 Q1014=
201003061515 METAR LIRA 061515Z 26002KT CAVOK 09/M08 Q1014=
201003061445 METAR LIRA 061445Z 32002KT CAVOK 09/M08 Q1014=
201003061415 METAR LIRA 061415Z 35002KT 9999 FEW018 09/M08 Q1015=
201003061345 METAR LIRA 061345Z 30002KT 9999 FEW018 09/M06 Q1015=
201003061315 METAR LIRA 061315Z 07002KT 9999 FEW018 09/M05 Q1009=
201003061245 METAR LIRA 061245Z 19002KT 9999 FEW018 09/M05 Q1016=
201003061215 METAR LIRA 061215Z 03004KT 9999 FEW018 09/M05 Q1016=
201003061145 METAR LIRA 061145Z 25003KT 9999 FEW018 09/M05 Q1017=
201003061115 METAR LIRA 061115Z 17002KT 9999 FEW018 08/M04 Q1017=
201003061045 METAR LIRA 061045Z 31003KT 9999 FEW018 08/M02 Q1017=
201003061015 METAR LIRA 061015Z 01003KT 9999 FEW020 07/M02 Q1016=
201003060945 METAR LIRA 060945Z 02005KT 340V060 9999 FEW020 06/M01 Q1016=
201003060915 METAR LIRA 060915Z 03005KT 330V080 9999 FEW020 06/M01 Q1016=
201003060845 METAR LIRA 060845Z 34007KT 300V030 CAVOK 05/M02 Q1015=
201003060815 METAR LIRA 060815Z 01006KT 320V060 CAVOK 05/M02 Q1015=
201003060745 METAR LIRA 060745Z 36005KT 320V080 CAVOK 03/M02 Q1015=
201003060715 METAR LIRA 060715Z 01005KT CAVOK 02/M02 Q1015=
201003060645 METAR LIRA 060645Z 01004KT CAVOK 01/M03 Q1015=
201003060615 METAR LIRA 060615Z 02003KT CAVOK 00/M03 Q1014=
201003060545 METAR LIRA 060545Z 06004KT CAVOK M00/M03 Q1014=
201003060515 METAR LIRA 060515Z 05005KT CAVOK 00/M03 Q1014=
201003060445 METAR LIRA 060445Z 36005KT 310V040 CAVOK 01/M03 Q1013=
201003060415 METAR LIRA 060415Z 03004KT CAVOK 01/M03 Q1013=
201003060345 METAR LIRA 060345Z 02006KT 350V070 CAVOK 01/M03 Q1013=
201003060315 METAR LIRA 060315Z 03005KT CAVOK 01/M03 Q1013=
201003060245 METAR LIRA 060245Z 01005KT CAVOK 01/M03 Q1012=
201003060215 METAR LIRA 060215Z 36004KT 9999 FEW010 01/M02 Q1012=
201003060145 METAR LIRA 060145Z 02003KT 9999 FEW010 01/M02 Q1012=
201003060115 METAR LIRA 060115Z 03006KT 9999 FEW010 01/M02 Q1011=
201003060045 METAR LIRA 060045Z 03004KT 9999 FEW010 SCT070 02/M02 Q1012=
201003060015 METAR LIRA 060015Z 02004KT 320V080 9999 FEW010 SCT070 02/M02
                        Q1012=
201003052350 METAR LIRA 060045Z 03004KT 9999 FEW010 SCT070 02/M02 Q1012=
201003052345 METAR LIRA 052345Z 04006KT 9999 FEW010 02/M01 Q1012=
201003052315 METAR LIRA 052315Z 03004KT 9999 FEW010 02/01 Q1012=
201003052245 METAR LIRA 052245Z 02003KT CAVOK 03/00 Q1012=
201003052215 METAR LIRA 052215Z 02003KT CAVOK 03/01 Q1011=
201003052145 METAR LIRA 052145Z 04003KT 9999 FEW010 03/01 Q1011=
201003052115 METAR LIRA 052115Z 34005KT 320V030 9999 FEW010 03/01 Q1011=
201003052045 METAR LIRA 052045Z 35006KT 310V040 9999 FEW010 03/01 Q1011=
201003052015 METAR LIRA 052015Z 35005KT 320V060 9999 FEW010 04/02 Q1010=
201003051945 METAR LIRA 051945Z 36006KT 310V070 9999 FEW015 04/02 Q1010=
201003051915 METAR LIRA 051915Z 34009KT 300V040 9999 FEW015 SCT080 05/03
                        Q1010=
201003051845 METAR LIRA 051845Z 32010KT 300V360 9999 FEW015 BKN080 05/03
                        Q1009=
201003051815 METAR LIRA 051815Z 35007KT 310V030 9999 FEW015 SCT027 05/04
                        Q1009=
201003051745 METAR LIRA 051745Z 01007KT 320V060 8000 FEW015 SCT027 05/04
                        Q1008=
201003051715 METAR LIRA 051715Z 34009KT 300V020 5000 -RA BR FEW007 SCT015
                        FEW017CB BKN025 06/04 Q1008=
201003051645 METAR LIRA 051645Z 35009KT 300V060 8000 -RA FEW017CB SCT020
                        BKN025 06/05 Q1008=
201003051615 METAR LIRA 051615Z 01007KT 310V080 7000 -RA FEW015CB SCT016
                        BKN025 07/05 Q1008 RESHPL WS RWY
                        33=
201003051545 METAR LIRA 051545Z 36009KT 320V040 3000 -RA BR FEW013CB SCT015
                        BKN020 07/05 Q1007 RESHPL WS RWY
                        33=
201003051515 METAR LIRA 051515Z 34011KT 300V020 6000 -SHPL FEW015CB SCT017
                        BKN025 08/06 Q1007=
201003051445 METAR LIRA 051445Z 27002KT 8000 -RA FEW016CB SCT017 BKN030
                        08/07 Q1007=
201003051415 METAR LIRA 051415Z 14006KT 100V180 7000 -RA FEW016TCU SCT017
                        BKN030 08/07 Q1007=
201003051345 METAR LIRA 051345Z 20004KT 150V230 5000 -RA BR FEW016TCU
                        SCT017 BKN030 09/05 Q1008=
201003051315 METAR LIRA 051315Z 22005KT 190V260 9999 -RA FEW018TCU SCT020
                        BKN030 10/05 Q1008=
201003051245 METAR LIRA 051245Z 26004KT 9999 FEW018TCU SCT020 11/03 Q1009=
201003051215 METAR LIRA 051215Z 27005KT 220V320 9999 FEW018TCU SCT020
                        11/03 Q1009=
201003051145 METAR LIRA 051145Z 17003KT 9999 FEW020TCU BKN030 10/03 Q1009=
201003051115 METAR LIRA 051115Z 19005KT 150V240 9999 FEW020 SCT040 10/03
                        Q1009=
201003051045 METAR LIRA 051045Z 20004KT 9999 FEW020 BKN060 10/03 Q1009=
201003051015 METAR LIRA 051015Z 00000KT 9999 FEW020 BKN060 10/04 Q1009=
201003050945 METAR LIRA 050945Z 00000KT 9999 FEW020 BKN060 10/05 Q1009=
201003050915 METAR LIRA 050915Z 36003KT 9999 SCT080 09/04 Q1009=
201003050845 METAR LIRA 050845Z 02003KT CAVOK 08/04 Q1009=
201003050815 METAR LIRA 050815Z 34001KT CAVOK 07/04 Q1009=
201003050745 METAR LIRA 050745Z 00000KT CAVOK 07/05 Q1009=
201003050715 METAR LIRA 050715Z 00000KT CAVOK 07/05 Q1008=
201003050645 METAR LIRA 050645Z 03001KT CAVOK 05/03 Q1008=
201003050615 METAR LIRA 050615Z 03002KT CAVOK 04/03 Q1007=
201003050545 METAR LIRA 050545Z 05003KT CAVOK 04/02 Q1007=
201003050515 METAR LIRA 050515Z 04003KT CAVOK 04/02 Q1007=
201003050445 METAR LIRA 050445Z 00000KT CAVOK 04/02 Q1007=
201003050415 METAR LIRA 050415Z 34005KT CAVOK 05/03 Q1007=
201003050345 METAR LIRA 050345Z 02002KT 9999 FEW070 05/03 Q1007=
201003050315 METAR LIRA 050315Z 03002KT 9999 FEW019 SCT070 05/02 Q1007=
201003050245 METAR LIRA 050245Z 03003KT 9999 FEW019 SCT070 05/03 Q1007=
201003050215 METAR LIRA 050215Z 04002KT 9999 FEW018 SCT070 06/03 Q1007=
201003050145 METAR LIRA 050145Z 03002KT 9999 FEW018 SCT070 06/03 Q1007=
201003050115 METAR LIRA 050115Z 03002KT 9999 FEW018 SCT070 07/04 Q1006=
201003050045 METAR LIRA 050045Z 36005KT 9999 FEW018 BKN070 07/03 Q1006=
201003050015 METAR LIRA 050015Z 01004KT 9999 FEW018 SCT070 07/03 Q1006=
201003042350 METAR LIRA 050045Z 36005KT 9999 FEW018 BKN070 07/03 Q1006=
201003042345 METAR LIRA 042345Z 36004KT 9999 FEW018 SCT070 07/03 Q1006=
201003042315 METAR LIRA 042315Z 34002KT 9999 FEW018 SCT070 07/03 Q1006=
201003042245 METAR LIRA 042245Z 35004KT 9999 FEW018 SCT070 08/04 Q1005=
201003042215 METAR LIRA 042215Z 34005KT 310V050 9999 FEW018 SCT070 08/04
                        Q1005=
201003042145 METAR LIRA 042145Z 33007KT 9999 FEW018 BKN021 09/04 Q1005=
201003042115 METAR LIRA 042115Z 33011KT 300V020 9999 FEW018 BKN021 09/05
                        Q1005=
201003042045 METAR LIRA 042045Z 33010KT 270V360 9999 FEW015 BKN021 08/04
                        Q1004=
201003042015 METAR LIRA 042015Z 33005KT 9999 FEW015 BKN021 09/06 Q1004=
201003041945 METAR LIRA 041945Z 27002KT 9999 FEW015 SCT023 09/07 Q1004=
201003041915 METAR LIRA 041915Z 34002KT 9999 FEW015 SCT023 09/07 Q1003=
201003041845 METAR LIRA 041845Z 33003KT 9999 FEW015 SCT033 09/07 Q1003=
201003041815 METAR LIRA 041815Z 34006KT 9999 FEW015 SCT030 09/07 Q1002=
201003041745 METAR LIRA 041745Z 32008KT 280V360 9999 SCT015 BKN030 09/07
                        Q1002=
201003041715 METAR LIRA 041715Z 32007KT 8000 -RA SCT012 FEW014TCU SCT027
                        10/08 Q1001=
201003041645 METAR LIRA 041645Z 33008KT 8000 -RA SCT012 FEW014TCU SCT027
                        10/08 Q1000=
201003041615 METAR LIRA 041615Z 34009KT 280V360 8000 -RA SCT012 FEW014TCU
                        SCT027 11/08 Q1000=
201003041545 METAR LIRA 041545Z 34007KT 280V020 9000 -RA SCT012 FEW014TCU
                        SCT027 12/09 Q0999=
201003041515 METAR LIRA 041515Z 35006KT 9999 SCT012 FEW014TCU SCT027 13/10
                        Q0999=
201003041445 METAR LIRA 041445Z 29004KT 220V310 9999 SCT012 FEW015TCU
                        SCT027 13/11 Q0998=
201003041415 METAR LIRA 041415Z 26006KT 210V300 9999 -RA SCT012 FEW014TCU
                        SCT027 13/11 Q0998=
201003041345 METAR LIRA 041345Z 25003KT 9999 -RA SCT012 FEW014TCU SCT027
                        13/10 Q0998=
201003041315 METAR LIRA 041315Z 25002KT 9999 -RA SCT012 FEW014TCU SCT027
                        13/09 Q0998=
201003041245 METAR LIRA 041245Z 35004KT 9999 FEW012 FEW014TCU SCT027 13/09
                        Q0998=
201003041215 METAR LIRA 041215Z 33002KT 9999 FEW012 FEW014TCU SCT027 13/09
                        Q0998=
201003041145 METAR LIRA 041145Z 34004KT 9999 SCT012 FEW014TCU BKN027 12/09
                        Q0997=
201003041115 METAR LIRA 041115Z 35007KT 9999 SCT012 FEW014TCU BKN027 13/09
                        Q0997=
201003041045 METAR LIRA 041045Z 01004KT 9999 SCT012 FEW014TCU BKN027 13/11
                        Q0997=
201003041015 METAR LIRA 041015Z 05005KT 9000 -RA FEW015 SCT027 BKN070
                        12/10 Q0997=
201003040945 METAR LIRA 040945Z 02003KT 8000 -RA FEW015 SCT027 BKN070
                        12/10 Q0997=
201003040915 METAR LIRA 040915Z 06002KT 8000 -RA FEW015 SCT027 BKN070
                        12/10 Q0997=
201003040845 METAR LIRA 040845Z 14004KT 8000 -RA FEW015 SCT027 BKN070
                        11/10 Q0997=
201003040815 METAR LIRA 040815Z 17007KT 8000 -RA SCT015 SCT027 BKN070
                        11/10 Q0997=
201003040745 METAR LIRA 040745Z 16006KT 8000 -RA SCT015 SCT027 BKN070
                        11/10 Q0997=
201003040715 METAR LIRA 040715Z 16006KT 110V180 8000 -RA SCT015 SCT027
                        BKN070 11/09 Q0997=
201003040645 METAR LIRA 040645Z 14006KT 6000 -RA SCT015 SCT027 BKN070
                        11/09 Q0997=
201003040615 METAR LIRA 040615Z 16005KT 6000 -RA SCT015 SCT025 BKN070
                        11/09 Q0997=
201003040545 METAR LIRA 040545Z 17009KT 5000 -RA BR SCT015 SCT025 BKN070
                        11/10 Q0997=
201003040515 METAR LIRA 040515Z 16007KT 7000 FEW015 SCT070 11/10 Q0997=
201003040445 METAR LIRA 040445Z 16007KT 7000 FEW018 SCT070 11/10 Q0998=
201003040415 METAR LIRA 040415Z 17006KT 140V200 7000 -DZ FEW010 SCT016
                        11/10 Q0999=
201003040345 METAR LIRA 040345Z 16008KT 130V200 7000 DZ FEW010 SCT016
                        12/10 Q0999=
201003040315 METAR LIRA 040315Z 18008KT 140V230 7000 FEW008 SCT018 12/10
                        Q1000=
201003040245 METAR LIRA 040245Z 17006KT 7000 FEW018 SCT035 12/10 Q1000=
201003040215 METAR LIRA 040215Z 17006KT 140V200 7000 FEW018 SCT035 12/11
                        Q1000=
201003040145 METAR LIRA 040145Z 17006KT 7000 FEW018 SCT030 12/11 Q1000=
201003040115 METAR LIRA 040115Z 17007KT 140V200 7000 FEW017 SCT030 12/11
                        Q1000=
201003040045 METAR LIRA 040045Z 15013KT 6000 -RA FEW016 SCT030 12/11 Q1001=
201003040015 METAR LIRA 040015Z 15014KT 110V170 6000 -RA FEW016 SCT030
                        12/10 Q1001=
201003032350 METAR LIRA 040045Z 15013KT 6000 -RA FEW016 SCT030 12/11 Q1001=
201003032345 METAR LIRA 032345Z 14021KT 6000 -RA FEW016 SCT030 12/10 Q1001=
201003032315 METAR LIRA 032315Z 13020KT 6000 -RA FEW017 SCT030 13/09 Q1002=
201003032245 METAR LIRA 032245Z 14020KT 110V180 7000 -DZ FEW017 SCT035
                        12/09 Q1002=
201003032215 METAR LIRA 032215Z 14019KT 7000 -DZ FEW017 SCT040 12/09 Q1002=
201003032145 METAR LIRA 032145Z 14018G29KT 6000 -RA SCT018 BKN030 13/08
                        Q1003=
201003032115 METAR LIRA 032115Z 14021KT 9999 -RA SCT030 15/04 Q1004=
201003032045 METAR LIRA 032045Z 14019KT 110V170 9999 SCT030 SCT070 15/03
                        Q1004=
201003032015 METAR LIRA 032015Z 10015KT 100V180 9999 SCT030 SCT070 14/01
                        Q1005=
201003031945 METAR LIRA 031945Z 14013KT 110V200 9999 SCT030 SCT070 14/M00
                        Q1005=
201003031915 METAR LIRA 031915Z 14012KT 110V200 9999 SCT030 15/M01 Q1005=
201003031845 METAR LIRA 031845Z 13008KT 100V210 9999 FEW030 SCT070 15/M01
                        Q1006=
201003031815 METAR LIRA 031815Z 14008KT 100V190 9999 FEW030 SCT070 15/M00
                        Q1006=
201003031745 METAR LIRA 031745Z 11007KT 060V150 9999 FEW018 BKN035 15/01
                        Q1007=
201003031715 METAR LIRA 031715Z 10005KT 070V160 9999 FEW018 BKN060 14/04
                        Q1007=
201003031645 METAR LIRA 031645Z 10007KT 070V130 9999 FEW018 BKN070 14/04
                        Q1008=
201003031615 METAR LIRA 031615Z 13008KT 9999 FEW018 SCT070 14/03 Q1008=
201003031545 METAR LIRA 031545Z 16009KT 9999 FEW018 SCT070 15/03 Q1008=
201003031515 METAR LIRA 031515Z 18008KT 140V210 9999 FEW018 BKN070 15/04
                        Q1009=
201003031445 METAR LIRA 031445Z 16005KT 120V190 9999 FEW018 SCT200 15/06
                        Q1009=
201003031415 METAR LIRA 031415Z 06002KT 9999 FEW020 BKN200 15/08 Q1010=
201003031345 METAR LIRA 031345Z 06007KT 360V110 9999 FEW018 SCT030 BKN070
                        15/08 Q1011=
201003031315 METAR LIRA 031315Z 12006KT 090V170 9999 FEW018 BKN070 15/07
                        Q1011=
201003031245 METAR LIRA 031245Z 16008KT 120V200 9999 FEW018 BKN070 15/06
                        Q1013=
201003031215 METAR LIRA 031215Z 18009KT 120V200 9999 FEW018 BKN070 14/07
                        Q1014=
201003031145 METAR LIRA 031145Z 19007KT 150V240 9999 FEW018 BKN070 15/07
                        Q1014=
201003031115 METAR LIRA 031115Z 21005KT 150V220 9999 FEW018 BKN070 15/08
                        Q1014=
201003031045 METAR LIRA 031045Z 22007KT 170V340 9999 FEW018 BKN070 15/07
                        Q1015=
201003031015 METAR LIRA 031015Z 24006KT 9999 FEW018 SCT030 BKN070 14/03
                        Q1015=
201003030945 METAR LIRA 030945Z 22005KT 9999 FEW018 SCT030 BKN070 14/05
                        Q1015=
201003030915 METAR LIRA 030915Z 21002KT 120V230 9999 FEW018 SCT030 BKN070
                        13/04 Q1016=
201003030845 METAR LIRA 030845Z 11005KT 010V180 9999 FEW018 BKN070 12/07
                        Q1016=
201003030815 METAR LIRA 030815Z 05004KT 360V080 9999 FEW018 SCT030 BKN070
                        11/09 Q1017=
201003030745 METAR LIRA 030745Z 04006KT 330V080 9999 -DZ FEW018 SCT030
                        BKN070 09/08 Q1017=
201003030715 METAR LIRA 030715Z 09007KT 4000 -DZ BR FEW018 SCT030 BKN070
                        09/07 Q1019=
201003030645 METAR LIRA 030645Z 06003KT 9999 -DZ FEW018 SCT030 BKN070
                        09/07 Q1019=
201003030615 METAR LIRA 030615Z 05002KT 9999 FEW018 SCT030 BKN070 09/07
                        Q1019=
201003030545 METAR LIRA 030545Z 10004KT 9999 FEW018 SCT030 BKN070 09/07
                        Q1019=
201003030515 METAR LIRA 030515Z 13002KT 9999 FEW018 SCT035 09/07 Q1019=
201003030445 METAR LIRA 030445Z 00000KT 9999 FEW018 SCT035 09/07 Q1019=
201003030415 METAR LIRA 030415Z 08004KT 9999 FEW018 SCT035 08/05 Q1019=
201003030345 METAR LIRA 030345Z 10003KT 9999 SCT030 SCT070 09/06 Q1019=
201003030315 METAR LIRA 030315Z 12010KT 100V180 9999 SCT030 SCT080 10/07
                        Q1019=
201003030245 METAR LIRA 030245Z 16008KT 9999 SCT035 SCT080 09/07 Q1019=
201003030215 METAR LIRA 030215Z 16004KT 9999 SCT035 SCT080 08/04 Q1019=
201003030145 METAR LIRA 030145Z 22002KT 9999 SCT035 SCT080 07/02 Q1019=
201003030115 METAR LIRA 030115Z 00000KT 9999 SCT030 SCT070 07/04 Q1019=
201003030045 METAR LIRA 030045Z 09002KT 9999 SCT040 SCT070 07/04 Q1019=
201003030015 METAR LIRA 030015Z 07001KT 9999 SCT040 SCT070 07/04 Q1019=
201003022350 METAR LIRA 030045Z 09002KT 9999 SCT040 SCT070 07/04 Q1019=
201003022345 METAR LIRA 022345Z 12002KT 9999 SCT040 SCT070 08/04 Q1019=
201003022315 METAR LIRA 022315Z 08004KT 9999 SCT040 SCT070 08/03 Q1019=
201003022245 METAR LIRA 022245Z 13002KT 9999 SCT040 SCT070 08/02 Q1020=
201003022215 METAR LIRA 022215Z 08005KT 9999 SCT040 SCT070 08/04 Q1020=
201003022145 METAR LIRA 022145Z 11002KT 9999 SCT040 SCT070 08/06 Q1021=
201003022115 METAR LIRA 022115Z 15002KT 9999 SCT040 SCT070 09/05 Q1021=
201003022045 METAR LIRA 022045Z 17002KT 9999 FEW040 SCT080 09/06 Q1021=
201003022015 METAR LIRA 022015Z 14002KT 9999 SCT040 10/07 Q1021=
201003021945 METAR LIRA 021945Z 12002KT 9999 SCT040 10/08 Q1021=
201003021915 METAR LIRA 021915Z 16004KT 9999 FEW080 10/09 Q1021=
201003021845 METAR LIRA 021845Z 18004KT 9999 FEW080 10/09 Q1021=
201003021815 METAR LIRA 021815Z 18004KT 9999 FEW080 11/09 Q1020=
201003021745 METAR LIRA 021745Z 19004KT 9999 FEW080 11/10 Q1020=
201003021715 METAR LIRA 021715Z 19005KT 9999 FEW020 12/10 Q1019=
201003021645 METAR LIRA 021645Z 19006KT 160V250 9999 FEW018 12/09 Q1020=
201003021615 METAR LIRA 021615Z 20005KT 160V250 9999 FEW018 14/08 Q1020=
201003021545 METAR LIRA 021545Z 21007KT 180V250 9999 FEW018 14/08 Q1020=
201003021515 METAR LIRA 021515Z 23009KT 9999 FEW016 15/09 Q1019=
201003021445 METAR LIRA 021445Z 20009KT 180V270 9999 FEW018 16/09 Q1019=
201003021415 METAR LIRA 021415Z 21007KT 160V260 9999 SCT016 16/08 Q1019=
201003021345 METAR LIRA 021345Z 18005KT 9999 SCT016 16/07 Q1019=
201003021315 METAR LIRA 021315Z 27005KT 9999 SCT016 16/05 Q1019=
201003021245 METAR LIRA 021245Z 19004KT 9999 SCT016 16/05 Q1019=
201003021215 METAR LIRA 021215Z 25003KT 9999 SCT016 15/07 Q1020=
201003021145 METAR LIRA 021145Z 23004KT 200V270 9999 SCT016 16/08 Q1020=
201003021115 METAR LIRA 021115Z 18002KT 9999 SCT016 15/08 Q1020=
201003021045 METAR LIRA 021045Z 22003KT 9999 SCT016 15/08 Q1020=
201003021015 METAR LIRA 021015Z 22003KT 9999 SCT016 15/08 Q1020=
201003020945 METAR LIRA 020945Z 19003KT 9999 SCT016 15/09 Q1020=
201003020915 METAR LIRA 020915Z 17005KT 9999 SCT016 14/10 Q1020=
201003020845 METAR LIRA 020845Z 19002KT 9999 SCT016 14/09 Q1021=
201003020815 METAR LIRA 020815Z 00000KT 9999 FEW017 13/09 Q1020=
201003020745 METAR LIRA 020745Z 15001KT 9999 FEW017 12/09 Q1020=
201003020715 METAR LIRA 020715Z 11003KT 9999 FEW017 11/09 Q1019=
201003020645 METAR LIRA 020645Z 08002KT 9999 FEW017 09/07 Q1019=
201003020615 METAR LIRA 020615Z 15001KT 9999 FEW017 08/07 Q1019=
201003020545 METAR LIRA 020545Z 00000KT 9999 FEW017 08/07 Q1018=
201003020515 METAR LIRA 020515Z 14002KT 9999 FEW017 FEW018TCU SCT030 09/08
                        Q1017=
201003020445 METAR LIRA 020445Z 16002KT 9999 FEW017 FEW018TCU SCT030 08/07
                        Q1017=
201003020415 METAR LIRA 020415Z 15004KT 9999 FEW018 BKN020 08/07 Q1017=
201003020345 METAR LIRA 020345Z 14002KT 9999 FEW020 07/06 Q1017=
201003020315 METAR LIRA 020315Z 12002KT 9999 FEW030 07/05 Q1017=
201003020245 METAR LIRA 020245Z 00000KT 9999 FEW030 07/06 Q1017=
201003020215 METAR LIRA 020215Z 17003KT 9999 FEW030 08/07 Q1017=
201003020145 METAR LIRA 020145Z 16004KT 9999 FEW030 08/07 Q1016=
201003020115 METAR LIRA 020115Z 20003KT CAVOK 10/08 Q1016=
201003020045 METAR LIRA 020045Z 18005KT CAVOK 10/09 Q1016=
201003020015 METAR LIRA 020015Z 18004KT CAVOK 10/09 Q1016=
201003012350 METAR LIRA 020045Z 18005KT CAVOK 10/09 Q1016=
201003012345 METAR LIRA 012345Z 19005KT 150V220 9999 FEW080 11/10 Q1015=
201003012315 METAR LIRA 012315Z 17006KT CAVOK 11/10 Q1015=
201003012245 METAR LIRA 012245Z 18005KT 9999 FEW020 12/10 Q1015=
201003012215 METAR LIRA 012215Z 19005KT 160V230 9999 FEW016TCU SCT020
                        12/10 Q1015=
201003012145 METAR LIRA 012145Z 20006KT 130V260 9999 FEW015TCU BKN030
                        12/10 Q1015=
201003012115 METAR LIRA 012115Z 19011KT 150V230 9999 FEW015TCU BKN030
                        12/10 Q1015=
201003012045 METAR LIRA 012045Z 18009KT 140V230 9999 FEW015TCU SCT030
                        12/11 Q1014=
201003012015 METAR LIRA 012015Z 18009KT 130V210 9999 FEW013 FEW015TCU
                        SCT025 12/10 Q1014=
201003011945 METAR LIRA 011945Z 19010KT 160V250 9999 FEW013 FEW015TCU
                        SCT060 12/10 Q1014=
201003011915 METAR LIRA 011915Z 18009KT 150V220 9999 FEW016TCU SCT025
                        12/10 Q1014=
201003011845 METAR LIRA 011845Z 18007KT 140V210 9999 FEW016 SCT025 12/10
                        Q1013=
201003011815 METAR LIRA 011815Z 18007KT 9999 FEW016CB SCT025 13/11 Q1013=
201003011745 METAR LIRA 011745Z 18007KT 160V210 9999 FEW016CB SCT025 BKN060
                        13/11 Q1013=
201003011715 METAR LIRA 011715Z 19005KT 160V220 9999 FEW015CB BKN025 BKN080
                        13/11 Q1012=
201003011645 METAR LIRA 011645Z 19006KT 140V240 9999 -DZ FEW015 BKN025
                        13/10 Q1012=
201003011615 METAR LIRA 011615Z 21003KT 9999 FEW015 BKN025 13/11 Q1012=
201003011545 METAR LIRA 011545Z 25005KT 200V310 9999 FEW015 FEW018TCU
                        BKN025 13/11 Q1012=
201003011515 METAR LIRA 011515Z 21005KT 180V270 9999 FEW015 FEW018TCU
                        BKN025 14/11 Q1012=
201003011445 METAR LIRA 011445Z 19008KT 150V240 9999 FEW015 FEW018TCU
                        BKN025 14/11 Q1012=
201003011415 METAR LIRA 011415Z 18010KT 150V230 9999 SCT015 FEW018TCU
                        BKN025 13/10 Q1012=
201003011345 METAR LIRA 011345Z 18010KT 150V240 9999 FEW015 FEW018TCU
                        BKN025 14/10 Q1012=
201003011315 METAR LIRA 011315Z 19011KT 150V230 9999 SCT016 15/11 Q1012=
201003011245 METAR LIRA 011245Z 18010KT 130V220 9999 SCT016 14/09 Q1012=
201003011215 METAR LIRA 011215Z 19009KT 140V240 9999 SCT016 15/10 Q1012=
201003011145 METAR LIRA 011145Z 21008KT 160V270 9999 SCT015 15/11 Q1012=
201003011115 METAR LIRA 011115Z 20008KT 160V260 9999 FEW015 15/11 Q1012=
201003011045 METAR LIRA 011045Z 18008KT 140V240 9999 FEW013 SCT025 16/12
                        Q1012=
201003011015 METAR LIRA 011015Z 19004KT 160V240 9000 FEW013 SCT025 15/11
                        Q1012=
201003010945 METAR LIRA 010945Z 17004KT 8000 FEW013 BKN025 14/12 Q1012=
201003010915 METAR LIRA 010915Z 21002KT 7000 FEW013 SCT025 BKN070 13/13
                        Q1012=
201003010845 METAR LIRA 010845Z 19004KT 6000 SCT013 BKN025 13/13 Q1012=
201003010815 METAR LIRA 010815Z 18005KT 7000 FEW015 BKN030 13/12 Q1012=
201003010745 METAR LIRA 010745Z 19005KT 7000 FEW015 SCT030 BKN070 13/12
                        Q1012=
201003010715 METAR LIRA 010715Z 18004KT 7000 FEW015 SCT030 BKN070 13/12
                        Q1012=
201003010645 METAR LIRA 010645Z 22002KT 6000 -RA FEW010 SCT025 BKN070
                        13/12 Q1012=
201003010615 METAR LIRA 010615Z 21004KT 160V240 6000 -RA FEW010 SCT030
                        BKN070 13/12 Q1011=
201003010545 METAR LIRA 010545Z 20005KT 150V260 6000 -RA FEW010 BKN070
                        13/12 Q1011=
201003010515 METAR LIRA 010515Z 16006KT 5000 -RA BR FEW008 SCT025 BKN070
                        13/12 Q1010=
201003010445 METAR LIRA 010445Z 19007KT 150V240 5000 -RA BR FEW008 SCT025
                        BKN070 13/12 Q1011=
201003010415 METAR LIRA 010415Z 17004KT 8000 -RA SCT035 BKN070 13/12 Q1010=
201003010345 METAR LIRA 010345Z 17004KT 8000 -RA SCT035 BKN070 13/12 Q1010=
201003010315 METAR LIRA 010315Z 12002KT 8000 -RA SCT035 BKN070 13/12 Q1010=
201003010245 METAR LIRA 010245Z 16006KT 120V190 8000 -RA SCT035 BKN070
                        13/12 Q1010=
201003010215 METAR LIRA 010215Z 16008KT 120V190 9999 -RA SCT035 BKN070
                        13/12 Q1010=
201003010145 METAR LIRA 010145Z 15010KT 140V200 9999 -RA SCT035 BKN080
                        13/12 Q1009=
201003010115 METAR LIRA 010115Z 17005KT 130V200 9999 SCT035 BKN080 13/11
                        Q1009=
201003010045 METAR LIRA 010045Z 17010KT 130V200 9999 SCT035 BKN080 14/11
                        Q1009=
201003010015 METAR LIRA 010015Z 18001KT 9999 SCT035 BKN080 13/11 Q1009=

</pre>

</body>
</html>
