##########################################################
# Query made at 11/10/2014 16:46:22 UTC
# Time interval: from 03/01/2012 00:00  to 03/31/2012 23:59  UTC
##########################################################

##########################################################
# LIRA, Roma / Ciampino (Italy)
# WMO index: 16239
# Latitude 41-47N. Longitude 012-35E. Altitude 129 m.
##########################################################

###################################
#  METAR/SPECI from LIRA
###################################
201203312350 METAR LIRA 010045Z 16001KT CAVOK 10/06 Q1007=
201203312345 METAR LIRA 312345Z 10003KT CAVOK 09/06 Q1008=
201203312315 METAR LIRA 312315Z 12003KT CAVOK 09/05 Q1008=
201203312245 METAR LIRA 312245Z 16002KT CAVOK 10/07 Q1008=
201203312215 METAR LIRA 312215Z 15001KT CAVOK 10/07 Q1008=
201203312145 METAR LIRA 312145Z 00000KT CAVOK 12/10 Q1008=
201203312115 METAR LIRA 312115Z 14001KT CAVOK 12/11 Q1008=
201203312045 METAR LIRA 312045Z 17002KT CAVOK 13/12 Q1008=
201203312015 METAR LIRA 312015Z 16002KT CAVOK 12/11 Q1008=
201203311945 METAR LIRA 311945Z 21003KT CAVOK 14/13 Q1008=
201203311915 METAR LIRA 311915Z 19004KT CAVOK 14/12 Q1007=
201203311845 METAR LIRA 311845Z 19003KT CAVOK 14/12 Q1007=
201203311815 METAR LIRA 311815Z 20004KT CAVOK 14/12 Q1007=
201203311745 METAR LIRA 311745Z 19005KT CAVOK 15/11 Q1007=
201203311715 METAR LIRA 311715Z 20006KT CAVOK 16/13 Q1007=
201203311645 METAR LIRA 311645Z 20007KT 170V240 CAVOK 17/13 Q1008=
201203311615 METAR LIRA 311615Z 21007KT 180V240 CAVOK 17/12 Q1008=
201203311545 METAR LIRA 311545Z 23008KT CAVOK 18/12 Q1008=
201203311515 METAR LIRA 311515Z 21007KT CAVOK 18/12 Q1008=
201203311445 METAR LIRA 311445Z 19009KT 160V230 9999 FEW017 19/11 Q1008=
201203311415 METAR LIRA 311415Z 20009KT 9999 FEW017 19/10 Q1008=
201203311345 METAR LIRA 311345Z 21009KT 180V260 9999 FEW017 19/10 Q1008=
201203311315 METAR LIRA 311315Z 23010KT 190V270 9999 FEW017 20/10 Q1009=
201203311245 METAR LIRA 311245Z 21009KT 170V240 9999 FEW017 20/10 Q1009=
201203311215 METAR LIRA 311215Z 20009KT 160V240 9999 FEW017 20/11 Q1009=
201203311145 METAR LIRA 311145Z 19010KT 160V220 9999 SCT017 20/13 Q1009=
201203311115 METAR LIRA 311115Z 21006KT 160V240 9999 SCT017 20/11 Q1009=
201203311045 METAR LIRA 311045Z 19009KT 160V220 9999 FEW017 19/11 Q1010=
201203311015 METAR LIRA 311015Z 20008KT 160V230 9999 FEW017 19/12 Q1010=
201203310945 METAR LIRA 310945Z 20009KT 170V230 9999 FEW017 18/11 Q1010=
201203310915 METAR LIRA 310915Z 19009KT 170V240 9999 FEW017 17/12 Q1010=
201203310845 METAR LIRA 310845Z 20007KT 170V240 9999 FEW020 17/12 Q1010=
201203310815 METAR LIRA 310815Z 19004KT 9999 FEW020 16/12 Q1010=
201203310745 METAR LIRA 310745Z 30002KT 9999 FEW050 14/11 Q1010=
201203310715 METAR LIRA 310715Z 31003KT 9999 FEW050 13/10 Q1010=
201203310645 METAR LIRA 310645Z 00000KT 9999 FEW050 11/08 Q1010=
201203310615 METAR LIRA 310615Z 00000KT 9999 FEW050 10/07 Q1010=
201203310545 METAR LIRA 310545Z 10001KT 9999 FEW050 10/07 Q1010=
201203310515 METAR LIRA 310515Z 09003KT 9999 FEW040 09/07 Q1010=
201203310445 METAR LIRA 310445Z 11002KT CAVOK 09/07 Q1009=
201203310415 METAR LIRA 310415Z 09003KT CAVOK 08/07 Q1009=
201203310345 METAR LIRA 310345Z 09002KT CAVOK 09/08 Q1009=
201203310315 METAR LIRA 310315Z 05002KT CAVOK 09/08 Q1010=
201203310245 METAR LIRA 310245Z 10001KT CAVOK 10/09 Q1010=
201203310215 METAR LIRA 310215Z 16003KT CAVOK 11/09 Q1009=
201203310145 METAR LIRA 310145Z 15005KT CAVOK 11/09 Q1010=
201203310115 METAR LIRA 310115Z 16003KT CAVOK 10/09 Q1010=
201203310045 METAR LIRA 310045Z 14002KT CAVOK 10/08 Q1010=
201203310015 METAR LIRA 310015Z 10003KT CAVOK 10/07 Q1010=
201203302350 METAR LIRA 310045Z 14002KT CAVOK 10/08 Q1010=
201203302345 METAR LIRA 302345Z 09002KT CAVOK 10/09 Q1010=
201203302315 METAR LIRA 302315Z 17002KT CAVOK 11/10 Q1010=
201203302245 METAR LIRA 302245Z 17002KT CAVOK 11/10 Q1010=
201203302215 METAR LIRA 302215Z 00000KT CAVOK 11/10 Q1010=
201203302145 METAR LIRA 302145Z 14003KT CAVOK 12/11 Q1010=
201203302115 METAR LIRA 302115Z 17002KT CAVOK 13/11 Q1010=
201203302045 METAR LIRA 302045Z 18003KT CAVOK 13/12 Q1011=
201203302015 METAR LIRA 302015Z 19004KT 9999 FEW012 13/12 Q1010=
201203301945 METAR LIRA 301945Z 18004KT CAVOK 13/11 Q1010=
201203301915 METAR LIRA 301915Z 19004KT CAVOK 13/12 Q1010=
201203301845 METAR LIRA 301845Z 19004KT CAVOK 14/12 Q1010=
201203301815 METAR LIRA 301815Z 20006KT 180V240 CAVOK 14/10 Q1010=
201203301745 METAR LIRA 301745Z 21004KT CAVOK 16/10 Q1010=
201203301715 METAR LIRA 301715Z 22004KT CAVOK 16/10 Q1009=
201203301645 METAR LIRA 301645Z 23006KT CAVOK 17/09 Q1010=
201203301615 METAR LIRA 301615Z 24008KT 170V250 CAVOK 17/09 Q1010=
201203301545 METAR LIRA 301545Z 19007KT 150V250 CAVOK 18/08 Q1010=
201203301515 METAR LIRA 301515Z 20009KT 170V240 CAVOK 18/08 Q1010=
201203301445 METAR LIRA 301445Z 19006KT 160V250 CAVOK 19/08 Q1010=
201203301415 METAR LIRA 301415Z 19008KT 180V250 CAVOK 19/08 Q1010=
201203301345 METAR LIRA 301345Z 22007KT 160V250 CAVOK 20/05 Q1010=
201203301315 METAR LIRA 301315Z 20008KT 180V250 CAVOK 20/07 Q1010=
201203301245 METAR LIRA 301245Z 20009KT 180V280 CAVOK 19/06 Q1010=
201203301215 METAR LIRA 301215Z 23010KT 180V240 CAVOK 19/06 Q1011=
201203301145 METAR LIRA 301145Z 21010KT 180V250 CAVOK 19/08 Q1011=
201203301115 METAR LIRA 301115Z 20007KT 160V240 CAVOK 19/08 Q1011=
201203301045 METAR LIRA 301045Z 22008KT 190V260 CAVOK 19/10 Q1011=
201203301015 METAR LIRA 301015Z 17007KT 160V260 CAVOK 18/10 Q1011=
201203300945 METAR LIRA 300945Z 20006KT 260V180 CAVOK 18/10 Q1012=
201203300915 METAR LIRA 300915Z 23006KT 190V250 CAVOK 17/12 Q1012=
201203300845 METAR LIRA 300845Z 22004KT CAVOK 16/12 Q1012=
201203300815 METAR LIRA 300815Z 21006KT 190V250 CAVOK 14/11 Q1012=
201203300745 METAR LIRA 300745Z 20004KT CAVOK 13/09 Q1012=
201203300715 METAR LIRA 300715Z 00000KT CAVOK 11/09 Q1012=
201203300645 METAR LIRA 300645Z 34002KT CAVOK 10/08 Q1012=
201203300615 METAR LIRA 300615Z 06002KT CAVOK 09/07 Q1012=
201203300545 METAR LIRA 300545Z 03002KT CAVOK 08/04 Q1011=
201203300515 METAR LIRA 300515Z 04002KT CAVOK 08/02 Q1012=
201203300445 METAR LIRA 300445Z 12001KT 9000 NSC 07/03 Q1012=
201203300415 METAR LIRA 300415Z 10002KT 8000 FEW080 08/04 Q1012=
201203300345 METAR LIRA 300345Z 10002KT 7000 FEW080 09/07 Q1013=
201203300315 METAR LIRA 300315Z 09003KT 7000 FEW080 08/07 Q1013=
201203300245 METAR LIRA 300245Z 10004KT 7000 FEW080 08/06 Q1013=
201203300215 METAR LIRA 300215Z 10005KT 6000 FEW080 08/06 Q1013=
201203300145 METAR LIRA 300145Z 10004KT 5000 BR FEW008 08/07 Q1014=
201203300115 METAR LIRA 300115Z 14003KT 5000 BR SCT008 10/10 Q1014=
201203300045 METAR LIRA 300045Z 14004KT 5000 BR SCT008 11/10 Q1014=
201203300015 METAR LIRA 300015Z 15003KT 8000 SCT008 11/11 Q1015=
201203292350 METAR LIRA 300045Z 14004KT 5000 BR SCT008 11/10 Q1014=
201203292345 METAR LIRA 292345Z 18004KT 8000 FEW006 10/10 Q1015=
201203292315 METAR LIRA 292315Z 16002KT 8000 FEW006 10/09 Q1015=
201203292245 METAR LIRA 292245Z 17004KT 8000 SCT006 11/08 Q1015=
201203292215 METAR LIRA 292215Z 20005KT CAVOK 11/09 Q1015=
201203292145 METAR LIRA 292145Z 00000KT 9999 FEW010 11/08 Q1015=
201203292115 METAR LIRA 292115Z 00000KT CAVOK 11/09 Q1015=
201203292045 METAR LIRA 292045Z 18003KT CAVOK 12/11 Q1015=
201203292015 METAR LIRA 292015Z 18002KT CAVOK 12/11 Q1015=
201203291945 METAR LIRA 291945Z 18004KT CAVOK 13/11 Q1016=
201203291915 METAR LIRA 291915Z 18004KT CAVOK 13/11 Q1016=
201203291845 METAR LIRA 291845Z 20006KT CAVOK 13/10 Q1016=
201203291815 METAR LIRA 291815Z 19004KT CAVOK 14/10 Q1016=
201203291745 METAR LIRA 291745Z 18005KT 030V210 CAVOK 14/09 Q1016=
201203291715 METAR LIRA 291715Z 20008KT CAVOK 15/09 Q1016=
201203291645 METAR LIRA 291645Z 23006KT CAVOK 17/08 Q1016=
201203291615 METAR LIRA 291615Z 22007KT CAVOK 18/08 Q1016=
201203291545 METAR LIRA 291545Z 22007KT 180V250 CAVOK 19/09 Q1016=
201203291515 METAR LIRA 291515Z 23008KT 200V260 CAVOK 19/07 Q1016=
201203291445 METAR LIRA 291445Z 22007KT 180V260 CAVOK 20/09 Q1017=
201203291415 METAR LIRA 291415Z 22007KT 180V260 CAVOK 20/09 Q1017=
201203291345 METAR LIRA 291345Z 22008KT 190V250 CAVOK 20/08 Q1017=
201203291315 METAR LIRA 291315Z 23008KT 200V260 CAVOK 21/09 Q1018=
201203291245 METAR LIRA 291245Z 24008KT 200V280 CAVOK 22/06 Q1018=
201203291215 METAR LIRA 291215Z 22007KT 170V250 CAVOK 22/06 Q1018=
201203291145 METAR LIRA 291145Z 21006KT 160V280 CAVOK 22/07 Q1018=
201203291115 METAR LIRA 291115Z 23005KT 180V260 CAVOK 21/07 Q1019=
201203291045 METAR LIRA 291045Z 24005KT 170V310 CAVOK 21/07 Q1019=
201203291015 METAR LIRA 291015Z 25004KT CAVOK 20/09 Q1020=
201203290945 METAR LIRA 290945Z 21004KT 170V270 CAVOK 20/08 Q1020=
201203290915 METAR LIRA 290915Z 21004KT CAVOK 19/08 Q1020=
201203290845 METAR LIRA 290845Z 18002KT CAVOK 18/10 Q1020=
201203290815 METAR LIRA 290815Z 18004KT CAVOK 17/09 Q1020=
201203290745 METAR LIRA 290745Z 20003KT CAVOK 16/10 Q1020=
201203290715 METAR LIRA 290715Z 19005KT CAVOK 14/08 Q1020=
201203290645 METAR LIRA 290645Z 19002KT CAVOK 12/06 Q1020=
201203290615 METAR LIRA 290615Z 00000KT CAVOK 10/04 Q1020=
201203290545 METAR LIRA 290545Z 00000KT CAVOK 08/04 Q1020=
201203290515 METAR LIRA 290515Z 02002KT CAVOK 08/04 Q1020=
201203290445 METAR LIRA 290445Z 05003KT CAVOK 08/04 Q1020=
201203290415 METAR LIRA 290415Z 06003KT CAVOK 07/04 Q1020=
201203290345 METAR LIRA 290345Z 00000KT CAVOK 07/03 Q1020=
201203290315 METAR LIRA 290315Z 16002KT CAVOK 07/03 Q1020=
201203290245 METAR LIRA 290245Z 23002KT CAVOK 07/02 Q1020=
201203290215 METAR LIRA 290215Z 23002KT CAVOK 08/04 Q1020=
201203290145 METAR LIRA 290145Z 33001KT CAVOK 09/03 Q1020=
201203290115 METAR LIRA 290115Z 04002KT CAVOK 09/03 Q1020=
201203290045 METAR LIRA 290045Z 04001KT CAVOK 09/02 Q1021=
201203290015 METAR LIRA 290015Z 05002KT CAVOK 10/02 Q1021=
201203282350 METAR LIRA 290045Z 04001KT CAVOK 09/02 Q1021=
201203282345 METAR LIRA 282345Z 11001KT CAVOK 10/01 Q1021=
201203282315 METAR LIRA 282315Z 10002KT CAVOK 10/02 Q1021=
201203282245 METAR LIRA 282245Z 16001KT CAVOK 11/03 Q1021=
201203282215 METAR LIRA 282215Z 00000KT CAVOK 11/02 Q1021=
201203282145 METAR LIRA 282145Z 16002KT CAVOK 11/02 Q1021=
201203282115 METAR LIRA 282115Z 12005KT CAVOK 11/03 Q1021=
201203282045 METAR LIRA 282045Z 12002KT CAVOK 12/03 Q1021=
201203282015 METAR LIRA 282015Z 13001KT CAVOK 13/04 Q1021=
201203281945 METAR LIRA 281945Z 15001KT CAVOK 13/02 Q1021=
201203281915 METAR LIRA 281915Z 24002KT CAVOK 14/02 Q1021=
201203281845 METAR LIRA 281845Z 00000KT CAVOK 14/01 Q1021=
201203281815 METAR LIRA 281815Z 16002KT CAVOK 15/01 Q1021=
201203281745 METAR LIRA 281745Z 18003KT CAVOK 16/01 Q1021=
201203281715 METAR LIRA 281715Z 23004KT CAVOK 17/02 Q1021=
201203281645 METAR LIRA 281645Z 23005KT CAVOK 18/01 Q1021=
201203281615 METAR LIRA 281615Z 22006KT CAVOK 19/01 Q1021=
201203281545 METAR LIRA 281545Z 20007KT CAVOK 20/01 Q1021=
201203281515 METAR LIRA 281515Z 23008KT CAVOK 20/02 Q1021=
201203281445 METAR LIRA 281445Z 20008KT 160V250 CAVOK 21/01 Q1022=
201203281415 METAR LIRA 281415Z 22007KT 180V260 CAVOK 21/02 Q1022=
201203281345 METAR LIRA 281345Z 21007KT 190V270 CAVOK 21/02 Q1022=
201203281315 METAR LIRA 281315Z 22007KT CAVOK 21/02 Q1022=
201203281245 METAR LIRA 281245Z 23009KT CAVOK 21/02 Q1022=
201203281215 METAR LIRA 281215Z 22007KT 190V250 CAVOK 22/03 Q1023=
201203281145 METAR LIRA 281145Z 24004KT CAVOK 22/05 Q1023=
201203281115 METAR LIRA 281115Z 23004KT 180V280 CAVOK 21/05 Q1023=
201203281045 METAR LIRA 281045Z 29007KT 210V320 CAVOK 21/04 Q1023=
201203281015 METAR LIRA 281015Z 22006KT CAVOK 20/05 Q1024=
201203280945 METAR LIRA 280945Z 23004KT CAVOK 20/05 Q1024=
201203280915 METAR LIRA 280915Z 34002KT CAVOK 17/05 Q1024=
201203280845 METAR LIRA 280845Z 36002KT CAVOK 15/06 Q1024=
201203280815 METAR LIRA 280815Z 05003KT CAVOK 15/06 Q1024=
201203280745 METAR LIRA 280745Z 03002KT CAVOK 13/05 Q1024=
201203280715 METAR LIRA 280715Z 05005KT CAVOK 12/05 Q1024=
201203280645 METAR LIRA 280645Z 04003KT CAVOK 11/05 Q1023=
201203280615 METAR LIRA 280615Z 04003KT CAVOK 10/04 Q1023=
201203280545 METAR LIRA 280545Z 34001KT CAVOK 07/03 Q1023=
201203280515 METAR LIRA 280515Z 04001KT CAVOK 06/03 Q1022=
201203280445 METAR LIRA 280445Z 05005KT CAVOK 06/03 Q1022=
201203280415 METAR LIRA 280415Z 02002KT CAVOK 07/03 Q1022=
201203280345 METAR LIRA 280345Z 00000KT CAVOK 07/03 Q1022=
201203280315 METAR LIRA 280315Z 05003KT CAVOK 07/03 Q1022=
201203280245 METAR LIRA 280245Z 05006KT CAVOK 07/03 Q1022=
201203280215 METAR LIRA 280215Z 00000KT CAVOK 08/03 Q1022=
201203280145 METAR LIRA 280145Z 08001KT CAVOK 08/03 Q1022=
201203280115 METAR LIRA 280115Z 02002KT CAVOK 08/03 Q1022=
201203280045 METAR LIRA 280045Z 02003KT CAVOK 08/02 Q1022=
201203280015 METAR LIRA 280015Z 06001KT CAVOK 09/02 Q1022=
201203272350 METAR LIRA 280045Z 02003KT CAVOK 08/02 Q1022=
201203272345 METAR LIRA 272345Z 10002KT CAVOK 10/02 Q1022=
201203272315 METAR LIRA 272315Z 12002KT CAVOK 09/01 Q1023=
201203272245 METAR LIRA 272245Z 12001KT CAVOK 10/01 Q1023=
201203272215 METAR LIRA 272215Z 15003KT CAVOK 11/02 Q1023=
201203272145 METAR LIRA 272145Z 13002KT CAVOK 11/01 Q1023=
201203272115 METAR LIRA 272115Z 15002KT CAVOK 12/02 Q1023=
201203272045 METAR LIRA 272045Z 13002KT CAVOK 12/02 Q1023=
201203272015 METAR LIRA 272015Z 12001KT 9999 FEW005 12/03 Q1023=
201203271945 METAR LIRA 271945Z 14001KT CAVOK 13/03 Q1023=
201203271915 METAR LIRA 271915Z 14001KT CAVOK 13/02 Q1023=
201203271845 METAR LIRA 271845Z 22001KT CAVOK 14/01 Q1023=
201203271815 METAR LIRA 271815Z 22002KT CAVOK 15/01 Q1023=
201203271745 METAR LIRA 271745Z 20003KT CAVOK 16/01 Q1023=
201203271715 METAR LIRA 271715Z 22004KT CAVOK 17/01 Q1023=
201203271645 METAR LIRA 271645Z 23006KT CAVOK 18/02 Q1023=
201203271615 METAR LIRA 271615Z 24007KT 200V260 9999 FEW020 19/02 Q1023=
201203271545 METAR LIRA 271545Z 24007KT 190V290 9999 FEW020 19/02 Q1023=
201203271515 METAR LIRA 271515Z 23007KT 200V280 9999 FEW020 19/03 Q1023=
201203271445 METAR LIRA 271445Z 22007KT 170V250 9999 FEW020 19/03 Q1023=
201203271415 METAR LIRA 271415Z 23008KT 200V280 9999 FEW020 20/03 Q1023=
201203271345 METAR LIRA 271345Z 23008KT 9999 FEW020 20/04 Q1024=
201203271315 METAR LIRA 271315Z 23008KT 9999 FEW020 20/04 Q1024=
201203271245 METAR LIRA 271245Z 24008KT 200V280 9999 FEW070 21/04 Q1024=
201203271215 METAR LIRA 271215Z 24007KT 180V280 9999 FEW070 21/04 Q1024=
201203271145 METAR LIRA 271145Z 26005KT 9999 FEW070 20/02 Q1025=
201203271115 METAR LIRA 271115Z 25006KT 180V320 9999 FEW070 20/03 Q1025=
201203271045 METAR LIRA 271045Z 28004KT 9999 FEW070 19/03 Q1025=
201203271015 METAR LIRA 271015Z 21004KT 9999 FEW070 19/04 Q1025=
201203270945 METAR LIRA 270945Z 22002KT 9999 FEW070 18/04 Q1025=
201203270915 METAR LIRA 270915Z 17002KT 9999 FEW070 17/05 Q1025=
201203270845 METAR LIRA 270845Z 19001KT 9999 FEW070 17/06 Q1025=
201203270815 METAR LIRA 270815Z 35002KT 9999 FEW070 15/05 Q1025=
201203270745 METAR LIRA 270745Z 34002KT 9999 FEW070 13/05 Q1025=
201203270715 METAR LIRA 270715Z 02002KT 9999 FEW070 12/05 Q1024=
201203270645 METAR LIRA 270645Z 01002KT 9999 FEW070 11/05 Q1024=
201203270615 METAR LIRA 270615Z 35002KT CAVOK 09/05 Q1024=
201203270545 METAR LIRA 270545Z 35001KT CAVOK 09/03 Q1024=
201203270515 METAR LIRA 270515Z 04002KT 9999 FEW070 08/03 Q1023=
201203270445 METAR LIRA 270445Z 09001KT 9999 FEW070 07/03 Q1023=
201203270415 METAR LIRA 270415Z 33002KT 9999 FEW070 08/04 Q1023=
201203270345 METAR LIRA 270345Z 29002KT CAVOK 09/04 Q1023=
201203270315 METAR LIRA 270315Z 00000KT CAVOK 09/04 Q1023=
201203270245 METAR LIRA 270245Z 31002KT CAVOK 10/04 Q1023=
201203270215 METAR LIRA 270215Z 29001KT CAVOK 10/04 Q1023=
201203270145 METAR LIRA 270145Z 34002KT CAVOK 11/04 Q1023=
201203270115 METAR LIRA 270115Z 02003KT CAVOK 11/05 Q1023=
201203270045 METAR LIRA 270045Z 10002KT CAVOK 11/05 Q1023=
201203270015 METAR LIRA 270015Z 02003KT CAVOK 12/04 Q1023=
201203262350 METAR LIRA 270045Z 10002KT CAVOK 11/05 Q1023=
201203262345 METAR LIRA 262345Z 04005KT CAVOK 12/05 Q1023=
201203262315 METAR LIRA 262315Z 03005KT CAVOK 12/05 Q1023=
201203262245 METAR LIRA 262245Z 01003KT CAVOK 12/05 Q1023=
201203262215 METAR LIRA 262215Z 05005KT CAVOK 12/06 Q1023=
201203262145 METAR LIRA 262145Z 01004KT CAVOK 13/08 Q1023=
201203262115 METAR LIRA 262115Z 01004KT CAVOK 13/07 Q1023=
201203262045 METAR LIRA 262045Z 08004KT CAVOK 13/07 Q1023=
201203262015 METAR LIRA 262015Z 12003KT CAVOK 13/07 Q1022=
201203261945 METAR LIRA 261945Z 15005KT CAVOK 13/07 Q1022=
201203261915 METAR LIRA 261915Z 17005KT CAVOK 16/07 Q1022=
201203261845 METAR LIRA 261845Z 17006KT CAVOK 16/08 Q1022=
201203261815 METAR LIRA 261815Z 18004KT CAVOK 17/08 Q1022=
201203261745 METAR LIRA 261745Z 19004KT 9999 FEW025 18/07 Q1022=
201203261715 METAR LIRA 261715Z 21003KT 9999 FEW025 18/06 Q1022=
201203261645 METAR LIRA 261645Z 27006KT 240V300 9999 FEW020 20/07 Q1022=
201203261615 METAR LIRA 261615Z 28008KT 240V320 9999 FEW020 20/05 Q1022=
201203261545 METAR LIRA 261545Z 28008KT 240V310 9999 SCT020 21/05 Q1022=
201203261515 METAR LIRA 261515Z 28009KT 240V310 9999 FEW018TCU SCT020
                        22/05 Q1022=
201203261445 METAR LIRA 261445Z 24007KT 210V280 9999 FEW018TCU SCT020
                        23/04 Q1022=
201203261415 METAR LIRA 261415Z 32005KT 270V340 9999 FEW018CB SCT020 23/02
                        Q1022=
201203261345 METAR LIRA 261345Z 28008KT 210V320 9999 FEW018TCU SCT020
                        23/03 Q1023=
201203261315 METAR LIRA 261315Z 29007KT 230V310 9999 FEW018TCU SCT020
                        23/03 Q1023=
201203261245 METAR LIRA 261245Z 32006KT 9999 SCT020 22/03 Q1023=
201203261145 METAR LIRA 261145Z 02004KT 330V040 9999 SCT020 21/05 Q1023=
201203261115 METAR LIRA 261115Z 35004KT 9999 FEW020 21/06 Q1023=
201203261045 METAR LIRA 261045Z 36006KT 330V040 9999 FEW020 20/07 Q1024=
201203261015 METAR LIRA 261015Z 02005KT 350V070 9999 FEW020 19/10 Q1024=
201203260945 METAR LIRA 260945Z 02006KT 340V080 CAVOK 18/08 Q1024=
201203260915 METAR LIRA 260915Z 02006KT 350V080 CAVOK 17/09 Q1024=
201203260900 LIRA CONTUS CB SW-NW=
201203260845 METAR LIRA 260845Z 01006KT 330V050 CAVOK 15/08 Q1024=
201203260815 METAR LIRA 260815Z 02006KT 340V060 9999 FEW080 13/08 Q1023=
201203260745 METAR LIRA 260745Z 04005KT 360V070 9999 SCT080 12/09 Q1023=
201203260715 METAR LIRA 260715Z 04004KT 9999 BKN060 11/09 Q1023=
201203260645 METAR LIRA 260645Z 03003KT 9999 BKN070 10/07 Q1023=
201203260615 METAR LIRA 260615Z 02004KT 9999 BKN070 10/07 Q1023=
201203260545 METAR LIRA 260545Z 03003KT 9999 BKN070 09/07 Q1023=
201203260515 METAR LIRA 260515Z 04002KT 9999 FEW030 BKN070 09/07 Q1022=
201203260445 METAR LIRA 260445Z 02003KT 9999 FEW030 BKN070 09/07 Q1022=
201203260415 METAR LIRA 260415Z 03003KT 9999 FEW020 SCT070 09/07 Q1022=
201203260345 METAR LIRA 260345Z 06003KT 9999 FEW020 SCT070 09/08 Q1022=
201203260315 METAR LIRA 260315Z 07003KT 9999 SCT020 09/08 Q1022=
201203260245 METAR LIRA 260245Z 02003KT 9999 FEW020 09/07 Q1022=
201203260215 METAR LIRA 260215Z 01005KT 9999 FEW080 09/07 Q1022=
201203260145 METAR LIRA 260145Z 02005KT 9999 FEW010 09/07 Q1022=
201203260115 METAR LIRA 260115Z 04006KT CAVOK 09/08 Q1023=
201203260045 METAR LIRA 260045Z 04006KT CAVOK 09/08 Q1023=
201203260015 METAR LIRA 260015Z 04004KT CAVOK 09/08 Q1023=
201203252350 METAR LIRA 260045Z 04006KT CAVOK 09/08 Q1023=
201203252345 METAR LIRA 252345Z 04004KT CAVOK 09/08 Q1023=
201203252315 METAR LIRA 252315Z 03004KT CAVOK 10/08 Q1022=
201203252245 METAR LIRA 252245Z 03003KT CAVOK 10/09 Q1022=
201203252215 METAR LIRA 252215Z 03004KT CAVOK 10/08 Q1022=
201203252145 METAR LIRA 252145Z 01004KT CAVOK 11/09 Q1022=
201203252115 METAR LIRA 252115Z 03004KT CAVOK 11/09 Q1022=
201203252045 METAR LIRA 252045Z 01004KT 9999 FEW080 12/09 Q1022=
201203252015 METAR LIRA 252015Z 06004KT 9999 FEW070 13/08 Q1022=
201203251945 METAR LIRA 251945Z 03003KT 9999 FEW020 13/08 Q1022=
201203251915 METAR LIRA 251915Z 03005KT 9999 FEW018 13/08 Q1022=
201203251845 METAR LIRA 251845Z 06005KT 9999 FEW018TCU 12/10 Q1022=
201203251815 METAR LIRA 251815Z 04002KT 9999 FEW018TCU 13/10 Q1021=
201203251745 METAR LIRA 251745Z 08005KT 9999 FEW018CB SCT060 13/10 Q1021=
201203251715 METAR LIRA 251715Z 08006KT 9999 FEW018CB SCT035 13/11 Q1021
                        RETS=
201203251645 METAR LIRA 251645Z 08007KT 9999 FEW017CB SCT030 13/11 Q1021
                        RETS=
201203251615 METAR LIRA 251615Z 12003KT 9000 -TSRA FEW016CB SCT070 13/09
                        Q1021=
201203251545 METAR LIRA 251545Z 09006KT 010V110 7000 -TSRA SCT015CB SCT025
                        13/09 Q1021=
201203251515 METAR COR LIRA 251515Z 06014G24KT 9999 -TSRA SCT015CB SCT025
                        14/10 Q1021=
201203251445 METAR LIRA 251445Z 08010KT 9999 -TSRA SCT015CB SCT025 14/09
                        Q1021=
201203251415 METAR LIRA 251415Z 17003KT 9999 TS SCT015CB SCT025 18/05
                        Q1020=
201203251345 METAR LIRA 251345Z 16003KT 150V220 9999 FEW017CB SCT025 18/05
                        Q1020=
201203251315 METAR LIRA 251315Z 23005KT 180V250 9999 FEW017TCU SCT025
                        19/05 Q1020=
201203251245 METAR LIRA 251245Z 23006KT 180V270 9999 FEW017TCU SCT030
                        20/05 Q1020=
201203251215 METAR LIRA 251215Z 20005KT 170V230 9999 FEW017TCU SCT030
                        20/05 Q1020=
201203251145 METAR LIRA 251145Z 21005KT 9999 SCT030 19/04 Q1021=
201203251115 METAR LIRA 251115Z 17005KT 120V260 9999 SCT030 21/08 Q1021=
201203251045 METAR LIRA 251045Z 16003KT 9999 FEW030 20/07 Q1021=
201203251015 METAR LIRA 251015Z 30003KT 9999 FEW030 19/11 Q1021=
201203250945 METAR LIRA 250945Z 34001KT 9999 FEW030 17/11 Q1021=
201203250915 METAR LIRA 250915Z 34002KT CAVOK 16/11 Q1021=
201203250845 METAR LIRA 250845Z 03004KT CAVOK 15/09 Q1021=
201203250815 METAR LIRA 250815Z 05004KT 9999 FEW070 13/10 Q1021=
201203250745 METAR LIRA 250745Z 04003KT 9999 FEW080 13/10 Q1021=
201203250715 METAR LIRA 250715Z 01004KT 9999 FEW080 10/08 Q1021=
201203250645 METAR LIRA 250645Z 04003KT 9999 FEW080 10/08 Q1021=
201203250615 METAR LIRA 250615Z 04005KT 020V100 9999 FEW080 09/07 Q1020=
201203250545 METAR LIRA 250545Z 04004KT 9999 FEW080 07/05 Q1020=
201203250515 METAR LIRA 250515Z 36004KT 9999 FEW080 08/06 Q1020=
201203250445 METAR LIRA 250445Z 03003KT 9999 FEW080 09/07 Q1020=
201203250415 METAR LIRA 250415Z 04004KT 9999 FEW080 09/07 Q1020=
201203250345 METAR LIRA 250345Z 03003KT 9999 FEW080 09/07 Q1020=
201203250315 METAR LIRA 250315Z 09004KT 9999 FEW080 09/07 Q1020=
201203250245 METAR LIRA 250245Z 03005KT 9999 FEW080 09/07 Q1020=
201203250215 METAR LIRA 250215Z 05003KT 9999 FEW080 09/07 Q1020=
201203250145 METAR LIRA 250145Z 08001KT 9999 FEW080 09/07 Q1021=
201203250115 METAR LIRA 250115Z 00000KT 9999 FEW080 10/07 Q1021=
201203250045 METAR LIRA 250045Z 00000KT 9999 FEW080 10/07 Q1021=
201203250015 METAR LIRA 250015Z 00000KT 9999 SCT080 10/07 Q1021=
201203242350 METAR LIRA 250045Z 00000KT 9999 FEW080 10/07 Q1021=
201203242345 METAR LIRA 242345Z 22001KT 9999 SCT080 11/07 Q1021=
201203242315 METAR LIRA 242315Z 00000KT 9999 FEW080 11/07 Q1021=
201203242245 METAR LIRA 242245Z 18003KT 9999 SCT080 12/07 Q1021=
201203242215 METAR LIRA 242215Z 15004KT 9999 SCT080 11/07 Q1021=
201203242145 METAR LIRA 242145Z 16003KT 9999 SCT080 11/07 Q1021=
201203242115 METAR LIRA 242115Z 00000KT 9999 SCT080 12/07 Q1021=
201203242045 METAR LIRA 242045Z 33001KT 9999 FEW080 12/07 Q1021=
201203242015 METAR LIRA 242015Z 00000KT 9999 FEW080 13/07 Q1020=
201203241945 METAR LIRA 241945Z 36001KT 9999 FEW080 13/07 Q1020=
201203241915 METAR LIRA 241915Z 33003KT 9999 FEW080 14/07 Q1020=
201203241845 METAR LIRA 241845Z 05007KT 9999 SCT080 14/06 Q1020=
201203241815 METAR LIRA 241815Z 07007KT 040V110 9999 SCT080 14/07 Q1020=
201203241745 METAR LIRA 241745Z 08005KT 040V160 9999 SCT080 14/07 Q1020=
201203241715 METAR LIRA 241715Z 06007KT 9999 FEW025CB SCT080 15/07 Q1020=
201203241645 METAR LIRA 241645Z 06010KT 9999 FEW025CB 16/07 Q1020=
201203241615 METAR LIRA 241615Z 04010KT 350V080 9999 FEW020CB 17/07 Q1021=
201203241545 METAR LIRA 241545Z 03011KT 340V060 9999 FEW020CB SCT070 18/06
                        Q1020=
201203241515 METAR LIRA 241515Z 20004KT 9999 FEW020CB SCT070 19/07 Q1020
                        RETS=
201203241445 METAR LIRA 241445Z 22007KT 9999 FEW020CB SCT025 20/08 Q1020
                        RETS=
201203241415 METAR LIRA 241415Z 21007KT 160V240 9999 TS FEW020CB FEW022TCU
                        21/08 Q1020=
201203241345 METAR LIRA 241345Z 21009KT 170V250 9999 TS FEW020CB FEW022TCU
                        21/06 Q1020=
201203241315 METAR LIRA 241315Z 20011KT 180V240 9999 FEW020CB FEW022TCU
                        21/05 Q1020=
201203241245 METAR LIRA 241245Z 19011KT 9999 FEW022TCU 21/05 Q1020=
201203241215 METAR LIRA 241215Z 20010KT 160V250 9999 FEW020 FEW022TCU
                        22/05 Q1020=
201203241145 METAR LIRA 241145Z 19010KT 150V230 9999 FEW020 FEW022TCU
                        22/04 Q1020=
201203241115 METAR LIRA 241115Z 16008G18KT 130V240 9999 SCT020 22/05 Q1020=
201203241045 METAR LIRA 241045Z 24003KT 9999 SCT020 21/05 Q1021=
201203241015 METAR LIRA 241015Z 02004KT 340V040 9999 FEW020 21/05 Q1021=
201203240945 METAR LIRA 240945Z 36006KT 330V030 9999 FEW020 20/05 Q1021=
201203240915 METAR LIRA 240915Z 04006KT 350V080 9999 FEW020 20/06 Q1021=
201203240845 METAR LIRA 240845Z 05007KT 020V090 9999 FEW070 19/07 Q1021=
201203240815 METAR LIRA 240815Z 05008KT 9999 FEW070 18/06 Q1022=
201203240745 METAR LIRA 240745Z 04007KT 9999 SCT070 16/07 Q1022=
201203240715 METAR LIRA 240715Z 04005KT 360V060 9999 SCT070 15/08 Q1022=
201203240645 METAR LIRA 240645Z 04004KT 9999 SCT070 13/08 Q1022=
201203240615 METAR LIRA 240615Z 05005KT 360V090 9999 FEW035 SCT070 11/07
                        Q1022=
201203240545 METAR LIRA 240545Z 04003KT 9999 FEW035 SCT080 10/07 Q1022=
201203240515 METAR LIRA 240515Z 04001KT 9999 FEW035 SCT080 11/07 Q1022=
201203240445 METAR LIRA 240445Z 02002KT 9999 FEW025 SCT070 11/08 Q1022=
201203240415 METAR LIRA 240415Z 05002KT 9999 FEW030 SCT070 10/06 Q1022=
201203240345 METAR LIRA 240345Z 03003KT 9999 FEW030 SCT070 10/06 Q1022=
201203240315 METAR LIRA 240315Z 02003KT 9999 FEW030 SCT070 11/05 Q1022=
201203240245 METAR LIRA 240245Z 03002KT 9999 FEW030 SCT070 11/04 Q1022=
201203240215 METAR LIRA 240215Z 04003KT 9999 FEW030 SCT070 12/04 Q1022=
201203240145 METAR LIRA 240145Z 15003KT 9999 FEW030 12/03 Q1022=
201203240115 METAR LIRA 240115Z 15003KT 9999 FEW030 12/03 Q1023=
201203240045 METAR LIRA 240045Z 14004KT 9999 FEW070 11/03 Q1023=
201203240015 METAR LIRA 240015Z 12004KT 9999 FEW070 11/04 Q1023=
201203232350 METAR LIRA 240045Z 14004KT 9999 FEW070 11/03 Q1023=
201203232345 METAR LIRA 232345Z 10001KT 9999 FEW070 11/03 Q1023=
201203232315 METAR LIRA 232315Z 10003KT 9999 FEW070 12/04 Q1023=
201203232245 METAR LIRA 232245Z 15002KT 9999 FEW070 13/03 Q1023=
201203232215 METAR LIRA 232215Z 20002KT 9999 FEW070 13/03 Q1023=
201203232145 METAR LIRA 232145Z 18002KT 9999 FEW030 13/02 Q1023=
201203232115 METAR LIRA 232115Z 19002KT 9999 FEW030 14/03 Q1023=
201203232045 METAR LIRA 232045Z 18003KT 9999 FEW030 14/04 Q1024=
201203232015 METAR LIRA 232015Z 15005KT 9999 FEW030 14/03 Q1024=
201203231945 METAR LIRA 231945Z 17005KT 9999 FEW030 14/03 Q1023=
201203231915 METAR LIRA 231915Z 19005KT 9999 FEW030 14/04 Q1023=
201203231845 METAR LIRA 231845Z 23004KT 9999 FEW030 14/03 Q1023=
201203231815 METAR LIRA 231815Z 19003KT 9999 FEW025 SCT080 16/02 Q1023=
201203231745 METAR LIRA 231745Z 19003KT 9999 FEW025 BKN080 16/04 Q1024=
201203231715 METAR LIRA 231715Z 19004KT 9999 FEW023 BKN080 16/04 Q1024=
201203231645 METAR LIRA 231645Z 20005KT 9999 FEW023 BKN080 18/04 Q1024=
201203231615 METAR LIRA 231615Z 22003KT 9999 FEW023 BKN080 18/03 Q1024=
201203231545 METAR LIRA 231545Z 20006KT 9999 FEW023 BKN080 19/03 Q1024=
201203231515 METAR LIRA 231515Z 18007KT 9999 FEW023 BKN080 20/02 Q1024=
201203231445 METAR LIRA 231445Z 19008KT 150V240 9999 FEW023 BKN080 20/02
                        Q1024=
201203231415 METAR LIRA 231415Z 20007KT 9999 FEW023 BKN080 20/02 Q1025=
201203231345 METAR LIRA 231345Z 20007KT 9999 FEW023 SCT080 21/03 Q1025=
201203231315 METAR LIRA 231315Z 18008KT 150V220 9999 FEW023 SCT080 21/04
                        Q1025=
201203231245 METAR LIRA 231245Z 21003KT 150V220 9999 FEW023 SCT080 20/04
                        Q1025=
201203231215 METAR LIRA 231215Z 19006KT 170V240 9999 FEW023 SCT080 21/06
                        Q1026=
201203231145 METAR LIRA 231145Z 20010KT 180V260 9999 FEW023 SCT080 21/04
                        Q1026=
201203231115 METAR LIRA 231115Z 21004KT 9999 SCT080 SCT200 22/03 Q1026=
201203231045 METAR LIRA 231045Z 21004KT 9999 SCT080 22/05 Q1026=
201203231015 METAR LIRA 231015Z 25005KT 9999 SCT080 20/05 Q1026=
201203230945 METAR LIRA 230945Z 34005KT 9999 FEW080 19/04 Q1026=
201203230915 METAR LIRA 230915Z 03004KT 350V070 9999 FEW080 18/06 Q1026=
201203230845 METAR LIRA 230845Z 02004KT 9999 FEW080 17/08 Q1027=
201203230815 METAR LIRA 230815Z 04003KT 9999 FEW080 14/07 Q1027=
201203230745 METAR LIRA 230745Z 03004KT 9999 FEW080 13/07 Q1027=
201203230715 METAR LIRA 230715Z 02002KT 9999 FEW010 SCT080 11/07 Q1026=
201203230645 METAR LIRA 230645Z 04003KT 9999 FEW010 SCT080 10/08 Q1026=
201203230615 METAR LIRA 230615Z 04003KT 9999 FEW080 08/07 Q1026=
201203230545 METAR LIRA 230545Z 04003KT 9999 FEW080 08/06 Q1026=
201203230515 METAR LIRA 230515Z 04002KT 9999 FEW080 08/05 Q1026=
201203230445 METAR LIRA 230445Z 05003KT CAVOK 08/06 Q1026=
201203230415 METAR LIRA 230415Z 05004KT CAVOK 08/06 Q1026=
201203230345 METAR LIRA 230345Z 04002KT CAVOK 08/06 Q1026=
201203230315 METAR LIRA 230315Z 05004KT CAVOK 09/06 Q1026=
201203230245 METAR LIRA 230245Z 04002KT CAVOK 09/04 Q1026=
201203230215 METAR LIRA 230215Z 02001KT 9999 FEW080 09/05 Q1026=
201203230145 METAR LIRA 230145Z 00000KT 9000 FEW004 SCT070 09/05 Q1027=
201203230115 METAR LIRA 230115Z 14002KT 9000 FEW004 09/05 Q1027=
201203230045 METAR LIRA 230045Z 16001KT 9000 FEW004 09/07 Q1027=
201203230015 METAR LIRA 230015Z 00000KT 9000 FEW004 SCT070 10/08 Q1027=
201203222350 METAR LIRA 230045Z 16001KT 9000 FEW004 09/07 Q1027=
201203222345 METAR LIRA 222345Z 00000KT 9000 FEW004 SCT070 11/08 Q1027=
201203222315 METAR LIRA 222315Z 11001KT 9000 FEW004 SCT070 11/09 Q1027=
201203222245 METAR LIRA 222245Z 00000KT 9000 FEW004 SCT070 11/09 Q1027=
201203222215 METAR LIRA 222215Z 00000KT 9000 FEW004 SCT070 11/09 Q1027=
201203222145 METAR LIRA 222145Z 09003KT 9000 FEW004 11/09 Q1027=
201203222115 METAR LIRA 222115Z 00000KT 9000 FEW004 11/09 Q1027=
201203222045 METAR LIRA 222045Z 00000KT 9000 FEW004 12/10 Q1027=
201203222015 METAR LIRA 222015Z 00000KT 9000 FEW004 13/11 Q1027=
201203221945 METAR LIRA 221945Z 18001KT 9000 FEW080 13/12 Q1027=
201203221915 METAR LIRA 221915Z 19005KT 9000 FEW080 14/12 Q1027=
201203221845 METAR LIRA 221845Z 25003KT 9000 FEW080 14/12 Q1027=
201203221815 METAR LIRA 221815Z 22004KT 9999 FEW080 14/12 Q1027=
201203221745 METAR LIRA 221745Z 33006KT CAVOK 14/12 Q1027=
201203221715 METAR LIRA 221715Z 23006KT CAVOK 15/11 Q1026=
201203221645 METAR LIRA 221645Z 22005KT 9999 FEW020 15/10 Q1026=
201203221615 METAR LIRA 221615Z 20009KT 160V240 9999 FEW020 17/09 Q1026=
201203221545 METAR LIRA 221545Z 21010KT 180V240 9999 FEW020 18/05 Q1026=
201203221515 METAR LIRA 221515Z 20011KT 9999 FEW020 20/03 Q1026=
201203221445 METAR LIRA 221445Z 21010KT 9999 FEW020 21/02 Q1026=
201203221415 METAR LIRA 221415Z 21008KT 180V270 9999 FEW020 22/02 Q1026=
201203221345 METAR LIRA 221345Z 19009KT 160V220 9999 FEW020 22/00 Q1027=
201203221315 METAR LIRA 221315Z 19009KT 140V220 9999 FEW020 22/01 Q1027=
201203221245 METAR LIRA 221245Z 17009KT 120V200 9999 FEW020 22/01 Q1027=
201203221215 METAR LIRA 221215Z 19008KT 150V260 9999 FEW020 22/02 Q1027=
201203221145 METAR LIRA 221145Z 19007KT 9999 FEW020 22/01 Q1028=
201203221115 METAR LIRA 221115Z 19008KT 130V220 9999 FEW020 22/02 Q1028=
201203221045 METAR LIRA 221045Z 19003KT 9999 FEW020 SCT070 21/05 Q1028=
201203221015 METAR LIRA 221015Z 27003KT 9999 FEW020 SCT070 20/04 Q1028=
201203220945 METAR LIRA 220945Z 34001KT 9999 FEW020 SCT070 19/04 Q1028=
201203220915 METAR LIRA 220915Z 34002KT 9999 FEW020 SCT070 18/05 Q1028=
201203220845 METAR LIRA 220845Z 34001KT 9999 FEW020 BKN070 16/06 Q1028=
201203220815 METAR LIRA 220815Z 34002KT 9999 FEW020 SCT070 15/07 Q1028=
201203220745 METAR LIRA 220745Z 02003KT 9999 FEW020 SCT070 14/07 Q1028=
201203220715 METAR LIRA 220715Z 03002KT 9999 FEW020 SCT070 13/06 Q1028=
201203220645 METAR LIRA 220645Z 06003KT 9999 FEW020 SCT070 12/07 Q1028=
201203220615 METAR LIRA 220615Z 06003KT 9999 FEW020 BKN070 11/07 Q1028=
201203220545 METAR LIRA 220545Z 08001KT 9999 FEW020 SCT070 09/06 Q1028=
201203220515 METAR LIRA 220515Z 08002KT 9999 FEW020 BKN070 09/07 Q1028=
201203220445 METAR LIRA 220445Z 32002KT 9999 SCT070 10/07 Q1028=
201203220415 METAR LIRA 220415Z 35001KT 9999 SCT070 10/06 Q1028=
201203220345 METAR LIRA 220345Z 02001KT 9999 SCT070 10/05 Q1028=
201203220315 METAR LIRA 220315Z 09001KT 9999 BKN070 09/04 Q1028=
201203220245 METAR LIRA 220245Z 00000KT 9999 BKN070 09/04 Q1028=
201203220215 METAR LIRA 220215Z 00000KT 8000 FEW005 BKN080 09/02 Q1028=
201203220145 METAR LIRA 220145Z 00000KT 8000 FEW005 SCT070 09/03 Q1028=
201203220115 METAR LIRA 220115Z 00000KT 8000 FEW005 SCT070 10/03 Q1029=
201203220045 METAR LIRA 220045Z 19002KT 8000 FEW005 SCT070 11/03 Q1029=
201203220015 METAR LIRA 220015Z 14001KT 8000 FEW005 SCT070 12/03 Q1029=
201203212350 METAR LIRA 220045Z 19002KT 8000 FEW005 SCT070 11/03 Q1029=
201203212345 METAR LIRA 212345Z 14001KT 8000 FEW005 SCT070 12/03 Q1029=
201203212315 METAR LIRA 212315Z 12002KT 8000 FEW005 SCT070 11/03 Q1029=
201203212245 METAR LIRA 212245Z 11004KT 8000 FEW005 SCT070 12/03 Q1029=
201203212215 METAR LIRA 212215Z 11004KT 8000 FEW005 12/05 Q1029=
201203212145 METAR LIRA 212145Z 10002KT 8000 FEW005 12/05 Q1029=
201203212115 METAR LIRA 212115Z 14001KT 8000 FEW005 13/06 Q1029=
201203212045 METAR LIRA 212045Z 00000KT 9999 FEW060 13/05 Q1029=
201203212015 METAR LIRA 212015Z 16002KT 9999 FEW060 14/05 Q1029=
201203211945 METAR LIRA 211945Z 19001KT 9999 SCT060 15/05 Q1029=
201203211915 METAR LIRA 211915Z 21002KT 9999 SCT060 15/05 Q1029=
201203211845 METAR LIRA 211845Z 00000KT 9999 SCT060 15/05 Q1028=
201203211815 METAR LIRA 211815Z 22002KT 9999 FEW025 SCT060 17/05 Q1028=
201203211745 METAR LIRA 211745Z 21002KT 9999 FEW025 SCT070 17/04 Q1028=
201203211715 METAR LIRA 211715Z 22003KT 9999 SCT025 SCT070 18/03 Q1028=
201203211645 METAR LIRA 211645Z 21003KT 9999 SCT025 SCT070 18/05 Q1028=
201203211615 METAR LIRA 211615Z 23004KT 9999 SCT025 SCT080 19/05 Q1029=
201203211545 METAR LIRA 211545Z 24004KT 9999 FEW025 SCT080 20/05 Q1029=
201203211515 METAR LIRA 211515Z 24005KT 9999 FEW025 SCT080 20/05 Q1029=
201203211445 METAR LIRA 211445Z 24005KT 9999 FEW025 SCT080 21/05 Q1029=
201203211415 METAR LIRA 211415Z 24005KT 9999 FEW030 SCT080 21/05 Q1029=
201203211345 METAR LIRA 211345Z 22005KT 180V260 9999 FEW030 21/04 Q1029=
201203211315 METAR LIRA 211315Z 23007KT 9999 FEW030 21/02 Q1029=
201203211245 METAR LIRA 211245Z 28003KT CAVOK 22/02 Q1029=
201203211215 METAR LIRA 211215Z 25003KT CAVOK 22/02 Q1030=
201203211145 METAR LIRA 211145Z 25003KT CAVOK 22/03 Q1030=
201203211115 METAR LIRA 211115Z 32004KT CAVOK 21/03 Q1030=
201203211045 METAR LIRA 211045Z 28002KT CAVOK 21/06 Q1030=
201203211015 METAR LIRA 211015Z 00000KT CAVOK 20/07 Q1030=
201203210945 METAR LIRA 210945Z 01003KT CAVOK 18/08 Q1031=
201203210915 METAR LIRA 210915Z 35003KT CAVOK 17/09 Q1031=
201203210845 METAR LIRA 210845Z 02004KT CAVOK 15/09 Q1031=
201203210815 METAR LIRA 210815Z 02003KT 9999 FEW002 15/09 Q1031=
201203210745 METAR LIRA 210745Z 02003KT 9999 FEW002 13/07 Q1030=
201203210715 METAR LIRA 210715Z 03004KT CAVOK 11/07 Q1030=
201203210645 METAR LIRA 210645Z 03001KT CAVOK 10/08 Q1030=
201203210615 METAR LIRA 210615Z 05002KT CAVOK 08/06 Q1030=
201203210545 METAR LIRA 210545Z 04003KT CAVOK 07/06 Q1030=
201203210515 METAR LIRA 210515Z 07002KT CAVOK 07/06 Q1030=
201203210445 METAR LIRA 210445Z 04002KT CAVOK 08/06 Q1030=
201203210415 METAR LIRA 210415Z 05002KT CAVOK 08/06 Q1029=
201203210345 METAR LIRA 210345Z 09002KT CAVOK 08/06 Q1030=
201203210315 METAR LIRA 210315Z 06002KT CAVOK 08/06 Q1030=
201203210245 METAR LIRA 210245Z 05002KT CAVOK 08/07 Q1030=
201203210215 METAR LIRA 210215Z 03002KT CAVOK 08/07 Q1030=
201203210145 METAR LIRA 210145Z 03001KT CAVOK 09/07 Q1030=
201203210115 METAR LIRA 210115Z 03002KT CAVOK 10/07 Q1030=
201203210045 METAR LIRA 210045Z 04002KT CAVOK 10/07 Q1030=
201203210015 METAR LIRA 210015Z 00000KT CAVOK 10/07 Q1030=
201203202350 METAR LIRA 210045Z 04002KT CAVOK 10/07 Q1030=
201203202345 METAR LIRA 202345Z 00000KT CAVOK 10/07 Q1030=
201203202315 METAR LIRA 202315Z 00000KT CAVOK 12/07 Q1030=
201203202245 METAR LIRA 202245Z 10002KT CAVOK 12/08 Q1030=
201203202215 METAR LIRA 202215Z 11002KT CAVOK 12/08 Q1030=
201203202145 METAR LIRA 202145Z 00000KT CAVOK 12/07 Q1030=
201203202115 METAR LIRA 202115Z 16002KT CAVOK 11/07 Q1030=
201203202045 METAR LIRA 202045Z 20001KT CAVOK 12/08 Q1030=
201203202015 METAR LIRA 202015Z 00000KT CAVOK 13/07 Q1030=
201203201945 METAR LIRA 201945Z 18001KT CAVOK 13/07 Q1030=
201203201915 METAR LIRA 201915Z 18001KT CAVOK 13/07 Q1030=
201203201845 METAR LIRA 201845Z 00000KT CAVOK 13/07 Q1030=
201203201815 METAR LIRA 201815Z 26002KT CAVOK 15/06 Q1029=
201203201745 METAR LIRA 201745Z 24002KT CAVOK 15/07 Q1029=
201203201715 METAR LIRA 201715Z 28003KT CAVOK 16/07 Q1029=
201203201645 METAR LIRA 201645Z 28004KT CAVOK 18/07 Q1029=
201203201615 METAR LIRA 201615Z 26006KT 230V310 CAVOK 18/06 Q1029=
201203201545 METAR LIRA 201545Z 24004KT CAVOK 20/06 Q1029=
201203201515 METAR LIRA 201515Z 25008KT 210V300 CAVOK 20/05 Q1029=
201203201445 METAR LIRA 201445Z 23005KT 220V280 CAVOK 21/06 Q1029=
201203201415 METAR LIRA 201415Z 27004KT CAVOK 21/08 Q1029=
201203201345 METAR LIRA 201345Z 22005KT CAVOK 21/08 Q1029=
201203201315 METAR LIRA 201315Z 23007KT CAVOK 21/08 Q1030=
201203201245 METAR LIRA 201245Z 23003KT CAVOK 20/06 Q1030=
201203201215 METAR LIRA 201215Z 23005KT CAVOK 21/07 Q1030=
201203201145 METAR LIRA 201145Z 28005KT CAVOK 20/08 Q1030=
201203201115 METAR LIRA 201115Z 24003KT CAVOK 19/08 Q1030=
201203201045 METAR LIRA 201045Z 32002KT CAVOK 19/10 Q1030=
201203201015 METAR LIRA 201015Z 33003KT 9000 NSC 18/11 Q1030=
201203200945 METAR LIRA 200945Z 30003KT 9000 NSC 17/12 Q1031=
201203200915 METAR LIRA 200915Z 35001KT 8000 NSC 16/12 Q1031=
201203200845 METAR LIRA 200845Z 31001KT 8000 NSC 15/12 Q1030=
201203200815 METAR LIRA 200815Z 01002KT 8000 NSC 14/12 Q1030=
201203200745 METAR LIRA 200745Z 04003KT 8000 NSC 13/12 Q1030=
201203200715 METAR LIRA 200715Z 33001KT 8000 NSC 11/10 Q1030=
201203200645 METAR LIRA 200645Z 00000KT 6000 FEW060 10/09 Q1029=
201203200615 METAR LIRA 200615Z 00000KT 6000 FEW010 08/07 Q1029=
201203200545 METAR LIRA 200545Z 13002KT 6000 FEW010 08/07 Q1029=
201203200515 METAR LIRA 200515Z 09002KT 6000 FEW009 08/07 Q1029=
201203200445 METAR LIRA 200445Z 07001KT 6000 FEW009 09/08 Q1028=
201203200415 METAR LIRA 200415Z 05002KT 6000 SCT009 09/08 Q1028=
201203200345 METAR LIRA 200345Z 00000KT 6000 SCT009 09/08 Q1028=
201203200315 METAR LIRA 200315Z 09001KT 6000 SCT009 10/09 Q1028=
201203200245 METAR LIRA 200245Z 09001KT 6000 SCT009 10/09 Q1028=
201203200215 METAR LIRA 200215Z 09004KT 7000 SCT010 SCT030 09/09 Q1028=
201203200145 METAR LIRA 200145Z 10003KT 8000 FEW015 SCT070 09/09 Q1029=
201203200115 METAR LIRA 200115Z 14002KT 8000 FEW015 SCT070 10/09 Q1029=
201203200045 METAR LIRA 200045Z 14004KT 8000 FEW015 SCT070 11/10 Q1029=
201203200015 METAR LIRA 200015Z 21001KT 8000 FEW015 SCT070 12/11 Q1029=
201203192350 METAR LIRA 200045Z 14004KT 8000 FEW015 SCT070 11/10 Q1029=
201203192345 METAR LIRA 192345Z 18001KT 8000 FEW010 SCT070 11/11 Q1028=
201203192315 METAR LIRA 192315Z 17002KT 8000 FEW008 SCT070 11/10 Q1028=
201203192245 METAR LIRA 192245Z 06001KT 7000 FEW008 SCT070 11/10 Q1028=
201203192215 METAR LIRA 192215Z 15001KT 8000 SCT070 12/11 Q1028=
201203192145 METAR LIRA 192145Z 17004KT 8000 FEW020 SCT080 12/12 Q1028=
201203192115 METAR LIRA 192115Z 19004KT 8000 FEW020 SCT080 13/12 Q1027=
201203192045 METAR LIRA 192045Z 20005KT 8000 FEW020 SCT080 13/12 Q1027=
201203192015 METAR LIRA 192015Z 21005KT 8000 FEW020 SCT070 13/12 Q1027=
201203191945 METAR LIRA 191945Z 23003KT 8000 FEW020 SCT070 13/12 Q1027=
201203191915 METAR LIRA 191915Z 17003KT 7000 SCT015 SCT030 13/12 Q1026=
201203191845 METAR LIRA 191845Z 19006KT 160V220 7000 SCT010 SCT030 14/13
                        Q1026=
201203191815 METAR LIRA 191815Z 18007KT 7000 SCT010 SCT030 14/13 Q1026=
201203191745 METAR LIRA 191745Z 18007KT 7000 SCT010 SCT015 15/14 Q1026=
201203191715 METAR LIRA 191715Z 19007KT 7000 FEW010 SCT015 15/13 Q1025=
201203191645 METAR LIRA 191645Z 18007KT 160V220 6000 FEW010 SCT015 15/13
                        Q1025=
201203191615 METAR LIRA 191615Z 19007KT 6000 FEW010 SCT015 15/13 Q1025=
201203191545 METAR LIRA 191545Z 18008KT 6000 FEW010 SCT015 15/14 Q1025=
201203191515 METAR LIRA 191515Z 20012KT 170V230 6000 FEW010 SCT015 16/14
                        Q1025=
201203191445 METAR LIRA 191445Z 22008KT 180V240 9000 FEW016 SCT030 17/14
                        Q1025=
201203191415 METAR LIRA 191415Z 08006KT 330V120 9000 FEW016 SCT030 18/13
                        Q1024=
201203191345 METAR LIRA 191345Z 07004KT 330V060 9000 FEW016 SCT030 19/12
                        Q1024=
201203191315 METAR LIRA 191315Z 14007KT 110V170 9000 -RA FEW016 SCT025
                        18/11 Q1024=
201203191245 METAR LIRA 191245Z 18009KT 9000 FEW016 SCT025 17/12 Q1024=
201203191215 METAR LIRA 191215Z 16012KT 9000 -RA FEW016TCU SCT025 17/12
                        Q1024=
201203191145 METAR LIRA 191145Z 15015KT 8000 -RA FEW016TCU SCT025 16/13
                        Q1025=
201203191115 METAR LIRA 191115Z 17017G28KT 7000 -RA FEW016TCU SCT025 16/13
                        Q1025=
201203191045 METAR LIRA 191045Z 15012KT 7000 -RA SCT017 BKN025 15/13 Q1025=
201203191015 METAR LIRA 191015Z 15013KT 7000 SCT017 BKN025 16/13 Q1026=
201203190945 METAR LIRA 190945Z 16013KT 140V200 7000 SCT017 BKN025 16/13
                        Q1026=
201203190915 METAR LIRA 190915Z 16014KT 7000 SCT017 BKN025 15/13 Q1025=
201203190845 METAR LIRA 190845Z 15015KT 8000 SCT018 SCT025 16/12 Q1025=
201203190815 METAR LIRA 190815Z 15013KT 8000 FEW010 SCT018 15/12 Q1025=
201203190745 METAR LIRA 190745Z 15014KT 9999 SCT018 BKN025 15/11 Q1024=
201203190715 METAR LIRA 190715Z 14012KT 9999 SCT018 BKN025 14/11 Q1024=
201203190645 METAR LIRA 190645Z 15012KT 9999 SCT018 SCT025 14/10 Q1024=
201203190615 METAR LIRA 190615Z 16009KT 120V190 9999 SCT018 14/10 Q1024=
201203190545 METAR LIRA 190545Z 16007KT 9999 FEW018 13/09 Q1023=
201203190515 METAR LIRA 190515Z 16004KT 9999 FEW060 13/10 Q1023=
201203190445 METAR LIRA 190445Z 15009KT 9999 FEW023 13/09 Q1022=
201203190415 METAR LIRA 190415Z 14012KT 9999 FEW070 13/09 Q1022=
201203190345 METAR LIRA 190345Z 14002KT 9999 FEW070 13/10 Q1022=
201203190315 METAR LIRA 190315Z 14009KT 9999 FEW070 13/11 Q1023=
201203190245 METAR LIRA 190245Z 13009KT 110V170 9999 FEW070 13/11 Q1023=
201203190215 METAR LIRA 190215Z 14009KT 9999 FEW070 13/10 Q1023=
201203190145 METAR LIRA 190145Z 13008KT 9999 FEW070 13/10 Q1023=
201203190115 METAR LIRA 190115Z 14009KT 9999 FEW010 13/10 Q1023=
201203190045 METAR LIRA 190045Z 15009KT 9999 FEW010 13/10 Q1024=
201203190015 METAR LIRA 190015Z 15011KT 9999 FEW010 13/10 Q1024=
201203182350 METAR LIRA 190045Z 15009KT 9999 FEW010 13/10 Q1024=
201203182345 METAR LIRA 182345Z 15011KT 9999 FEW010 13/10 Q1024=
201203182315 METAR LIRA 182315Z 15011KT 9999 FEW030 SCT070 13/10 Q1024=
201203182245 METAR LIRA 182245Z 14011KT 9999 FEW030 SCT070 13/10 Q1024=
201203182215 METAR LIRA 182215Z 14011KT 9999 FEW030 SCT070 13/09 Q1024=
201203182145 METAR LIRA 182145Z 15010KT 9999 FEW030 SCT070 13/09 Q1024=
201203182115 METAR LIRA 182115Z 16010KT 9999 FEW030 14/09 Q1023=
201203182045 METAR LIRA 182045Z 17012G24KT 9999 SCT030 14/10 Q1023=
201203182015 METAR LIRA 182015Z 16012KT 9999 FEW020 14/09 Q1023=
201203181945 METAR LIRA 181945Z 17014KT 9999 FEW020 14/08 Q1023=
201203181915 METAR LIRA 181915Z 18012KT 9999 FEW020 SCT070 14/08 Q1023=
201203181845 METAR LIRA 181845Z 16014G24KT 9999 FEW020 SCT070 15/08 Q1023=
201203181815 METAR LIRA 181815Z 16015KT 9999 FEW020 SCT070 15/07 Q1022=
201203181745 METAR LIRA 181745Z 17017KT 9999 FEW020 SCT030 15/06 Q1022=
201203181715 METAR LIRA 181715Z 16017G28KT 9999 FEW020 SCT030 15/06 Q1022=
201203181645 METAR LIRA 181645Z 17014KT 9999 SCT030 SCT080 16/09 Q1022=
201203181615 METAR LIRA 181615Z 16019KT 9999 FEW030 SCT080 16/10 Q1022=
201203181545 METAR LIRA 181545Z 16019G31KT 9999 FEW030 SCT080 17/10 Q1022=
201203181515 METAR LIRA 181515Z 18014KT 160V220 9999 SCT080 17/10 Q1023=
201203181445 METAR LIRA 181445Z 18016KT 9999 FEW018 SCT080 18/09 Q1023=
201203181415 METAR LIRA 181415Z 17018G30KT 9999 FEW018 SCT080 18/09 Q1023=
201203181345 METAR LIRA 181345Z 17019G29KT 9999 FEW018 SCT080 18/10 Q1023=
201203181315 METAR LIRA 181315Z 17018KT 9999 FEW018 SCT080 18/09 Q1024=
201203181245 METAR LIRA 181245Z 17016KT 9999 FEW018 SCT080 18/10 Q1024=
201203181215 METAR LIRA 181215Z 17016KT 9999 FEW018 SCT080 18/10 Q1025=
201203181145 METAR LIRA 181145Z 17014KT 9999 FEW017 SCT030 18/09 Q1025=
201203181115 METAR LIRA 181115Z 16015KT 9999 FEW017 SCT030 18/09 Q1025=
201203181045 METAR LIRA 181045Z 16015G25KT 9999 FEW017 SCT030 18/10 Q1025=
201203181015 METAR LIRA 181015Z 17016KT 9999 FEW017 SCT030 17/08 Q1025=
201203180945 METAR LIRA 180945Z 17015KT 9999 FEW017 SCT030 17/07 Q1025=
201203180915 METAR LIRA 180915Z 16015KT 9999 FEW017 17/06 Q1026=
201203180845 METAR LIRA 180845Z 16013KT 9999 FEW080 16/07 Q1026=
201203180815 METAR LIRA 180815Z 17013KT 9999 FEW080 15/09 Q1026=
201203180745 METAR LIRA 180745Z 18010KT 9999 FEW070 14/07 Q1026=
201203180715 METAR LIRA 180715Z 20009KT 9999 FEW070 14/07 Q1025=
201203180645 METAR LIRA 180645Z 18011KT 9999 FEW030 14/05 Q1025=
201203180615 METAR LIRA 180615Z 21004KT 9999 SCT030 13/05 Q1025=
201203180545 METAR LIRA 180545Z 18004KT 9999 SCT025 12/05 Q1025=
201203180515 METAR LIRA 180515Z 24001KT 9999 SCT025 12/06 Q1025=
201203180445 METAR LIRA 180445Z 20005KT 9999 FEW014 SCT025 13/04 Q1025=
201203180415 METAR LIRA 180415Z 14006KT 9999 FEW025 12/05 Q1025=
201203180345 METAR LIRA 180345Z 15007KT 9999 FEW060 12/06 Q1025=
201203180315 METAR LIRA 180315Z 15006KT 9999 SCT060 13/07 Q1025=
201203180245 METAR LIRA 180245Z 17005KT 9999 SCT050 13/07 Q1025=
201203180215 METAR LIRA 180215Z 16005KT 9999 FEW009 12/06 Q1025=
201203180145 METAR LIRA 180145Z 15007KT 9999 FEW009 SCT070 12/07 Q1026=
201203180115 METAR LIRA 180115Z 15008KT 9999 FEW020 SCT070 12/07 Q1026=
201203180045 METAR LIRA 180045Z 14008KT 9999 FEW070 12/07 Q1026=
201203180015 METAR LIRA 180015Z 15008KT 9999 FEW070 12/07 Q1026=
201203172350 METAR LIRA 180045Z 14008KT 9999 FEW070 12/07 Q1026=
201203172345 METAR LIRA 172345Z 15008KT CAVOK 13/08 Q1026=
201203172315 METAR LIRA 172315Z 16008KT CAVOK 13/06 Q1026=
201203172245 METAR LIRA 172245Z 15008KT CAVOK 13/05 Q1026=
201203172215 METAR LIRA 172215Z 14010KT CAVOK 13/05 Q1026=
201203172145 METAR LIRA 172145Z 15010KT CAVOK 13/04 Q1026=
201203172115 METAR LIRA 172115Z 17006KT 120V190 9999 FEW060 13/04 Q1026=
201203172045 METAR LIRA 172045Z 14007KT 9999 FEW060 12/04 Q1026=
201203172015 METAR LIRA 172015Z 14008KT 9999 FEW060 11/04 Q1027=
201203171945 METAR LIRA 171945Z 19006KT 9999 FEW020 12/07 Q1027=
201203171915 METAR LIRA 171915Z 16004KT 9999 FEW020 12/08 Q1027=
201203171845 METAR LIRA 171845Z 18006KT 9999 FEW070 13/08 Q1027=
201203171815 METAR LIRA 171815Z 18007KT 9999 FEW070 13/08 Q1026=
201203171745 METAR LIRA 171745Z 19008KT 9999 FEW070 13/09 Q1026=
201203171715 METAR LIRA 171715Z 20008KT 9999 FEW070 14/09 Q1026=
201203171645 METAR LIRA 171645Z 18008KT 9999 FEW070 15/07 Q1027=
201203171615 METAR LIRA 171615Z 18008KT 9999 FEW070 16/07 Q1027=
201203171545 METAR LIRA 171545Z 17011KT 9999 FEW070 16/09 Q1027=
201203171515 METAR LIRA 171515Z 20011KT 9999 FEW070 17/09 Q1027=
201203171445 METAR LIRA 171445Z 19011KT 9999 FEW070 17/07 Q1027=
201203171415 METAR LIRA 171415Z 20010KT 170V240 9999 FEW070 18/08 Q1027=
201203171345 METAR LIRA 171345Z 17010KT 9999 FEW010 18/07 Q1027=
201203171315 METAR LIRA 171315Z 18010KT 9999 FEW010 18/06 Q1027=
201203171245 METAR LIRA 171245Z 19010KT 150V230 9999 FEW010 18/07 Q1028=
201203171215 METAR LIRA 171215Z 20010KT 150V230 9999 FEW010 18/07 Q1028=
201203171145 METAR LIRA 171145Z 18010KT 140V220 8000 FEW010 17/07 Q1029=
201203171115 METAR LIRA 171115Z 19006KT 130V240 8000 FEW010 17/08 Q1029=
201203171045 METAR LIRA 171045Z 19006KT 8000 FEW010 16/09 Q1029=
201203171015 METAR LIRA 171015Z 21002KT 6000 FEW010 15/11 Q1030=
201203170945 METAR LIRA 170945Z 07002KT 6000 FEW010 SCT015 14/10 Q1030=
201203170915 METAR LIRA 170915Z 15005KT 130V230 6000 SCT010 SCT015 12/09
                        Q1030=
201203170845 METAR LIRA 170845Z 15005KT 6000 BKN010 11/09 Q1029=
201203170815 METAR LIRA 170815Z 10004KT 5000 BR BKN010 11/10 Q1029=
201203170745 METAR LIRA 170745Z 23001KT 5000 BR BKN010 11/09 Q1029=
201203170715 METAR LIRA 170715Z 20002KT 5000 BR BKN010 11/09 Q1029=
201203170645 METAR LIRA 170645Z 15002KT 4000 BR BKN010 10/09 Q1029=
201203170615 METAR LIRA 170615Z 15002KT 4000 BR BKN010 10/09 Q1029=
201203170545 METAR LIRA 170545Z 06003KT 4000 BR BKN010 10/09 Q1029=
201203170515 METAR LIRA 170515Z 09002KT 4000 BR BKN010 10/09 Q1029=
201203170445 METAR LIRA 170445Z 16002KT 5000 BR BKN010 11/10 Q1029=
201203170415 METAR LIRA 170415Z 21001KT 5000 BR BKN010 11/10 Q1029=
201203170345 METAR LIRA 170345Z 19002KT 5000 BR BKN010 11/10 Q1029=
201203170315 METAR LIRA 170315Z 18003KT 5000 BR BKN010 11/10 Q1029=
201203170245 METAR LIRA 170245Z 18003KT 6000 BKN010 10/09 Q1029=
201203170215 METAR LIRA 170215Z 16002KT 6000 BKN010 10/09 Q1029=
201203170145 METAR LIRA 170145Z 16002KT 7000 BKN010 10/09 Q1029=
201203170115 METAR LIRA 170115Z 14001KT 7000 BKN010 10/09 Q1029=
201203170045 METAR LIRA 170045Z 24001KT 7000 BKN010 10/08 Q1029=
201203170015 METAR LIRA 170015Z 17001KT 8000 BKN010 09/08 Q1030=
201203162350 METAR LIRA 170045Z 24001KT 7000 BKN010 10/08 Q1029=
201203162345 METAR LIRA 162345Z 11003KT 8000 SCT010 09/08 Q1030=
201203162315 METAR LIRA 162315Z 10003KT 8000 SCT010 09/08 Q1030=
201203162245 METAR LIRA 162245Z 00000KT 8000 FEW010 09/08 Q1030=
201203162215 METAR LIRA 162215Z 00000KT 8000 NSC 09/08 Q1030=
201203162145 METAR LIRA 162145Z 00000KT CAVOK 09/08 Q1030=
201203162115 METAR LIRA 162115Z 00000KT CAVOK 09/08 Q1029=
201203162045 METAR LIRA 162045Z 00000KT CAVOK 09/08 Q1029=
201203162015 METAR LIRA 162015Z 00000KT CAVOK 11/10 Q1029=
201203161945 METAR LIRA 161945Z 23001KT CAVOK 11/10 Q1029=
201203161915 METAR LIRA 161915Z 19003KT CAVOK 11/10 Q1029=
201203161845 METAR LIRA 161845Z 21004KT CAVOK 11/10 Q1028=
201203161815 METAR LIRA 161815Z 23004KT CAVOK 12/11 Q1028=
201203161745 METAR LIRA 161745Z 22005KT CAVOK 13/11 Q1028=
201203161715 METAR LIRA 161715Z 21005KT CAVOK 13/11 Q1029=
201203161645 METAR LIRA 161645Z 21007KT 170V250 CAVOK 15/12 Q1028=
201203161615 METAR LIRA 161615Z 20009KT CAVOK 16/13 Q1029=
201203161545 METAR LIRA 161545Z 21007KT 170V250 CAVOK 17/13 Q1029=
201203161515 METAR LIRA 161515Z 20008KT 170V230 CAVOK 17/13 Q1029=
201203161445 METAR LIRA 161445Z 22009KT CAVOK 17/13 Q1028=
201203161415 METAR LIRA 161415Z 20010KT CAVOK 17/12 Q1029=
201203161345 METAR LIRA 161345Z 22008KT 170V260 CAVOK 18/13 Q1029=
201203161315 METAR LIRA 161315Z 23007KT 180V260 9999 FEW017 19/13 Q1029=
201203161245 METAR LIRA 161245Z 20006KT 150V250 9999 FEW015 19/12 Q1029=
201203161215 METAR LIRA 161215Z 22005KT 180V250 9000 NSC 18/12 Q1029=
201203161145 METAR LIRA 161145Z 20006KT 160V250 9000 NSC 17/12 Q1029=
201203161115 METAR LIRA 161115Z 20006KT 180V240 9000 4000S BR NSC 17/12
                        Q1030=
201203161045 METAR LIRA 161045Z 22005KT 190V250 9000 4000S BR FEW014 17/12
                        Q1030=
201203161015 METAR LIRA 161015Z 20004KT 9000 4000S BR NSC 17/12 Q1030=
201203160945 METAR LIRA 160945Z 19005KT 160V240 7000 3000S BR NSC 15/11
                        Q1030=
201203160915 METAR LIRA 160915Z 22005KT 200V260 7000 3000S BR FEW014 14/11
                        Q1029=
201203160845 METAR LIRA 160845Z 24003KT 7000 3000S BR FEW014 13/11 Q1029=
201203160815 METAR LIRA 160815Z 28003KT 7000 3000S BR NSC 12/10 Q1029=
201203160745 METAR LIRA 160745Z 32002KT 8000 3500S BR NSC 09/08 Q1029=
201203160715 METAR LIRA 160715Z 30001KT 7000 NSC 08/08 Q1029=
201203160645 METAR LIRA 160645Z 30001KT 8000 NSC 07/07 Q1028=
201203160615 METAR LIRA 160615Z 18001KT 8000 FEW009 06/06 Q1028=
201203160545 METAR LIRA 160545Z 00000KT 8000 FEW009 06/06 Q1028=
201203160515 METAR LIRA 160515Z 00000KT 8000 FEW009 06/05 Q1028=
201203160445 METAR LIRA 160445Z 03002KT 8000 FEW009 06/05 Q1028=
201203160415 METAR LIRA 160415Z 00000KT 8000 FEW009 06/06 Q1028=
201203160345 METAR LIRA 160345Z 00000KT 8000 FEW009 07/06 Q1028=
201203160315 METAR LIRA 160315Z 06001KT 7000 FEW007 07/06 Q1028=
201203160245 METAR LIRA 160245Z 06001KT 8000 FEW007 07/06 Q1028=
201203160215 METAR LIRA 160215Z 04002KT CAVOK 07/07 Q1028=
201203160145 METAR LIRA 160145Z 22001KT CAVOK 08/07 Q1028=
201203160115 METAR LIRA 160115Z 19001KT CAVOK 08/07 Q1028=
201203160045 METAR LIRA 160045Z 17002KT CAVOK 08/06 Q1028=
201203160015 METAR LIRA 160015Z 17003KT CAVOK 08/06 Q1028=
201203152350 METAR LIRA 160045Z 17002KT CAVOK 08/06 Q1028=
201203152345 METAR LIRA 152345Z 00000KT CAVOK 08/06 Q1028=
201203152315 METAR LIRA 152315Z 13001KT CAVOK 09/08 Q1027=
201203152245 METAR LIRA 152245Z 00000KT 9999 FEW007 10/09 Q1027=
201203152215 METAR LIRA 152215Z 07002KT 9999 FEW010 10/09 Q1027=
201203152145 METAR LIRA 152145Z 15002KT CAVOK 10/09 Q1027=
201203152115 METAR LIRA 152115Z 17002KT CAVOK 10/09 Q1027=
201203152045 METAR LIRA 152045Z 19003KT CAVOK 11/09 Q1027=
201203152015 METAR LIRA 152015Z 18003KT CAVOK 12/09 Q1027=
201203151945 METAR LIRA 151945Z 19001KT CAVOK 12/10 Q1027=
201203151915 METAR LIRA 151915Z 18002KT CAVOK 13/10 Q1027=
201203151845 METAR LIRA 151845Z 18003KT CAVOK 13/10 Q1027=
201203151815 METAR LIRA 151815Z 18004KT CAVOK 13/10 Q1027=
201203151745 METAR LIRA 151745Z 18004KT CAVOK 14/10 Q1027=
201203151715 METAR LIRA 151715Z 22003KT CAVOK 15/10 Q1027=
201203151645 METAR LIRA 151645Z 25004KT CAVOK 15/09 Q1027=
201203151615 METAR LIRA 151615Z 28004KT CAVOK 16/10 Q1027=
201203151545 METAR LIRA 151545Z 26007KT 220V300 CAVOK 17/11 Q1027=
201203151515 METAR LIRA 151515Z 26005KT 210V310 CAVOK 17/09 Q1027=
201203151445 METAR LIRA 151445Z 24005KT 200V290 CAVOK 18/10 Q1027=
201203151415 METAR LIRA 151415Z 25008KT 230V290 CAVOK 18/10 Q1027=
201203151345 METAR LIRA 151345Z 25008KT 230V300 CAVOK 19/10 Q1027=
201203151315 METAR LIRA 151315Z 29005KT CAVOK 20/07 Q1027=
201203151245 METAR LIRA 151245Z 33003KT CAVOK 19/06 Q1027=
201203151215 METAR LIRA 151215Z 30005KT 260V320 CAVOK 19/07 Q1027=
201203151145 METAR LIRA 151145Z 27003KT CAVOK 18/06 Q1028=
201203151115 METAR LIRA 151115Z 26004KT CAVOK 17/07 Q1028=
201203151045 METAR LIRA 151045Z 28004KT CAVOK 16/09 Q1028=
201203151015 METAR LIRA 151015Z 29003KT CAVOK 16/10 Q1028=
201203150945 METAR LIRA 150945Z 24003KT CAVOK 15/10 Q1028=
201203150915 METAR LIRA 150915Z 30002KT CAVOK 13/09 Q1028=
201203150845 METAR LIRA 150845Z 30001KT CAVOK 12/09 Q1027=
201203150815 METAR LIRA 150815Z 33001KT CAVOK 10/08 Q1027=
201203150745 METAR LIRA 150745Z 04002KT CAVOK 09/08 Q1027=
201203150715 METAR LIRA 150715Z 04002KT 9000 NSC 07/07 Q1027=
201203150645 METAR LIRA 150645Z 02001KT 9000 NSC 06/06 Q1027=
201203150615 METAR LIRA 150615Z 01001KT 8000 NSC 05/05 Q1027=
201203150545 METAR LIRA 150545Z 06001KT 8000 FEW080 04/04 Q1027=
201203150515 METAR LIRA 150515Z 08001KT 8000 FEW080 04/04 Q1027=
201203150445 METAR LIRA 150445Z 35002KT 8000 FEW080 06/06 Q1026=
201203150415 METAR LIRA 150415Z 00000KT 8000 FEW080 06/06 Q1026=
201203150345 METAR LIRA 150345Z 00000KT 8000 FEW080 06/05 Q1026=
201203150315 METAR LIRA 150315Z 08001KT 9999 FEW080 06/05 Q1026=
201203150245 METAR LIRA 150245Z 00000KT 9999 FEW080 07/06 Q1026=
201203150215 METAR LIRA 150215Z 00000KT 9999 FEW080 07/06 Q1026=
201203150145 METAR LIRA 150145Z 00000KT 9999 FEW080 07/05 Q1026=
201203150115 METAR LIRA 150115Z 13001KT CAVOK 07/05 Q1026=
201203150045 METAR LIRA 150045Z 13002KT CAVOK 07/05 Q1026=
201203150015 METAR LIRA 150015Z 15001KT CAVOK 06/05 Q1026=
201203142350 METAR LIRA 150045Z 13002KT CAVOK 07/05 Q1026=
201203142345 METAR LIRA 142345Z 15003KT CAVOK 07/05 Q1026=
201203142315 METAR LIRA 142315Z 12001KT CAVOK 08/06 Q1026=
201203142245 METAR LIRA 142245Z 09001KT CAVOK 08/07 Q1026=
201203142215 METAR LIRA 142215Z 12001KT CAVOK 08/08 Q1026=
201203142145 METAR LIRA 142145Z 15001KT CAVOK 09/08 Q1026=
201203142115 METAR LIRA 142115Z 00000KT CAVOK 09/09 Q1026=
201203142045 METAR LIRA 142045Z 00000KT CAVOK 10/09 Q1026=
201203142015 METAR LIRA 142015Z 17002KT CAVOK 10/09 Q1026=
201203141945 METAR LIRA 141945Z 15002KT CAVOK 10/10 Q1026=
201203141915 METAR LIRA 141915Z 17002KT CAVOK 11/10 Q1025=
201203141845 METAR LIRA 141845Z 20003KT CAVOK 12/10 Q1025=
201203141815 METAR LIRA 141815Z 18003KT CAVOK 12/11 Q1025=
201203141745 METAR LIRA 141745Z 20005KT 9999 FEW030 13/11 Q1025=
201203141715 METAR LIRA 141715Z 21005KT 9999 FEW020 SCT025 13/11 Q1025=
201203141645 METAR LIRA 141645Z 23005KT 9999 SCT020 14/11 Q1025=
201203141615 METAR LIRA 141615Z 24008KT 9999 SCT020 15/11 Q1024=
201203141545 METAR LIRA 141545Z 23008KT 210V270 9999 FEW020 15/11 Q1024=
201203141515 METAR LIRA 141515Z 22007KT 190V260 9999 FEW020 16/11 Q1024=
201203141445 METAR LIRA 141445Z 23009KT 200V270 9999 FEW020 FEW022TCU
                        16/10 Q1024=
201203141415 METAR LIRA 141415Z 23010KT 9999 SCT020 16/10 Q1024=
201203141345 METAR LIRA 141345Z 21006KT 150V240 9999 SCT020 17/09 Q1024=
201203141315 METAR LIRA 141315Z 20003KT 9999 SCT020 17/08 Q1024=
201203141245 METAR LIRA 141245Z 19004KT 190V260 9999 SCT020 17/08 Q1025=
201203141215 METAR LIRA 141215Z 21004KT 9999 SCT020 17/08 Q1025=
201203141145 METAR LIRA 141145Z 02002KT 9999 SCT020 16/07 Q1025=
201203141115 METAR LIRA 141115Z 22002KT 9999 SCT020 16/07 Q1025=
201203141045 METAR LIRA 141045Z 21003KT 9999 SCT020 16/07 Q1025=
201203141015 METAR LIRA 141015Z 30003KT 9999 SCT020 15/07 Q1025=
201203140945 METAR LIRA 140945Z 23002KT 9999 FEW018 15/07 Q1025=
201203140915 METAR LIRA 140915Z 33001KT 9999 FEW018 13/07 Q1024=
201203140845 METAR LIRA 140845Z 01002KT 9999 FEW018 12/07 Q1024=
201203140815 METAR LIRA 140815Z 02003KT CAVOK 11/07 Q1024=
201203140745 METAR LIRA 140745Z 04002KT CAVOK 10/07 Q1024=
201203140715 METAR LIRA 140715Z 34004KT CAVOK 08/06 Q1024=
201203140645 METAR LIRA 140645Z 00000KT CAVOK 07/06 Q1024=
201203140615 METAR LIRA 140615Z 04002KT CAVOK 06/05 Q1024=
201203140545 METAR LIRA 140545Z 01001KT CAVOK 05/05 Q1024=
201203140515 METAR LIRA 140515Z 04004KT CAVOK 05/05 Q1023=
201203140445 METAR LIRA 140445Z 06005KT 9999 FEW005 05/05 Q1023=
201203140415 METAR LIRA 140415Z 04003KT 9999 FEW005 05/05 Q1023=
201203140345 METAR LIRA 140345Z 03003KT 9999 FEW010 05/05 Q1023=
201203140315 METAR LIRA 140315Z 04002KT 9999 FEW010 05/05 Q1023=
201203140245 METAR LIRA 140245Z 05002KT 9999 FEW010 06/05 Q1023=
201203140215 METAR LIRA 140215Z 08001KT 9999 FEW010 06/05 Q1023=
201203140145 METAR LIRA 140145Z 09001KT 9999 FEW010 06/05 Q1023=
201203140115 METAR LIRA 140115Z 06002KT 9999 FEW010 07/05 Q1023=
201203140045 METAR LIRA 140045Z 07002KT 9999 FEW010 07/05 Q1023=
201203140015 METAR LIRA 140015Z 00000KT 9999 FEW010 08/06 Q1023=
201203132350 METAR LIRA 140045Z 07002KT 9999 FEW010 07/05 Q1023=
201203132345 METAR LIRA 132345Z 11002KT 9999 FEW010 08/07 Q1023=
201203132315 METAR LIRA 132315Z 12003KT 9999 FEW070 08/07 Q1023=
201203132245 METAR LIRA 132245Z 10004KT 9999 FEW070 09/07 Q1023=
201203132215 METAR LIRA 132215Z 11005KT 9999 FEW070 09/07 Q1023=
201203132145 METAR LIRA 132145Z 10005KT 9999 FEW070 09/07 Q1023=
201203132115 METAR LIRA 132115Z 13005KT 9999 FEW070 10/08 Q1023=
201203132045 METAR LIRA 132045Z 14007KT 9999 FEW020 10/08 Q1023=
201203132015 METAR LIRA 132015Z 17007KT 9999 FEW070 11/08 Q1023=
201203131945 METAR LIRA 131945Z 15007KT 9999 FEW070 11/08 Q1022=
201203131915 METAR LIRA 131915Z 15007KT 9999 FEW020 11/08 Q1022=
201203131845 METAR LIRA 131845Z 16007KT 9999 FEW020 11/09 Q1022=
201203131815 METAR LIRA 131815Z 16007KT 9999 FEW020 11/08 Q1022=
201203131745 METAR LIRA 131745Z 17006KT 9999 FEW020 12/10 Q1022=
201203131715 METAR LIRA 131715Z 19007KT 160V230 9999 FEW020 13/11 Q1022=
201203131645 METAR LIRA 131645Z 20009KT 9999 FEW020 14/11 Q1022=
201203131615 METAR LIRA 131615Z 20010KT 9999 FEW020 SCT030 14/11 Q1022=
201203131545 METAR LIRA 131545Z 20009KT 9999 FEW020 SCT030 15/11 Q1022=
201203131515 METAR LIRA 131515Z 22008KT 180V250 9999 FEW018 SCT030 16/09
                        Q1021=
201203131445 METAR LIRA 131445Z 20013KT 9999 FEW022 SCT030 15/08 Q1021=
201203131415 METAR LIRA 131415Z 20014KT 9999 FEW022 SCT030 16/05 Q1021=
201203131345 METAR LIRA 131345Z 17010G20KT 150V210 9999 FEW022 SCT030
                        17/04 Q1021=
201203131315 METAR LIRA 131315Z 25003KT 9999 FEW022 SCT030 18/03 Q1021=
201203131245 METAR LIRA 131245Z 07003KT 9999 FEW022 SCT070 19/03 Q1021=
201203131215 METAR LIRA 131215Z 13002KT 9999 FEW022 SCT070 19/05 Q1021=
201203131145 METAR LIRA 131145Z 24003KT 9999 SCT015 19/04 Q1021=
201203131115 METAR LIRA 131115Z 01002KT 9999 SCT015 18/04 Q1021=
201203131045 METAR LIRA 131045Z 35005KT 9999 FEW018 18/03 Q1021=
201203131015 METAR LIRA 131015Z 05003KT 9999 FEW015 18/03 Q1021=
201203130945 METAR LIRA 130945Z 04004KT 010V080 9999 FEW015 17/04 Q1021=
201203130915 METAR LIRA 130915Z 34003KT 9999 FEW015 16/05 Q1021=
201203130845 METAR LIRA 130845Z 32006KT 300V010 9999 FEW015 15/05 Q1021=
201203130815 METAR LIRA 130815Z 06006KT 9999 FEW070 14/04 Q1021=
201203130745 METAR LIRA 130745Z 34004KT 9999 FEW070 12/05 Q1021=
201203130715 METAR LIRA 130715Z 02002KT 9999 FEW070 10/04 Q1021=
201203130645 METAR LIRA 130645Z 35004KT 9999 SCT080 09/03 Q1020=
201203130615 METAR LIRA 130615Z 35004KT 9999 FEW015 SCT080 07/03 Q1020=
201203130545 METAR LIRA 130545Z 00000KT 9999 FEW080 07/02 Q1020=
201203130515 METAR LIRA 130515Z 05001KT 9999 FEW070 08/02 Q1020=
201203130445 METAR LIRA 130445Z 06004KT CAVOK 08/02 Q1020=
201203130415 METAR LIRA 130415Z 36005KT CAVOK 09/03 Q1020=
201203130345 METAR LIRA 130345Z 05004KT CAVOK 08/02 Q1020=
201203130315 METAR LIRA 130315Z 08006KT CAVOK 07/03 Q1020=
201203130245 METAR LIRA 130245Z 08006KT CAVOK 07/02 Q1020=
201203130215 METAR LIRA 130215Z 04005KT CAVOK 08/02 Q1020=
201203130145 METAR LIRA 130145Z 35003KT CAVOK 07/02 Q1019=
201203130115 METAR LIRA 130115Z 07002KT CAVOK 07/02 Q1019=
201203130045 METAR LIRA 130045Z 03004KT 9999 FEW030 08/02 Q1019=
201203130015 METAR LIRA 130015Z 06002KT 9999 FEW030 07/03 Q1019=
201203122350 METAR LIRA 130045Z 03004KT 9999 FEW030 08/02 Q1019=
201203122345 METAR LIRA 122345Z 00000KT 9999 FEW030 07/03 Q1019=
201203122315 METAR LIRA 122315Z 00000KT CAVOK 08/03 Q1019=
201203122245 METAR LIRA 122245Z 00000KT CAVOK 08/02 Q1019=
201203122215 METAR LIRA 122215Z 12002KT CAVOK 09/03 Q1019=
201203122145 METAR LIRA 122145Z 16001KT 9999 FEW002 09/03 Q1019=
201203122115 METAR LIRA 122115Z 21001KT CAVOK 10/02 Q1019=
201203122045 METAR LIRA 122045Z 07001KT CAVOK 10/02 Q1019=
201203122015 METAR LIRA 122015Z 14001KT 9999 FEW030 12/01 Q1019=
201203121945 METAR LIRA 121945Z 01002KT 9999 FEW030 12/00 Q1018=
201203121915 METAR LIRA 121915Z 32002KT 9999 FEW030 13/02 Q1018=
201203121845 METAR LIRA 121845Z 04003KT 9999 FEW030 14/01 Q1018=
201203121815 METAR LIRA 121815Z 02003KT 9999 FEW030 14/01 Q1017=
201203121745 METAR LIRA 121745Z 01003KT 9999 FEW030 15/01 Q1017=
201203121715 METAR LIRA 121715Z 02004KT 9999 FEW030 16/01 Q1017=
201203121645 METAR LIRA 121645Z 02006KT 340V070 9999 FEW030 17/02 Q1017=
201203121615 METAR LIRA 121615Z 03008G18KT 9999 FEW030 17/02 Q1017=
201203121545 METAR LIRA 121545Z 02011KT 350V070 9999 FEW030 17/02 Q1017=
201203121515 METAR LIRA 121515Z 02012KT 340V070 9999 FEW030 17/02 Q1017=
201203121445 METAR LIRA 121445Z 35011KT 310V020 9999 SCT030 17/02 Q1017=
201203121415 METAR LIRA 121415Z 36011KT 9999 SCT030 SCT070 17/03 Q1017=
201203121345 METAR LIRA 121345Z 36013KT 330V050 9999 SCT030 SCT070 17/03
                        Q1017=
201203121315 METAR LIRA 121315Z 35013G23KT 9999 FEW030 SCT070 18/04 Q1017=
201203121245 METAR LIRA 121245Z 34014KT 9999 SCT030 SCT070 16/04 Q1017=
201203121215 METAR LIRA 121215Z 34015KT 9999 SCT030 SCT070 16/03 Q1017=
201203121145 METAR LIRA 121145Z 34015KT 9999 SCT030 SCT070 15/03 Q1017=
201203121115 METAR LIRA 121115Z 34012G25KT 300V010 9999 FEW030 SCT070
                        15/03 Q1017=
201203121045 METAR LIRA 121045Z 22014KT 310V010 9999 FEW030 BKN070 15/03
                        Q1017=
201203121015 METAR LIRA 121015Z 34012KT 310V020 9999 FEW030 SCT070 15/03
                        Q1017=
201203120945 METAR LIRA 120945Z 34014G24KT 9999 FEW030 SCT070 15/03 Q1017=
201203120915 METAR LIRA 120915Z 36010KT 320V030 9999 FEW033 SCT070 15/03
                        Q1017=
201203120845 METAR LIRA 120845Z 35012KT 9999 FEW033 SCT070 14/03 Q1017=
201203120815 METAR LIRA 120815Z 35010G20KT 9999 FEW033 13/03 Q1017=
201203120745 METAR LIRA 120745Z 36004KT 280V020 9999 FEW033 11/01 Q1017=
201203120715 METAR LIRA 120715Z 36003KT 9999 FEW033 09/03 Q1017=
201203120645 METAR LIRA 120645Z 08001KT 9999 FEW033 08/03 Q1017=
201203120615 METAR LIRA 120615Z 20001KT 9999 FEW033 06/02 Q1017=
201203120545 METAR LIRA 120545Z 02001KT 9999 FEW033 06/02 Q1017=
201203120515 METAR LIRA 120515Z 07003KT 9999 FEW070 06/02 Q1016=
201203120445 METAR LIRA 120445Z 07003KT CAVOK 06/02 Q1016=
201203120415 METAR LIRA 120415Z 09003KT CAVOK 06/01 Q1016=
201203120345 METAR LIRA 120345Z 06003KT CAVOK 06/01 Q1016=
201203120315 METAR LIRA 120315Z 06003KT CAVOK 07/01 Q1016=
201203120245 METAR LIRA 120245Z 06003KT CAVOK 07/01 Q1016=
201203120215 METAR LIRA 120215Z 05005KT 9999 FEW030 08/01 Q1016=
201203120145 METAR LIRA 120145Z 05005KT 9999 FEW030 08/01 Q1016=
201203120115 METAR LIRA 120115Z 05005KT 9999 FEW030 07/02 Q1016=
201203120045 METAR LIRA 120045Z 06006KT 9999 FEW030 07/01 Q1015=
201203120015 METAR LIRA 120015Z 06005KT 9999 FEW030 07/00 Q1015=
201203112350 METAR LIRA 120045Z 06006KT 9999 FEW030 07/01 Q1015=
201203112345 METAR LIRA 112345Z 03005KT 340V060 9999 FEW030 08/01 Q1015=
201203112315 METAR LIRA 112315Z 04004KT 9999 FEW025 09/00 Q1015=
201203112245 METAR LIRA 112245Z 04004KT 9999 FEW025 09/M01 Q1015=
201203112215 METAR LIRA 112215Z 06004KT 9999 FEW020 09/M01 Q1015=
201203112145 METAR LIRA 112145Z 36005KT 9999 FEW017 10/M01 Q1015=
201203112115 METAR LIRA 112115Z 06003KT 9999 FEW017 10/M03 Q1014=
201203112045 METAR LIRA 112045Z 04003KT CAVOK 10/M04 Q1014=
201203112015 METAR LIRA 112015Z 03004KT CAVOK 11/M02 Q1014=
201203111945 METAR LIRA 111945Z 05004KT CAVOK 12/M05 Q1014=
201203111915 METAR LIRA 111915Z 01003KT CAVOK 12/M05 Q1013=
201203111845 METAR LIRA 111845Z 36004KT CAVOK 13/M05 Q1013=
201203111815 METAR LIRA 111815Z 01003KT CAVOK 14/M06 Q1013=
201203111745 METAR LIRA 111745Z 06003KT CAVOK 14/M06 Q1013=
201203111715 METAR LIRA 111715Z 07003KT CAVOK 14/M06 Q1013=
201203111645 METAR LIRA 111645Z 06007KT CAVOK 16/M05 Q1013=
201203111615 METAR LIRA 111615Z 05009KT CAVOK 17/M04 Q1012=
201203111545 METAR LIRA 111545Z 04012KT CAVOK 17/M04 Q1012=
201203111515 METAR LIRA 111515Z 05012KT 010V080 CAVOK 18/M03 Q1012=
201203111445 METAR LIRA 111445Z 35009KT 330V030 CAVOK 18/M02 Q1012=
201203111415 METAR LIRA 111415Z 32009KT 290V020 CAVOK 18/M02 Q1012=
201203111345 METAR LIRA 111345Z 34012KT 300V010 CAVOK 18/M02 Q1013=
201203111315 METAR LIRA 111315Z 36011KT 310V030 CAVOK 18/M02 Q1013=
201203111245 METAR LIRA 111245Z 33008G18KT CAVOK 18/M03 Q1013=
201203111215 METAR LIRA 111215Z 32007G17KT 280V350 CAVOK 18/M03 Q1014=
201203111145 METAR LIRA 111145Z 34005KT 280V060 CAVOK 17/M02 Q1014=
201203111115 METAR LIRA 111115Z 32008KT 290V350 CAVOK 16/M02 Q1014=
201203111045 METAR LIRA 111045Z 34005KT CAVOK 16/M02 Q1015=
201203111015 METAR LIRA 111015Z 36005KT 9999 FEW035 15/M01 Q1015=
201203110945 METAR LIRA 110945Z 34005KT 320V030 9999 FEW035 14/M01 Q1015=
201203110915 METAR LIRA 110915Z 36004KT 9999 FEW035 13/M02 Q1015=
201203110845 METAR LIRA 110845Z 36005KT 9999 FEW035 12/M02 Q1015=
201203110815 METAR LIRA 110815Z 01006KT 320V050 9999 FEW080 11/M01 Q1015=
201203110745 METAR LIRA 110745Z 02005KT 350V060 9999 FEW050 10/M01 Q1015=
201203110715 METAR LIRA 110715Z 02004KT 9999 FEW040 08/M01 Q1015=
201203110645 METAR LIRA 110645Z 01005KT 330V030 9999 FEW040 SCT070 06/M02
                        Q1015=
201203110615 METAR LIRA 110615Z 03004KT 9999 FEW040 SCT070 06/M02 Q1015=
201203110545 METAR LIRA 110545Z 03005KT 9999 FEW040 06/M03 Q1015=
201203110515 METAR LIRA 110515Z 04005KT 9999 FEW040 06/M03 Q1015=
201203110445 METAR LIRA 110445Z 03004KT 9999 FEW040 06/M03 Q1015=
201203110415 METAR LIRA 110415Z 03005KT 9999 FEW040 06/M03 Q1015=
201203110345 METAR LIRA 110345Z 06005KT 9999 FEW040 SCT070 06/M02 Q1015=
201203110315 METAR LIRA 110315Z 03005KT 9999 FEW040 SCT080 07/M02 Q1016=
201203110245 METAR LIRA 110245Z 01005KT 9999 FEW040 07/M02 Q1016=
201203110215 METAR LIRA 110215Z 01006KT 330V030 9999 FEW040 SCT080 07/M03
                        Q1016=
201203110145 METAR LIRA 110145Z 03005KT 360V080 9999 FEW040 SCT080 07/M03
                        Q1017=
201203110115 METAR LIRA 110115Z 03007KT 9999 FEW050 07/M03 Q1017=
201203110045 METAR LIRA 110045Z 01006KT 310V030 9999 FEW050 08/M04 Q1018=
201203110015 METAR LIRA 110015Z 36007KT 330V040 9999 FEW050 09/M04 Q1018=
201203102350 METAR LIRA 110045Z 01006KT 310V030 9999 FEW050 08/M04 Q1018=
201203102345 METAR LIRA 102345Z 36006KT 330V050 9999 FEW050 09/M04 Q1018=
201203102315 METAR LIRA 102315Z 01004KT 340V040 9999 FEW050 09/M04 Q1018=
201203102245 METAR LIRA 102245Z 36004KT 9999 FEW050 09/M05 Q1019=
201203102215 METAR LIRA 102215Z 01005KT 9999 FEW050 10/M04 Q1019=
201203102145 METAR LIRA 102145Z 01004KT 9999 FEW050 10/M05 Q1019=
201203102115 METAR LIRA 102115Z 36004KT 9999 FEW050 10/M04 Q1019=
201203102045 METAR LIRA 102045Z 36006KT 9999 FEW050 11/M04 Q1019=
201203102015 METAR LIRA 102015Z 36007KT 9999 FEW050 11/M03 Q1018=
201203101945 METAR LIRA 101945Z 04008KT 360V060 9999 FEW050 12/M02 Q1018=
201203101915 METAR LIRA 101915Z 01006KT 310V040 9999 FEW050 12/M01 Q1018=
201203101845 METAR LIRA 101845Z 36004KT 9999 FEW050 12/M01 Q1019=
201203101815 METAR LIRA 101815Z 04002KT 9999 FEW050 13/M03 Q1019=
201203101745 METAR LIRA 101745Z 03005KT 9999 FEW080 13/M03 Q1019=
201203101715 METAR LIRA 101715Z 04004KT 9999 FEW080 14/M02 Q1018=
201203101645 METAR LIRA 101645Z 03005KT 360V100 9999 SCT080 14/M01 Q1018=
201203101615 METAR LIRA 101615Z 01008KT 360V060 9999 SCT080 15/M01 Q1018=
201203101545 METAR LIRA 101545Z 03008KT 350V060 9999 SCT080 15/M00 Q1018=
201203101515 METAR LIRA 101515Z 03008KT 9999 SCT080 15/M01 Q1018=
201203101445 METAR LIRA 101445Z 04010KT 9999 SCT080 16/M00 Q1018=
201203101415 METAR LIRA 101415Z 05009KT 350V080 CAVOK 16/00 Q1018=
201203101345 METAR LIRA 101345Z 05009KT CAVOK 17/01 Q1019=
201203101315 METAR LIRA 101315Z 05007KT 360V070 CAVOK 17/00 Q1019=
201203101245 METAR LIRA 101245Z 02008KT 330V070 CAVOK 17/01 Q1019=
201203101215 METAR LIRA 101215Z 36009G20KT 310V050 CAVOK 17/01 Q1020=
201203101145 METAR LIRA 101145Z 01006KT 330V060 CAVOK 16/01 Q1020=
201203101115 METAR LIRA 101115Z 01008KT 340V080 CAVOK 15/01 Q1021=
201203101045 METAR LIRA 101045Z 03010KT 350V070 CAVOK 15/01 Q1021=
201203101015 METAR LIRA 101015Z 05009KT 360V070 9999 FEW080 15/01 Q1022=
201203100945 METAR LIRA 100945Z 01007KT 320V040 9999 FEW080 14/02 Q1022=
201203100915 METAR LIRA 100915Z 04007KT 360V060 9999 FEW080 13/01 Q1022=
201203100845 METAR LIRA 100845Z 02007KT 350V070 9999 FEW080 12/02 Q1022=
201203100815 METAR LIRA 100815Z 02006KT 340V060 9999 FEW080 11/03 Q1022=
201203100745 METAR LIRA 100745Z 36007KT 320V020 9999 FEW080 10/02 Q1023=
201203100715 METAR LIRA 100715Z 01005KT 340V040 9999 FEW080 07/01 Q1023=
201203100645 METAR LIRA 100645Z 01005KT 350V050 9999 FEW080 07/01 Q1023=
201203100615 METAR LIRA 100615Z 01004KT 9999 SCT080 06/01 Q1023=
201203100545 METAR LIRA 100545Z 02005KT 340V050 9999 SCT080 06/01 Q1023=
201203100515 METAR LIRA 100515Z 01005KT 360V060 9999 SCT080 07/01 Q1024=
201203100445 METAR LIRA 100445Z 01006KT 9999 SCT080 07/01 Q1025=
201203100415 METAR LIRA 100415Z 03007KT 9999 SCT080 07/01 Q1025=
201203100345 METAR LIRA 100345Z 03006KT 9999 SCT080 07/01 Q1025=
201203100315 METAR LIRA 100315Z 02007KT 9999 SCT080 07/01 Q1025=
201203100245 METAR LIRA 100245Z 01002KT 9999 SCT070 07/01 Q1025=
201203100215 METAR LIRA 100215Z 35005KT 9999 SCT070 08/01 Q1025=
201203100145 METAR LIRA 100145Z 36005KT 9999 SCT080 08/01 Q1025=
201203100115 METAR LIRA 100115Z 36007KT 9999 SCT080 08/01 Q1026=
201203100045 METAR LIRA 100045Z 36004KT 9999 SCT080 08/01 Q1026=
201203100015 METAR LIRA 100015Z 03002KT CAVOK 08/01 Q1026=
201203092350 METAR LIRA 100045Z 36004KT 9999 SCT080 08/01 Q1026=
201203092345 METAR LIRA 092345Z 36005KT CAVOK 08/01 Q1026=
201203092315 METAR LIRA 092315Z 36005KT CAVOK 08/01 Q1026=
201203092245 METAR LIRA 092245Z 01005KT 9999 FEW070 08/01 Q1026=
201203092215 METAR LIRA 092215Z 02005KT 350V060 9999 FEW070 08/01 Q1026=
201203092145 METAR LIRA 092145Z 05005KT 9999 FEW070 08/01 Q1026=
201203092115 METAR LIRA 092115Z 05004KT 9999 FEW070 09/01 Q1026=
201203092045 METAR LIRA 092045Z 02004KT 9999 FEW070 10/01 Q1026=
201203092015 METAR LIRA 092015Z 03006KT 9999 FEW070 10/01 Q1025=
201203091945 METAR LIRA 091945Z 03005KT 300V070 9999 FEW070 10/01 Q1025=
201203091915 METAR LIRA 091915Z 06005KT 9999 FEW070 10/02 Q1025=
201203091845 METAR LIRA 091845Z 05007KT 9999 FEW070 11/02 Q1025=
201203091815 METAR LIRA 091815Z 06003KT 9999 FEW070 11/02 Q1024=
201203091745 METAR LIRA 091745Z 11002KT 9999 FEW022 12/07 Q1024=
201203091715 METAR LIRA 091715Z 26001KT 9999 FEW022 13/08 Q1024=
201203091645 METAR LIRA 091645Z 23002KT 9999 FEW022 15/08 Q1023=
201203091615 METAR LIRA 091615Z 18004KT 170V230 9999 FEW022 15/06 Q1023=
201203091545 METAR LIRA 091545Z 07008KT 9999 FEW060 16/00 Q1023=
201203091515 METAR LIRA 091515Z 09009KT 060V130 9999 FEW022 17/00 Q1022=
201203091445 METAR LIRA 091445Z 06009KT 9999 FEW020 17/01 Q1022=
201203091415 METAR LIRA 091415Z 03011G21KT 330V060 9999 FEW023 17/01 Q1022=
201203091345 METAR LIRA 091345Z 05012KT 010V080 9999 FEW023 17/01 Q1022=
201203091315 METAR LIRA 091315Z 03010KT 310V070 9999 FEW023 17/01 Q1022=
201203091245 METAR LIRA 091245Z 03008KT 350V070 9999 FEW023 17/02 Q1023=
201203091215 METAR LIRA 091215Z 02006KT 330V070 9999 FEW023 17/01 Q1023=
201203091145 METAR LIRA 091145Z 03006KT 330V080 9999 FEW022 17/02 Q1023=
201203091115 METAR LIRA 091115Z 03007KT 330V100 9999 FEW080 16/01 Q1023=
201203091045 METAR LIRA 091045Z 03007KT 330V080 9999 FEW070 16/02 Q1023=
201203091015 METAR LIRA 091015Z 04007KT 360V090 9999 FEW023 15/01 Q1023=
201203090945 METAR LIRA 090945Z 03006KT 300V100 9999 FEW023 14/00 Q1022=
201203090915 METAR LIRA 090915Z 01005KT 330V050 9999 FEW023 13/00 Q1022=
201203090845 METAR LIRA 090845Z 36005KT 330V030 9999 FEW023 12/00 Q1022=
201203090815 METAR LIRA 090815Z 36004KT 9999 SCT060 10/01 Q1022=
201203090745 METAR LIRA 090745Z 01004KT 9999 SCT060 10/02 Q1021=
201203090715 METAR LIRA 090715Z 02004KT 9999 SCT060 08/02 Q1021=
201203090645 METAR LIRA 090645Z 01002KT 9999 SCT060 06/04 Q1021=
201203090615 METAR LIRA 090615Z 05003KT 9999 FEW030 05/03 Q1021=
201203090545 METAR LIRA 090545Z 04003KT 9999 FEW030 05/03 Q1020=
201203090515 METAR LIRA 090515Z 01004KT 9999 FEW030 SCT070 06/04 Q1020=
201203090445 METAR LIRA 090445Z 04002KT 9999 SCT070 05/03 Q1019=
201203090415 METAR LIRA 090415Z 04004KT 9999 SCT070 06/04 Q1019=
201203090345 METAR LIRA 090345Z 04004KT 9999 SCT070 06/04 Q1019=
201203090315 METAR LIRA 090315Z 04004KT 9999 SCT070 06/04 Q1019=
201203090245 METAR LIRA 090245Z 03003KT 9999 SCT070 07/05 Q1018=
201203090215 METAR LIRA 090215Z 02003KT 9999 SCT070 07/05 Q1018=
201203090145 METAR LIRA 090145Z 03002KT 9999 SCT070 07/05 Q1018=
201203090115 METAR LIRA 090115Z 34001KT 9999 SCT070 07/04 Q1018=
201203090045 METAR LIRA 090045Z 03002KT 9999 SCT070 07/05 Q1018=
201203090015 METAR LIRA 090015Z 36003KT 9999 SCT070 08/05 Q1018=
201203082350 METAR LIRA 090045Z 03002KT 9999 SCT070 07/05 Q1018=
201203082345 METAR LIRA 082345Z 34002KT 9999 BKN070 08/06 Q1018=
201203082315 METAR LIRA 082315Z 04001KT 9999 FEW020 SCT070 09/06 Q1017=
201203082245 METAR LIRA 082245Z 02002KT 9999 BKN070 09/05 Q1017=
201203082215 METAR LIRA 082215Z 00000KT 9999 SCT070 09/05 Q1017=
201203082145 METAR LIRA 082145Z 13001KT 9999 SCT070 09/05 Q1017=
201203082115 METAR LIRA 082115Z 12003KT 9999 SCT070 09/04 Q1017=
201203082045 METAR LIRA 082045Z 11002KT 9999 FEW020 SCT070 09/04 Q1016=
201203082015 METAR LIRA 082015Z 15002KT 9999 SCT070 11/05 Q1016=
201203081945 METAR LIRA 081945Z 16002KT 9999 FEW020 SCT070 11/05 Q1016=
201203081915 METAR LIRA 081915Z 17002KT 9999 FEW023 SCT070 12/05 Q1015=
201203081845 METAR LIRA 081845Z 21002KT 9999 FEW020 SCT070 12/04 Q1015=
201203081815 METAR LIRA 081815Z 19004KT 9999 FEW020 SCT070 12/04 Q1014=
201203081745 METAR LIRA 081745Z 17005KT 9999 FEW023 SCT070 12/04 Q1014=
201203081715 METAR LIRA 081715Z 18007KT 9999 FEW023 SCT070 13/04 Q1014=
201203081645 METAR LIRA 081645Z 18007KT 9999 FEW023 13/04 Q1014=
201203081615 METAR LIRA 081615Z 19006KT 9999 FEW023 14/04 Q1013=
201203081545 METAR LIRA 081545Z 23004KT 9999 FEW023 14/04 Q1013=
201203081515 METAR LIRA 081515Z 25005KT 9999 FEW023 15/04 Q1013=
201203081445 METAR LIRA 081445Z 26005KT 9999 FEW023 15/03 Q1013=
201203081415 METAR LIRA 081415Z 26006KT 220V310 9999 FEW023 15/03 Q1013=
201203081345 METAR LIRA 081345Z 18002KT 9999 FEW023 16/02 Q1013=
201203081315 METAR LIRA 081315Z 23003KT 9999 FEW023 16/03 Q1013=
201203081245 METAR LIRA 081245Z 26003KT 9999 FEW023 15/02 Q1013=
201203081215 METAR LIRA 081215Z 28003KT 9999 FEW023 15/03 Q1013=
201203081145 METAR LIRA 081145Z 32002KT 9999 FEW023 14/04 Q1014=
201203081115 METAR LIRA 081115Z 17001KT CAVOK 14/04 Q1014=
201203081045 METAR LIRA 081045Z 35002KT CAVOK 12/03 Q1014=
201203081015 METAR LIRA 081015Z 08002KT CAVOK 11/02 Q1014=
201203080945 METAR LIRA 080945Z 36003KT CAVOK 11/04 Q1014=
201203080915 METAR LIRA 080915Z 35002KT CAVOK 10/04 Q1014=
201203080845 METAR LIRA 080845Z 03003KT CAVOK 08/04 Q1014=
201203080815 METAR LIRA 080815Z 03003KT CAVOK 08/04 Q1014=
201203080745 METAR LIRA 080745Z 03003KT CAVOK 06/03 Q1014=
201203080715 METAR LIRA 080715Z 04004KT CAVOK 05/03 Q1014=
201203080645 METAR LIRA 080645Z 04003KT CAVOK 04/03 Q1014=
201203080615 METAR LIRA 080615Z 06001KT CAVOK 03/01 Q1014=
201203080545 METAR LIRA 080545Z 36001KT CAVOK 03/02 Q1015=
201203080515 METAR LIRA 080515Z 06003KT CAVOK 03/01 Q1015=
201203080445 METAR LIRA 080445Z 07003KT CAVOK 03/01 Q1015=
201203080415 METAR LIRA 080415Z 02002KT CAVOK 04/02 Q1016=
201203080345 METAR LIRA 080345Z 36003KT CAVOK 03/01 Q1016=
201203080315 METAR LIRA 080315Z 00000KT CAVOK 04/02 Q1016=
201203080245 METAR LIRA 080245Z 00000KT CAVOK 04/02 Q1016=
201203080215 METAR LIRA 080215Z 35002KT CAVOK 05/02 Q1016=
201203080145 METAR LIRA 080145Z 01001KT CAVOK 05/02 Q1017=
201203080115 METAR LIRA 080115Z 07002KT CAVOK 06/02 Q1017=
201203080045 METAR LIRA 080045Z 09001KT CAVOK 05/03 Q1018=
201203080015 METAR LIRA 080015Z 03001KT CAVOK 05/04 Q1018=
201203072350 METAR LIRA 080045Z 09001KT CAVOK 05/03 Q1018=
201203072345 METAR LIRA 072345Z 05005KT CAVOK 05/04 Q1018=
201203072315 METAR LIRA 072315Z 05002KT CAVOK 06/04 Q1018=
201203072245 METAR LIRA 072245Z 01001KT CAVOK 06/05 Q1019=
201203072215 METAR LIRA 072215Z 00000KT CAVOK 06/04 Q1019=
201203072145 METAR LIRA 072145Z 00000KT CAVOK 07/05 Q1019=
201203072115 METAR LIRA 072115Z 00000KT CAVOK 08/06 Q1019=
201203072045 METAR LIRA 072045Z 00000KT CAVOK 08/07 Q1019=
201203072015 METAR LIRA 072015Z 14004KT CAVOK 08/07 Q1019=
201203071945 METAR LIRA 071945Z 18003KT CAVOK 10/07 Q1019=
201203071915 METAR LIRA 071915Z 16004KT CAVOK 08/06 Q1019=
201203071845 METAR LIRA 071845Z 18004KT 9999 FEW070 10/06 Q1020=
201203071815 METAR LIRA 071815Z 18004KT 9999 FEW070 10/06 Q1020=
201203071745 METAR LIRA 071745Z 18004KT 9999 FEW070 11/05 Q1020=
201203071715 METAR LIRA 071715Z 20003KT 9999 FEW060 12/05 Q1020=
201203071645 METAR LIRA 071645Z 25003KT 9999 FEW018 12/04 Q1020=
201203071615 METAR LIRA 071615Z 28006KT 9999 FEW018 SCT025 14/05 Q1020=
201203071545 METAR LIRA 071545Z 26007KT 210V290 9999 FEW018 SCT025 14/05
                        Q1020=
201203071515 METAR LIRA 071515Z 27006KT 9999 FEW018 SCT025 14/05 Q1020=
201203071445 METAR LIRA 071445Z 27008KT 9999 FEW018 SCT025 14/03 Q1020=
201203071415 METAR LIRA 071415Z 31004KT 9999 FEW018 SCT022 15/00 Q1020=
201203071345 METAR LIRA 071345Z /////KT 9999 FEW018 SCT022 15/01 Q1020=
201203071315 METAR LIRA 071315Z 30001KT 9999 FEW018 SCT022 15/01 Q1021=
201203071245 METAR LIRA 071245Z 23001KT 9999 FEW018 SCT022 15/03 Q1021=
201203071215 METAR LIRA 071215Z 01001KT 9999 FEW018 SCT022 14/03 Q1021=
201203071145 METAR LIRA 071145Z 06002KT 9999 FEW020 14/03 Q1022=
201203071115 METAR LIRA 071115Z 23001KT 9999 FEW020 14/04 Q1022=
201203071045 METAR LIRA 071045Z 23001KT 9999 FEW020 14/04 Q1022=
201203071015 METAR LIRA 071015Z 35002KT 9999 FEW020 12/03 Q1022=
201203070945 METAR LIRA 070945Z 02003KT 9999 FEW020 12/04 Q1021=
201203070915 METAR LIRA 070915Z 36003KT 9999 FEW080 11/05 Q1021=
201203070845 METAR LIRA 070845Z 03005KT 9999 FEW080 09/05 Q1021=
201203070815 METAR LIRA 070815Z 03005KT 360V060 9999 FEW080 08/05 Q1021=
201203070745 METAR LIRA 070745Z 03004KT 340V040 9999 FEW070 08/05 Q1021=
201203070715 METAR LIRA 070715Z 04002KT 9999 FEW070 06/05 Q1021=
201203070645 METAR LIRA 070645Z 04002KT 9999 FEW070 05/04 Q1021=
201203070615 METAR LIRA 070615Z 00000KT 9999 FEW070 04/03 Q1020=
201203070545 METAR LIRA 070545Z 03002KT 9999 FEW070 04/03 Q1020=
201203070515 METAR LIRA 070515Z 02002KT 9999 FEW070 04/03 Q1020=
201203070445 METAR LIRA 070445Z 01002KT 9999 FEW060 04/03 Q1020=
201203070415 METAR LIRA 070415Z 36002KT CAVOK 05/04 Q1020=
201203070345 METAR LIRA 070345Z 05005KT 9999 FEW060 04/03 Q1020=
201203070315 METAR LIRA 070315Z 06005KT 9999 FEW060 04/03 Q1020=
201203070245 METAR LIRA 070245Z 05004KT 9999 SCT060 04/04 Q1019=
201203070215 METAR LIRA 070215Z 05004KT 9999 SCT060 04/03 Q1019=
201203070145 METAR LIRA 070145Z 00000KT 9999 FEW020 05/03 Q1019=
201203070115 METAR LIRA 070115Z 00000KT 9999 FEW020 05/03 Q1019=
201203070045 METAR LIRA 070045Z 00000KT 9999 FEW020 05/03 Q1019=
201203070015 METAR LIRA 070015Z 05002KT 9999 FEW020 SCT070 05/03 Q1019=
201203062350 METAR LIRA 070045Z 00000KT 9999 FEW020 05/03 Q1019=
201203062345 METAR LIRA 062345Z 06003KT 9999 FEW020 05/03 Q1019=
201203062315 METAR LIRA 062315Z 05002KT 9999 FEW020 06/04 Q1019=
201203062245 METAR LIRA 062245Z 06002KT 9999 SCT020 07/04 Q1019=
201203062215 METAR LIRA 062215Z 11003KT 9999 FEW014 BKN020 07/04 Q1019=
201203062145 METAR LIRA 062145Z 08002KT 9999 FEW014 SCT020 08/04 Q1019=
201203062115 METAR LIRA 062115Z 09004KT 9999 FEW014 SCT020 08/04 Q1019=
201203062045 METAR LIRA 062045Z 14002KT 9999 FEW014 SCT020 08/04 Q1018=
201203062015 METAR LIRA 062015Z 17002KT 9999 FEW014 SCT020 08/04 Q1018=
201203061945 METAR LIRA 061945Z 13003KT 9999 FEW014 SCT020 08/04 Q1017=
201203061915 METAR LIRA 061915Z 12004KT 9999 FEW015 SCT020 BKN060 08/04
                        Q1017=
201203061845 METAR LIRA 061845Z 10004KT 9999 FEW015 SCT020 BKN060 08/04
                        Q1017=
201203061815 METAR LIRA 061815Z 09003KT 9999 FEW015 SCT020 BKN060 08/04
                        Q1017=
201203061745 METAR LIRA 061745Z 13003KT 9999 FEW015 BKN020 09/04 Q1017=
201203061715 METAR LIRA 061715Z 14004KT 9999 FEW015 BKN020 09/04 Q1017=
201203061645 METAR LIRA 061645Z 18003KT 9999 FEW015 BKN020 10/03 Q1017=
201203061615 METAR LIRA 061615Z 20004KT 9999 FEW013 BKN020 10/04 Q1017=
201203061545 METAR LIRA 061545Z 20007KT 170V250 9999 FEW013 SCT018 FEW020TCU
                        11/04 Q1017=
201203061515 METAR LIRA 061515Z 20004KT 180V250 9999 FEW013 SCT018 FEW020TCU
                        11/04 Q1016=
201203061445 METAR LIRA 061445Z 22003KT 9999 FEW013 SCT018 FEW020TCU 11/05
                        Q1016=
201203061415 METAR LIRA 061415Z 21008KT 170V260 9999 FEW013 SCT018 FEW020TCU
                        12/04 Q1016=
201203061345 METAR LIRA 061345Z 21009KT 180V250 9999 FEW013 SCT018 FEW020TCU
                        12/04 Q1016=
201203061315 METAR LIRA 061315Z 22009KT 180V240 9999 FEW013 SCT018 FEW020TCU
                        12/04 Q1015=
201203061245 METAR LIRA 061245Z 21010KT 160V240 9999 FEW013 SCT018 FEW020TCU
                        13/04 Q1015=
201203061215 METAR LIRA 061215Z 20010G21KT 180V250 9999 FEW013 SCT018
                        FEW020TCU 12/04 Q1015=
201203061145 METAR LIRA 061145Z 20009KT 170V240 9999 FEW013 SCT018 FEW020CB
                        12/04 Q1015=
201203061115 METAR LIRA 061115Z 20010KT 170V250 9999 FEW013 SCT018 FEW020CB
                        12/05 Q1015=
201203061045 METAR LIRA 061045Z 20007KT 180V240 9999 FEW013 SCT018 FEW020CB
                        11/06 Q1015=
201203061015 METAR LIRA 061015Z 17010KT 9999 FEW013 SCT018 FEW020CB 11/05
                        Q1015=
201203060945 METAR LIRA 060945Z 15012KT 9999 FEW013 FEW018CB SCT023 11/06
                        Q1014=
201203060915 METAR LIRA 060915Z 16010KT 9999 FEW013 FEW020CB SCT023 11/06
                        Q1014=
201203060900 METAR LIRA CONTUS=
201203060845 METAR LIRA 060845Z 17010KT 9999 SCT014 FEW020CB 11/07 Q1014=
201203060815 METAR LIRA 060815Z 15011KT 9999 SCT015 FEW020TCU 11/07 Q1014=
201203060745 METAR LIRA 060745Z 14008KT 9999 SCT014 10/07 Q1013=
201203060715 METAR LIRA 060715Z 13009KT 8000 -RA FEW012 SCT025 08/07 Q1013=
201203060700 METAR LIRA CONTUS=
201203060645 METAR LIRA 060645Z 14008KT 8000 -RA FEW015 BKN025 08/07 Q1013=
201203060615 METAR LIRA 060615Z 16008KT 8000 -RA FEW015TCU BKN025 09/07
                        Q1013=
201203060600 METAR LIRA INTER=
201203060545 METAR LIRA 060545Z 17004KT 8000 -RA FEW015TCU BKN025 09/06
                        Q1013=
201203060515 METAR LIRA 060515Z 15007KT 8000 FEW015TCU BKN025 08/06 Q1013=
201203060445 METAR LIRA 060445Z 14005KT 8000 FEW015TCU BKN025 08/06 Q1013=
201203060415 METAR LIRA 060415Z 15008KT 8000 FEW015TCU BKN025 09/06 Q1013=
201203060345 METAR LIRA 060345Z 14008KT 040V150 8000 FEW015TCU BKN025
                        08/06 Q1013=
201203060315 METAR LIRA 060315Z 14007KT 8000 FEW015TCU SCT025 07/06 Q1013=
201203060245 METAR LIRA 060245Z 14008KT 8000 FEW015 SCT030 07/06 Q1013=
201203060215 METAR LIRA 060215Z 14006KT 8000 FEW015 SCT030 08/06 Q1013=
201203060145 METAR LIRA 060145Z 15006KT 8000 FEW015 SCT030 08/07 Q1013=
201203060115 METAR LIRA 060115Z 14007KT 8000 FEW015 SCT030 08/07 Q1014=
201203060045 METAR LIRA 060045Z 14007KT 8000 -RA FEW015 SCT030 08/08 Q1014=
201203060015 METAR LIRA 060015Z 14006KT 7000 -RA SCT015 SCT030 08/08 Q1014=
201203052350 METAR LIRA 060045Z 14007KT 8000 -RA FEW015 SCT030 08/08 Q1014=
201203052345 METAR LIRA 052345Z 16004KT 7000 -RA SCT016 BKN030 08/08 Q1014=
201203052315 METAR LIRA 052315Z 19005KT 6000 -RA FEW010 SCT015 BKN030
                        09/08 Q1014=
201203052245 METAR LIRA 052245Z 22003KT 6000 -RA FEW010 SCT015 BKN030
                        09/08 Q1014=
201203052215 METAR LIRA 052215Z 23004KT 7000 -RA FEW012 BKN030 10/09 Q1014=
201203052145 METAR LIRA 052145Z 22002KT 7000 -RA FEW012 SCT015 10/10 Q1013=
201203052115 METAR LIRA 052115Z 17001KT 7000 -RA FEW012 SCT015 11/10 Q1013=
201203052045 METAR LIRA 052045Z 00000KT 6000 -RA FEW010 SCT015 11/10 Q1013=
201203052015 METAR LIRA 052015Z 30002KT 6000 -RA FEW010 SCT016 10/09 Q1013=
201203051945 METAR LIRA 051945Z 27004KT 5000 -RA BR FEW010 SCT016 11/10
                        Q1013=
201203051915 METAR LIRA 051915Z 17004KT 8000 FEW010 SCT025 11/10 Q1013=
201203051845 METAR LIRA 051845Z 18004KT 8000 SCT010 12/10 Q1013=
201203051815 METAR LIRA 051815Z 17003KT 8000 SCT016 12/10 Q1013=
201203051745 METAR LIRA 051745Z 18004KT 8000 FEW016 12/10 Q1013=
201203051715 METAR LIRA 051715Z 20002KT 8000 SCT016 13/11 Q1012=
201203051645 METAR LIRA 051645Z 22004KT 180V240 9999 FEW022 SCT030 13/10
                        Q1012=
201203051615 METAR LIRA 051615Z 23006KT 9999 FEW022 SCT030 13/08 Q1012=
201203051545 METAR LIRA 051545Z 23006KT 9999 FEW022 SCT030 14/09 Q1012=
201203051515 METAR LIRA 051515Z 24005KT 220V280 9999 FEW022 SCT030 15/09
                        Q1012=
201203051445 METAR LIRA 051445Z 25005KT 200V290 9999 FEW030 15/08 Q1013=
201203051415 METAR LIRA 051415Z 25008KT 9999 SCT030 16/07 Q1013=
201203051345 METAR LIRA 051345Z 28008KT 220V310 9999 FEW022TCU SCT030
                        16/08 Q1013=
201203051315 METAR LIRA 051315Z 28008KT 220V290 9999 FEW022TCU SCT030
                        17/08 Q1013=
201203051245 METAR LIRA 051245Z 31005KT 230V320 9999 FEW022TCU BKN030
                        16/08 Q1013=
201203051215 METAR LIRA 051215Z 26007KT 9999 FEW022TCU BKN025 17/10 Q1014=
201203051145 METAR LIRA 051145Z 34001KT 9000 BKN025 15/10 Q1014=
201203051115 METAR LIRA 051115Z 32002KT 8000 BKN025 15/10 Q1014=
201203051045 METAR LIRA 051045Z 31005KT 7000 BKN025 14/10 Q1014=
201203051015 METAR LIRA 051015Z 06002KT 7000 FEW010 SCT030 14/10 Q1014=
201203050945 METAR LIRA 050945Z 31001KT 7000 FEW010 SCT030 14/10 Q1015=
201203050915 METAR LIRA 050915Z 34003KT 7000 FEW010 SCT030 13/10 Q1015=
201203050845 METAR LIRA 050845Z 23001KT 7000 FEW010 SCT030 13/10 Q1015=
201203050815 METAR LIRA 050815Z 00000KT 7000 FEW010 12/11 Q1015=
201203050745 METAR LIRA 050745Z 00000KT 7000 SCT010 11/10 Q1015=
201203050715 METAR LIRA 050715Z 00000KT 7000 FEW010 SCT030 09/08 Q1015=
201203050645 METAR LIRA 050645Z 00000KT 7000 FEW010 BKN030 09/08 Q1015=
201203050615 METAR LIRA 050615Z 22001KT 8000 FEW018 BKN030 09/08 Q1015=
201203050545 METAR LIRA 050545Z 16002KT 7000 FEW018 BKN030 09/08 Q1015=
201203050515 METAR LIRA 050515Z 16002KT 7000 FEW018 BKN030 09/08 Q1015=
201203050445 METAR LIRA 050445Z 16001KT 7000 FEW018 BKN030 09/08 Q1015=
201203050415 METAR LIRA 050415Z 14001KT 7000 BKN030 09/08 Q1015=
201203050345 METAR LIRA 050345Z 12002KT 7000 FEW080 09/08 Q1015=
201203050315 METAR LIRA 050315Z 12002KT 7000 FEW080 07/06 Q1015=
201203050245 METAR LIRA 050245Z 14002KT 7000 FEW080 07/06 Q1015=
201203050215 METAR LIRA 050215Z 00000KT 7000 SCT070 09/08 Q1015=
201203050145 METAR LIRA 050145Z 00000KT 8000 SCT070 09/08 Q1016=
201203050115 METAR LIRA 050115Z 12002KT 8000 SCT070 08/07 Q1016=
201203050045 METAR LIRA 050045Z 11005KT 8000 FEW070 08/07 Q1017=
201203050015 METAR LIRA 050015Z 13004KT 8000 FEW070 09/08 Q1017=
201203042350 METAR LIRA 050045Z 11005KT 8000 FEW070 08/07 Q1017=
201203042345 METAR LIRA 042345Z 17001KT 8000 FEW070 09/09 Q1017=
201203042315 METAR LIRA 042315Z 00000KT 8000 FEW070 10/09 Q1017=
201203042245 METAR LIRA 042245Z 00000KT 8000 FEW030 SCT070 10/09 Q1017=
201203042215 METAR LIRA 042215Z 33001KT 8000 FEW018 SCT070 11/10 Q1017=
201203042145 METAR LIRA 042145Z 13003KT 8000 FEW018 SCT070 11/10 Q1017=
201203042115 METAR LIRA 042115Z 00000KT 8000 FEW018 BKN070 11/09 Q1017=
201203042045 METAR LIRA 042045Z 29001KT 8000 FEW018 BKN070 11/09 Q1017=
201203042015 METAR LIRA 042015Z 17002KT 8000 FEW018 SCT070 11/10 Q1017=
201203041945 METAR LIRA 041945Z 24002KT 8000 FEW018 SCT070 11/10 Q1017=
201203041915 METAR LIRA 041915Z 19002KT 8000 FEW018 SCT070 11/10 Q1017=
201203041845 METAR LIRA 041845Z 19003KT 8000 FEW018 SCT030 11/10 Q1017=
201203041815 METAR LIRA 041815Z 23002KT 8000 FEW018 SCT030 11/10 Q1017=
201203041745 METAR LIRA 041745Z 22003KT 9999 FEW020 SCT070 12/10 Q1017=
201203041715 METAR LIRA 041715Z 22003KT 9999 FEW018TCU SCT070 13/10 Q1017=
201203041645 METAR LIRA 041645Z 22006KT 9999 FEW018TCU 13/10 Q1017=
201203041615 METAR LIRA 041615Z 24008KT 200V260 9999 FEW018TCU SCT020
                        14/10 Q1017=
201203041545 METAR LIRA 041545Z 23007KT 210V270 9999 FEW018TCU SCT020
                        15/10 Q1017=
201203041515 METAR LIRA 041515Z 21006KT 170V240 9000 BKN020 15/10 Q1017=
201203041445 METAR LIRA 041445Z 21007KT 180V250 9000 BKN020 15/10 Q1017=
201203041415 METAR LIRA 041415Z 19008KT 8000 BKN020 15/10 Q1018=
201203041345 METAR LIRA 041345Z 19006KT 160V240 8000 BKN020 15/09 Q1018=
201203041315 METAR LIRA 041315Z 18007KT 130V210 8000 BKN018 16/10 Q1018=
201203041245 METAR LIRA 041245Z 20006KT 170V230 8000 BKN018 16/09 Q1019=
201203041215 METAR LIRA 041215Z 19005KT 160V230 8000 FEW015 SCT018 15/10
                        Q1019=
201203041145 METAR LIRA 041145Z 18007KT 160V220 7000 FEW013 SCT018 15/09
                        Q1019=
201203041115 METAR LIRA 041115Z 20006KT 160V220 7000 FEW010 BKN017 15/10
                        Q1020=
201203041045 METAR LIRA 041045Z 17005KT 140V210 7000 FEW010 SCT015 14/09
                        Q1020=
201203041015 METAR LIRA 041015Z 21004KT 6000 FEW010 SCT015 14/10 Q1020=
201203040945 METAR LIRA 040945Z 15003KT 5000 BR FEW008 SCT015 13/10 Q1020=
201203040915 METAR LIRA 040915Z 14002KT 4500 BR SCT007 SCT015 11/09 Q1020=
201203040845 METAR LIRA 040845Z 13004KT 4000 BR SCT006 11/09 Q1020=
201203040815 METAR LIRA 040815Z 09002KT 3000 BR BKN005 10/09 Q1020=
201203040745 METAR LIRA 040745Z 06003KT 2000 BR BKN003 10/09 Q1020=
201203040715 METAR LIRA 040715Z 36002KT 2000 BR BKN003 10/09 Q1020=
201203040645 METAR LIRA 040645Z 34002KT 2000 BR BKN003 10/09 Q1020=
201203040615 METAR LIRA 040615Z 35002KT 2500 BR BKN003 10/09 Q1020=
201203040545 METAR LIRA 040545Z 01002KT 3000 BR BKN003 10/09 Q1020=
201203040515 METAR LIRA 040515Z 01003KT 4000 BR SCT004 10/09 Q1020=
201203040445 METAR LIRA 040445Z 36003KT 4000 BR BKN005 10/09 Q1020=
201203040415 METAR LIRA 040415Z 04004KT 5000 BR SCT005 10/09 Q1021=
201203040345 METAR LIRA 040345Z 01002KT 5000 BR SCT005 10/09 Q1021=
201203040315 METAR LIRA 040315Z 03003KT 5000 BR SCT005 10/09 Q1021=
201203040245 METAR LIRA 040245Z 02001KT 5000 BR SCT005 10/09 Q1021=
201203040215 METAR LIRA 040215Z 00000KT 5000 BR SCT005 10/09 Q1022=
201203040145 METAR LIRA 040145Z 12002KT 5000 BR SCT005 10/09 Q1022=
201203040115 METAR LIRA 040115Z 11003KT 5000 BR SCT007 SCT018 11/10 Q1022=
201203040045 METAR LIRA 040045Z 10005KT 5000 BR SCT005 11/09 Q1022=
201203040015 METAR LIRA 040015Z 13002KT 6000 BKN007 11/10 Q1022=
201203032350 METAR LIRA 040045Z 10005KT 5000 BR SCT005 11/09 Q1022=
201203032345 METAR LIRA 032345Z 13002KT 6000 BKN007 11/10 Q1022=
201203032315 METAR LIRA 032315Z 16004KT 4000 BR BKN005 11/10 Q1022=
201203032245 METAR LIRA 032245Z 16003KT 4000 BR BKN005 11/09 Q1022=
201203032215 METAR LIRA 032215Z 15004KT 4000 BR BKN005 11/10 Q1022=
201203032145 METAR LIRA 032145Z 16004KT 4000 BR SCT005 SCT015 11/10 Q1022=
201203032115 METAR LIRA 032115Z 16005KT 4000 BR SCT005 SCT015 11/09 Q1022=
201203032045 METAR LIRA 032045Z 15005KT 4000 BR SCT005 SCT015 11/10 Q1022=
201203032015 METAR LIRA 032015Z 19004KT 4000 BR SCT005 SCT015 11/10 Q1022=
201203031945 METAR LIRA 031945Z 23003KT 4000 BR SCT005 SCT015 11/10 Q1022=
201203031915 METAR LIRA 031915Z 20005KT 5000 BR SCT005 11/10 Q1022=
201203031845 METAR LIRA 031845Z 20004KT 5000 BR SCT005 10/09 Q1022=
201203031815 METAR LIRA 031815Z 20004KT 5000 BR FEW005 11/10 Q1022=
201203031745 METAR LIRA 031745Z 22003KT 5000 BR FEW005 12/10 Q1022=
201203031715 METAR LIRA 031715Z 24002KT 5000 BR NSC 12/11 Q1022=
201203031645 METAR LIRA 031645Z 25005KT CAVOK 13/11 Q1022=
201203031615 METAR LIRA 031615Z 25005KT CAVOK 15/12 Q1022=
201203031545 METAR LIRA 031545Z 28006KT 240V310 CAVOK 16/12 Q1022=
201203031515 METAR LIRA 031515Z 26006KT 210V290 CAVOK 17/12 Q1022=
201203031445 METAR LIRA 031445Z 34001KT CAVOK 17/09 Q1023=
201203031415 METAR LIRA 031415Z 35003KT CAVOK 17/10 Q1023=
201203031345 METAR LIRA 031345Z 26003KT CAVOK 16/10 Q1023=
201203031315 METAR LIRA 031315Z 14002KT 9999 FEW015 16/11 Q1024=
201203031245 METAR LIRA 031245Z 24003KT 9999 FEW015 15/11 Q1024=
201203031215 METAR LIRA 031215Z 29002KT 9999 FEW015 14/11 Q1025=
201203031145 METAR LIRA 031145Z 12001KT 9999 FEW015 15/11 Q1025=
201203031115 METAR LIRA 031115Z 17002KT 9999 FEW015 SCT025 14/10 Q1025=
201203031045 METAR LIRA 031045Z 00000KT 8000 SCT010 SCT025 12/10 Q1025=
201203031015 METAR LIRA 031015Z 36002KT 5000 BR BKN009 SCT025 11/10 Q1025=
201203030945 METAR LIRA 030945Z 02003KT 5000 BR BKN009 SCT025 11/10 Q1025=
201203030915 METAR LIRA 030915Z 03003KT 4500 BR BKN009 SCT025 10/09 Q1025=
201203030845 METAR LIRA 030845Z 04002KT 3500 BR BKN004 10/09 Q1025=
201203030815 METAR LIRA 030815Z 00000KT 2500 BR BKN004 09/09 Q1024=
201203030800 METAR LIRA CONTUS NW/NE=
201203030745 METAR LIRA 030745Z 00000KT 2000 BR BKN002 09/08 Q1024=
201203030715 METAR LIRA 030715Z 02001KT 2000 BR BKN002 09/08 Q1024=
201203030645 METAR LIRA 030645Z 00000KT 2000 BR BKN001 09/08 Q1024=
201203030615 METAR LIRA 030615Z 27001KT 2000 BR BKN001 09/08 Q1024=
201203030545 METAR LIRA 030545Z 00000KT 1600 BR BKN001 09/08 Q1024=
201203030515 METAR LIRA 030515Z 00000KT 1600 BR VCFG OVC001 09/08 Q1024=
201203030445 METAR LIRA 030445Z 26001KT 1500 BR VCFG OVC001 09/08 Q1024=
201203030415 METAR LIRA 030415Z 07001KT 1500 BR VCFG OVC001 09/08 Q1024=
201203030345 METAR LIRA 030345Z 00000KT 1500 BR VCFG OVC001 09/08 Q1024=
201203030315 METAR LIRA 030315Z 18001KT 1500 BR VCFG OVC001 09/08 Q1025=
201203030245 METAR LIRA 030245Z 00000KT 1500 BR VCFG OVC001 09/08 Q1025=
201203030215 METAR LIRA 030215Z 16002KT 1500 BR VCFG OVC001 09/08 Q1025=
201203030145 METAR LIRA 030145Z 17002KT 1500 BR VCFG OVC001 09/08 Q1025=
201203030115 METAR LIRA 030115Z 18003KT 0800 R15/P1500 FG 001 VV/// 09/09
                        Q1025=
201203030045 METAR LIRA 030045Z 21001KT 0100 R15/0500 FG 001 VV/// 10/09
                        Q1025=
201203030015 METAR LIRA 030015Z 19002KT 0100 R15/0400N FG 001 VV/// 10/09
                        Q1025=
201203022350 METAR LIRA 030045Z 21001KT 0100 R15/0500 FG 001 VV/// 10/09
                        Q1025=
201203022345 METAR LIRA 022345Z 22001KT 0100 R15/0400N FG 001 VV/// 10/09
                        Q1025=
201203022315 METAR LIRA 022315Z 14002KT 0100 R15/0400D FG 001 VV/// 10/09
                        Q1025=
201203022245 METAR LIRA 022245Z 17002KT 0800 R15/0800D FG OVC001 10/10
                        Q1025=
201203022215 METAR LIRA 022215Z 17001KT 1200 BR VCFG BKN001 10/10 Q1025=
201203022145 METAR LIRA 022145Z 16001KT 2000 BR VCFG BKN001 10/10 Q1025=
201203022115 METAR LIRA 022115Z 17003KT 2500 BR VCFG BKN001 11/10 Q1025=
201203022045 METAR LIRA 022045Z 18003KT 3000 BR VCFG BKN002 11/10 Q1025=
201203022015 METAR LIRA 022015Z 19003KT 3000 BR VCFG BKN002 11/10 Q1025=
201203021945 METAR LIRA 021945Z 19002KT 2500 0900N R15/P1500 PRFG BKN001
                        11/10 Q1025=
201203021915 METAR LIRA 021915Z 21004KT 2500 0900N R15/P1500 PRFG BKN001
                        11/11 Q1025=
201203021845 METAR LIRA 021845Z 20005KT 3500 BR VCFG BKN002 11/11 Q1025=
201203021815 METAR LIRA 021815Z 21005KT 5000 BR SCT005 12/12 Q1024=
201203021745 METAR LIRA 021745Z 22005KT CAVOK 12/12 Q1024=
201203021715 METAR LIRA 021715Z 22004KT CAVOK 14/13 Q1024=
201203021645 METAR LIRA 021645Z 22005KT CAVOK 15/13 Q1025=
201203021615 METAR LIRA 021615Z 23006KT 9999 FEW070 16/13 Q1025=
201203021545 METAR LIRA 021545Z 23007KT 190V270 9999 FEW070 17/13 Q1025=
201203021515 METAR LIRA 021515Z 23007KT 9999 FEW070 18/14 Q1025=
201203021445 METAR LIRA 021445Z 23006KT 200V280 9999 FEW070 19/13 Q1025=
201203021415 METAR LIRA 021415Z 22006KT 180V250 9999 FEW070 19/13 Q1025=
201203021345 METAR LIRA 021345Z 22004KT 9999 FEW070 19/13 Q1025=
201203021315 METAR LIRA 021315Z 23005KT 9999 FEW070 19/13 Q1025=
201203021245 METAR LIRA 021245Z 24005KT 9999 FEW070 19/13 Q1025=
201203021215 METAR LIRA 021215Z 22003KT 9999 FEW070 19/12 Q1025=
201203021145 METAR LIRA 021145Z 25004KT 9999 FEW005 18/11 Q1025=
201203021115 METAR LIRA 021115Z 21004KT 9999 FEW005 18/11 Q1025=
201203021045 METAR LIRA 021045Z 04003KT 9999 FEW005 17/10 Q1025=
201203021015 METAR LIRA 021015Z 17001KT 9999 FEW005 17/07 Q1025=
201203020945 METAR LIRA 020945Z 33001KT 9999 FEW005 15/07 Q1025=
201203020915 METAR LIRA 020915Z 05001KT 9999 FEW005 14/07 Q1025=
201203020845 METAR LIRA 020845Z 34002KT 9999 FEW005 12/07 Q1025=
201203020815 METAR LIRA 020815Z 00000KT 9999 FEW005 11/07 Q1025=
201203020745 METAR LIRA 020745Z 07002KT 9999 FEW007 10/07 Q1025=
201203020715 METAR LIRA 020715Z 36002KT 9999 FEW007 09/06 Q1025=
201203020645 METAR LIRA 020645Z 35002KT 9999 FEW007 07/05 Q1025=
201203020615 METAR LIRA 020615Z 15001KT 9999 FEW007 07/05 Q1025=
201203020545 METAR LIRA 020545Z 15003KT 9999 FEW005 06/04 Q1024=
201203020515 METAR LIRA 020515Z 11001KT 9999 FEW004 05/04 Q1024=
201203020445 METAR LIRA 020445Z 00000KT 9999 FEW017 06/05 Q1024=
201203020415 METAR LIRA 020415Z 00000KT 9999 FEW017 06/05 Q1024=
201203020345 METAR LIRA 020345Z 05002KT 8000 FEW007 07/05 Q1024=
201203020315 METAR LIRA 020315Z 06001KT 8000 FEW007 07/05 Q1024=
201203020245 METAR LIRA 020245Z 35002KT 8000 FEW007 07/05 Q1024=
201203020215 METAR LIRA 020215Z 09001KT 8000 FEW007 07/05 Q1024=
201203020145 METAR LIRA 020145Z 16002KT 8000 FEW007 08/05 Q1025=
201203020115 METAR LIRA 020115Z 00000KT CAVOK 07/05 Q1025=
201203020045 METAR LIRA 020045Z 33001KT CAVOK 08/06 Q1025=
201203020015 METAR LIRA 020015Z 00000KT CAVOK 09/06 Q1024=
201203012350 METAR LIRA 020045Z 33001KT CAVOK 08/06 Q1025=
201203012345 METAR LIRA 012345Z 01001KT CAVOK 09/06 Q1024=
201203012315 METAR LIRA 012315Z 08002KT CAVOK 10/06 Q1024=
201203012245 METAR LIRA 012245Z 12004KT 9999 FEW010 10/06 Q1024=
201203012215 METAR LIRA 012215Z 14002KT 9999 FEW010 10/06 Q1024=
201203012145 METAR LIRA 012145Z 12002KT 9999 FEW010 11/07 Q1024=
201203012115 METAR LIRA 012115Z 14002KT 9999 FEW010 10/06 Q1024=
201203012045 METAR LIRA 012045Z 13001KT 9999 FEW010 11/07 Q1024=
201203012015 METAR LIRA 012015Z 11001KT CAVOK 12/09 Q1023=
201203011945 METAR LIRA 011945Z 13003KT CAVOK 12/10 Q1023=
201203011915 METAR LIRA 011915Z 16003KT CAVOK 12/10 Q1023=
201203011845 METAR LIRA 011845Z 28002KT CAVOK 13/10 Q1023=
201203011815 METAR LIRA 011815Z 25003KT CAVOK 13/09 Q1023=
201203011745 METAR LIRA 011745Z 19006KT CAVOK 15/09 Q1022=
201203011715 METAR LIRA 011715Z 22005KT 180V240 CAVOK 15/09 Q1022=
201203011645 METAR LIRA 011645Z 21004KT CAVOK 17/09 Q1022=
201203011615 METAR LIRA 011615Z 20005KT CAVOK 18/07 Q1022=
201203011545 METAR LIRA 011545Z 22005KT CAVOK 19/07 Q1021=
201203011515 METAR LIRA 011515Z 20007KT 120V240 9999 FEW020 20/05 Q1021=
201203011445 METAR LIRA 011445Z 20008KT 9999 FEW020 20/05 Q1021=
201203011415 METAR LIRA 011415Z 21006KT 180V260 9999 FEW020 21/06 Q1021=
201203011345 METAR LIRA 011345Z 20007KT 9999 FEW025 20/06 Q1021=
201203011315 METAR LIRA 011315Z 23006KT 9999 FEW025 21/07 Q1021=
201203011245 METAR LIRA 011245Z 20005KT 190V230 9999 FEW020 21/06 Q1021=
201203011215 METAR LIRA 011215Z 20005KT 140V240 9999 FEW020 21/06 Q1021=
201203011145 METAR LIRA 011145Z 21005KT 150V230 CAVOK 21/07 Q1021=
201203011115 METAR LIRA 011115Z 22003KT CAVOK 20/08 Q1021=
201203011045 METAR LIRA 011045Z 25002KT CAVOK 18/07 Q1021=
201203011015 METAR LIRA 011015Z 34001KT CAVOK 18/08 Q1021=
201203010945 METAR LIRA 010945Z 03003KT CAVOK 16/07 Q1021=
201203010915 METAR LIRA 010915Z 35002KT CAVOK 15/08 Q1021=
201203010845 METAR LIRA 010845Z 01001KT 9999 FEW005 13/08 Q1020=
201203010815 METAR LIRA 010815Z 04004KT 8000 FEW005 12/08 Q1020=
201203010745 METAR LIRA 010745Z 02004KT 9999 FEW005 11/07 Q1020=
201203010715 METAR LIRA 010715Z 04003KT 9999 FEW070 10/08 Q1020=
201203010645 METAR LIRA 010645Z 05003KT 9999 FEW070 09/07 Q1019=
201203010615 METAR LIRA 010615Z 05003KT 9999 FEW070 07/06 Q1019=
201203010545 METAR LIRA 010545Z 06005KT 040V100 9999 FEW070 07/06 Q1019=
201203010515 METAR LIRA 010515Z 05002KT 9999 FEW070 07/06 Q1018=
201203010445 METAR LIRA 010445Z 06005KT 9999 FEW070 07/06 Q1018=
201203010415 METAR LIRA 010415Z 05004KT 9999 FEW070 07/06 Q1018=
201203010345 METAR LIRA 010345Z 03003KT 9999 FEW070 07/06 Q1018=
201203010315 METAR LIRA 010315Z 03004KT 9999 FEW070 08/06 Q1018=
201203010245 METAR LIRA 010245Z 05002KT 9000 FEW070 08/07 Q1018=
201203010215 METAR LIRA 010215Z 34002KT 9000 FEW070 08/07 Q1018=
201203010145 METAR LIRA 010145Z 04002KT 9000 FEW070 08/07 Q1018=
201203010115 METAR LIRA 010115Z 04004KT 9000 FEW070 09/08 Q1018=
201203010045 METAR LIRA 010045Z 05004KT 9000 FEW070 09/07 Q1018=
201203010015 METAR LIRA 010015Z 06005KT 9000 FEW070 08/07 Q1018=

</pre>

</body>
</html>
