##########################################################
# Query made at 11/10/2014 16:52:56 UTC
# Time interval: from 05/01/2012 00:00  to 05/31/2012 23:59  UTC
##########################################################

##########################################################
# LIRA, Roma / Ciampino (Italy)
# WMO index: 16239
# Latitude 41-47N. Longitude 012-35E. Altitude 129 m.
##########################################################

###################################
#  METAR/SPECI from LIRA
###################################
201205312350 METAR LIRA 010045Z 00000KT CAVOK 16/13 Q1017=
201205312345 METAR LIRA 312345Z 11002KT CAVOK 16/13 Q1017=
201205312315 METAR LIRA 312315Z 12004KT 9999 FEW020 16/13 Q1018=
201205312245 METAR LIRA 312245Z 11003KT 9999 FEW030 16/13 Q1019=
201205312215 METAR LIRA 312215Z 08002KT 9999 FEW030 17/15 Q1019=
201205312145 METAR LIRA 312145Z 17002KT 9999 FEW020 18/17 Q1019=
201205312115 METAR LIRA 312115Z 20002KT 9999 SCT015 SCT030 18/17 Q1019=
201205312045 METAR LIRA 312045Z 22003KT 9999 FEW020 18/16 Q1019=
201205312015 METAR LIRA 312015Z 19003KT 9999 FEW020 19/17 Q1019=
201205311945 METAR LIRA 311945Z 22002KT 9999 FEW020 19/16 Q1018=
201205311915 METAR LIRA 311915Z 22004KT 9999 FEW020 20/16 Q1018=
201205311845 METAR LIRA 311845Z 22004KT 9999 FEW020 SCT060 20/16 Q1018=
201205311815 METAR LIRA 311815Z 23004KT 9999 FEW018 FEW020CB 22/15 Q1018=
201205311745 METAR LIRA 311745Z 22005KT 9999 FEW018 FEW020CB 23/14 Q1018=
201205311715 METAR LIRA 311715Z 20004KT 160V230 9999 FEW018 FEW020CB 23/14
                        Q1018=
201205311645 METAR LIRA 311645Z 21005KT 160V250 9999 FEW018 FEW020CB 23/14
                        Q1018=
201205311615 METAR LIRA 311615Z 24005KT 200V280 9999 SCT018 FEW020CB 24/14
                        Q1018=
201205311545 METAR LIRA 311545Z 22005KT 160V250 9999 SCT018 FEW020CB 24/15
                        Q1018=
201205311515 METAR LIRA 311515Z 22007KT 9999 SCT018 FEW020CB 24/14 Q1018=
201205311445 METAR LIRA 311445Z 23008KT 9999 SCT018 FEW020CB 24/15 Q1018=
201205311415 METAR LIRA 311415Z 23008KT 9999 SCT018 FEW020CB 24/15 Q1018=
201205311345 METAR LIRA 311345Z 21007KT 160V240 9999 SCT018 FEW022CB 25/15
                        Q1018=
201205311315 METAR LIRA 311315Z 22009KT 170V250 9999 SCT018 FEW022TCU
                        25/16 Q1019=
201205311245 METAR LIRA 311245Z 23008KT 190V260 9999 SCT018 FEW022TCU
                        25/17 Q1019=
201205311215 METAR LIRA 311215Z 23009KT 9999 SCT018 25/16 Q1020=
201205311145 METAR LIRA 311145Z 24007KT 9999 SCT018 25/16 Q1020=
201205311115 METAR LIRA 311115Z 24008KT 210V280 9999 SCT018 25/18 Q1020=
201205311045 METAR LIRA 311045Z 26003KT 9999 SCT018 25/16 Q1020=
201205311015 METAR LIRA 311015Z 24004KT 9999 FEW020 25/16 Q1020=
201205310945 METAR LIRA 310945Z 30004KT 9999 FEW020 24/17 Q1020=
201205310915 METAR LIRA 310915Z 18003KT 9999 FEW020 23/17 Q1020=
201205310845 METAR LIRA 310845Z 25004KT 9999 FEW020 23/17 Q1020=
201205310815 METAR LIRA 310815Z 26003KT 9999 FEW070 22/17 Q1020=
201205310745 METAR LIRA 310745Z 28002KT 9999 FEW070 21/15 Q1020=
201205310715 METAR LIRA 310715Z 29001KT 9999 FEW070 20/15 Q1020=
201205310645 METAR LIRA 310645Z 33001KT 9999 FEW020 19/16 Q1020=
201205310615 METAR LIRA 310615Z 35001KT CAVOK 18/16 Q1019=
201205310545 METAR LIRA 310545Z 02002KT 9999 FEW015 17/15 Q1019=
201205310515 METAR LIRA 310515Z 01003KT 8000 FEW003 16/14 Q1019=
201205310445 METAR LIRA 310445Z 05001KT 4000 BR SCT002 16/14 Q1019=
201205310415 METAR LIRA 310415Z 06002KT 3000 BR BKN002 16/14 Q1019=
201205310345 METAR LIRA 310345Z 00000KT 9999 FEW006 SCT025 15/12 Q1019=
201205310315 METAR LIRA 310315Z 00000KT 9999 FEW025CB SCT030 14/11 Q1018=
201205310245 METAR LIRA 310245Z 10002KT CAVOK 14/11 Q1018=
201205310215 METAR LIRA 310215Z 00000KT 9999 FEW010 15/13 Q1018=
201205310145 METAR LIRA 310145Z 00000KT 9999 FEW010 15/13 Q1018=
201205310115 METAR LIRA 310115Z 16002KT 9999 FEW010 15/13 Q1018=
201205310045 METAR LIRA 310045Z 00000KT 9999 FEW010 16/15 Q1019=
201205310015 METAR LIRA 310015Z 00000KT 9999 FEW010 16/15 Q1019=
201205302350 METAR LIRA 310045Z 00000KT 9999 FEW010 16/15 Q1019=
201205302345 METAR LIRA 302345Z 10002KT 9999 FEW010 16/15 Q1019=
201205302315 METAR LIRA 302315Z 14002KT 8000 FEW010 17/16 Q1019=
201205302245 METAR LIRA 302245Z 17003KT 7000 FEW009 SCT070 18/17 Q1019=
201205302215 METAR LIRA 302215Z 19004KT 7000 FEW009 SCT070 18/17 Q1019=
201205302145 METAR LIRA 302145Z 20003KT 9999 FEW070 18/17 Q1019=
201205302115 METAR LIRA 302115Z 19004KT 9999 FEW070 18/16 Q1019=
201205302045 METAR LIRA 302045Z 20004KT 9999 FEW070 19/17 Q1019=
201205302015 METAR LIRA 302015Z 19004KT 9999 FEW070 19/15 Q1019=
201205301945 METAR LIRA 301945Z 21004KT 9999 FEW025TCU SCT080 20/13 Q1018=
201205301915 METAR LIRA 301915Z 19005KT 9999 FEW025TCU SCT080 21/13 Q1018=
201205301845 METAR LIRA 301845Z 19003KT 9999 FEW025CB 22/13 Q1018=
201205301815 METAR LIRA 301815Z 22003KT 9999 FEW025CB 22/13 Q1018=
201205301745 METAR LIRA 301745Z 23004KT 9999 FEW020 FEW030CB 23/13 Q1018=
201205301715 METAR LIRA 301715Z 23005KT 180V260 9999 FEW020 FEW030CB 24/14
                        Q1017=
201205301645 METAR LIRA 301645Z 25006KT 220V300 9999 FEW020 FEW030CB 24/14
                        Q1017=
201205301615 METAR LIRA 301615Z 26009KT 220V300 9999 FEW020 FEW030CB 24/14
                        Q1017=
201205301545 METAR LIRA 301545Z 26008KT 220V300 9999 FEW020 FEW030CB 25/15
                        Q1017=
201205301515 METAR LIRA 301515Z 27009KT 210V310 9999 FEW020 FEW030CB 25/14
                        Q1017=
201205301445 METAR LIRA 301445Z 27010KT 220V290 9999 FEW020 FEW030CB 25/14
                        Q1017=
201205301245 METAR LIRA 301245Z 28009KT 240V310 9999 FEW018 FEW030TCU
                        26/16 Q1017=
201205301215 METAR LIRA 301215Z 26008KT 220V310 9999 FEW018 FEW030TCU
                        26/16 Q1017=
201205301145 METAR LIRA 301145Z 30003KT 290V350 9999 FEW018 FEW030TCU
                        26/14 Q1017=
201205301115 METAR LIRA 301115Z 30006KT 240V340 9999 FEW020 26/14 Q1017=
201205301045 METAR LIRA 301045Z 33007KT 300V010 9999 FEW020 25/13 Q1017=
201205301015 METAR LIRA 301015Z 35005KT 300V010 9999 FEW020 25/13 Q1017=
201205300945 METAR LIRA 300945Z 33007KT 300V020 9999 FEW020 24/13 Q1017=
201205300915 METAR LIRA 300915Z 02006KT 310V080 CAVOK 23/15 Q1017=
201205300900 LIRA INTER=
201205300845 METAR LIRA 300845Z 34006KT 310V020 CAVOK 22/16 Q1017=
201205300815 METAR LIRA 300815Z 03004KT CAVOK 22/17 Q1017=
201205300800 LIRA INTER=
201205300745 METAR LIRA 300745Z 35005KT 320V020 CAVOK 20/16 Q1017=
201205300715 METAR LIRA 300715Z 04004KT CAVOK 20/16 Q1017=
201205300645 METAR LIRA 300645Z 02004KT CAVOK 18/16 Q1017=
201205300615 METAR LIRA 300615Z 36002KT CAVOK 17/15 Q1017=
201205300545 METAR LIRA 300545Z 03003KT CAVOK 16/15 Q1017=
201205300515 METAR LIRA 300515Z 05003KT CAVOK 15/15 Q1016=
201205300445 METAR LIRA 300445Z 08001KT CAVOK 14/13 Q1016=
201205300415 METAR LIRA 300415Z 22001KT CAVOK 13/12 Q1016=
201205300345 METAR LIRA 300345Z 28001KT CAVOK 13/12 Q1015=
201205300315 METAR LIRA 300315Z 00000KT CAVOK 14/13 Q1015=
201205300245 METAR LIRA 300245Z 00000KT CAVOK 13/12 Q1015=
201205300215 METAR LIRA 300215Z 00000KT CAVOK 14/13 Q1015=
201205300145 METAR LIRA 300145Z 02002KT CAVOK 15/13 Q1015=
201205300115 METAR LIRA 300115Z 05003KT CAVOK 15/13 Q1015=
201205300045 METAR LIRA 300045Z 09001KT CAVOK 15/13 Q1015=
201205300015 METAR LIRA 300015Z 00000KT CAVOK 15/14 Q1015=
201205292350 METAR LIRA 300045Z 09001KT CAVOK 15/13 Q1015=
201205292345 METAR LIRA 292345Z 00000KT CAVOK 15/14 Q1015=
201205292315 METAR LIRA 292315Z 00000KT 9999 FEW070 15/13 Q1015=
201205292245 METAR LIRA 292245Z 15001KT 9999 FEW070 16/13 Q1015=
201205292215 METAR LIRA 292215Z 22002KT 9999 FEW080 16/12 Q1015=
201205292145 METAR LIRA 292145Z 21002KT 9999 FEW080 17/13 Q1014=
201205292115 METAR LIRA 292115Z 19002KT 9999 FEW040 SCT080 17/13 Q1014=
201205292045 METAR LIRA 292045Z 20003KT 9999 FEW040 SCT080 18/13 Q1014=
201205292015 METAR LIRA 292015Z 21002KT 9999 FEW020 FEW030CB 18/13 Q1014=
201205291945 METAR LIRA 291945Z 24003KT 9999 FEW020 FEW030CB 18/13 Q1014=
201205291915 METAR LIRA 291915Z 20002KT 9999 FEW020TCU FEW030CB 18/13
                        Q1014=
201205291845 METAR LIRA 291845Z 16003KT 9999 FEW020 FEW030CB 18/13 Q1014=
201205291815 METAR LIRA 291815Z 24002KT 9999 FEW025 19/12 Q1014=
201205291745 METAR LIRA 291745Z 26004KT 9999 FEW025 20/13 Q1014=
201205291715 METAR LIRA 291715Z 25006KT 210V270 9999 FEW020 20/14 Q1013=
201205291645 METAR LIRA 291645Z 24005KT 170V280 9999 FEW080 21/14 Q1013=
201205291615 METAR LIRA 291615Z 25008KT 210V310 9999 FEW020TCU 20/14 Q1013=
201205291545 METAR LIRA 291545Z 25007G17KT 210V290 9999 FEW025TCU 22/15
                        Q1013=
201205291515 METAR LIRA 291515Z 27012KT 230V300 9999 FEW025TCU 22/14 Q1013=
201205291445 METAR LIRA 291445Z 26008KT 230V310 9999 FEW025TCU 22/15 Q1013=
201205291415 METAR LIRA 291415Z 26009KT 230V300 9999 FEW025TCU 22/15 Q1013=
201205291345 METAR LIRA 291345Z 26009KT 220V300 9999 FEW025TCU 23/15 Q1013=
201205291315 METAR LIRA 291315Z 25007KT 220V300 9999 FEW025TCU 23/15 Q1013=
201205291245 METAR LIRA 291245Z 25010KT 240V310 9999 FEW025TCU SCT030
                        24/16 Q1013=
201205291215 METAR LIRA 291215Z 25008KT 220V290 9999 SCT030 24/16 Q1013=
201205291145 METAR LIRA 291145Z 27005KT 200V300 9999 SCT030 23/15 Q1013=
201205291115 METAR LIRA 291115Z 31005G15KT 220V340 9999 FEW030 24/13 Q1013=
201205291045 METAR LIRA 291045Z 32003G13KT 300V010 9999 FEW030 23/13 Q1014=
201205291015 METAR LIRA 291015Z 04003KT 9999 FEW030 22/13 Q1014=
201205290945 METAR LIRA 290945Z 33004KT 9999 FEW030 21/14 Q1014=
201205290915 METAR LIRA 290915Z 31003KT 300V360 9999 FEW030 20/15 Q1014=
201205290845 METAR LIRA 290845Z 32006KT 260V340 CAVOK 19/15 Q1014=
201205290815 METAR LIRA 290815Z 32005KT CAVOK 19/14 Q1014=
201205290745 METAR LIRA 290745Z 03004KT CAVOK 18/14 Q1014=
201205290715 METAR LIRA 290715Z 06005KT CAVOK 17/13 Q1014=
201205290645 METAR LIRA 290645Z 04004KT 9000 FEW010 15/13 Q1014=
201205290615 METAR LIRA 290615Z 36003KT 7000 FEW010 14/13 Q1013=
201205290545 METAR LIRA 290545Z 02004KT 7000 FEW010 14/13 Q1013=
201205290515 METAR LIRA 290515Z 01004KT 7000 BR FEW010 13/12 Q1013=
201205290445 METAR LIRA 290445Z 36003KT 7000 BR FEW010 11/10 Q1013=
201205290415 METAR LIRA 290415Z 02001KT 7000 BR FEW010 11/10 Q1013=
201205290345 METAR LIRA 290345Z 02001KT 5000 MIFG BR FEW009 11/10 Q1013=
201205290315 METAR LIRA 290315Z 00000KT 8000 FEW080 11/10 Q1013=
201205290245 METAR LIRA 290245Z 02003KT 8000 FEW080 12/11 Q1013=
201205290215 METAR LIRA 290215Z 06003KT 8000 FEW080 12/11 Q1013=
201205290145 METAR LIRA 290145Z 07001KT 8000 FEW080 12/11 Q1013=
201205290115 METAR LIRA 290115Z 00000KT 9999 FEW080 12/12 Q1014=
201205290045 METAR LIRA 290045Z 08002KT 9999 FEW080 13/12 Q1014=
201205290015 METAR LIRA 290015Z 00000KT 9999 FEW080 13/12 Q1014=
201205282350 METAR LIRA 290045Z 08002KT 9999 FEW080 13/12 Q1014=
201205282345 METAR LIRA 282345Z 15001KT 9999 FEW080 13/12 Q1014=
201205282315 METAR LIRA 282315Z 11003KT 9999 FEW080 13/12 Q1014=
201205282245 METAR LIRA 282245Z 09001KT 9999 FEW080 13/12 Q1014=
201205282215 METAR LIRA 282215Z 00000KT 9999 FEW080 13/12 Q1014=
201205282145 METAR LIRA 282145Z 08001KT 9999 FEW080 14/12 Q1014=
201205282115 METAR LIRA 282115Z 00000KT 9999 FEW080 14/13 Q1014=
201205282045 METAR LIRA 282045Z 20001KT 9999 FEW080 15/13 Q1014=
201205282015 METAR LIRA 282015Z 22001KT 9999 FEW017 16/13 Q1014=
201205281945 METAR LIRA 281945Z 20003KT 9999 SCT017 FEW020TCU 16/14 Q1014=
201205281915 METAR LIRA 281915Z 25002KT 9999 SCT015 FEW017CB SCT022 17/14
                        Q1013=
201205281845 METAR LIRA 281845Z 23003KT 9999 SCT015 FEW017CB SCT022 17/14
                        Q1013=
201205281815 METAR LIRA 281815Z 22003KT 9999 SCT015 FEW017CB 18/15 Q1013=
201205281745 METAR LIRA 281745Z 23003KT 9999 SCT015 FEW017TCU 18/15 Q1013=
201205281715 METAR LIRA 281715Z 23004KT 9999 SCT015 FEW017TCU 18/15 Q1013=
201205281645 METAR LIRA 281645Z 23002KT 9999 SCT020 18/16 Q1013=
201205281615 METAR LIRA 281615Z 23003KT 9000 SCT020 SCT080 18/16 Q1013=
201205281545 METAR LIRA 281545Z 26003KT 9000 SCT020 SCT080 18/16 Q1014=
201205281515 METAR LIRA 281515Z 29002KT 8000 SCT020 SCT080 18/16 Q1014=
201205281445 METAR LIRA 281445Z 28002KT 8000 SCT020 SCT080 18/15 Q1014=
201205281415 METAR LIRA 281415Z 29003KT 8000 SCT018 SCT080 17/15 Q1014=
201205281345 METAR LIRA 281345Z 00000KT 8000 FEW017 SCT080 17/15 Q1014=
201205281315 METAR LIRA 281315Z 28001KT 8000 FEW010 SCT080 17/14 Q1014=
201205281245 METAR LIRA 281245Z 05002KT 7000 -RA SCT016 SCT080 16/15 Q1014=
201205281215 METAR LIRA 281215Z 34002KT 7000 -RA SCT016 SCT030 16/15 Q1015=
201205281145 METAR LIRA 281145Z 00000KT 6000 -RA SCT015 BKN030 16/15 Q1015=
201205281115 METAR LIRA 281115Z 32002KT 5000 -RA BR SCT015 BKN025 16/15
                        Q1015=
201205281045 METAR LIRA 281045Z 31005KT 6000 SCT016 SCT030 BKN070 16/15
                        Q1015=
201205281015 METAR LIRA 281015Z 00000KT 6000 -RA SCT017 SCT030 BKN070
                        16/15 Q1015=
201205280945 METAR LIRA 280945Z 25003KT 8000 -RA SCT020 BKN100 16/15 Q1015=
201205280915 METAR LIRA 280915Z 23005KT 8000 -RA SCT020 BKN100 17/15 Q1015=
201205280845 METAR LIRA 280845Z 21005KT 180V250 9999 -RA SCT020 BKN100
                        17/15 Q1015=
201205280815 METAR LIRA 280815Z 22004KT 9999 -RA FEW020 SCT080 BKN100
                        17/15 Q1015=
201205280745 METAR LIRA 280745Z 24004KT 9999 -RA FEW020 SCT080 BKN100
                        18/15 Q1015=
201205280715 METAR LIRA 280715Z 23004KT 9999 FEW030 SCT080 BKN100 18/15
                        Q1015=
201205280645 METAR LIRA 280645Z 23003KT 9999 SCT030 SCT080 18/15 Q1015=
201205280615 METAR LIRA 280615Z 21004KT 9999 SCT030 SCT070 17/13 Q1014=
201205280545 METAR LIRA 280545Z 19006KT 9999 SCT030 SCT070 17/13 Q1014=
201205280515 METAR LIRA 280515Z 17005KT 9999 FEW030 SCT070 17/14 Q1014=
201205280445 METAR LIRA 280445Z 17005KT 9999 FEW030 SCT070 15/13 Q1014=
201205280415 METAR LIRA 280415Z 16002KT 9999 FEW060 SCT070 14/12 Q1014=
201205280345 METAR LIRA 280345Z 22001KT 9999 SCT070 SCT200 14/11 Q1014=
201205280315 METAR LIRA 280315Z 06002KT 9999 SCT070 14/11 Q1014=
201205280245 METAR LIRA 280245Z 09001KT 9999 SCT070 14/11 Q1014=
201205280215 METAR LIRA 280215Z 15004KT 9999 SCT070 14/11 Q1014=
201205280145 METAR LIRA 280145Z 17005KT 9999 FEW070 14/11 Q1015=
201205280115 METAR LIRA 280115Z 16002KT 9999 FEW070 14/10 Q1015=
201205280045 METAR LIRA 280045Z 16003KT 9999 FEW070 14/10 Q1015=
201205280015 METAR LIRA 280015Z 15003KT 9999 FEW070 14/10 Q1015=
201205272350 METAR LIRA 280045Z 16003KT 9999 FEW070 14/10 Q1015=
201205272345 METAR LIRA 272345Z 09001KT 9999 FEW030 15/11 Q1015=
201205272315 METAR LIRA 272315Z 00000KT 9999 FEW020 15/11 Q1015=
201205272245 METAR LIRA 272245Z 10002KT 9999 FEW020 15/10 Q1015=
201205272215 METAR LIRA 272215Z 18002KT 9999 FEW020 17/11 Q1015=
201205272145 METAR LIRA 272145Z 18002KT 9999 FEW020 18/11 Q1015=
201205272115 METAR LIRA 272115Z 17002KT 9999 FEW020 18/11 Q1015=
201205272045 METAR LIRA 272045Z 19003KT 9999 FEW020 SCT070 18/10 Q1015=
201205272015 METAR LIRA 272015Z 17004KT 9999 FEW020 18/11 Q1014=
201205271945 METAR LIRA 271945Z 16005KT 9999 FEW020 18/11 Q1014=
201205271915 METAR LIRA 271915Z 18006KT 9999 FEW020 18/10 Q1014=
201205271845 METAR LIRA 271845Z 17005KT 9999 FEW020 19/10 Q1014=
201205271815 METAR LIRA 271815Z 19005KT 9999 FEW020 20/10 Q1014=
201205271745 METAR LIRA 271745Z 22005KT 9999 FEW020 21/07 Q1014=
201205271715 METAR LIRA 271715Z 21005KT 9999 FEW020 22/08 Q1014=
201205271645 METAR LIRA 271645Z 23008KT 170V260 9999 FEW020 22/07 Q1014=
201205271615 METAR LIRA 271615Z 26007KT 210V310 9999 FEW020 23/08 Q1014=
201205271545 METAR LIRA 271545Z 27008KT 230V310 9999 FEW020 24/08 Q1014=
201205271515 METAR LIRA 271515Z 25011KT 220V280 9999 FEW020 24/07 Q1014=
201205271445 METAR LIRA 271445Z 34004KT 9999 FEW020 25/05 Q1015=
201205271415 METAR LIRA 271415Z 36005KT 300V010 9999 FEW020 25/05 Q1015=
201205271345 METAR LIRA 271345Z 09003KT 9999 FEW020 25/05 Q1015=
201205271315 METAR LIRA 271315Z 25004KT 240V310 9999 FEW020 25/04 Q1015=
201205271245 METAR LIRA 271245Z 07002KT 9999 FEW020 24/07 Q1015=
201205271215 METAR LIRA 271215Z 25003KT 9999 FEW020 24/07 Q1016=
201205271145 METAR LIRA 271145Z 29003KT 9999 FEW020 23/07 Q1016=
201205271115 METAR LIRA 271115Z 01006KT 330V070 9999 FEW020 23/07 Q1016=
201205271045 METAR LIRA 271045Z 01005KT 340V050 9999 FEW020 22/06 Q1016=
201205271015 METAR LIRA 271015Z 02005KT 360V060 9999 FEW020 22/08 Q1016=
201205270945 METAR LIRA 270945Z 34006KT 310V020 9999 FEW020 21/11 Q1016=
201205270915 METAR LIRA 270915Z 05004KT 9999 FEW020 20/13 Q1016=
201205270845 METAR LIRA 270845Z 03005KT 340V040 CAVOK 19/12 Q1016=
201205270815 METAR LIRA 270815Z 05006KT CAVOK 19/13 Q1016=
201205270745 METAR LIRA 270745Z 04006KT 350V080 CAVOK 17/13 Q1016=
201205270715 METAR LIRA 270715Z 03006KT 340V070 CAVOK 16/12 Q1016=
201205270645 METAR LIRA 270645Z 01005KT CAVOK 15/12 Q1016=
201205270615 METAR LIRA 270615Z 36005KT 320V030 CAVOK 14/12 Q1015=
201205270545 METAR LIRA 270545Z 01004KT CAVOK 13/12 Q1015=
201205270515 METAR LIRA 270515Z 03003KT CAVOK 12/11 Q1015=
201205270445 METAR LIRA 270445Z 04004KT CAVOK 11/10 Q1015=
201205270415 METAR LIRA 270415Z 03004KT CAVOK 11/10 Q1015=
201205270345 METAR LIRA 270345Z 02002KT CAVOK 12/11 Q1015=
201205270315 METAR LIRA 270315Z 36002KT CAVOK 12/11 Q1016=
201205270245 METAR LIRA 270245Z 01001KT CAVOK 12/11 Q1016=
201205270215 METAR LIRA 270215Z 03002KT CAVOK 12/11 Q1016=
201205270145 METAR LIRA 270145Z 02003KT CAVOK 12/11 Q1016=
201205270115 METAR LIRA 270115Z 05004KT CAVOK 12/11 Q1016=
201205270045 METAR LIRA 270045Z 02003KT CAVOK 13/12 Q1016=
201205270015 METAR LIRA 270015Z 04004KT CAVOK 13/12 Q1016=
201205262350 METAR LIRA 270045Z 02003KT CAVOK 13/12 Q1016=
201205262345 METAR LIRA 262345Z 03002KT CAVOK 13/12 Q1016=
201205262315 METAR LIRA 262315Z 03003KT CAVOK 13/12 Q1016=
201205262245 METAR LIRA 262245Z 02002KT CAVOK 13/12 Q1016=
201205262215 METAR LIRA 262215Z 03003KT CAVOK 14/13 Q1016=
201205262145 METAR LIRA 262145Z 00000KT CAVOK 14/13 Q1016=
201205262115 METAR LIRA 262115Z 09002KT 9999 FEW020 15/14 Q1016=
201205262045 METAR LIRA 262045Z 34001KT 9999 FEW020 15/14 Q1016=
201205262015 METAR LIRA 262015Z 30002KT 9999 FEW020 SCT060 16/15 Q1016=
201205261945 METAR LIRA 261945Z 28001KT 9999 SCT030 SCT060 16/15 Q1016=
201205261915 METAR LIRA 261915Z 28001KT 9999 -RA FEW020CB SCT030 16/15
                        Q1015=
201205261845 METAR LIRA 261845Z 34001KT 9999 -RA FEW020CB SCT030 16/15
                        Q1015=
201205261815 METAR LIRA 261815Z 11007KT 9999 -RA FEW018 FEW020CB SCT030
                        16/14 Q1015 RETS=
201205261745 METAR LIRA 261745Z 25003KT 9999 -RA FEW018 FEW020CB SCT030
                        16/15 Q1015 RETS=
201205261715 METAR LIRA 261715Z 03005KT 350V070 9000 -TSRA FEW018 SCT020CB
                        16/14 Q1015=
201205261645 METAR LIRA 261645Z 06004KT 9999 -TSRA FEW018 SCT020CB 17/14
                        Q1015=
201205261615 METAR LIRA 261615Z 15010KT 120V190 9999 -TSRA SCT018 FEW020CB
                        SCT030 17/13 Q1015=
201205261545 METAR LIRA 261545Z 12014KT 5000 TSRA BR SCT018 FEW020CB SCT030
                        16/13 Q1015=
201205261515 METAR LIRA 261515Z 10019G32KT 050V130 4000 TSRA BR SCT018
                        FEW020CB SCT030 14/12 Q1015=
201205261445 METAR LIRA 261445Z 25005KT 200V280 9999 SCT018 FEW020CB 22/16
                        Q1014=
201205261415 METAR LIRA 261415Z 23009KT 180V280 9999 SCT018 FEW020CB 22/16
                        Q1014=
201205261345 METAR LIRA 261345Z 21008KT 160V250 9999 SCT018 FEW020CB 23/17
                        Q1015=
201205261315 METAR LIRA 261315Z 22007KT 160V250 9999 SCT018 FEW020CB 22/16
                        Q1015 RETS=
201205261245 METAR LIRA 261245Z 18008KT 160V250 9999 SCT018 FEW020CB 22/18
                        Q1015 RETS=
201205261215 METAR LIRA 261215Z 18010KT 9999 TS SCT018 FEW020CB 22/17
                        Q1015=
201205261145 METAR LIRA 261145Z 23007KT 170V260 9999 -TSRA BKN018 FEW020CB
                        22/17 Q1015=
201205261115 METAR LIRA 261115Z 23008KT 190V260 9999 BKN018 FEW020CB 23/17
                        Q1015=
201205261045 METAR LIRA 261045Z 23008KT 190V280 9999 BKN018 FEW020CB 23/17
                        Q1015=
201205261015 METAR LIRA 261015Z 21007KT 180V270 9999 BKN018 FEW022TCU
                        24/17 Q1015=
201205260945 METAR LIRA 260945Z 24004KT 9999 BKN018 FEW022TCU 23/16 Q1015=
201205260915 METAR LIRA 260915Z 26004KT 9999 SCT018 23/16 Q1015=
201205260845 METAR LIRA 260845Z 25002KT 9999 SCT018 23/17 Q1015=
201205260815 METAR LIRA 260815Z 10003KT 9999 SCT020 23/17 Q1015=
201205260745 METAR LIRA 260745Z 13001KT 9999 FEW020 21/16 Q1015=
201205260715 METAR LIRA 260715Z 27001KT 9999 FEW020 20/16 Q1015=
201205260645 METAR LIRA 260645Z 24001KT 9999 FEW020 SCT200 20/16 Q1015=
201205260615 METAR LIRA 260615Z 06001KT 9999 FEW030 18/16 Q1015=
201205260545 METAR LIRA 260545Z 05001KT 9999 FEW025 16/15 Q1014=
201205260515 METAR LIRA 260515Z 02002KT 9999 FEW025 16/15 Q1014=
201205260445 METAR LIRA 260445Z 34001KT 9999 FEW030 16/14 Q1014=
201205260415 METAR LIRA 260415Z 00000KT 9999 FEW070 15/14 Q1014=
201205260345 METAR LIRA 260345Z 00000KT 9999 FEW070 15/14 Q1014=
201205260315 METAR LIRA 260315Z 00000KT 9999 FEW070 16/15 Q1014=
201205260245 METAR LIRA 260245Z 19001KT 9999 FEW070 16/15 Q1014=
201205260215 METAR LIRA 260215Z 30001KT 9999 FEW070 17/15 Q1014=
201205260145 METAR LIRA 260145Z 00000KT 9999 FEW020 SCT070 17/15 Q1014=
201205260115 METAR LIRA 260115Z 18003KT 9999 FEW020 SCT070 18/15 Q1014=
201205260045 METAR LIRA 260045Z 18002KT 9999 FEW020 BKN070 18/14 Q1014=
201205260015 METAR LIRA 260015Z 00000KT 9999 FEW020 SCT070 18/16 Q1014=
201205252350 METAR LIRA 260045Z 18002KT 9999 FEW020 BKN070 18/14 Q1014=
201205252345 METAR LIRA 252345Z 00000KT 9999 FEW020 SCT070 18/16 Q1014=
201205252315 METAR LIRA 252315Z 00000KT 9999 FEW020 SCT070 18/16 Q1015=
201205252245 METAR LIRA 252245Z 22001KT 9999 FEW020 SCT070 18/17 Q1015=
201205252215 METAR LIRA 252215Z 00000KT 9999 FEW020 SCT070 17/16 Q1015=
201205252145 METAR LIRA 252145Z 00000KT 9999 FEW020 SCT070 18/16 Q1014=
201205252115 METAR LIRA 252115Z 34001KT 9999 FEW020 BKN070 18/16 Q1014=
201205252045 METAR LIRA 252045Z 15003KT 9999 FEW020 BKN070 19/16 Q1014=
201205252015 METAR LIRA 252015Z 16002KT 9999 FEW020 BKN070 19/17 Q1014=
201205251945 METAR LIRA 251945Z 27002KT 9999 FEW020 SCT080 19/17 Q1014=
201205251915 METAR LIRA 251915Z 29003KT 9999 FEW020 SCT080 20/17 Q1014=
201205251845 METAR LIRA 251845Z 24004KT 9999 FEW020 21/17 Q1013=
201205251815 METAR LIRA 251815Z 22005KT 190V260 9999 FEW020 FEW022CB 22/15
                        Q1013=
201205251745 METAR LIRA 251745Z 20008KT 160V220 9999 FEW020 FEW022CB 23/14
                        Q1013=
201205251715 METAR LIRA 251715Z 19009KT 9999 FEW020 FEW022CB 24/14 Q1013=
201205251645 METAR LIRA 251645Z 20008KT 170V290 9999 FEW020 FEW022CB 24/15
                        Q1013=
201205251615 METAR LIRA 251615Z 20010KT 9999 FEW020 FEW022CB 24/14 Q1012=
201205251545 METAR LIRA 251545Z 21008KT 180V240 9999 FEW020 FEW022CB 25/15
                        Q1012=
201205251445 METAR LIRA 251445Z 20011KT 180V240 9999 FEW020 FEW022CB 25/14
                        Q1013=
201205251415 METAR LIRA 251415Z 21008KT 180V250 9999 FEW020 FEW022TCU
                        SCT030 26/16 Q1012=
201205251345 METAR LIRA 251345Z 20009KT 9999 FEW020 FEW022TCU SCT030 26/16
                        Q1012=
201205251315 METAR LIRA 251315Z 23010KT 200V260 9999 SCT020 FEW022TCU
                        27/16 Q1013=
201205251245 METAR LIRA 251245Z 23009KT 200V280 9999 SCT020 FEW022TCU
                        27/16 Q1013=
201205251215 METAR LIRA 251215Z 23005KT 9999 SCT020 FEW022TCU 27/14 Q1013=
201205251145 METAR LIRA 251145Z 32003KT 9999 SCT020 FEW022TCU 27/11 Q1013=
201205251115 METAR LIRA 251115Z 20002KT 9999 SCT020 FEW022TCU 27/11 Q1013=
201205251045 METAR LIRA 251045Z 29005KT 170V350 9999 SCT020 FEW022TCU
                        27/14 Q1013=
201205251015 METAR LIRA 251015Z 32003KT 9999 SCT020 FEW022TCU 27/14 Q1014=
201205250945 METAR LIRA 250945Z 33003KT 9999 FEW020 26/14 Q1014=
201205250915 METAR LIRA 250915Z 01002KT 9999 FEW020 26/15 Q1014=
201205250845 METAR LIRA 250845Z 04002KT 9999 FEW020 25/14 Q1014=
201205250815 METAR LIRA 250815Z 36004KT 9999 FEW020 24/15 Q1014=
201205250745 METAR LIRA 250745Z 06004KT CAVOK 23/16 Q1014=
201205250715 METAR LIRA 250715Z 04005KT 010V080 CAVOK 22/15 Q1014=
201205250645 METAR LIRA 250645Z 03005KT 350V080 CAVOK 20/15 Q1014=
201205250615 METAR LIRA 250615Z 05005KT 020V080 CAVOK 20/15 Q1014=
201205250545 METAR LIRA 250545Z 04006KT 340V080 CAVOK 17/13 Q1013=
201205250515 METAR LIRA 250515Z 36003KT 9999 FEW080 17/15 Q1013=
201205250445 METAR LIRA 250445Z 03003KT 9999 FEW080 16/15 Q1013=
201205250415 METAR LIRA 250415Z 04004KT 9999 FEW080 16/14 Q1013=
201205250345 METAR LIRA 250345Z 06005KT 9999 FEW080 16/14 Q1013=
201205250315 METAR LIRA 250315Z 03003KT CAVOK 16/14 Q1013=
201205250245 METAR LIRA 250245Z 01001KT CAVOK 16/15 Q1013=
201205250215 METAR LIRA 250215Z 04002KT CAVOK 16/15 Q1013=
201205250145 METAR LIRA 250145Z 04001KT CAVOK 17/15 Q1013=
201205250115 METAR LIRA 250115Z 00000KT CAVOK 17/16 Q1013=
201205250045 METAR LIRA 250045Z 00000KT 9999 FEW080 17/16 Q1013=
201205250015 METAR LIRA 250015Z 06004KT CAVOK 17/16 Q1013=
201205242350 METAR LIRA 250045Z 00000KT 9999 FEW080 17/16 Q1013=
201205242345 METAR LIRA 242345Z 03004KT CAVOK 18/16 Q1014=
201205242315 METAR LIRA 242315Z 10001KT CAVOK 18/16 Q1014=
201205242245 METAR LIRA 242245Z 35002KT CAVOK 19/16 Q1014=
201205242215 METAR LIRA 242215Z 35002KT CAVOK 19/16 Q1014=
201205242145 METAR LIRA 242145Z 00000KT CAVOK 19/16 Q1014=
201205242115 METAR LIRA 242115Z 15002KT CAVOK 20/16 Q1014=
201205242045 METAR LIRA 242045Z 00000KT CAVOK 21/16 Q1014=
201205242015 METAR LIRA 242015Z 05002KT 9999 FEW080 21/16 Q1014=
201205241945 METAR LIRA 241945Z 17002KT 9999 FEW030 22/16 Q1013=
201205241915 METAR LIRA 241915Z 18003KT 9999 FEW030 23/17 Q1013=
201205241845 METAR LIRA 241845Z 18004KT 9999 FEW025 23/16 Q1013=
201205241815 METAR LIRA 241815Z 18005KT 9999 FEW025 SCT080 24/16 Q1013=
201205241745 METAR LIRA 241745Z 18006KT 9999 FEW025TCU 24/17 Q1013=
201205241715 METAR LIRA 241715Z 18006KT 9999 FEW025TCU SCT070 24/17 Q1013=
201205241645 METAR LIRA 241645Z 17007KT 9999 FEW025TCU SCT070 25/17 Q1013=
201205241615 METAR LIRA 241615Z 20006KT 9999 FEW025CB SCT060 25/17 Q1014=
201205241545 METAR LIRA 241545Z 22007KT 170V250 9999 FEW025CB SCT030 25/18
                        Q1014=
201205241515 METAR LIRA 241515Z 21007KT 160V280 9999 FEW025TCU SCT030
                        25/17 Q1014=
201205241445 METAR LIRA 241445Z 21007KT 170V260 9999 FEW025TCU SCT030
                        25/18 Q1014=
201205241415 METAR LIRA 241415Z 23011KT 190V250 9999 FEW025TCU SCT030
                        25/18 Q1014=
201205241345 METAR LIRA 241345Z 19008KT 160V220 9999 FEW025TCU SCT030
                        25/18 Q1014=
201205241315 METAR LIRA 241315Z 20010KT 180V240 9999 FEW025TCU SCT030
                        25/18 Q1014=
201205241245 METAR LIRA 241245Z 21007KT 170V240 9999 FEW025TCU SCT030
                        24/18 Q1014=
201205241115 METAR LIRA 241115Z 08005KT 9999 SCT030 27/14 Q1014=
201205241045 METAR LIRA 241045Z 09003KT 330V030 9999 SCT030 27/16 Q1014=
201205241015 METAR LIRA 241015Z 04006KT 300V070 9999 FEW030 SCT200 26/16
                        Q1014=
201205240945 METAR LIRA 240945Z 01004KT 350V080 9999 FEW030 25/16 Q1014=
201205240915 METAR LIRA 240915Z 02006KT 360V100 9999 FEW040 24/16 Q1014=
201205240845 METAR LIRA 240845Z 05008KT 010V110 9999 FEW040 24/17 Q1014=
201205240815 METAR LIRA 240815Z 05006KT 9999 FEW040 22/16 Q1014=
201205240745 METAR LIRA 240745Z 06008KT 360V080 9999 FEW040 21/17 Q1014=
201205240715 METAR LIRA 240715Z 05006KT 320V080 9999 FEW040 20/16 Q1014=
201205240645 METAR LIRA 240645Z 02005KT 350V070 9999 FEW040 18/15 Q1014=
201205240615 METAR LIRA 240615Z 36008KT 330V050 9999 FEW040 18/15 Q1013=
201205240545 METAR LIRA 240545Z 01005KT 9999 FEW040 17/15 Q1013=
201205240515 METAR LIRA 240515Z 04005KT 9999 FEW040 16/14 Q1013=
201205240445 METAR LIRA 240445Z 03003KT 9999 FEW040 15/14 Q1013=
201205240415 METAR LIRA 240415Z 10006KT 9999 FEW080 14/12 Q1013=
201205240345 METAR LIRA 240345Z 07003KT 9999 FEW080 14/12 Q1013=
201205240315 METAR LIRA 240315Z 07001KT 9999 FEW080 14/13 Q1013=
201205240245 METAR LIRA 240245Z 27001KT 9999 FEW080 14/13 Q1013=
201205240215 METAR LIRA 240215Z 25002KT 9999 FEW080 14/13 Q1013=
201205240145 METAR LIRA 240145Z 00000KT 9999 FEW080 15/13 Q1013=
201205240115 METAR LIRA 240115Z 04002KT 9999 FEW080 15/13 Q1013=
201205240045 METAR LIRA 240045Z 08001KT 9999 FEW080 15/14 Q1013=
201205240015 METAR LIRA 240015Z 00000KT 9999 FEW080 14/13 Q1014=
201205232350 METAR LIRA 240045Z 08001KT 9999 FEW080 15/14 Q1013=
201205232345 METAR LIRA 232345Z 08002KT 9999 FEW080 15/13 Q1014=
201205232315 METAR LIRA 232315Z 04002KT 9999 FEW080 15/14 Q1014=
201205232245 METAR LIRA 232245Z 00000KT 9999 FEW080 15/14 Q1014=
201205232215 METAR LIRA 232215Z 33001KT 9999 FEW080 16/14 Q1014=
201205232145 METAR LIRA 232145Z 04002KT 9999 FEW070 16/14 Q1014=
201205232115 METAR LIRA 232115Z 01003KT 9999 SCT080 16/14 Q1014=
201205232045 METAR LIRA 232045Z 04002KT 9999 SCT080 17/14 Q1014=
201205232015 METAR LIRA 232015Z 04002KT 9999 FEW080 17/15 Q1014=
201205231945 METAR LIRA 231945Z 35004KT 9999 FEW080 17/15 Q1014=
201205231915 METAR LIRA 231915Z 33003KT 9999 FEW080 18/14 Q1013=
201205231845 METAR LIRA 231845Z 33004KT 9999 FEW018 SCT080 18/14 Q1013=
201205231815 METAR LIRA 231815Z 34003KT 9999 FEW018 SCT080 19/14 Q1013=
201205231745 METAR LIRA 231745Z 32008KT 9999 FEW018 SCT080 20/15 Q1013=
201205231715 METAR LIRA 231715Z 33008KT 310V010 9999 FEW018 BKN080 20/14
                        Q1013=
201205231645 METAR LIRA 231645Z 34006KT 300V030 9999 FEW018 SCT080 21/14
                        Q1013=
201205231615 METAR LIRA 231615Z 33007KT 9999 SCT018 SCT080 21/14 Q1013=
201205231545 METAR LIRA 231545Z 33010KT 9999 SCT018 SCT080 21/13 Q1013=
201205231515 METAR LIRA 231515Z 34006KT 300V360 9999 FEW016 SCT018 21/13
                        Q1013=
201205231445 METAR LIRA 231445Z 36005KT 330V020 9999 FEW017TCU SCT080
                        21/13 Q1013=
201205231415 METAR LIRA 231415Z 25006KT 9999 FEW017CB SCT018 21/16 Q1012=
201205231345 METAR LIRA 231345Z 27006KT 9999 FEW017CB SCT018 20/16 Q1012=
201205231315 METAR LIRA 231315Z 27007KT 240V300 9999 FEW017CB SCT018 20/15
                        Q1012=
201205231245 METAR LIRA 231245Z 27008KT 230V340 9999 FEW017CB SCT018 20/15
                        Q1012=
201205231215 METAR LIRA 231215Z 29007KT 230V320 9999 SCT018 FEW020TCU
                        SCT080 21/14 Q1012=
201205231145 METAR LIRA 231145Z 33006KT 270V030 9999 SCT018 FEW020TCU
                        SCT080 21/12 Q1012=
201205231115 METAR LIRA 231115Z 33005KT 9999 SCT020 SCT080 21/14 Q1012=
201205231045 METAR LIRA 231045Z 07002KT 9999 FEW020 SCT070 20/13 Q1012=
201205231015 METAR LIRA 231015Z 30005KT 9999 FEW020 20/14 Q1012=
201205230945 METAR LIRA 230945Z 32004KT 9999 FEW020 18/12 Q1012=
201205230915 METAR LIRA 230915Z 29004KT 9999 FEW020 18/13 Q1012=
201205230845 METAR LIRA 230845Z 30003KT 9999 FEW020 18/13 Q1012=
201205230815 METAR LIRA 230815Z 34003KT 9999 FEW020 17/13 Q1012=
201205230745 METAR LIRA 230745Z 36003KT 9999 FEW020 16/13 Q1012=
201205230715 METAR LIRA 230715Z 02004KT 9999 FEW020 16/13 Q1012=
201205230645 METAR LIRA 230645Z 02003KT 9999 FEW020 15/13 Q1012=
201205230615 METAR LIRA 230615Z 36005KT 9000 NSC 14/13 Q1012=
201205230545 METAR LIRA 230545Z 04001KT 9000 NSC 13/12 Q1012=
201205230515 METAR LIRA 230515Z 03001KT 8000 FEW070 12/11 Q1012=
201205230445 METAR LIRA 230445Z 04001KT 8000 FEW008 11/11 Q1011=
201205230415 METAR LIRA 230415Z 04001KT 7000 MIFG FEW005 10/09 Q1011=
201205230345 METAR LIRA 230345Z 04002KT 6000 MIFG FEW007 10/09 Q1011=
201205230315 METAR LIRA 230315Z 36002KT 5000 MIFG SCT007 10/10 Q1011=
201205230245 METAR LIRA 230245Z 00000KT 8000 FEW080 10/10 Q1011=
201205230215 METAR LIRA 230215Z 00000KT CAVOK 11/10 Q1011=
201205230145 METAR LIRA 230145Z 03003KT 9999 FEW025 11/10 Q1011=
201205230115 METAR LIRA 230115Z 08001KT 9999 FEW025 11/10 Q1011=
201205230045 METAR LIRA 230045Z 00000KT 9999 FEW025 12/11 Q1011=
201205230015 METAR LIRA 230015Z 14002KT 9999 FEW025 12/11 Q1011=
201205222350 METAR LIRA 230045Z 00000KT 9999 FEW025 12/11 Q1011=
201205222345 METAR LIRA 222345Z 11001KT 9999 FEW015 12/11 Q1011=
201205222315 METAR LIRA 222315Z 09001KT 9999 FEW015 SCT025 12/11 Q1011=
201205222245 METAR LIRA 222245Z 10004KT 9999 FEW015 SCT025 12/11 Q1011=
201205222215 METAR LIRA 222215Z 11001KT 9999 FEW015 SCT025 12/11 Q1011=
201205222145 METAR LIRA 222145Z 10002KT 9999 FEW015 SCT025 13/12 Q1011=
201205222115 METAR LIRA 222115Z 10002KT 9999 FEW013 SCT025 14/13 Q1011=
201205222045 METAR LIRA 222045Z 15004KT 9999 -RA SCT013 FEW015CB BKN025
                        14/13 Q1010=
201205222015 METAR LIRA 222015Z 16003KT 9999 -RA SCT013 FEW015CB BKN023
                        15/13 Q1010=
201205221945 METAR LIRA 221945Z 21001KT 9999 SCT013 FEW015CB BKN023 15/13
                        Q1010=
201205221915 METAR LIRA 221915Z 23001KT 9999 SCT013 FEW015CB BKN022 15/13
                        Q1010=
201205221845 METAR LIRA 221845Z 19004KT 9999 FEW013 FEW015CB SCT022 15/13
                        Q1009=
201205221815 METAR LIRA 221815Z 19004KT 9999 FEW014 FEW015CB SCT022 15/13
                        Q1009=
201205221745 METAR LIRA 221745Z 16003KT 9999 FEW014 FEW015CB SCT022 15/13
                        Q1009=
201205221715 METAR LIRA 221715Z 19004KT 9999 SCT010 FEW015CB 16/14 Q1008=
201205221645 METAR LIRA 221645Z 00000KT 9999 SCT010 FEW015CB SCT080 16/14
                        Q1008=
201205221615 METAR LIRA 221615Z 20002KT 9999 SCT008 FEW015CB SCT025 16/14
                        Q1008=
201205221545 METAR LIRA 221545Z 19002KT 9999 SCT008 FEW015CB BKN022 15/13
                        Q1008=
201205221515 METAR LIRA 221515Z 09004KT 9999 -RA SCT008 FEW015CB BKN022
                        14/12 Q1008=
201205221445 METAR LIRA 221445Z 02005KT 310V040 9999 -RA SCT008 FEW015CB
                        BKN022 14/13 Q1008=
201205221415 METAR LIRA 221415Z 20005KT 170V230 9999 -RA SCT008 FEW015CB
                        BKN022 15/14 Q1008=
201205221345 METAR LIRA 221345Z 22005KT 190V250 8000 -RA SCT008 FEW015CB
                        BKN022 16/14 Q1007 RERA=
201205221315 METAR LIRA 221315Z 21008KT 190V260 9999 -RA SCT008 FEW015CB
                        BKN022 15/14 Q1007 RERA=
201205221245 METAR LIRA 221245Z 17005KT 9999 SHRA SCT008 FEW015CB BKN022
                        15/14 Q1007=
201205221215 METAR LIRA 221215Z 18006KT 140V220 9999 SCT008 FEW015CB BKN022
                        16/14 Q1007=
201205221145 METAR LIRA 221145Z 20008KT 180V250 9999 SCT008 FEW015CB BKN022
                        16/14 Q1007=
201205221115 METAR LIRA 221115Z 21006KT 180V260 9999 SCT008 FEW015CB BKN022
                        16/14 Q1007=
201205221045 METAR LIRA 221045Z 21008KT 160V260 9999 SCT008 FEW015CB BKN022
                        16/14 Q1007=
201205221015 METAR LIRA 221015Z 20007KT 170V250 9999 -RA SCT008 FEW015CB
                        BKN022 15/13 Q1007=
201205220945 METAR LIRA 220945Z 22009KT 170V270 9999 -RA SCT008 FEW015CB
                        BKN022 15/14 Q1007=
201205220915 METAR LIRA 220915Z 20008KT 170V230 9999 -RA SCT010 FEW015CB
                        BKN022 14/13 Q1007 RERA=
201205220845 METAR LIRA 220845Z 19004KT 6000 -RA SCT010 FEW015CB BKN022
                        13/12 Q1006 RERA=
201205220815 METAR LIRA 220815Z 17007KT 150V210 9999 SCT010 FEW015CB BKN022
                        15/14 Q1006 RERA=
201205220745 METAR LIRA 220745Z 17010KT 8000 -RA SCT007 FEW014TCU BKN022
                        14/13 Q1006 RERA=
201205220715 METAR LIRA 220715Z 16008KT 140V200 9999 SCT012 FEW015TCU
                        SCT022 14/13 Q1006=
201205220645 METAR LIRA 220645Z 17009KT 8000 -RA SCT008 FEW014TCU BKN022
                        14/13 Q1006=
201205220615 METAR LIRA 220615Z 17005KT 9999 SCT008 FEW014TCU BKN022 14/13
                        Q1006=
201205220545 METAR LIRA 220545Z 16005KT 8000 -RA SCT008 FEW014TCU BKN022
                        13/13 Q1006=
201205220515 METAR LIRA 220515Z 19006KT 6000 -RA SCT005 FEW014TCU BKN022
                        13/12 Q1006 RERA=
201205220445 METAR LIRA 220445Z 28004KT 6000 -RA SCT005 FEW014TCU BKN022
                        13/12 Q1006 RERA=
201205220415 METAR LIRA 220415Z 16005KT 9999 SCT014 FEW018TCU SCT025 13/12
                        Q1006=
201205220345 METAR LIRA 220345Z 20006KT 170V230 9999 SCT014 SCT025 13/12
                        Q1006=
201205220315 METAR LIRA 220315Z 19005KT 9999 SCT014 SCT025 13/12 Q1006=
201205220245 METAR LIRA 220245Z 17005KT 9999 FEW014 SCT025 13/12 Q1007=
201205220215 METAR LIRA 220215Z 18004KT 9999 FEW014 SCT025 13/12 Q1006=
201205220145 METAR LIRA 220145Z 19003KT 9999 -RA SCT014 SCT025 13/12 Q1006=
201205220115 METAR LIRA 220115Z 18005KT 8000 -RA SCT014 SCT025 13/12 Q1006=
201205220045 METAR LIRA 220045Z 15005KT 8000 -RA SCT018 SCT025 13/12 Q1006=
201205220015 METAR LIRA 220015Z 15006KT 8000 -RA SCT014 FEW018CB BKN030
                        13/12 Q1006=
201205212350 METAR LIRA 220045Z 15005KT 8000 -RA SCT018 SCT025 13/12 Q1006=
201205212345 METAR LIRA 212345Z 14005KT 9999 -RA SCT014 FEW018CB BKN030
                        12/11 Q1007 RETS=
201205212315 METAR LIRA 212315Z 09002KT 9000 -RA SCT015 FEW018CB SCT030
                        12/11 Q1006 RETS=
201205212245 METAR LIRA 212245Z 31003KT 7000 -TSRA SCT014 FEW018CB BKN030
                        13/11 Q1007=
201205212215 METAR LIRA 212215Z 09006KT 9999 -TSRA SCT014 FEW018CB BKN030
                        12/11 Q1006=
201205212145 METAR LIRA 212145Z 06004KT 9999 -TSRA SCT014 FEW018CB BKN030
                        12/11 Q1007=
201205212115 METAR LIRA 212115Z 11004KT 9999 -TSRA SCT014 FEW018CB BKN030
                        12/11 Q1007=
201205212045 METAR LIRA 212045Z 11005KT 9999 -TSRA SCT015 SCT018CB 12/11
                        Q1007=
201205212015 METAR LIRA 212015Z 11004KT 9999 -TSRA SCT015 BKN018CB 12/11
                        Q1007=
201205211945 METAR LIRA 211945Z 17005G20KT 140V210 3000 TSRA BR SCT015
                        BKN018CB 12/11 Q1007=
201205211915 METAR LIRA 211915Z 20012G23KT 9999 -TSRA FEW015 SCT018CB
                        16/13 Q1006=
201205211845 METAR LIRA 211845Z 21001KT 9999 TS FEW015 SCT017CB 16/13
                        Q1006=
201205211815 METAR LIRA 211815Z 24003KT 9999 FEW017 FEW018CB SCT030 17/13
                        Q1006=
201205211745 METAR LIRA 211745Z 21005KT 9999 FEW018 SCT030 18/12 Q1006=
201205211715 METAR LIRA 211715Z 20007KT 170V240 9999 FEW018 SCT030 18/10
                        Q1006=
201205211645 METAR LIRA 211645Z 20007KT 9999 FEW018 SCT030 19/10 Q1006=
201205211615 METAR LIRA 211615Z 22008KT 180V260 9999 FEW018 SCT030 19/08
                        Q1005=
201205211545 METAR LIRA 211545Z 23008KT 200V270 9999 FEW018 SCT030 19/10
                        Q1005=
201205211515 METAR LIRA 211515Z 21007KT 160V240 9999 FEW018 SCT030 19/10
                        Q1005=
201205211445 METAR LIRA 211445Z 23007KT 180V300 9999 FEW018 SCT025 20/09
                        Q1005=
201205211415 METAR LIRA 211415Z 19008KT 170V230 9999 FEW018 SCT025 20/10
                        Q1005=
201205211345 METAR LIRA 211345Z 21007KT 170V260 9999 FEW018 BKN025 20/11
                        Q1005=
201205211315 METAR LIRA 211315Z 23008KT 9999 FEW018 BKN025 19/10 Q1005=
201205211215 METAR LIRA 211215Z 23006KT 9999 FEW018 BKN025 19/13 Q1005=
201205211145 METAR LIRA 211145Z 23009KT 200V260 9999 FEW018 BKN025 19/13
                        Q1005=
201205211115 METAR LIRA 211115Z 23009KT 9999 FEW015 BKN023 18/13 Q1005=
201205211045 METAR LIRA 211045Z 23007KT 200V290 9999 FEW015 BKN025 18/14
                        Q1005=
201205211015 METAR LIRA 211015Z 22006KT 190V270 9999 FEW015 BKN025 18/16
                        Q1005=
201205210945 METAR LIRA 210945Z 21007KT 160V250 9999 FEW015 BKN025 17/15
                        Q1004=
201205210915 METAR LIRA 210915Z 24007KT 9999 FEW015 BKN025 17/15 Q1004=
201205210845 METAR LIRA 210845Z 21004KT 9999 SCT015 BKN025 16/15 Q1004=
201205210815 METAR LIRA 210815Z 19003KT 9000 -RA SCT015 BKN027 15/14 Q1003=
201205210745 METAR LIRA 210745Z 23002KT 6000 -RA SCT014 BKN025 14/13 Q1003=
201205210715 METAR LIRA 210715Z 27006KT 240V320 3000 -RA BR SCT013 BKN033
                        15/14 Q1002=
201205210645 METAR LIRA 210645Z 27004KT 3000 -RA BR SCT013 BKN022 16/15
                        Q1002=
201205210615 METAR LIRA 210615Z 20003KT 3000 -RA BR SCT013 BKN022 16/15
                        Q1002=
201205210545 METAR LIRA 210545Z 18008KT 8000 -RA FEW015 BKN023 16/15 Q1002=
201205210515 METAR LIRA 210515Z 17008KT 7000 -RA FEW015 SCT027 BKN070
                        16/15 Q1002=
201205210445 METAR LIRA 210445Z 16012KT 9999 SCT027 BKN070 17/13 Q1002=
201205210415 METAR LIRA 210415Z 28005KT 9999 SCT030 BKN070 17/15 Q1002=
201205210345 METAR LIRA 210345Z 18007G17KT 140V220 9999 SCT030 BKN070
                        18/10 Q1001=
201205210315 METAR LIRA 210315Z 11009KT 9999 SCT040 SCT070 17/13 Q1001=
201205210245 METAR LIRA 210245Z 10010KT 9999 -RA FEW020 SCT040 BKN070
                        16/14 Q1001=
201205210215 METAR LIRA 210215Z 15004KT 9999 -RA FEW020 SCT040 BKN070
                        15/13 Q1004=
201205210145 METAR LIRA 210145Z 12003KT 9999 -RA SCT040 BKN070 15/14 Q1004=
201205210115 METAR LIRA 210115Z 22003KT 9999 -RA SCT040 BKN060 15/14 Q1005=
201205210045 METAR LIRA 210045Z 24003KT 9999 -RA SCT040 BKN060 15/14 Q1005=
201205210015 METAR LIRA 210015Z 22006KT 160V250 9999 -RA SCT030 BKN060
                        16/15 Q1005=
201205202350 METAR LIRA 210045Z 24003KT 9999 -RA SCT040 BKN060 15/14 Q1005=
201205202345 METAR LIRA 202345Z 16002KT 9999 FEW040 BKN080 16/15 Q1005=
201205202315 METAR LIRA 202315Z 11003KT 9999 -RA FEW040 BKN080 16/15 Q1005=
201205202245 METAR LIRA 202245Z 31001KT 9999 -RA FEW030 BKN060 16/15 Q1005=
201205202215 METAR LIRA 202215Z 35003KT 9999 -RA FEW030 BKN060 16/15 Q1005=
201205202145 METAR LIRA 202145Z 33004KT 280V060 9999 -RA BKN060 SCT080
                        16/15 Q1005=
201205202115 METAR LIRA 202115Z 05006KT 9999 BKN070 16/15 Q1005=
201205202045 METAR LIRA 202045Z 00000KT 9999 BKN070 16/15 Q1006=
201205202015 METAR LIRA 202015Z 00000KT 9999 BKN070 16/15 Q1006=
201205201945 METAR LIRA 201945Z 08002KT 9999 -RA FEW040 SCT060 15/14 Q1006=
201205201915 METAR LIRA 201915Z 16003KT 9999 -RA SCT040 BKN060 16/15 Q1007=
201205201845 METAR LIRA 201845Z 31002KT 9999 -RA SCT040 BKN060 17/15 Q1007=
201205201815 METAR LIRA 201815Z 31002KT 9999 -RA SCT040 BKN060 17/15 Q1007=
201205201745 METAR LIRA 201745Z 36006KT 340V050 9999 -RA SCT040 BKN060
                        17/15 Q1007=
201205201715 METAR LIRA 201715Z 01007KT 9999 -RA FEW030 BKN060 17/15 Q1006=
201205201645 METAR LIRA 201645Z 02006KT 340V070 9999 -RA FEW030 BKN060
                        16/14 Q1006=
201205201615 METAR LIRA 201615Z 03009KT 9999 -RA FEW030 BKN060 16/14 Q1008=
201205201545 METAR LIRA 201545Z 07009KT 9999 -RA FEW030 BKN060 16/14 Q1007=
201205201515 METAR LIRA 201515Z 07008KT 9999 -RA FEW030 BKN060 17/13 Q1009=
201205201445 METAR LIRA 201445Z 14004KT 9999 -RA FEW030 SCT060 19/14 Q1010=
201205201415 METAR LIRA 201415Z 18004KT 9999 -RA FEW030 SCT060 BKN200
                        19/11 Q1012=
201205201345 METAR LIRA 201345Z 19007KT 9999 -RA FEW030 SCT060 19/11 Q1012=
201205201315 METAR LIRA 201315Z 19010KT 9999 -RA FEW030 BKN060 19/10 Q1012=
201205201245 METAR LIRA 201245Z 18010KT 9999 FEW040 SCT060 21/07 Q1012=
201205201215 METAR LIRA 201215Z 18011KT 9999 SCT060 22/08 Q1012=
201205201145 METAR LIRA 201145Z 18011KT 9999 SCT060 22/13 Q1012=
201205201115 METAR LIRA 201115Z 19009KT 160V230 9999 SCT060 22/13 Q1012=
201205201045 METAR LIRA 201045Z 34003KT 9999 FEW080 22/13 Q1012=
201205201015 METAR LIRA 201015Z 35001KT 9999 FEW040 21/13 Q1012=
201205200945 METAR LIRA 200945Z 03003KT 9999 FEW030 21/14 Q1012=
201205200915 METAR LIRA 200915Z 02003KT 9999 FEW030 SCT070 20/13 Q1013=
201205200845 METAR LIRA 200845Z 02003KT 9999 FEW030 SCT060 20/13 Q1013=
201205200815 METAR LIRA 200815Z 35001KT 9999 FEW030 SCT060 20/13 Q1013=
201205200745 METAR LIRA 200745Z 34002KT 9999 FEW030 SCT060 19/13 Q1013=
201205200715 METAR LIRA 200715Z 34002KT 9999 FEW030 17/13 Q1013=
201205200645 METAR LIRA 200645Z 03002KT 9999 FEW030 17/13 Q1013=
201205200615 METAR LIRA 200615Z 07005KT 9999 FEW030 SCT060 16/13 Q1013=
201205200545 METAR LIRA 200545Z 02002KT 9999 FEW030 BKN060 15/13 Q1013=
201205200515 METAR LIRA 200515Z 36002KT 9999 FEW030 SCT060 15/12 Q1013=
201205200445 METAR LIRA 200445Z 00000KT 9999 FEW030 SCT060 14/11 Q1013=
201205200415 METAR LIRA 200415Z 14001KT 9999 FEW060 13/11 Q1012=
201205200345 METAR LIRA 200345Z 17001KT 9999 FEW060 13/11 Q1013=
201205200315 METAR LIRA 200315Z 00000KT 9999 FEW060 13/12 Q1013=
201205200245 METAR LIRA 200245Z 27002KT CAVOK 14/12 Q1013=
201205200215 METAR LIRA 200215Z 06002KT 9999 FEW080 14/12 Q1013=
201205200145 METAR LIRA 200145Z 01001KT 9999 FEW070 15/12 Q1013=
201205200115 METAR LIRA 200115Z 07002KT 9999 FEW025 15/12 Q1013=
201205200045 METAR LIRA 200045Z 06002KT 9999 FEW030 15/12 Q1014=
201205200015 METAR LIRA 200015Z 05004KT 9999 SCT070 15/12 Q1014=
201205192350 METAR LIRA 200045Z 06002KT 9999 FEW030 15/12 Q1014=
201205192345 METAR LIRA 192345Z 00000KT 9999 SCT070 16/13 Q1014=
201205192315 METAR LIRA 192315Z 02003KT 9999 SCT070 16/13 Q1014=
201205192245 METAR LIRA 192245Z 05004KT 9999 FEW030 SCT070 16/13 Q1014=
201205192215 METAR LIRA 192215Z 07004KT 9999 SCT070 15/12 Q1015=
201205192145 METAR LIRA 192145Z 07003KT 9999 SCT070 15/12 Q1015=
201205192115 METAR LIRA 192115Z 00000KT 9999 FEW070 15/12 Q1015=
201205192045 METAR LIRA 192045Z 00000KT 9999 FEW070 16/12 Q1015=
201205192015 METAR LIRA 192015Z 00000KT 9999 FEW070 16/12 Q1015=
201205191945 METAR LIRA 191945Z 19001KT 9999 SCT070 17/12 Q1015=
201205191915 METAR LIRA 191915Z 19003KT 9999 SCT070 17/12 Q1015=
201205191845 METAR LIRA 191845Z 22003KT 9999 FEW070 17/12 Q1014=
201205191815 METAR LIRA 191815Z 24005KT 9999 FEW030 SCT070 18/13 Q1014=
201205191745 METAR LIRA 191745Z 23005KT 9999 SCT070 19/13 Q1014=
201205191715 METAR LIRA 191715Z 24006KT 9999 SCT070 18/12 Q1014=
201205191645 METAR LIRA 191645Z 23007KT 200V260 9999 SCT070 19/11 Q1014=
201205191615 METAR LIRA 191615Z 22007KT 190V260 9999 FEW070 21/10 Q1014=
201205191545 METAR LIRA 191545Z 20009KT 9999 FEW070 21/09 Q1014=
201205191515 METAR LIRA 191515Z 20009KT 9999 FEW070 22/09 Q1014=
201205191445 METAR LIRA 191445Z 21008KT 160V250 9999 FEW080 23/07 Q1014=
201205191415 METAR LIRA 191415Z 23009KT 170V240 CAVOK 24/08 Q1015=
201205191345 METAR LIRA 191345Z 28003KT 210V320 CAVOK 24/08 Q1015=
201205191315 METAR LIRA 191315Z 29007KT 240V320 CAVOK 24/08 Q1015=
201205191245 METAR LIRA 191245Z 24009KT 220V300 CAVOK 24/08 Q1015=
201205191215 METAR LIRA 191215Z 20004KT 160V250 CAVOK 24/09 Q1015=
201205191145 METAR LIRA 191145Z 25006KT 160V320 CAVOK 23/09 Q1015=
201205191115 METAR LIRA 191115Z 25007KT 180V270 CAVOK 22/08 Q1015=
201205191045 METAR LIRA 191045Z 23007KT 180V280 CAVOK 23/09 Q1015=
201205191015 METAR LIRA 191015Z 21006KT 150V250 CAVOK 23/10 Q1015=
201205190945 METAR LIRA 190945Z 27004KT CAVOK 23/10 Q1015=
201205190915 METAR LIRA 190915Z 27002KT CAVOK 21/10 Q1015=
201205190845 METAR LIRA 190845Z 00000KT CAVOK 21/10 Q1015=
201205190815 METAR LIRA 190815Z 00000KT CAVOK 20/10 Q1015=
201205190745 METAR LIRA 190745Z 06003KT CAVOK 20/11 Q1016=
201205190715 METAR LIRA 190715Z 04003KT CAVOK 18/11 Q1016=
201205190645 METAR LIRA 190645Z 04003KT CAVOK 16/11 Q1016=
201205190615 METAR LIRA 190615Z 06002KT CAVOK 15/11 Q1016=
201205190545 METAR LIRA 190545Z 36001KT CAVOK 13/11 Q1016=
201205190515 METAR LIRA 190515Z 00000KT CAVOK 12/11 Q1016=
201205190445 METAR LIRA 190445Z 01001KT CAVOK 11/10 Q1015=
201205190415 METAR LIRA 190415Z 02001KT CAVOK 11/10 Q1015=
201205190345 METAR LIRA 190345Z 03001KT CAVOK 11/10 Q1014=
201205190315 METAR LIRA 190315Z 02001KT CAVOK 11/10 Q1014=
201205190245 METAR LIRA 190245Z 04003KT CAVOK 11/10 Q1015=
201205190215 METAR LIRA 190215Z 01002KT CAVOK 12/10 Q1015=
201205190145 METAR LIRA 190145Z 06001KT CAVOK 12/10 Q1015=
201205190115 METAR LIRA 190115Z 05002KT CAVOK 12/10 Q1015=
201205190045 METAR LIRA 190045Z 00000KT 9999 FEW080 12/10 Q1016=
201205190015 METAR LIRA 190015Z 04001KT 9999 FEW080 13/11 Q1016=
201205182350 METAR LIRA 190045Z 00000KT 9999 FEW080 12/10 Q1016=
201205182345 METAR LIRA 182345Z 05001KT 9999 FEW080 13/11 Q1016=
201205182315 METAR LIRA 182315Z 07002KT 9999 FEW080 13/11 Q1016=
201205182245 METAR LIRA 182245Z 23001KT 9999 FEW080 13/12 Q1016=
201205182215 METAR LIRA 182215Z 08001KT 9999 FEW080 14/12 Q1016=
201205182145 METAR LIRA 182145Z 00000KT 9999 SCT080 14/13 Q1016=
201205182115 METAR LIRA 182115Z 25001KT 9999 SCT080 15/13 Q1016=
201205182045 METAR LIRA 182045Z 25002KT 9999 SCT080 15/13 Q1016=
201205182015 METAR LIRA 182015Z 20003KT 9999 SCT080 16/13 Q1015=
201205181945 METAR LIRA 181945Z 19003KT 9999 SCT080 16/13 Q1015=
201205181915 METAR LIRA 181915Z 22003KT 9999 FEW080 16/13 Q1015=
201205181845 METAR LIRA 181845Z 22003KT 9999 FEW080 16/12 Q1015=
201205181815 METAR LIRA 181815Z 20004KT 9999 FEW080 17/12 Q1015=
201205181745 METAR LIRA 181745Z 23003KT 9999 FEW080 18/10 Q1015=
201205181715 METAR LIRA 181715Z 22004KT 9999 FEW080 18/10 Q1015=
201205181645 METAR LIRA 181645Z 23004KT 9999 FEW080 19/10 Q1015=
201205181615 METAR LIRA 181615Z 23003KT 180V280 9999 FEW080 18/11 Q1015=
201205181545 METAR LIRA 181545Z 23006KT 200V260 CAVOK 19/11 Q1015=
201205181515 METAR LIRA 181515Z 22006KT 170V270 CAVOK 19/10 Q1015=
201205181445 METAR LIRA 181445Z 24008KT CAVOK 19/10 Q1015=
201205181415 METAR LIRA 181415Z 24009KT CAVOK 20/08 Q1016=
201205181345 METAR LIRA 181345Z 22007KT 160V260 CAVOK 21/06 Q1016=
201205181315 METAR LIRA 181315Z 23007KT 200V280 CAVOK 21/06 Q1016=
201205181245 METAR LIRA 181245Z 21007KT 160V280 CAVOK 20/06 Q1015=
201205181215 METAR LIRA 181215Z 20009KT 170V240 CAVOK 19/07 Q1015=
201205181145 METAR LIRA 181145Z 24008KT 210V290 CAVOK 20/06 Q1015=
201205181115 METAR LIRA 181115Z 29004KT CAVOK 21/04 Q1015=
201205181045 METAR LIRA 181045Z 27002KT CAVOK 21/04 Q1015=
201205181015 METAR LIRA 181015Z 13003KT CAVOK 20/05 Q1015=
201205180945 METAR LIRA 180945Z 26004KT 270V330 CAVOK 19/04 Q1016=
201205180915 METAR LIRA 180915Z 29003KT CAVOK 19/05 Q1016=
201205180845 METAR LIRA 180845Z 26003KT CAVOK 19/07 Q1016=
201205180815 METAR LIRA 180815Z 26002KT CAVOK 17/06 Q1017=
201205180745 METAR LIRA 180745Z 01003KT CAVOK 16/06 Q1017=
201205180715 METAR LIRA 180715Z 35003KT CAVOK 15/05 Q1017=
201205180645 METAR LIRA 180645Z 03003KT CAVOK 14/06 Q1016=
201205180615 METAR LIRA 180615Z 01004KT CAVOK 13/05 Q1016=
201205180545 METAR LIRA 180545Z 03003KT CAVOK 12/06 Q1016=
201205180515 METAR LIRA 180515Z 05003KT CAVOK 10/06 Q1015=
201205180445 METAR LIRA 180445Z 05002KT CAVOK 09/05 Q1015=
201205180415 METAR LIRA 180415Z 02001KT CAVOK 09/05 Q1015=
201205180345 METAR LIRA 180345Z 05002KT CAVOK 09/04 Q1015=
201205180315 METAR LIRA 180315Z 06003KT CAVOK 09/04 Q1015=
201205180245 METAR LIRA 180245Z 04002KT CAVOK 09/04 Q1015=
201205180215 METAR LIRA 180215Z 00000KT CAVOK 09/04 Q1016=
201205180145 METAR LIRA 180145Z 31001KT CAVOK 10/04 Q1016=
201205180115 METAR LIRA 180115Z 07004KT CAVOK 10/04 Q1016=
201205180045 METAR LIRA 180045Z 05004KT CAVOK 10/04 Q1016=
201205180015 METAR LIRA 180015Z 05003KT CAVOK 11/05 Q1016=
201205172350 METAR LIRA 180045Z 05004KT CAVOK 10/04 Q1016=
201205172345 METAR LIRA 172345Z 03003KT CAVOK 11/04 Q1016=
201205172315 METAR LIRA 172315Z 03003KT CAVOK 11/04 Q1016=
201205172245 METAR LIRA 172245Z 36002KT CAVOK 12/05 Q1016=
201205172215 METAR LIRA 172215Z 25001KT CAVOK 12/06 Q1016=
201205172145 METAR LIRA 172145Z 14001KT CAVOK 13/05 Q1015=
201205172115 METAR LIRA 172115Z 11001KT CAVOK 13/06 Q1015=
201205171215 METAR LIRA 171215Z 34011KT 280V020 9999 FEW015 21/02 Q1015=
201205171145 METAR LIRA 171145Z 36011G23KT 300V050 9999 FEW015 20/02 Q1015=
201205171115 METAR LIRA 171115Z 32011KT 270V360 9999 FEW015 20/03 Q1015=
201205171045 METAR LIRA 171045Z 33012G25KT 290V030 9999 FEW015 20/03 Q1015=
201205171015 METAR LIRA 171015Z 34013KT 300V020 CAVOK 18/02 Q1015=
201205170945 METAR LIRA 170945Z 34015G28KT 300V020 CAVOK 18/03 Q1015=
201205170915 METAR LIRA 170915Z 33015KT CAVOK 18/03 Q1015=
201205170845 METAR LIRA 170845Z 33015KT 300V030 CAVOK 17/04 Q1015=
201205170815 METAR LIRA 170815Z 34015KT CAVOK 16/05 Q1015=
201205170745 METAR LIRA 170745Z 34013KT CAVOK 15/06 Q1015=
201205170715 METAR LIRA 170715Z 35009KT 310V060 CAVOK 14/06 Q1015=
201205170645 METAR LIRA 170645Z 35011KT 280V020 CAVOK 12/05 Q1015=
201205170615 METAR LIRA 170615Z 36009KT CAVOK 11/05 Q1014=
201205170545 METAR LIRA 170545Z 36008KT CAVOK 10/05 Q1014=
201205170515 METAR LIRA 170515Z 02005KT 360V060 CAVOK 09/05 Q1014=
201205170445 METAR LIRA 170445Z 03005KT 320V050 CAVOK 08/04 Q1014=
201205170415 METAR LIRA 170415Z 02004KT CAVOK 07/04 Q1014=
201205170345 METAR LIRA 170345Z 04003KT CAVOK 07/03 Q1014=
201205170315 METAR LIRA 170315Z 06003KT CAVOK 07/02 Q1014=
201205170245 METAR LIRA 170245Z 35005KT CAVOK 09/04 Q1014=
201205170215 METAR LIRA 170215Z 35006KT CAVOK 09/04 Q1014=
201205170145 METAR LIRA 170145Z 34006KT CAVOK 09/04 Q1014=
201205170115 METAR LIRA 170115Z 34006KT CAVOK 10/04 Q1014=
201205170045 METAR LIRA 170045Z 33009KT CAVOK 10/03 Q1014=
201205170015 METAR LIRA 170015Z 34007KT CAVOK 10/03 Q1014=
201205162350 METAR LIRA 170045Z 33009KT CAVOK 10/03 Q1014=
201205162345 METAR LIRA 162345Z 35009KT 300V010 CAVOK 10/03 Q1014=
201205162315 METAR LIRA 162315Z 36008KT 320V020 CAVOK 11/03 Q1014=
201205162245 METAR LIRA 162245Z 36011KT 330V060 CAVOK 12/03 Q1014=
201205162215 METAR LIRA 162215Z 35009KT 320V030 CAVOK 12/03 Q1014=
201205162145 METAR LIRA 162145Z 36011KT 320V030 CAVOK 12/02 Q1013=
201205162115 METAR LIRA 162115Z 34012KT CAVOK 13/02 Q1013=
201205162045 METAR LIRA 162045Z 35011KT 300V020 CAVOK 14/01 Q1013=
201205162015 METAR LIRA 162015Z 34011KT 300V010 CAVOK 14/M00 Q1012=
201205161945 METAR LIRA 161945Z 34011KT 9999 FEW070 15/M00 Q1012=
201205161915 METAR LIRA 161915Z 35010KT 9999 FEW020 15/M01 Q1011=
201205161845 METAR LIRA 161845Z 34011KT 310V010 9999 FEW070 16/00 Q1011=
201205161815 METAR LIRA 161815Z 34015G26KT 320V030 9999 FEW070 17/03 Q1011=
201205161745 METAR LIRA 161745Z 34015G25KT 9999 FEW015 17/03 Q1010=
201205161715 METAR LIRA 161715Z 36014G25KT 320V040 9999 FEW015 SCT030
                        17/08 Q1010=
201205161645 METAR LIRA 161645Z 36015G26KT 320V030 9999 SCT015 FEW020TCU
                        SCT030 17/09 Q1010=
201205161615 METAR LIRA 161615Z 31016G27KT 310V020 9999 FEW015 FEW020TCU
                        SCT030 17/10 Q1010=
201205161545 METAR LIRA 161545Z 36011KT 300V060 9999 FEW015 FEW017TCU
                        SCT025 19/12 Q1009=
201205161515 METAR LIRA 161515Z 01008G20KT 300V060 9999 FEW015 FEW017TCU
                        SCT025 19/11 Q1008=
201205161445 METAR LIRA 161445Z 29012KT 9999 FEW018TCU SCT025 21/07 Q1009=
201205161415 METAR LIRA 161415Z 28014G24KT 9999 FEW018TCU SCT030 21/09
                        Q1008=
201205161345 METAR LIRA 161345Z 27011KT 240V320 9999 FEW018TCU SCT030
                        21/11 Q1009=
201205161315 METAR LIRA 161315Z 28010KT 230V310 9999 FEW018 FEW020TCU
                        20/10 Q1009=
201205161245 METAR LIRA 161245Z 28011KT 240V310 9999 FEW018 21/10 Q1009=
201205161215 METAR LIRA 161215Z 28014KT 240V310 9999 SCT018 21/10 Q1009=
201205161145 METAR LIRA 161145Z 28013KT 240V310 9999 FEW018 BKN030 20/12
                        Q1009=
201205161115 METAR LIRA 161115Z 28012KT 230V310 9999 FEW018 BKN030 20/11
                        Q1008=
201205161045 METAR LIRA 161045Z 30006KT 270V330 9999 FEW018 BKN030 21/10
                        Q1008=
201205161015 METAR LIRA 161015Z 32003KT 9999 FEW018 SCT030 22/10 Q1008=
201205161000 LIRA INTER CB ALL QUADS=
201205160945 METAR LIRA 160945Z 31005KT 280V350 9999 FEW018 SCT030 21/10
                        Q1008=
201205160915 METAR LIRA 160915Z 33006KT 240V080 9999 FEW018 SCT030 19/11
                        Q1008=
201205160845 METAR LIRA 160845Z 33003KT 9999 SCT018 19/11 Q1008=
201205160815 METAR LIRA 160815Z 22004KT 150V210 9999 SCT018 19/11 Q1008=
201205160745 METAR LIRA 160745Z 12006KT 9999 SCT018 19/12 Q1008=
201205160715 METAR LIRA 160715Z 11005KT 080V140 9999 SCT018 18/13 Q1008=
201205160645 METAR LIRA 160645Z 14007KT 9999 FEW017 17/13 Q1008=
201205160615 METAR LIRA 160615Z 13009KT 9999 FEW017 17/14 Q1007=
201205160545 METAR LIRA 160545Z 13007KT 100V160 9999 FEW017 16/13 Q1007=
201205160515 METAR LIRA 160515Z 13008KT 9999 FEW015 SCT030 15/13 Q1007=
201205160445 METAR LIRA 160445Z 12006KT 9999 FEW015 SCT030 15/13 Q1007=
201205160415 METAR LIRA 160415Z 12007KT 9999 FEW017 13/12 Q1007=
201205160345 METAR LIRA 160345Z 14006KT 9999 FEW017 13/12 Q1008=
201205160315 METAR LIRA 160315Z 14007KT 9999 FEW030 13/12 Q1008=
201205160245 METAR LIRA 160245Z 14008KT 9999 FEW020 14/12 Q1008=
201205160215 METAR LIRA 160215Z 17008KT 9999 FEW020 15/12 Q1008=
201205160145 METAR LIRA 160145Z 17006KT 9999 SCT020 15/13 Q1008=
201205160115 METAR LIRA 160115Z 18005KT 9999 SCT020 15/13 Q1008=
201205160045 METAR LIRA 160045Z 14005KT 9999 SCT020 15/13 Q1009=
201205160015 METAR LIRA 160015Z 17004KT 9999 FEW020 SCT070 15/12 Q1009=
201205152350 METAR LIRA 160045Z 14005KT 9999 SCT020 15/13 Q1009=
201205152345 METAR LIRA 152345Z 19007KT 160V230 9999 FEW020 SCT070 15/12
                        Q1010=
201205152315 METAR LIRA 152315Z 15007KT 9999 FEW020 SCT070 15/12 Q1010=
201205152245 METAR LIRA 152245Z 16006KT 9999 FEW020 SCT070 14/12 Q1010=
201205152215 METAR LIRA 152215Z 15006KT 9999 SCT080 13/11 Q1011=
201205152145 METAR LIRA 152145Z 14007KT CAVOK 13/11 Q1011=
201205152115 METAR LIRA 152115Z 15006KT CAVOK 13/10 Q1011=
201205152045 METAR LIRA 152045Z 16005KT CAVOK 15/11 Q1011=
201205152015 METAR LIRA 152015Z 17004KT CAVOK 15/11 Q1011=
201205151945 METAR LIRA 151945Z 17005KT CAVOK 15/11 Q1011=
201205151915 METAR LIRA 151915Z 17005KT CAVOK 15/11 Q1011=
201205151845 METAR LIRA 151845Z 20003KT CAVOK 16/11 Q1011=
201205151815 METAR LIRA 151815Z 25003KT CAVOK 17/11 Q1011=
201205151745 METAR LIRA 151745Z 26006KT 230V320 CAVOK 17/11 Q1011=
201205151715 METAR LIRA 151715Z 26007KT 230V290 CAVOK 17/09 Q1011=
201205151645 METAR LIRA 151645Z 29009G20KT 250V310 CAVOK 19/07 Q1011=
201205151615 METAR LIRA 151615Z 27012KT 9999 FEW020 19/03 Q1010=
201205151545 METAR LIRA 151545Z 27012G22KT 180V320 9999 FEW020 19/02 Q1010=
201205151515 METAR LIRA 151515Z 28011KT 240V300 9999 FEW020 20/03 Q1010=
201205151445 METAR LIRA 151445Z 29014KT 260V320 9999 FEW020 20/05 Q1010=
201205151415 METAR LIRA 151415Z 28012KT 240V300 9999 FEW020 20/06 Q1010=
201205151345 METAR LIRA 151345Z 28011KT 240V320 9999 FEW020 20/08 Q1011=
201205151315 METAR LIRA 151315Z 26010KT 210V320 9999 FEW020 20/08 Q1011=
201205151245 METAR LIRA 151245Z 26011KT 220V300 9999 FEW020 20/07 Q1011=
201205151215 METAR LIRA 151215Z 29012KT 250V320 9999 FEW025 20/06 Q1011=
201205151145 METAR LIRA 151145Z 26012G22KT 240V310 9999 FEW025 21/06 Q1011=
201205151115 METAR LIRA 151115Z 32010KT 290V010 9999 FEW025 20/05 Q1011=
201205151045 METAR LIRA 151045Z 35010KT 300V040 CAVOK 20/04 Q1011=
201205151015 METAR LIRA 151015Z 33012KT 290V360 CAVOK 19/04 Q1011=
201205150945 METAR LIRA 150945Z 33014KT 340V010 CAVOK 18/04 Q1011=
201205150915 METAR LIRA 150915Z 32011G21KT 270V350 CAVOK 18/06 Q1011=
201205150845 METAR LIRA 150845Z 35007KT 300V020 CAVOK 17/06 Q1011=
201205150815 METAR LIRA 150815Z 33007KT CAVOK 16/07 Q1011=
201205150745 METAR LIRA 150745Z 36005KT 310V040 CAVOK 15/06 Q1011=
201205150715 METAR LIRA 150715Z 34009KT 310V050 CAVOK 13/06 Q1011=
201205150645 METAR LIRA 150645Z 35008KT 310V040 CAVOK 13/07 Q1011=
201205150615 METAR LIRA 150615Z 36005KT 310V040 CAVOK 12/07 Q1011=
201205150545 METAR LIRA 150545Z 02004KT 9999 FEW080 11/07 Q1011=
201205150515 METAR LIRA 150515Z 02001KT 9999 FEW080 10/07 Q1011=
201205150445 METAR LIRA 150445Z 09003KT 9999 FEW080 09/06 Q1011=
201205150415 METAR LIRA 150415Z 06004KT 9999 FEW080 09/06 Q1011=
201205150345 METAR LIRA 150345Z 04003KT 9999 FEW080 09/06 Q1010=
201205150315 METAR LIRA 150315Z 04005KT 360V060 CAVOK 09/06 Q1010=
201205150245 METAR LIRA 150245Z 03004KT CAVOK 09/05 Q1010=
201205150215 METAR LIRA 150215Z 03003KT CAVOK 09/05 Q1010=
201205150145 METAR LIRA 150145Z 01004KT CAVOK 10/06 Q1010=
201205150115 METAR LIRA 150115Z 01004KT CAVOK 10/05 Q1010=
201205150045 METAR LIRA 150045Z 03004KT 360V070 CAVOK 10/05 Q1010=
201205150015 METAR LIRA 150015Z 03005KT 360V060 CAVOK 10/05 Q1010=
201205142350 METAR LIRA 150045Z 03004KT 360V070 CAVOK 10/05 Q1010=
201205142345 METAR LIRA 142345Z 36009KT CAVOK 11/05 Q1010=
201205142315 METAR LIRA 142315Z 35008KT 330V040 CAVOK 11/04 Q1010=
201205142245 METAR LIRA 142245Z 35007KT CAVOK 11/04 Q1010=
201205142215 METAR LIRA 142215Z 35010KT 330V030 CAVOK 11/04 Q1010=
201205142145 METAR LIRA 142145Z 35006KT 320V020 CAVOK 12/04 Q1010=
201205142115 METAR LIRA 142115Z 35006KT 310V020 CAVOK 12/04 Q1010=
201205142045 METAR LIRA 142045Z 35011KT CAVOK 12/04 Q1010=
201205142015 METAR LIRA 142015Z 36011KT CAVOK 12/04 Q1010=
201205141945 METAR LIRA 141945Z 34011KT 310V020 CAVOK 13/04 Q1009=
201205141915 METAR LIRA 141915Z 34014KT 290V020 CAVOK 13/04 Q1009=
201205141845 METAR LIRA 141845Z 34012KT 310V020 CAVOK 14/04 Q1009=
201205141815 METAR LIRA 141815Z 34015KT 9999 FEW016CB 15/04 Q1009=
201205141745 METAR LIRA 141745Z 33014G24KT 300V010 9999 FEW016CB 16/04
                        Q1008=
201205141715 METAR LIRA 141715Z 33012KT 9999 FEW016CB SCT025 17/04 Q1008=
201205141645 METAR LIRA 141645Z 34014KT 9999 FEW018CB SCT025 17/04 Q1008=
201205141615 METAR LIRA 141615Z 34013KT 9999 FEW018CB SCT025 17/05 Q1008=
201205141545 METAR LIRA 141545Z 34017G27KT 9999 FEW018CB SCT030 17/04
                        Q1007=
201205141515 METAR LIRA 141515Z 33015KT 9999 FEW018CB SCT030 18/05 Q1008=
201205141445 METAR LIRA 141445Z 34017G27KT 9999 FEW018CB SCT030 18/05
                        Q1007=
201205141415 METAR LIRA 141415Z 35017G27KT 310V010 9999 FEW018CB SCT030
                        19/05 Q1007=
201205141345 METAR LIRA 141345Z 33018KT 310V020 9999 FEW018CB SCT030 18/05
                        Q1007=
201205141315 METAR LIRA 141315Z 32019G29KT 9999 FEW018CB SCT030 18/05
                        Q1007=
201205141245 METAR LIRA 141245Z 34017G27KT 9999 FEW018 SCT030 18/06 Q1007=
201205141215 METAR LIRA 141215Z 33017G27KT 9999 FEW018 SCT030 18/06 Q1007=
201205141145 METAR LIRA 141145Z 34015KT 300V020 9999 FEW018 SCT030 18/06
                        Q1007=
201205141115 METAR LIRA 141115Z 34016G26KT 310V030 9999 FEW018 SCT030
                        18/05 Q1007=
201205141045 METAR LIRA 141045Z 35018KT 9999 FEW018 SCT030 17/05 Q1007=
201205141015 METAR LIRA 141015Z 34015G31KT 310V030 9999 FEW018 SCT030
                        18/05 Q1007=
201205140945 METAR LIRA 140945Z 34016G26KT 310V120 9999 FEW018 SCT030
                        18/07 Q1007=
201205140915 METAR LIRA 140915Z 35020G30KT 330V030 9999 FEW018 SCT030
                        17/07 Q1007=
201205140845 METAR LIRA 140845Z 35017G29KT 310V010 9999 FEW018 SCT030
                        17/07 Q1007=
201205140815 METAR LIRA 140815Z 35015G28KT 310V050 9999 FEW018 SCT030
                        16/08 Q1007=
201205140745 METAR LIRA 140745Z 36015KT 310V080 9999 FEW018 15/07 Q1007=
201205140715 METAR LIRA 140715Z 35016G26KT 310V030 9999 FEW018 FEW020TCU
                        14/07 Q1007=
201205140645 METAR LIRA 140645Z 36012G22KT 330V040 9999 FEW018 FEW020TCU
                        13/07 Q1007=
201205140615 METAR LIRA 140615Z 36013G23KT 9999 FEW018 FEW020TCU 13/07
                        Q1007=
201205140545 METAR LIRA 140545Z 36012KT 310V040 9999 FEW017 FEW018TCU
                        12/07 Q1006=
201205140515 METAR LIRA 140515Z 36013KT 330V040 9999 FEW017 FEW018TCU
                        12/08 Q1006=
201205140445 METAR LIRA 140445Z 01012KT 9999 FEW017 FEW018CB 11/08 Q1006=
201205140415 METAR LIRA 140415Z 36009KT 9999 FEW017 FEW018CB 11/08 Q1006=
201205140345 METAR LIRA 140345Z 01003KT 9999 FEW017 FEW018CB 11/10 Q1006=
201205140315 METAR LIRA 140315Z 03007KT 9999 FEW017 FEW018CB 11/10 Q1006=
201205140245 METAR LIRA 140245Z 01008KT 340V090 9999 FEW017 SCT030 11/10
                        Q1006=
201205140215 METAR LIRA 140215Z 02006KT 360V080 9999 FEW017 SCT030 11/10
                        Q1007=
201205140145 METAR LIRA 140145Z 02009KT 350V060 9999 FEW015 FEW017CB SCT030
                        11/10 Q1007=
201205140115 METAR LIRA 140115Z 01008KT 320V060 9999 FEW015 FEW017CB SCT030
                        11/10 Q1007=
201205140045 METAR LIRA 140045Z 01006KT 320V060 9999 FEW015 SCT030 11/10
                        Q1008=
201205140015 METAR LIRA 140015Z 02011KT 320V050 9999 -RA FEW014 FEW017TCU
                        BKN070 12/11 Q1008=
201205132350 METAR LIRA 140045Z 01006KT 320V060 9999 FEW015 SCT030 11/10
                        Q1008=
201205132345 METAR LIRA 132345Z 01008KT 9999 -RA FEW005 FEW017TCU BKN070
                        12/12 Q1008=
201205132315 METAR LIRA 132315Z 35014KT 9999 FEW005 SCT014 BKN070 13/12
                        Q1008=
201205132245 METAR LIRA 132245Z 36007KT 320V060 9999 FEW018 BKN080 15/11
                        Q1008=
201205132215 METAR LIRA 132215Z 03006KT 350V060 9999 FEW018 BKN080 15/11
                        Q1008=
201205132145 METAR LIRA 132145Z 03008KT 320V060 9999 FEW018 BKN080 15/11
                        Q1008=
201205132115 METAR LIRA 132115Z 01008KT 9999 FEW017 BKN080 15/10 Q1009=
201205132045 METAR LIRA 132045Z 03011G24KT 310V050 9999 FEW017 SCT080
                        15/11 Q1009=
201205132015 METAR LIRA 132015Z 36008KT 320V060 9999 FEW017 SCT080 16/11
                        Q1008=
201205131945 METAR LIRA 131945Z 01006KT 320V040 9999 FEW017 SCT080 17/13
                        Q1008=
201205131915 METAR LIRA 131915Z 22004KT 9999 FEW017 SCT080 18/17 Q1008=
201205131845 METAR LIRA 131845Z 19006KT 9999 FEW017 SCT080 19/16 Q1008=
201205131745 METAR LIRA 131745Z 20007KT 9999 FEW017 SCT080 21/15 Q1009=
201205131715 METAR LIRA 131715Z 18010KT 170V230 9999 FEW017 SCT080 22/13
                        Q1008=
201205131645 METAR LIRA 131645Z 19012KT 9999 FEW017 23/12 Q1008=
201205131615 METAR LIRA 131615Z 17013KT 9999 FEW017 23/11 Q1008=
201205131545 METAR LIRA 131545Z 16012KT 9999 FEW030 23/13 Q1009=
201205131515 METAR LIRA 131515Z 17011KT 150V220 9999 FEW030 23/13 Q1009=
201205131445 METAR LIRA 131445Z 19014KT 150V220 9999 FEW030 23/13 Q1010=
201205131415 METAR LIRA 131415Z 16012KT 9999 FEW070 23/13 Q1010=
201205131345 METAR LIRA 131345Z 17016KT 9999 FEW060 24/14 Q1010=
201205131315 METAR LIRA 131315Z 19017KT 150V240 9999 FEW060 24/12 Q1010=
201205131245 METAR LIRA 131245Z 18016KT 9999 FEW060 24/13 Q1010=
201205131215 METAR LIRA 131215Z 17013KT 150V210 9999 FEW060 24/16 Q1011=
201205131145 METAR LIRA 131145Z 19015KT 150V210 9999 FEW060 24/16 Q1011=
201205131115 METAR LIRA 131115Z 17014KT 9999 FEW060 25/17 Q1011=
201205131045 METAR LIRA 131045Z 18014KT 9999 FEW060 25/17 Q1011=
201205131015 METAR LIRA 131015Z 19009KT 160V220 9999 FEW060 25/19 Q1012=
201205130945 METAR LIRA 130945Z 17010KT 170V230 9999 FEW070 24/17 Q1012=
201205130915 METAR LIRA 130915Z 20009KT CAVOK 25/19 Q1012=
201205130845 METAR LIRA 130845Z 20005KT CAVOK 24/19 Q1012=
201205130815 METAR LIRA 130815Z 24003KT CAVOK 24/19 Q1013=
201205130745 METAR LIRA 130745Z 25005KT CAVOK 23/18 Q1013=
201205130715 METAR LIRA 130715Z 20004KT CAVOK 22/18 Q1013=
201205130645 METAR LIRA 130645Z 19007KT CAVOK 21/17 Q1013=
201205130615 METAR LIRA 130615Z 22002KT CAVOK 20/16 Q1013=
201205130545 METAR LIRA 130545Z 19002KT CAVOK 20/15 Q1013=
201205130515 METAR LIRA 130515Z 22001KT CAVOK 17/15 Q1013=
201205130445 METAR LIRA 130445Z 00000KT CAVOK 16/14 Q1013=
201205130415 METAR LIRA 130415Z 13002KT CAVOK 16/14 Q1013=
201205130345 METAR LIRA 130345Z 00000KT CAVOK 16/15 Q1013=
201205130315 METAR LIRA 130315Z 12004KT CAVOK 16/15 Q1014=
201205130245 METAR LIRA 130245Z 20008KT CAVOK 16/16 Q1014=
201205130215 METAR LIRA 130215Z 23003KT CAVOK 16/16 Q1014=
201205130145 METAR LIRA 130145Z 22003KT CAVOK 17/16 Q1014=
201205130115 METAR LIRA 130115Z 23003KT CAVOK 17/16 Q1014=
201205130045 METAR LIRA 130045Z 17005KT CAVOK 17/17 Q1015=
201205130015 METAR LIRA 130015Z 17004KT CAVOK 18/16 Q1015=
201205122350 METAR LIRA 130045Z 17005KT CAVOK 17/17 Q1015=
201205122345 METAR LIRA 122345Z 16003KT CAVOK 18/17 Q1016=
201205122315 METAR LIRA 122315Z 19004KT CAVOK 18/16 Q1016=
201205122245 METAR LIRA 122245Z 19005KT CAVOK 18/17 Q1016=
201205122215 METAR LIRA 122215Z 19005KT CAVOK 18/17 Q1016=
201205122145 METAR LIRA 122145Z 18005KT CAVOK 18/16 Q1016=
201205122115 METAR LIRA 122115Z 18006KT CAVOK 18/16 Q1016=
201205122045 METAR LIRA 122045Z 18005KT 9999 FEW080 19/16 Q1016=
201205122015 METAR LIRA 122015Z 18006KT 9999 FEW080 19/16 Q1016=
201205121945 METAR LIRA 121945Z 18007KT 9999 FEW080 19/17 Q1016=
201205121915 METAR LIRA 121915Z 19006KT 9999 FEW080 20/17 Q1017=
201205121845 METAR LIRA 121845Z 20006KT 9999 FEW080 20/17 Q1017=
201205121815 METAR LIRA 121815Z 20007KT 9999 FEW080 21/17 Q1017=
201205121745 METAR LIRA 121745Z 19007KT 9999 FEW080 22/17 Q1017=
201205121715 METAR LIRA 121715Z 22006KT 180V250 9999 FEW080 23/17 Q1017=
201205121645 METAR LIRA 121645Z 23007KT 190V260 9999 FEW070 SCT200 24/17
                        Q1017=
201205121615 METAR LIRA 121615Z 23006KT 9999 FEW070 SCT200 25/16 Q1017=
201205121545 METAR LIRA 121545Z 23006KT 200V330 9999 FEW080 26/17 Q1018=
201205121515 METAR LIRA 121515Z 24006KT 210V290 9999 FEW080 27/16 Q1018=
201205121445 METAR LIRA 121445Z 26008KT 220V310 9999 FEW015 27/14 Q1018=
201205121415 METAR LIRA 121415Z 27008KT 230V310 CAVOK 27/13 Q1019=
201205121345 METAR LIRA 121345Z 27007KT 210V310 CAVOK 27/14 Q1019=
201205121315 METAR LIRA 121315Z 26008KT 220V300 CAVOK 27/15 Q1019=
201205121245 METAR LIRA 121245Z 27008KT 210V300 CAVOK 28/15 Q1019=
201205121215 METAR LIRA 121215Z 30009KT CAVOK 28/15 Q1019=
201205121145 METAR LIRA 121145Z 17004KT 200V300 CAVOK 28/11 Q1019=
201205121115 METAR LIRA 121115Z 27005KT 280V360 CAVOK 28/10 Q1020=
201205121045 METAR LIRA 121045Z 31005KT 260V350 CAVOK 27/10 Q1020=
201205121015 METAR LIRA 121015Z 27005KT 230V310 CAVOK 26/11 Q1020=
201205120945 METAR LIRA 120945Z 29003KT CAVOK 26/13 Q1020=
201205120915 METAR LIRA 120915Z 33002KT CAVOK 25/13 Q1021=
201205120845 METAR LIRA 120845Z 32002KT CAVOK 24/15 Q1021=
201205120815 METAR LIRA 120815Z 32001KT CAVOK 24/15 Q1021=
201205120745 METAR LIRA 120745Z 05003KT CAVOK 23/16 Q1021=
201205120715 METAR LIRA 120715Z 04003KT CAVOK 21/15 Q1021=
201205120645 METAR LIRA 120645Z 01002KT CAVOK 19/15 Q1021=
201205120615 METAR LIRA 120615Z 36003KT CAVOK 17/13 Q1020=
201205120545 METAR LIRA 120545Z 02002KT CAVOK 17/14 Q1020=
201205120515 METAR LIRA 120515Z 04003KT CAVOK 16/13 Q1020=
201205120445 METAR LIRA 120445Z 05003KT CAVOK 14/13 Q1020=
201205120415 METAR LIRA 120415Z 04003KT CAVOK 14/13 Q1020=
201205120345 METAR LIRA 120345Z 05003KT CAVOK 14/13 Q1020=
201205120315 METAR LIRA 120315Z 03002KT CAVOK 14/13 Q1021=
201205120245 METAR LIRA 120245Z 02001KT CAVOK 15/13 Q1021=
201205120215 METAR LIRA 120215Z 32001KT CAVOK 15/12 Q1021=
201205120145 METAR LIRA 120145Z 00000KT CAVOK 15/12 Q1021=
201205120115 METAR LIRA 120115Z 09003KT CAVOK 15/12 Q1021=
201205120045 METAR LIRA 120045Z 07001KT CAVOK 16/12 Q1021=
201205120015 METAR LIRA 120015Z 17001KT CAVOK 17/13 Q1022=
201205112350 METAR LIRA 120045Z 07001KT CAVOK 16/12 Q1021=
201205112345 METAR LIRA 112345Z 15003KT CAVOK 17/13 Q1022=
201205112315 METAR LIRA 112315Z 16002KT CAVOK 17/13 Q1022=
201205112245 METAR LIRA 112245Z 18002KT CAVOK 18/13 Q1022=
201205112215 METAR LIRA 112215Z 17002KT CAVOK 18/14 Q1022=
201205112145 METAR LIRA 112145Z 18001KT CAVOK 19/14 Q1022=
201205112115 METAR LIRA 112115Z 17001KT CAVOK 19/13 Q1022=
201205112045 METAR LIRA 112045Z 14002KT CAVOK 21/15 Q1022=
201205112015 METAR LIRA 112015Z 15003KT CAVOK 21/16 Q1022=
201205111945 METAR LIRA 111945Z 18003KT CAVOK 21/15 Q1022=
201205111915 METAR LIRA 111915Z 17003KT CAVOK 22/16 Q1022=
201205111845 METAR LIRA 111845Z 17004KT CAVOK 23/16 Q1022=
201205111815 METAR LIRA 111815Z 22004KT CAVOK 23/15 Q1022=
201205111745 METAR LIRA 111745Z 25004KT CAVOK 24/16 Q1022=
201205111715 METAR LIRA 111715Z 26004KT CAVOK 24/16 Q1022=
201205111645 METAR LIRA 111645Z 25006KT 230V310 CAVOK 25/15 Q1022=
201205111615 METAR LIRA 111615Z 28006KT 230V330 CAVOK 26/15 Q1022=
201205111545 METAR LIRA 111545Z 23009KT 9999 FEW020 27/14 Q1022=
201205111515 METAR LIRA 111515Z 23009KT 190V260 9999 FEW020 27/12 Q1022=
201205111445 METAR LIRA 111445Z 24009KT 190V260 9999 FEW020 27/14 Q1022=
201205111415 METAR LIRA 111415Z 22005KT 180V260 9999 FEW020 28/14 Q1022=
201205111345 METAR LIRA 111345Z 20006KT 180V260 9999 FEW020 27/14 Q1023=
201205111315 METAR LIRA 111315Z 21005KT 170V250 9999 FEW020 28/15 Q1023=
201205111245 METAR LIRA 111245Z 23008KT 190V290 9999 FEW020 27/15 Q1023=
201205111215 METAR LIRA 111215Z 22007KT 180V260 9999 FEW020 27/16 Q1023=
201205111145 METAR LIRA 111145Z 22009KT 210V270 9999 FEW020 27/16 Q1023=
201205111115 METAR LIRA 111115Z 23006KT 200V280 9999 FEW020 27/15 Q1023=
201205111045 METAR LIRA 111045Z 27004KT 200V300 9999 FEW020 27/14 Q1023=
201205111015 METAR LIRA 111015Z 30003KT 9999 FEW020 27/16 Q1023=
201205110945 METAR LIRA 110945Z 23003KT 9999 FEW020 26/16 Q1023=
201205110915 METAR LIRA 110915Z 29003KT 9999 FEW022 25/16 Q1023=
201205110845 METAR LIRA 110845Z 24004KT 230V300 CAVOK 24/16 Q1023=
201205110815 METAR LIRA 110815Z 28003KT CAVOK 24/16 Q1024=
201205110745 METAR LIRA 110745Z 34002KT CAVOK 22/15 Q1024=
201205110715 METAR LIRA 110715Z 33003KT CAVOK 22/16 Q1024=
201205110645 METAR LIRA 110645Z 36001KT CAVOK 20/16 Q1024=
201205110615 METAR LIRA 110615Z 36002KT CAVOK 19/16 Q1023=
201205110545 METAR LIRA 110545Z 02003KT CAVOK 18/15 Q1023=
201205110515 METAR LIRA 110515Z 36001KT CAVOK 17/15 Q1023=
201205110445 METAR LIRA 110445Z 36003KT CAVOK 15/14 Q1022=
201205110415 METAR LIRA 110415Z 01002KT CAVOK 15/13 Q1022=
201205110345 METAR LIRA 110345Z 04003KT CAVOK 14/13 Q1022=
201205110315 METAR LIRA 110315Z 06003KT CAVOK 15/14 Q1022=
201205110245 METAR LIRA 110245Z 03003KT CAVOK 14/13 Q1022=
201205110215 METAR LIRA 110215Z 02001KT CAVOK 14/13 Q1022=
201205110145 METAR LIRA 110145Z 35002KT CAVOK 15/14 Q1022=
201205110115 METAR LIRA 110115Z 00000KT CAVOK 15/13 Q1022=
201205110045 METAR LIRA 110045Z 36002KT CAVOK 16/14 Q1022=
201205110015 METAR LIRA 110015Z 04001KT CAVOK 16/15 Q1022=
201205102350 METAR LIRA 110045Z 36002KT CAVOK 16/14 Q1022=
201205102345 METAR LIRA 102345Z 00000KT CAVOK 16/15 Q1023=
201205102315 METAR LIRA 102315Z 00000KT CAVOK 16/14 Q1023=
201205102245 METAR LIRA 102245Z 00000KT CAVOK 16/13 Q1023=
201205102215 METAR LIRA 102215Z 22001KT CAVOK 16/13 Q1023=
201205102145 METAR LIRA 102145Z 31001KT CAVOK 18/14 Q1023=
201205102115 METAR LIRA 102115Z 16003KT CAVOK 19/14 Q1023=
201205102045 METAR LIRA 102045Z 13006KT CAVOK 18/14 Q1023=
201205102015 METAR LIRA 102015Z 13002KT CAVOK 19/14 Q1023=
201205101945 METAR LIRA 101945Z 18003KT CAVOK 20/14 Q1023=
201205101915 METAR LIRA 101915Z 17003KT CAVOK 20/14 Q1022=
201205101845 METAR LIRA 101845Z 23002KT CAVOK 20/14 Q1022=
201205101815 METAR LIRA 101815Z 24004KT CAVOK 21/13 Q1022=
201205101745 METAR LIRA 101745Z 24004KT 9999 FEW020 22/13 Q1022=
201205101715 METAR LIRA 101715Z 23004KT 9999 FEW020 23/14 Q1022=
201205101645 METAR LIRA 101645Z 24006KT 9999 FEW020 23/14 Q1022=
201205101615 METAR LIRA 101615Z 24007KT 9999 FEW020 24/14 Q1022=
201205101545 METAR LIRA 101545Z 24007KT 9999 FEW030 24/14 Q1022=
201205101515 METAR LIRA 101515Z 26006KT 220V340 9999 FEW020 FEW040TCU
                        25/15 Q1022=
201205101445 METAR LIRA 101445Z 22006KT 190V270 9999 FEW020 FEW040TCU
                        25/15 Q1022=
201205101415 METAR LIRA 101415Z 23006KT 190V320 9999 FEW020 FEW040TCU
                        25/16 Q1022=
201205101345 METAR LIRA 101345Z 22006KT 200V270 9999 FEW020 25/17 Q1022=
201205101315 METAR LIRA 101315Z 25007KT 160V280 9999 FEW020 FEW040TCU
                        25/18 Q1022=
201205101245 METAR LIRA 101245Z 23005KT 150V260 9999 FEW020 25/18 Q1023=
201205101215 METAR LIRA 101215Z 18007KT 160V250 9999 FEW020 24/17 Q1023=
201205101145 METAR LIRA 101145Z 21007KT 170V280 9999 FEW020 25/18 Q1023=
201205101115 METAR LIRA 101115Z 24008KT 190V270 9999 FEW020 25/17 Q1023=
201205101045 METAR LIRA 101045Z 23008KT 170V260 9999 FEW020 25/16 Q1023=
201205101015 METAR LIRA 101015Z 24003KT 9999 FEW020 24/14 Q1023=
201205100945 METAR LIRA 100945Z 22003KT 9999 FEW020 24/14 Q1023=
201205100915 METAR LIRA 100915Z 02002KT 9999 FEW020 24/15 Q1022=
201205100845 METAR LIRA 100845Z 25003KT 9999 FEW020 23/15 Q1022=
201205100815 METAR LIRA 100815Z 29003KT 9999 FEW020 21/15 Q1022=
201205100745 METAR LIRA 100745Z 31002KT 9999 FEW020 20/14 Q1022=
201205100715 METAR LIRA 100715Z 32001KT CAVOK 19/14 Q1022=
201205100645 METAR LIRA 100645Z 34001KT CAVOK 18/13 Q1022=
201205100615 METAR LIRA 100615Z 34004KT CAVOK 17/13 Q1022=
201205100545 METAR LIRA 100545Z 01003KT CAVOK 16/13 Q1021=
201205100515 METAR LIRA 100515Z 05003KT CAVOK 16/13 Q1021=
201205100445 METAR LIRA 100445Z 06003KT CAVOK 14/13 Q1021=
201205100415 METAR LIRA 100415Z 02003KT CAVOK 14/12 Q1021=
201205100345 METAR LIRA 100345Z 04004KT CAVOK 15/12 Q1021=
201205100315 METAR LIRA 100315Z 03004KT CAVOK 15/12 Q1021=
201205100245 METAR LIRA 100245Z 02003KT CAVOK 15/13 Q1021=
201205100215 METAR LIRA 100215Z 06004KT CAVOK 15/12 Q1021=
201205100145 METAR LIRA 100145Z 06005KT CAVOK 15/12 Q1021=
201205100115 METAR LIRA 100115Z 07004KT CAVOK 14/12 Q1021=
201205100045 METAR LIRA 100045Z 06005KT CAVOK 14/12 Q1021=
201205100015 METAR LIRA 100015Z 05002KT CAVOK 15/12 Q1021=
201205092350 METAR LIRA 100045Z 06005KT CAVOK 14/12 Q1021=
201205092345 METAR LIRA 092345Z 04001KT CAVOK 15/12 Q1021=
201205092315 METAR LIRA 092315Z 00000KT CAVOK 15/12 Q1021=
201205092245 METAR LIRA 092245Z 09001KT CAVOK 16/11 Q1021=
201205092215 METAR LIRA 092215Z 12002KT CAVOK 16/11 Q1021=
201205092145 METAR LIRA 092145Z 16002KT CAVOK 16/10 Q1020=
201205092115 METAR LIRA 092115Z 18003KT CAVOK 17/10 Q1020=
201205092045 METAR LIRA 092045Z 16003KT CAVOK 17/10 Q1020=
201205092015 METAR LIRA 092015Z 17004KT CAVOK 18/10 Q1020=
201205091945 METAR LIRA 091945Z 20003KT 9999 FEW080 18/11 Q1020=
201205091915 METAR LIRA 091915Z 19003KT 9999 FEW060 19/10 Q1020=
201205091845 METAR LIRA 091845Z 23003KT 9999 FEW060 19/11 Q1019=
201205091815 METAR LIRA 091815Z 22002KT 9999 FEW060 20/10 Q1019=
201205091745 METAR LIRA 091745Z 18003KT 9999 FEW070 21/10 Q1019=
201205091715 METAR LIRA 091715Z 26004KT 9999 FEW070 SCT200 22/09 Q1019=
201205091645 METAR LIRA 091645Z 27006KT 230V300 9999 FEW070 22/09 Q1019=
201205091615 METAR LIRA 091615Z 25007KT 210V300 9999 FEW030 23/09 Q1019=
201205091545 METAR LIRA 091545Z 29010KT 250V310 9999 FEW030 23/10 Q1019=
201205091515 METAR LIRA 091515Z 29009KT 250V330 9999 FEW030 23/09 Q1019=
201205091445 METAR LIRA 091445Z 28013KT 9999 FEW030 23/09 Q1019=
201205091415 METAR LIRA 091415Z 27011KT 9999 FEW030 24/10 Q1019=
201205091345 METAR LIRA 091345Z 27011KT 240V300 9999 FEW030 24/10 Q1019=
201205091315 METAR LIRA 091315Z 27010KT 220V350 9999 FEW030 24/08 Q1019=
201205091245 METAR LIRA 091245Z 31012KT 290V360 9999 FEW030 26/08 Q1019=
201205091215 METAR LIRA 091215Z 32010KT 300V020 9999 FEW030 25/08 Q1019=
201205091145 METAR LIRA 091145Z 33009KT 300V360 9999 FEW030 24/08 Q1019=
201205091115 METAR LIRA 091115Z 33011KT 280V050 9999 FEW030 24/08 Q1019=
201205091045 METAR LIRA 091045Z 35007KT 280V070 9999 FEW030 SCT070 24/08
                        Q1019=
201205091015 METAR LIRA 091015Z 35006KT 280V030 9999 SCT070 SCT200 23/08
                        Q1019=
201205090945 METAR LIRA 090945Z 36005KT 320V050 9999 SCT070 23/10 Q1019=
201205090915 METAR LIRA 090915Z 01005KT 9999 SCT070 22/13 Q1019=
201205090845 METAR LIRA 090845Z 35004KT 9999 SCT070 20/13 Q1019=
201205090815 METAR LIRA 090815Z 08003KT 9999 SCT070 19/13 Q1019=
201205090745 METAR LIRA 090745Z 34004KT 9999 SCT070 18/14 Q1019=
201205090715 METAR LIRA 090715Z 01005KT 9999 SCT070 18/14 Q1019=
201205090645 METAR LIRA 090645Z 35006KT 9999 SCT070 17/13 Q1019=
201205090615 METAR LIRA 090615Z 36004KT 9999 FEW030 SCT070 15/13 Q1019=
201205090545 METAR LIRA 090545Z 04002KT 9999 FEW030 SCT080 14/13 Q1019=
201205090515 METAR LIRA 090515Z 03003KT 9999 FEW030 BKN080 14/12 Q1019=
201205090445 METAR LIRA 090445Z 02003KT 9999 FEW030 BKN080 13/12 Q1019=
201205090415 METAR LIRA 090415Z 36003KT 9999 FEW030 BKN080 13/11 Q1018=
201205090345 METAR LIRA 090345Z 02003KT 9999 FEW030 BKN080 13/11 Q1018=
201205090315 METAR LIRA 090315Z 03002KT 9999 FEW030 BKN080 13/11 Q1018=
201205090245 METAR LIRA 090245Z 00000KT 9999 FEW040 BKN080 13/11 Q1018=
201205090215 METAR LIRA 090215Z 03003KT 9999 SCT080 12/11 Q1019=
201205090145 METAR LIRA 090145Z 08002KT 9999 SCT080 12/11 Q1019=
201205090115 METAR LIRA 090115Z 00000KT 9999 FEW080 13/11 Q1019=
201205090045 METAR LIRA 090045Z 00000KT 9999 FEW070 13/11 Q1019=
201205090015 METAR LIRA 090015Z 00000KT 9999 FEW080 13/11 Q1019=
201205082350 METAR LIRA 090045Z 00000KT 9999 FEW070 13/11 Q1019=
201205082345 METAR LIRA 082345Z 13001KT 9999 FEW080 13/12 Q1019=
201205082315 METAR LIRA 082315Z 18001KT 9999 FEW080 13/12 Q1019=
201205082245 METAR LIRA 082245Z 17001KT 9999 FEW080 14/12 Q1019=
201205082215 METAR LIRA 082215Z 17001KT 9999 FEW080 14/12 Q1019=
201205082145 METAR LIRA 082145Z 17003KT 9999 FEW080 14/12 Q1019=
201205082115 METAR LIRA 082115Z 18004KT 9999 FEW080 15/12 Q1019=
201205082045 METAR LIRA 082045Z 18005KT 9999 FEW080 15/12 Q1019=
201205082015 METAR LIRA 082015Z 19003KT 9999 FEW080 15/12 Q1019=
201205081945 METAR LIRA 081945Z 16003KT 9999 FEW080 15/12 Q1018=
201205081915 METAR LIRA 081915Z 19004KT 9999 FEW020 16/12 Q1018=
201205081845 METAR LIRA 081845Z 19003KT 9999 FEW020 17/12 Q1018=
201205081815 METAR LIRA 081815Z 18003KT 9999 FEW020 17/11 Q1018=
201205081745 METAR LIRA 081745Z 27004KT 240V310 9999 FEW020 18/10 Q1018=
201205081715 METAR LIRA 081715Z 28007KT 240V310 9999 FEW020 19/10 Q1018=
201205081645 METAR LIRA 081645Z 28011KT 9999 FEW020 20/11 Q1018=
201205081615 METAR LIRA 081615Z 28008KT 210V310 9999 FEW040 21/11 Q1018=
201205081545 METAR LIRA 081545Z 28009G19KT 220V300 9999 FEW040 21/12 Q1018=
201205081515 METAR LIRA 081515Z 26010KT 220V310 9999 FEW040 21/12 Q1018=
201205081445 METAR LIRA 081445Z 29010KT 240V310 9999 FEW040 22/13 Q1018=
201205081415 METAR LIRA 081415Z 29010KT 230V300 9999 SCT040 22/10 Q1018=
201205081345 METAR LIRA 081345Z 28008KT 260V320 9999 SCT040 22/10 Q1018=
201205081315 METAR LIRA 081315Z 27009KT 230V300 9999 SCT040 22/11 Q1018=
201205081245 METAR LIRA 081245Z 29013KT 260V340 9999 SCT040 22/11 Q1018=
201205081215 METAR LIRA 081215Z 27007KT 220V360 9999 SCT040 22/10 Q1018=
201205081145 METAR LIRA 081145Z 04007KT 310V060 CAVOK 22/08 Q1018=
201205081115 METAR LIRA 081115Z 33004KT CAVOK 21/08 Q1019=
201205081045 METAR LIRA 081045Z 32008KT 300V360 CAVOK 21/08 Q1019=
201205081015 METAR LIRA 081015Z 33007KT 300V360 CAVOK 21/09 Q1019=
201205080945 METAR LIRA 080945Z 35010KT 300V010 CAVOK 20/09 Q1019=
201205080915 METAR LIRA 080915Z 34008KT 300V360 CAVOK 20/08 Q1019=
201205080845 METAR LIRA 080845Z 35009KT R15/M1300 CAVOK 19/11 Q1019=
201205080815 METAR LIRA 080815Z 35007KT 320V030 R15/M1300 CAVOK 17/12
                        Q1019=
201205080745 METAR LIRA 080745Z 05004KT 9999 R15/M1300 FEW030 16/15 Q1019=
201205080715 METAR LIRA 080715Z 03003KT 8000 R15/M1300 FEW010 15/14 Q1019=
201205080645 METAR LIRA 080645Z 03004KT 310V030 5000 R15/M1100 BR FEW001
                        SCT070 14/13 Q1019=
201205080615 METAR LIRA 080615Z 36004KT 330V060 3000 R15/M1200 BR FEW001
                        BKN070 13/12 Q1019=
201205080545 METAR LIRA 080545Z 01006KT 1000 R15/M0900 FG BKN001 12/11
                        Q1018=
201205080515 METAR LIRA 080515Z 01005KT 360V060 0100 R15/M0375 FG OVC010
                        11/10 Q1018=
201205080445 METAR LIRA 080445Z 04004KT 0300 R15/M1300 FG BKN001 11/10
                        Q1018=
201205080415 METAR LIRA 080415Z 01004KT 9999 SCT070 10/09 Q1018=
201205080345 METAR LIRA 080345Z 04004KT 9999 FEW080 10/09 Q1018=
201205080315 METAR LIRA 080315Z 03001KT 9999 FEW080 11/10 Q1018=
201205080245 METAR LIRA 080245Z 03003KT CAVOK 11/10 Q1018=
201205080215 METAR LIRA 080215Z 10001KT 9999 FEW070 11/09 Q1018=
201205080145 METAR LIRA 080145Z 10001KT 9999 FEW080 11/10 Q1018=
201205080115 METAR LIRA 080115Z 00000KT 9999 FEW080 11/10 Q1018=
201205080045 METAR LIRA 080045Z 11004KT 9999 FEW080 12/11 Q1018=
201205080015 METAR LIRA 080015Z 10002KT 9999 FEW080 12/11 Q1018=
201205072350 METAR LIRA 080045Z 11004KT 9999 FEW080 12/11 Q1018=
201205072345 METAR LIRA 072345Z 12001KT 9999 FEW020 12/11 Q1018=
201205072315 METAR LIRA 072315Z 16001KT 9999 FEW020 13/12 Q1018=
201205072245 METAR LIRA 072245Z 14003KT 9999 FEW020 13/12 Q1019=
201205072215 METAR LIRA 072215Z 16002KT 9999 FEW015 14/12 Q1018=
201205072145 METAR LIRA 072145Z 16002KT 9999 FEW020 14/13 Q1018=
201205072115 METAR LIRA 072115Z 17002KT 9999 FEW020 SCT070 14/13 Q1018=
201205072045 METAR LIRA 072045Z 17002KT 9999 FEW020 SCT070 14/13 Q1018=
201205072015 METAR LIRA 072015Z 16004KT 9999 FEW020 15/13 Q1018=
201205071945 METAR LIRA 071945Z 18003KT 9999 FEW020 15/13 Q1018=
201205071915 METAR LIRA 071915Z 17003KT 9999 FEW080 16/14 Q1018=
201205071845 METAR LIRA 071845Z 24003KT 9999 FEW015 SCT070 16/14 Q1017=
201205071815 METAR LIRA 071815Z 23003KT 9999 FEW018 FEW022TCU 16/14 Q1016=
201205071745 METAR LIRA 071745Z 24003KT 9999 SCT018 17/14 Q1016=
201205071715 METAR LIRA 071715Z 26005KT 230V300 9999 SCT015 FEW020TCU
                        SCT070 17/15 Q1016=
201205071645 METAR LIRA 071645Z 27006KT 230V300 9999 FEW015 FEW020TCU
                        SCT070 19/16 Q1016=
201205071615 METAR LIRA 071615Z 24007KT 220V300 9999 SCT015 FEW020TCU
                        SCT070 19/15 Q1016=
201205071545 METAR LIRA 071545Z 27007KT 9999 SCT015 FEW017TCU SCT070 20/16
                        Q1016=
201205071515 METAR LIRA 071515Z 25007KT 220V310 9999 SCT015 FEW017TCU
                        SCT070 19/16 Q1016=
201205071445 METAR LIRA 071445Z 25003KT 9999 SCT015 FEW017TCU SCT025 19/16
                        Q1016=
201205071415 METAR LIRA 071415Z 27006KT 230V340 9999 SCT012 FEW015TCU
                        SCT022 19/16 Q1016=
201205071345 METAR LIRA 071345Z 25005KT 220V310 9999 SCT010 FEW015TCU
                        SCT022 19/16 Q1016=
201205071315 METAR LIRA 071315Z 26003KT 9999 SCT010 FEW015TCU SCT022 17/16
                        Q1016=
201205071245 METAR LIRA 071245Z 26006KT 9999 -RA SCT010 FEW015TCU BKN022
                        17/15 Q1016=
201205071215 METAR LIRA 071215Z 27005KT 240V300 9999 SCT010 FEW015TCU
                        BKN022 18/14 Q1016=
201205071145 METAR LIRA 071145Z 27006KT 9999 SCT010 FEW015TCU BKN022 17/14
                        Q1015=
201205071115 METAR LIRA 071115Z 25003KT 210V300 9999 SCT008 FEW015TCU
                        SCT022 17/15 Q1015=
201205071045 METAR LIRA 071045Z 24005KT 9999 SCT008 FEW015TCU SCT022 17/15
                        Q1015=
201205071015 METAR LIRA 071015Z 21007KT 9999 SCT008 FEW015TCU SCT022 18/15
                        Q1015=
201205070945 METAR LIRA 070945Z 18009KT 160V230 9999 SCT008 FEW015TCU
                        SCT022 18/15 Q1015=
201205070915 METAR LIRA 070915Z 18008KT 9999 SCT008 FEW015TCU SCT022 18/15
                        Q1015=
201205070845 METAR LIRA 070845Z 17008KT 160V230 9999 SCT008 FEW015TCU
                        SCT022 17/15 Q1015=
201205070815 METAR LIRA 070815Z 20008KT 9999 SCT008 FEW015TCU SCT022 17/15
                        Q1015=
201205070745 METAR LIRA 070745Z 19006KT 9999 SCT008 FEW015TCU SCT022 15/15
                        Q1014=
201205070715 METAR LIRA 070715Z 17008KT 9999 SCT007 FEW015TCU BKN022 15/14
                        Q1014=
201205070645 METAR LIRA 070645Z 17006KT 9999 SCT007 FEW015TCU BKN022 15/14
                        Q1014=
201205070615 METAR LIRA 070615Z 18006KT 9999 SCT008 FEW015TCU BKN022 14/13
                        Q1014=
201205070545 METAR LIRA 070545Z 18006KT 8000 -RA SCT007 FEW015TCU BKN022
                        14/13 Q1013=
201205070515 METAR LIRA 070515Z 16010KT 8000 -RA SCT007 FEW015TCU BKN022
                        14/12 Q1013=
201205070445 METAR LIRA 070445Z 15010KT 8000 -RA SCT007 FEW015TCU BKN022
                        13/12 Q1013 RERA=
201205070415 METAR LIRA 070415Z 16012KT 8000 -RA SCT007 FEW015TCU BKN022
                        13/12 Q1013 RERA=
201205070345 METAR LIRA 070345Z 16010KT 8000 -RA SCT012 BKN025 14/12 Q1013=
201205070315 METAR LIRA 070315Z 15011KT 7000 -RA SCT015 FEW018TCU SCT025
                        14/12 Q1013=
201205070245 METAR LIRA 070245Z 15011KT 120V180 9999 -RA SCT015 FEW018TCU
                        SCT025 14/12 Q1013=
201205070215 METAR LIRA 070215Z 15010KT 9999 FEW015 BKN030 14/11 Q1014=
201205070145 METAR LIRA 070145Z 17009KT 9999 FEW015 BKN030 14/11 Q1014=
201205070115 METAR LIRA 070115Z 20007KT 9999 SCT015 BKN035 13/12 Q1014=
201205070045 METAR LIRA 070045Z 20004KT 9999 -RA FEW015 FEW020TCU SCT035
                        13/12 Q1014=
201205070015 METAR LIRA 070015Z 26001KT 9000 -RA SCT015 FEW020TCU BKN035
                        13/12 Q1014=
201205062350 METAR LIRA 070045Z 20004KT 9999 -RA FEW015 FEW020TCU SCT035
                        13/12 Q1014=
201205062345 METAR LIRA 062345Z 05002KT 9000 -RA SCT015 FEW020TCU BKN035
                        13/12 Q1014=
201205062315 METAR LIRA 062315Z 10005KT 9000 -RA SCT010 FEW015TCU BKN035
                        13/12 Q1015=
201205062245 METAR LIRA 062245Z 15008KT 9000 -RA SCT010 FEW015TCU BKN035
                        13/12 Q1015=
201205062215 METAR LIRA 062215Z 18006KT 8000 -RA SCT010 FEW015TCU BKN035
                        14/13 Q1016=
201205062145 METAR LIRA 062145Z 20010KT 8000 -RA SCT010 FEW015TCU BKN030
                        14/13 Q1016=
201205062115 METAR LIRA 062115Z 21008KT 180V250 8000 -RA SCT010 FEW015TCU
                        BKN030 14/13 Q1016=
201205062045 METAR LIRA 062045Z 22011KT 180V240 8000 -RA SCT010 FEW015TCU
                        BKN030 14/13 Q1016=
201205062015 METAR LIRA 062015Z 18007KT 8000 -RA FEW006 SCT015 BKN045
                        16/14 Q1015=
201205061945 METAR LIRA 061945Z 19005KT 8000 -RA FEW006 SCT015 BKN045
                        16/15 Q1015=
201205061915 METAR LIRA 061915Z 20007KT 170V230 8000 -RA SCT006 BKN045
                        16/15 Q1014=
201205061845 METAR LIRA 061845Z 21004KT 7000 -RA SCT006 BKN045 16/14 Q1014=
201205061815 METAR LIRA 061815Z 18010KT 160V230 7000 -RA SCT006 BKN050
                        16/15 Q1014=
201205061745 METAR LIRA 061745Z 16012KT 7000 -RA SCT008 BKN050 16/15 Q1014=
201205061715 METAR LIRA 061715Z 18007KT 9000 -RA FEW015 SCT025 BKN060
                        16/14 Q1014=
201205061645 METAR LIRA 061645Z 17010KT 9999 -RA FEW015 SCT025 BKN060
                        16/13 Q1014=
201205061615 METAR LIRA 061615Z 16011KT 9999 -RA FEW015 SCT025 BKN060
                        16/13 Q1014=
201205061545 METAR LIRA 061545Z 17012KT 9999 -RA FEW015 SCT025 BKN070
                        16/13 Q1014=
201205061515 METAR LIRA 061515Z 17011KT 9999 -RA FEW015 FEW020CB SCT025
                        16/14 Q1014=
201205061445 METAR LIRA 061445Z 20012KT 9999 -RA FEW015 FEW020CB SCT025
                        16/14 Q1014=
201205061415 METAR LIRA 061415Z 17013KT 130V200 9999 -RA FEW015 FEW020CB
                        SCT025 16/15 Q1014=
201205061345 METAR LIRA 061345Z 16016KT 9999 -RA FEW015 FEW020CB SCT025
                        16/15 Q1014=
201205061315 METAR LIRA 061315Z 16014KT 9999 -RA SCT015 FEW020CB SCT070
                        16/15 Q1014=
201205061245 METAR LIRA 061245Z 17015KT 9999 -RA SCT015 FEW020CB SCT070
                        16/15 Q1015=
201205061215 METAR LIRA 061215Z 18013KT 9999 -RA SCT015 FEW020CB SCT070
                        16/15 Q1015=
201205061145 METAR LIRA 061145Z 17012KT 9999 -RA SCT015 FEW020CB SCT070
                        16/15 Q1015=
201205061115 METAR LIRA 061115Z 18009KT 8000 SCT015 FEW018CB SCT070 16/14
                        Q1015=
201205061045 METAR LIRA 061045Z 17011KT 5000 -RA BR SCT015 FEW018CB SCT070
                        16/14 Q1014=
201205061015 METAR LIRA 061015Z 16014KT 5000 -RA BR SCT015 FEW018CB SCT070
                        16/15 Q1014=
201205060945 METAR LIRA 060945Z 16014KT 9999 -RA SCT016 BKN070 17/15 Q1014=
201205060915 METAR LIRA 060915Z 16011KT 9999 SCT016 BKN070 17/14 Q1014=
201205060845 METAR LIRA 060845Z 15010KT 9999 SCT016 BKN070 17/15 Q1014=
201205060815 METAR LIRA 060815Z 15012KT 9999 SCT016 BKN070 16/15 Q1014=
201205060745 METAR LIRA 060745Z 16011KT 9999 -RA SCT016 BKN070 16/14 Q1014=
201205060715 METAR LIRA 060715Z 14011KT 9999 -RA SCT016 BKN070 16/14 Q1014=
201205060645 METAR LIRA 060645Z 15013KT 9999 -RA SCT016 SCT025 16/14 Q1014=
201205060615 METAR LIRA 060615Z 16015G25KT 9999 -RA SCT016 SCT025 16/14
                        Q1014=
201205060545 METAR LIRA 060545Z 16012KT 9999 SCT018 SCT025 16/13 Q1013=
201205060515 METAR LIRA 060515Z 15016KT 9999 SCT018 SCT025 16/13 Q1013=
201205060445 METAR LIRA 060445Z 15015G26KT 9999 SCT018 SCT070 16/13 Q1013=
201205060415 METAR LIRA 060415Z 15017KT 9999 SCT018 SCT070 16/13 Q1013=
201205060345 METAR LIRA 060345Z 15021KT 9999 FEW025 BKN070 16/13 Q1013=
201205060315 METAR LIRA 060315Z 15022G32KT 9999 FEW025 BKN070 16/13 Q1013=
201205060245 METAR LIRA 060245Z 16016G27KT 130V210 9999 FEW025 BKN070
                        16/13 Q1014=
201205060215 METAR LIRA 060215Z 18007G21KT 130V220 9999 FEW030 SCT070
                        16/11 Q1013=
201205060145 METAR LIRA 060145Z 19002KT 9999 FEW030 SCT070 13/12 Q1013=
201205060115 METAR LIRA 060115Z 30001KT 9999 FEW080 13/11 Q1013=
201205060045 METAR LIRA 060045Z 03001KT CAVOK 13/12 Q1013=
201205060015 METAR LIRA 060015Z 03001KT CAVOK 13/11 Q1013=
201205052350 METAR LIRA 060045Z 03001KT CAVOK 13/12 Q1013=
201205052345 METAR LIRA 052345Z 00000KT CAVOK 13/12 Q1013=
201205052315 METAR LIRA 052315Z 00000KT CAVOK 14/12 Q1013=
201205052245 METAR LIRA 052245Z 06003KT CAVOK 14/12 Q1014=
201205052215 METAR LIRA 052215Z 13004KT CAVOK 14/10 Q1014=
201205052145 METAR LIRA 052145Z 14005KT CAVOK 15/10 Q1014=
201205052115 METAR LIRA 052115Z 14005KT CAVOK 15/11 Q1014=
201205052045 METAR LIRA 052045Z 16006KT CAVOK 15/14 Q1014=
201205052015 METAR LIRA 052015Z 19006KT 9999 FEW030 15/14 Q1014=
201205051945 METAR LIRA 051945Z 20007KT 180V240 9999 FEW030 16/14 Q1014=
201205051915 METAR LIRA 051915Z 18006KT 9999 FEW030 16/14 Q1013=
201205051845 METAR LIRA 051845Z 20007KT 9999 FEW030 17/14 Q1013=
201205051815 METAR LIRA 051815Z 20007KT CAVOK 18/15 Q1013=
201205051745 METAR LIRA 051745Z 20007KT CAVOK 18/14 Q1013=
201205051715 METAR LIRA 051715Z 20006KT CAVOK 19/13 Q1013=
201205051645 METAR LIRA 051645Z 20006KT 170V240 9999 FEW020 19/12 Q1013=
201205051615 METAR LIRA 051615Z 20006KT 160V240 9999 FEW020 20/11 Q1013=
201205051545 METAR LIRA 051545Z 24006KT 200V260 9999 FEW020 21/12 Q1013=
201205051515 METAR LIRA 051515Z 22006KT 9999 SCT020 21/12 Q1013=
201205051445 METAR LIRA 051445Z 21006KT 150V250 9999 SCT020 21/13 Q1013=
201205051415 METAR LIRA 051415Z 23008KT 180V260 9999 SCT018 21/14 Q1013=
201205051345 METAR LIRA 051345Z 20009KT 9999 SCT017 20/14 Q1013=
201205051315 METAR LIRA 051315Z 23010KT 200V280 9999 SCT017 FEW018TCU
                        20/15 Q1013=
201205051245 METAR LIRA 051245Z 22011KT 180V270 9999 SCT017 FEW018TCU
                        20/15 Q1013=
201205051215 METAR LIRA 051215Z 23010KT 9999 SCT017 FEW018TCU 20/16 Q1013=
201205051145 METAR LIRA 051145Z 24008KT 210V270 9999 SCT015 FEW018TCU
                        20/15 Q1013=
201205051115 METAR LIRA 051115Z 20008KT 180V240 9999 SCT015 FEW018TCU
                        20/14 Q1013=
201205051045 METAR LIRA 051045Z 20009KT 150V250 9999 SCT015 SCT025 20/15
                        Q1013=
201205051015 METAR LIRA 051015Z 18010KT 130V210 9999 FEW015 FEW018TCU
                        SCT025 19/13 Q1013=
201205050945 METAR LIRA 050945Z 18012KT 9999 SCT015 FEW018TCU SCT025 19/14
                        Q1013=
201205050915 METAR LIRA 050915Z 18011KT 130V210 9999 SCT015 SCT025 19/14
                        Q1013=
201205050845 METAR LIRA 050845Z 17012KT 9999 SCT014 SCT025 18/15 Q1013=
201205050815 METAR LIRA 050815Z 16011KT 9999 SCT018 FEW020TCU SCT025 18/14
                        Q1013=
201205050745 METAR LIRA 050745Z 16009KT 9999 FEW018 BKN025 17/13 Q1013=
201205050715 METAR LIRA 050715Z 14007KT 9999 FEW019 BKN025 18/14 Q1012=
201205050645 METAR LIRA 050645Z 14007KT 070V180 9999 FEW018 BKN025 17/14
                        Q1012=
201205050615 METAR LIRA 050615Z 10004KT 9999 FEW018 SCT027 15/11 Q1012=
201205050545 METAR LIRA 050545Z 06002KT 9999 FEW018 SCT023 13/07 Q1012=
201205050515 METAR LIRA 050515Z 07001KT 9999 FEW018 SCT023 11/07 Q1011=
201205050445 METAR LIRA 050445Z 07003KT 9999 FEW018 SCT023 10/06 Q1011=
201205050415 METAR LIRA 050415Z 06001KT 9999 FEW018 10/06 Q1011=
201205050345 METAR LIRA 050345Z 00000KT 9999 FEW070 10/06 Q1011=
201205050315 METAR LIRA 050315Z 00000KT CAVOK 10/05 Q1011=
201205050245 METAR LIRA 050245Z 00000KT CAVOK 10/05 Q1011=
201205050215 METAR LIRA 050215Z 22001KT 9999 FEW030 11/05 Q1011=
201205050145 METAR LIRA 050145Z 00000KT 9999 FEW030 12/04 Q1011=
201205050115 METAR LIRA 050115Z 04001KT 9999 SCT060 12/03 Q1011=
201205050045 METAR LIRA 050045Z 11003KT 9999 SCT060 12/04 Q1012=
201205050015 METAR LIRA 050015Z 11002KT 9999 SCT070 12/04 Q1012=
201205042350 METAR LIRA 050045Z 11003KT 9999 SCT060 12/04 Q1012=
201205042345 METAR LIRA 042345Z 12002KT 9999 FEW070 12/04 Q1012=
201205042315 METAR LIRA 042315Z 12003KT 9999 FEW070 11/03 Q1012=
201205042245 METAR LIRA 042245Z 13002KT 9999 FEW070 12/05 Q1012=
201205042215 METAR LIRA 042215Z 09004KT 9999 FEW060 12/05 Q1012=
201205042145 METAR LIRA 042145Z 13001KT 9999 FEW060 12/08 Q1012=
201205042115 METAR LIRA 042115Z 11002KT 9999 SCT060 13/08 Q1012=
201205042045 METAR LIRA 042045Z 00000KT 9999 SCT060 14/11 Q1012=
201205042015 METAR LIRA 042015Z 16002KT 9999 FEW025 SCT060 14/11 Q1012=
201205041945 METAR LIRA 041945Z 18002KT 9999 FEW025 SCT060 15/12 Q1012=
201205041915 METAR LIRA 041915Z 20003KT 9999 SCT060 15/12 Q1012=
201205041845 METAR LIRA 041845Z 20004KT 9999 SCT060 16/13 Q1012=
201205041815 METAR LIRA 041815Z 20006KT 9999 FEW060 15/11 Q1012=
201205041745 METAR LIRA 041745Z 22005KT 9999 FEW060 17/11 Q1012=
201205041715 METAR LIRA 041715Z 22006KT 200V280 CAVOK 18/10 Q1011=
201205041645 METAR LIRA 041645Z 22007KT 190V260 CAVOK 18/08 Q1011=
201205041615 METAR LIRA 041615Z 24009KT CAVOK 19/05 Q1011=
201205041545 METAR LIRA 041545Z 24008KT 210V290 CAVOK 19/04 Q1011=
201205041515 METAR LIRA 041515Z 23008KT 190V260 CAVOK 20/04 Q1011=
201205041445 METAR LIRA 041445Z 22007KT 170V270 CAVOK 20/05 Q1011=
201205041415 METAR LIRA 041415Z 22007KT 180V250 CAVOK 20/05 Q1011=
201205041345 METAR LIRA 041345Z 25009KT 210V280 CAVOK 20/05 Q1011=
201205041315 METAR LIRA 041315Z 21009KT 170V270 CAVOK 20/05 Q1011=
201205041245 METAR LIRA 041245Z 24008KT 210V280 CAVOK 21/06 Q1011=
201205041215 METAR LIRA 041215Z 23007KT 160V300 CAVOK 21/06 Q1011=
201205041145 METAR LIRA 041145Z 23008KT 200V280 CAVOK 21/06 Q1011=
201205041115 METAR LIRA 041115Z 23009KT 170V280 CAVOK 21/06 Q1011=
201205041045 METAR LIRA 041045Z 23004KT 180V260 CAVOK 21/06 Q1011=
201205041015 METAR LIRA 041015Z 24003KT CAVOK 21/06 Q1012=
201205040945 METAR LIRA 040945Z 30003KT CAVOK 20/08 Q1012=
201205040915 METAR LIRA 040915Z 28005KT 230V290 CAVOK 19/08 Q1012=
201205040845 METAR LIRA 040845Z 34003KT CAVOK 18/08 Q1012=
201205040815 METAR LIRA 040815Z 33003KT CAVOK 17/11 Q1012=
201205040745 METAR LIRA 040745Z 31003KT CAVOK 16/12 Q1012=
201205040715 METAR LIRA 040715Z 36002KT CAVOK 16/12 Q1012=
201205040645 METAR LIRA 040645Z 02004KT 350V050 CAVOK 14/11 Q1012=
201205040615 METAR LIRA 040615Z 01005KT CAVOK 13/11 Q1011=
201205040545 METAR LIRA 040545Z 01002KT CAVOK 12/11 Q1011=
201205040515 METAR LIRA 040515Z 04004KT CAVOK 11/10 Q1011=
201205040445 METAR LIRA 040445Z 04004KT CAVOK 09/08 Q1011=
201205040415 METAR LIRA 040415Z 06003KT CAVOK 09/08 Q1011=
201205040345 METAR LIRA 040345Z 09001KT CAVOK 09/08 Q1011=
201205040315 METAR LIRA 040315Z 00000KT CAVOK 09/08 Q1011=
201205040245 METAR LIRA 040245Z 00000KT CAVOK 09/09 Q1011=
201205040215 METAR LIRA 040215Z 00000KT CAVOK 10/09 Q1011=
201205040145 METAR LIRA 040145Z 00000KT CAVOK 10/09 Q1011=
201205040115 METAR LIRA 040115Z 19001KT CAVOK 10/09 Q1011=
201205040045 METAR LIRA 040045Z 16001KT CAVOK 10/09 Q1011=
201205040015 METAR LIRA 040015Z 18001KT CAVOK 11/10 Q1011=
201205032350 METAR LIRA 040045Z 16001KT CAVOK 10/09 Q1011=
201205032345 METAR LIRA 032345Z 15003KT CAVOK 11/10 Q1011=
201205032315 METAR LIRA 032315Z 17003KT CAVOK 12/11 Q1012=
201205032245 METAR LIRA 032245Z 18004KT CAVOK 13/12 Q1012=
201205032215 METAR LIRA 032215Z 18004KT CAVOK 13/12 Q1012=
201205032145 METAR LIRA 032145Z 18004KT CAVOK 13/12 Q1012=
201205032115 METAR LIRA 032115Z 18003KT CAVOK 14/12 Q1012=
201205032045 METAR LIRA 032045Z 18004KT CAVOK 14/12 Q1012=
201205032015 METAR LIRA 032015Z 19005KT CAVOK 14/12 Q1011=
201205031945 METAR LIRA 031945Z 18004KT 9999 FEW070 14/12 Q1011=
201205031915 METAR LIRA 031915Z 19004KT 9999 FEW070 14/12 Q1011=
201205031845 METAR LIRA 031845Z 22004KT 9999 FEW070 14/12 Q1011=
201205031815 METAR LIRA 031815Z 21004KT 9999 FEW070 15/12 Q1011=
201205031745 METAR LIRA 031745Z 22006KT 9999 FEW070 16/13 Q1011=
201205031715 METAR LIRA 031715Z 24006KT 9999 FEW070 17/12 Q1011=
201205031645 METAR LIRA 031645Z 25006KT CAVOK 18/11 Q1011=
201205031615 METAR LIRA 031615Z 26009KT CAVOK 18/11 Q1011=
201205031545 METAR LIRA 031545Z 26010KT 210V310 CAVOK 19/10 Q1011=
201205031515 METAR LIRA 031515Z 26011KT 230V300 CAVOK 20/09 Q1011=
201205031445 METAR LIRA 031445Z 25010KT 220V290 CAVOK 20/09 Q1011=
201205031415 METAR LIRA 031415Z 27012KT 220V310 CAVOK 21/08 Q1011=
201205031345 METAR LIRA 031345Z 26010KT 240V310 9999 FEW025 21/08 Q1011=
201205031315 METAR LIRA 031315Z 25010KT 230V290 9999 FEW022 21/08 Q1011=
201205031245 METAR LIRA 031245Z 20009KT 230V310 9999 FEW022 22/08 Q1011=
201205031215 METAR LIRA 031215Z 28007KT 230V330 9999 FEW022 22/07 Q1012=
201205031145 METAR LIRA 031145Z 29005KT 230V310 9999 FEW018 21/05 Q1012=
201205031115 METAR LIRA 031115Z 26004KT 9999 FEW018 21/05 Q1012=
201205031045 METAR LIRA 031045Z 32006KT 260V360 9999 FEW018 20/05 Q1012=
201205031015 METAR LIRA 031015Z 01005KT 9999 FEW018 20/07 Q1012=
201205030945 METAR LIRA 030945Z 32005KT 300V360 9999 FEW018 19/07 Q1013=
201205030915 METAR LIRA 030915Z 20001KT 9999 FEW018 19/08 Q1013=
201205030845 METAR LIRA 030845Z 36003KT 9999 FEW018 18/09 Q1013=
201205030815 METAR LIRA 030815Z 03003KT 9999 FEW018 17/10 Q1014=
201205030745 METAR LIRA 030745Z 01005KT CAVOK 17/10 Q1014=
201205030715 METAR LIRA 030715Z 01003KT CAVOK 16/10 Q1014=
201205030615 METAR LIRA 030615Z 02004KT CAVOK 14/10 Q1014=
201205030545 METAR LIRA 030545Z 02002KT CAVOK 13/11 Q1013=
201205030515 METAR LIRA 030515Z 01001KT 9999 FEW070 11/10 Q1013=
201205030445 METAR LIRA 030445Z 06003KT 9999 FEW070 11/10 Q1013=
201205030415 METAR LIRA 030415Z 04001KT 9999 FEW070 10/09 Q1013=
201205030345 METAR LIRA 030345Z 04001KT CAVOK 09/08 Q1013=
201205030315 METAR LIRA 030315Z 02001KT CAVOK 10/08 Q1013=
201205030245 METAR LIRA 030245Z 02001KT CAVOK 10/08 Q1013=
201205030215 METAR LIRA 030215Z 01001KT CAVOK 10/09 Q1013=
201205030145 METAR LIRA 030145Z 00000KT CAVOK 11/10 Q1013=
201205030115 METAR LIRA 030115Z 00000KT CAVOK 11/10 Q1013=
201205030045 METAR LIRA 030045Z 00000KT CAVOK 11/10 Q1013=
201205030015 METAR LIRA 030015Z 00000KT CAVOK 12/10 Q1013=
201205022350 METAR LIRA 030045Z 00000KT CAVOK 11/10 Q1013=
201205022345 METAR LIRA 022345Z 17002KT CAVOK 11/10 Q1013=
201205022315 METAR LIRA 022315Z 15003KT CAVOK 12/09 Q1013=
201205022245 METAR LIRA 022245Z 20002KT CAVOK 13/10 Q1014=
201205022215 METAR LIRA 022215Z 19003KT CAVOK 13/10 Q1014=
201205022145 METAR LIRA 022145Z 17002KT CAVOK 13/10 Q1014=
201205022115 METAR LIRA 022115Z 17003KT CAVOK 14/10 Q1014=
201205022045 METAR LIRA 022045Z 14004KT 9999 FEW070 14/09 Q1014=
201205022015 METAR LIRA 022015Z 16005KT 9999 FEW070 14/09 Q1014=
201205021945 METAR LIRA 021945Z 18005KT CAVOK 15/10 Q1014=
201205021915 METAR LIRA 021915Z 16004KT 9999 FEW070 15/09 Q1014=
201205021845 METAR LIRA 021845Z 20004KT 9999 FEW070 15/09 Q1014=
201205021815 METAR LIRA 021815Z 20004KT 9999 FEW070 16/10 Q1014=
201205021745 METAR LIRA 021745Z 22003KT 9999 FEW020 18/10 Q1014=
201205021715 METAR LIRA 021715Z 23004KT 200V260 9999 FEW020 19/10 Q1014=
201205021645 METAR LIRA 021645Z 25003KT 9999 FEW020 19/09 Q1014=
201205021615 METAR LIRA 021615Z 27009KT 220V300 9999 FEW020 20/09 Q1015=
201205021545 METAR LIRA 021545Z 26005KT 230V310 9999 FEW016 20/08 Q1015=
201205021515 METAR LIRA 021515Z 27008KT 240V310 9999 FEW016 21/08 Q1015=
201205021445 METAR LIRA 021445Z 27007KT 230V300 9999 FEW016 22/10 Q1015=
201205021415 METAR LIRA 021415Z 24005KT 200V280 9999 FEW016 22/10 Q1015=
201205021345 METAR LIRA 021345Z 23006KT 9999 SCT016 22/10 Q1016=
201205021315 METAR LIRA 021315Z 30007KT 250V340 9999 SCT016 22/10 Q1016=
201205021245 METAR LIRA 021245Z 26007KT 210V320 9999 SCT016 22/12 Q1016=
201205021215 METAR LIRA 021215Z 28008KT 220V310 9999 SCT014 22/13 Q1016=
201205021145 METAR LIRA 021145Z 27009KT 210V300 9999 SCT014 22/15 Q1016=
201205021115 METAR LIRA 021115Z 28006KT 250V310 9999 SCT016 22/12 Q1016=
201205021045 METAR LIRA 021045Z 30006KT 260V330 9999 FEW014 21/12 Q1016=
201205021015 METAR LIRA 021015Z 29003KT 9999 FEW014 20/15 Q1016=
201205020945 METAR LIRA 020945Z 33005KT 9999 FEW014 19/15 Q1016=
201205020915 METAR LIRA 020915Z 30006KT 280V340 8000 FEW010 18/16 Q1017=
201205020845 METAR LIRA 020845Z 36005KT 8000 FEW007 18/16 Q1017=
201205020815 METAR LIRA 020815Z 35005KT 330V030 8000 FEW007 17/16 Q1017=
201205020745 METAR LIRA 020745Z 01004KT 6000 FEW005 16/16 Q1017=
201205020715 METAR LIRA 020715Z 36005KT 330V050 6000 SCT005 16/15 Q1016=
201205020645 METAR LIRA 020645Z 04006KT 6000 SCT004 15/15 Q1016=
201205020615 METAR LIRA 020615Z 01003KT 6000 SCT004 14/13 Q1016=
201205020545 METAR LIRA 020545Z 35001KT 8000 FEW005 13/12 Q1016=
201205020515 METAR LIRA 020515Z 34001KT 8000 FEW005 12/11 Q1016=
201205020445 METAR LIRA 020445Z 00000KT 8000 FEW004 11/10 Q1016=
201205020415 METAR LIRA 020415Z 05002KT 8000 FEW004 11/11 Q1016=
201205020345 METAR LIRA 020345Z 00000KT 9999 FEW008 12/11 Q1016=
201205020315 METAR LIRA 020315Z 18001KT 9999 FEW080 12/12 Q1016=
201205020245 METAR LIRA 020245Z 14002KT 9999 FEW080 12/11 Q1016=
201205020215 METAR LIRA 020215Z 16001KT CAVOK 12/12 Q1016=
201205020145 METAR LIRA 020145Z 16001KT 9999 FEW006 13/12 Q1016=
201205020115 METAR LIRA 020115Z 21001KT 8000 SCT006 13/13 Q1016=
201205020045 METAR LIRA 020045Z 19002KT 8000 SCT004 14/13 Q1016=
201205020015 METAR LIRA 020015Z 17001KT 8000 FEW080 14/13 Q1016=
201205012350 METAR LIRA 020045Z 19002KT 8000 SCT004 14/13 Q1016=
201205012345 METAR LIRA 012345Z 06001KT 8000 FEW006 14/14 Q1017=
201205012315 METAR LIRA 012315Z 17003KT 7000 FEW004 14/14 Q1016=
201205012245 METAR LIRA 012245Z 18002KT 7000 SCT004 14/14 Q1016=
201205012215 METAR LIRA 012215Z 16003KT 6000 2500S R15/P1500D BCFG FEW004
                        14/14 Q1016=
201205012145 METAR LIRA 012145Z 17002KT 8000 FEW004 15/14 Q1016=
201205012115 METAR LIRA 012115Z 21002KT CAVOK 15/14 Q1016=
201205012045 METAR LIRA 012045Z 23003KT CAVOK 15/15 Q1016=
201205012015 METAR LIRA 012015Z 23003KT CAVOK 15/15 Q1016=
201205011945 METAR LIRA 011945Z 16001KT CAVOK 16/15 Q1016=
201205011915 METAR LIRA 011915Z 18001KT 9999 SCT080 17/15 Q1015=
201205011845 METAR LIRA 011845Z 12001KT 9999 FEW040 SCT080 17/15 Q1015=
201205011815 METAR LIRA 011815Z 00000KT 9999 FEW009 SCT060 18/15 Q1015=
201205011745 METAR LIRA 011745Z 00000KT 9999 FEW009 SCT030 18/16 Q1015=
201205011715 METAR LIRA 011715Z 00000KT 9999 FEW009 BKN060 18/16 Q1015=
201205011645 METAR LIRA 011645Z 27002KT 9999 FEW009 BKN070 18/16 Q1015=
201205011615 METAR LIRA 011615Z 26004KT 9999 FEW020 SCT070 18/16 Q1015=
201205011545 METAR LIRA 011545Z 28005KT 9999 SCT030 SCT070 18/16 Q1015=
201205011515 METAR LIRA 011515Z 27005KT 220V300 9999 SCT030 BKN070 18/16
                        Q1015=
201205011445 METAR LIRA 011445Z 29004KT 9999 FEW018 SCT070 17/15 Q1015=
201205011415 METAR LIRA 011415Z 32005KT 9999 FEW018 BKN030 17/15 Q1016=
201205011345 METAR LIRA 011345Z 31006KT 9999 FEW018 BKN030 17/15 Q1016=
201205011315 METAR LIRA 011315Z 28003KT 9999 FEW018 SCT030 BKN070 17/15
                        Q1016=
201205011245 METAR LIRA 011245Z 24003KT 9999 -RA FEW018 BKN033 17/16 Q1016=
201205011215 METAR LIRA 011215Z 21003KT 9999 -RA FEW018 FEW020TCU SCT030
                        17/16 Q1016=
201205011145 METAR LIRA 011145Z 25007KT 230V290 8000 -RA FEW018 FEW020TCU
                        BKN030 18/15 Q1015=
201205011115 METAR LIRA 011115Z 22008KT 180V260 9999 -RA FEW018 FEW020TCU
                        SCT030 BKN070 19/15 Q1015=
201205011045 METAR LIRA 011045Z 23010KT 190V250 9999 FEW018 FEW020TCU
                        SCT030 BKN070 20/13 Q1015=
201205011015 METAR LIRA 011015Z 20011KT 170V240 9999 FEW018 SCT030 BKN070
                        23/12 Q1014=
201205010945 METAR LIRA 010945Z 21008KT 170V240 9999 FEW020 BKN070 24/14
                        Q1014=
201205010915 METAR LIRA 010915Z 27004KT 9999 FEW020 SCT080 23/15 Q1014=
201205010845 METAR LIRA 010845Z 36002KT 9999 FEW020 23/16 Q1014=
201205010815 METAR LIRA 010815Z 01003KT 9999 FEW020 21/16 Q1014=
201205010745 METAR LIRA 010745Z 02005KT 360V080 9999 FEW020 SCT070 20/17
                        Q1014=
201205010715 METAR LIRA 010715Z 03005KT 9999 FEW020 SCT070 18/16 Q1015=
201205010645 METAR LIRA 010645Z 02003KT 9999 FEW020 SCT070 17/16 Q1015=
201205010615 METAR LIRA 010615Z 03004KT 330V040 9999 FEW020 SCT070 17/16
                        Q1014=
201205010545 METAR LIRA 010545Z 04004KT 9999 FEW020 SCT070 16/15 Q1014=
201205010515 METAR LIRA 010515Z 04004KT 9999 FEW020 SCT070 15/14 Q1014=
201205010445 METAR LIRA 010445Z 01006KT 340V070 9999 FEW025 SCT070 15/14
                        Q1014=
201205010415 METAR LIRA 010415Z 01004KT 9999 SCT025 SCT070 15/14 Q1014=
201205010345 METAR LIRA 010345Z 04005KT 010V070 9999 SCT025 SCT070 15/14
                        Q1015=
201205010315 METAR LIRA 010315Z 06007KT 9999 -RA FEW020 SCT025 15/15 Q1015=
201205010245 METAR LIRA 010245Z 05008KT 9999 -RA FEW020 BKN025 15/15 Q1015=
201205010215 METAR LIRA 010215Z 07003KT 9999 -RA FEW020 BKN025 15/15 Q1015=
201205010145 METAR LIRA 010145Z 07002KT 9999 -RA FEW020 BKN025 16/14 Q1015=
201205010115 METAR LIRA 010115Z 19001KT 9999 FEW018 SCT025 BKN070 16/14
                        Q1015=
201205010045 METAR LIRA 010045Z 23002KT 9999 FEW018 SCT030 BKN080 16/14
                        Q1015=
201205010015 METAR LIRA 010015Z 29001KT 9999 FEW030 BKN080 16/14 Q1015=

</pre>

</body>
</html>
