##########################################################
# Query made at 11/10/2014 14:56:08 UTC
# Time interval: from 05/01/2009 00:00  to 05/31/2009 23:59  UTC
##########################################################

##########################################################
# LIRA, Roma / Ciampino (Italy)
# WMO index: 16239
# Latitude 41-47N. Longitude 012-35E. Altitude 129 m.
##########################################################

###################################
#  METAR/SPECI from LIRA
###################################
200905312350 METAR LIRA 010045Z 11008KT 9999 -RA FEW017TCU SCT030 18/15
                        Q1014=
200905312345 METAR LIRA 312345Z 12006KT 9999 -RA FEW017TCU SCT018 18/15
                        Q1014=
200905312315 METAR LIRA 312315Z 10008KT 9999 FEW017TCU SCT030 19/16 Q1015=
200905312245 METAR LIRA 312245Z 14008KT 9999 -RA FEW017TCU SCT030 19/16
                        Q1015=
200905312215 METAR LIRA 312215Z 16005KT 9999 -RA FEW017TCU SCT030 19/15
                        Q1016=
200905312145 METAR LIRA 312145Z 06004KT 9999 -RA FEW017TCU SCT030 19/15
                        Q1016=
200905312115 METAR LIRA 312115Z 07002KT 9999 -RA FEW017TCU SCT030 19/16
                        Q1016=
200905312045 METAR LIRA 312045Z 13004KT 9999 -RA FEW017CB SCT018 19/16
                        Q1016=
200905312015 METAR LIRA 312015Z 12006KT 090V160 9999 FEW017CB SCT018 19/16
                        Q1016=
200905311945 METAR LIRA 311945Z 14007KT 120V180 9999 FEW017TCU SCT018
                        19/16 Q1016=
200905311915 METAR LIRA 311915Z 16008KT 9000 FEW017CB SCT018 19/16 Q1016=
200905311845 METAR LIRA 311845Z 17009KT 140V210 8000 FEW017CB FEW018TCU
                        19/17 Q1016=
200905311815 METAR LIRA 311815Z 18008KT 130V210 8000 FEW017CB SCT018TCU
                        19/17 Q1016=
200905311745 METAR LIRA 311745Z 18007KT 140V210 7000 FEW017CB SCT018 20/19
                        Q1015=
200905311715 METAR LIRA 311715Z 19009KT 150V220 7000 FEW017CB SCT018 19/18
                        Q1015=
200905311645 METAR LIRA 311645Z 18009KT 140V230 6000 FEW017CB SCT018 19/19
                        Q1015 RERA=
200905311615 METAR LIRA 311615Z 18013KT 150V220 4000 -SHRA BR FEW017CB
                        SCT018 21/19 Q1015 RERA=
200905311545 METAR LIRA 311545Z 16015KT 9999 SCT018 SCT030 23/18 Q1015=
200905311515 METAR LIRA 311515Z 17014KT 130V210 9999 SCT018 SCT030 23/18
                        Q1015=
200905311445 METAR LIRA 311445Z 17014KT 9999 BKN018 SCT030 23/16 Q1015=
200905311415 METAR LIRA 311415Z 17018KT 130V220 9999 BKN018 23/17 Q1015=
200905311345 METAR LIRA 311345Z 02019KT 130V200 9999 BKN018 SCT030 23/17
                        Q1015=
200905311315 METAR LIRA 311315Z 17019KT 130V220 9999 BKN018 SCT030 23/14
                        Q1016=
200905311245 METAR LIRA 311245Z 17014KT 9999 BKN020 23/14 Q1016=
200905311215 METAR LIRA 311215Z 17013G23KT 130V240 9999 BKN020 23/14 Q1016=
200905311145 METAR LIRA 311145Z 14015KT 130V230 9999 SCT020 SCT070 24/15
                        Q1016=
200905311115 METAR LIRA 311115Z 15019KT 130V200 9999 SCT020 24/15 Q1016=
200905311045 METAR LIRA 311045Z 16013KT 130V220 9999 SCT020 SCT070 24/16
                        Q1016=
200905311015 METAR LIRA 311015Z 14014KT 110V190 9999 SCT020 24/16 Q1016=
200905310945 METAR LIRA 310945Z 15011KT 100V180 9999 SCT020 SCT070 23/16
                        Q1017=
200905310915 METAR LIRA 310915Z 17011KT 130V210 9999 SCT020 SCT070 22/17
                        Q1017=
200905310845 METAR LIRA 310845Z 17012KT 120V200 9999 SCT020 SCT070 22/17
                        Q1017=
200905310815 METAR LIRA 310815Z 14010KT 110V190 9999 SCT020 SCT070 22/17
                        Q1017=
200905310745 METAR LIRA 310745Z 15015KT 130V190 9999 SCT020 22/17 Q1017=
200905310715 METAR LIRA 310715Z 15013KT 120V190 9999 SCT020 SCT070 21/16
                        Q1017=
200905310645 METAR LIRA 310645Z 14015KT 9999 SCT020 SCT070 21/16 Q1017=
200905310615 METAR LIRA 310615Z 15013KT 100V180 9999 SCT020 SCT070 20/16
                        Q1017=
200905310545 METAR LIRA 310545Z 15011KT 9999 SCT020 20/16 Q1017=
200905310515 METAR LIRA 310515Z 14007KT 090V170 9999 FEW020 17/13 Q1017=
200905310445 METAR LIRA 310445Z 35002KT 9999 FEW020 SCT070 16/13 Q1017=
200905310415 METAR LIRA 310415Z 05001KT 9999 FEW022 SCT070 16/13 Q1017=
200905310345 METAR LIRA 310345Z 00000KT 9999 FEW022 SCT080 16/13 Q1017=
200905310315 METAR LIRA 310315Z 00000KT 9999 FEW022 SCT080 16/13 Q1017=
200905310245 METAR LIRA 310245Z 00000KT 9999 FEW022 SCT080 16/12 Q1017=
200905310215 METAR LIRA 310215Z 00000KT 9999 SCT080 16/12 Q1017=
200905310145 METAR LIRA 310145Z 00000KT 9999 FEW080 16/12 Q1017=
200905310115 METAR LIRA 310115Z 00000KT 9999 FEW080 17/12 Q1017=
200905310045 METAR LIRA 310045Z 11002KT 9999 FEW080 17/13 Q1017=
200905310015 METAR LIRA 310015Z 00000KT 9999 FEW080 17/13 Q1018=
200905302345 METAR LIRA 302345Z 00000KT 9999 FEW080 17/13 Q1018=
200905302315 METAR LIRA 302315Z 15003KT 9999 FEW080 19/12 Q1018=
200905302245 METAR LIRA 302245Z 00000KT 9999 FEW080 19/12 Q1018=
200905302215 METAR LIRA 302215Z 08003KT 9999 FEW080 19/12 Q1018=
200905302145 METAR LIRA 302145Z 17003KT 9999 FEW080 19/12 Q1018=
200905302115 METAR LIRA 302115Z 17003KT 9999 FEW080 19/13 Q1018=
200905302045 METAR LIRA 302045Z 17004KT 9999 SCT080 19/13 Q1018=
200905302015 METAR LIRA 302015Z 17004KT 9999 FEW020 SCT080 19/13 Q1018=
200905301945 METAR LIRA 301945Z 19005KT 9999 FEW020 SCT080 20/13 Q1017=
200905301915 METAR LIRA 301915Z 25003KT 9999 FEW020 SCT080 22/14 Q1017=
200905301845 METAR LIRA 301845Z 22004KT 9999 FEW020 SCT080 23/14 Q1017=
200905301815 METAR LIRA 301815Z 23004KT 9999 FEW020 23/13 Q1017=
200905301745 METAR LIRA 301745Z 23005KT 200V270 9999 FEW020 23/13 Q1017=
200905301715 METAR LIRA 301715Z 23006KT 200V270 9999 FEW020 23/13 Q1017=
200905301645 METAR LIRA 301645Z 23008KT 180V280 9999 FEW020 24/13 Q1017=
200905301615 METAR LIRA 301615Z 23006KT 180V310 9999 FEW020 24/13 Q1017=
200905301545 METAR LIRA 301545Z 26006KT 200V300 9999 FEW020 24/13 Q1017=
200905301515 METAR LIRA 301515Z 26004KT 170V290 9999 FEW020 24/13 Q1017=
200905301445 METAR LIRA 301445Z 19008KT 140V270 9999 FEW020 24/13 Q1018=
200905301415 METAR LIRA 301415Z 22009KT 180V280 9999 FEW020 24/13 Q1018=
200905301345 METAR LIRA 301345Z 22005KT 150V270 9999 FEW020 24/13 Q1018=
200905301315 METAR LIRA 301315Z 18006KT 130V240 9999 SCT018 24/11 Q1018=
200905301245 METAR LIRA 301245Z 21006KT 150V250 9999 SCT018 24/12 Q1018=
200905301215 METAR LIRA 301215Z 13004KT 9999 SCT018 SCT070 23/13 Q1018=
200905301145 METAR LIRA 301145Z 18003KT 140V270 9999 SCT018 SCT070 23/14
                        Q1018=
200905301115 METAR LIRA 301115Z 14006KT 090V210 9999 FEW018 SCT070 23/12
                        Q1018=
200905301045 METAR LIRA 301045Z 08002KT 9999 FEW018 SCT070 22/12 Q1018=
200905301015 METAR LIRA 301015Z 18006KT 120V230 9999 FEW020 SCT070 21/12
                        Q1018=
200905301000 METAR LIRA INTER CB SE/SW/W=
200905300945 METAR LIRA 300945Z 24003KT 9999 FEW020 BKN070 20/11 Q1018=
200905300915 METAR LIRA 300915Z 05008KT 360V100 9999 FEW020 BKN070 20/11
                        Q1018=
200905300845 METAR LIRA 300845Z 04008KT 350V080 9999 FEW020 SCT035 BKN070
                        19/11 Q1018=
200905300815 METAR LIRA 300815Z 03002KT 9999 FEW020 SCT035 BKN070 18/12
                        Q1018=
200905300745 METAR LIRA 300745Z 04005KT 360V090 9999 FEW020 SCT035 BKN070
                        17/11 Q1018=
200905300715 METAR LIRA 300715Z 02005KT 340V080 9999 FEW020 SCT040 BKN070
                        16/11 Q1018=
200905300645 METAR LIRA 300645Z 03006KT 350V080 9999 FEW020 SCT040 BKN070
                        16/11 Q1017=
200905300615 METAR LIRA 300615Z 04011KT 360V080 9999 FEW020 BKN040 16/11
                        Q1017=
200905300545 METAR LIRA 300545Z 05009KT 350V090 9999 FEW020 BKN035 15/11
                        Q1017=
200905300515 METAR LIRA 300515Z 03007KT 340V080 9999 FEW020 BKN035 15/12
                        Q1017=
200905300445 METAR LIRA 300445Z 02006KT 310V080 9999 FEW020 SCT030 BKN060
                        15/12 Q1016=
200905300415 METAR LIRA 300415Z 05002KT 9999 FEW020 SCT030 BKN070 16/13
                        Q1016=
200905300345 METAR LIRA 300345Z 12005KT 340V150 9999 -RA SCT020 BKN030
                        16/11 Q1016=
200905300315 METAR LIRA 300315Z 06002KT 9999 -RA SCT020 SCT030 16/11 Q1016=
200905300245 METAR LIRA 300245Z 04005KT 350V080 9999 -RA FEW018CB SCT020
                        16/11 Q1016=
200905300215 METAR LIRA 300215Z 06009KT 030V110 9999 FEW018TCU SCT020
                        16/12 Q1015=
200905300145 METAR LIRA 300145Z 05012KT 010V110 9999 FEW018TCU SCT020
                        17/13 Q1015=
200905300115 METAR LIRA 300115Z 02010KT 330V060 9999 FEW018TCU SCT020
                        17/14 Q1015=
200905300045 METAR LIRA 300045Z 36009KT 300V080 9999 FEW018TCU SCT020
                        18/13 Q1016 RETS=
200905300015 METAR LIRA 300015Z 36008KT 300V050 9999 FEW017CB SCT018 18/15
                        Q1015 RETS=
200905292345 METAR LIRA 292345Z 35007KT 290V040 9000 -TSRA FEW017CB FEW018TCU
                        SCT025 19/18 Q1016=
200905292315 METAR LIRA 292315Z 36006KT 300V040 7000 -TSRA FEW017CB SCT018TCU
                        19/18 Q1015=
200905292245 METAR LIRA 292245Z 19002KT 9999 TS FEW017CB FEW018TCU 19/18
                        Q1015=
200905292215 METAR LIRA 292215Z 16002KT 9999 FEW018 FEW020TCU 20/18 Q1015=
200905292145 METAR LIRA 292145Z 00000KT 9999 FEW018 FEW020TCU 20/19 Q1015=
200905292115 METAR LIRA 292115Z 19002KT 9999 FEW018 FEW020TCU 20/18 Q1015=
200905292045 METAR LIRA 292045Z 00000KT 9999 SCT018 21/19 Q1015=
200905292015 METAR LIRA 292015Z 19001KT 9999 FEW020 FEW025TCU 21/19 Q1015=
200905291945 METAR LIRA 291945Z 18003KT 9999 FEW020 FEW025TCU 21/19 Q1014=
200905291915 METAR LIRA 291915Z 18004KT 9999 SCT020 FEW025TCU 21/19 Q1014=
200905291845 METAR LIRA 291845Z 19005KT 9999 FEW020 FEW025TCU 22/17 Q1014=
200905291815 METAR LIRA 291815Z 21004KT 9999 FEW020 FEW025CB 23/17 Q1014=
200905291745 METAR LIRA 291745Z 23006KT 9999 FEW020 FEW025CB 24/17 Q1014=
200905291715 METAR LIRA 291715Z 22007KT 9999 FEW020 FEW025CB 24/17 Q1014=
200905291645 METAR LIRA 291645Z 23006KT 160V260 9999 FEW020 FEW025CB SCT200
                        25/17 Q1014=
200905291615 METAR LIRA 291615Z 20006KT 150V270 9999 FEW020 FEW025CB SCT200
                        25/16 Q1014=
200905291545 METAR LIRA 291545Z 23008KT 180V270 9999 FEW020 SCT200 25/17
                        Q1014=
200905291515 METAR LIRA 291515Z 21007KT 180V270 9999 SCT020 SCT200 26/16
                        Q1015=
200905291445 METAR LIRA 291445Z 23007KT 160V270 9999 SCT020 SCT200 26/16
                        Q1015=
200905291415 METAR LIRA 291415Z 23007KT 200V300 9999 SCT018 26/16 Q1015=
200905291345 METAR LIRA 291345Z 21006KT 160V300 9999 SCT018 26/16 Q1015=
200905291315 METAR LIRA 291315Z 21007KT 160V280 9999 SCT018 25/16 Q1016=
200905291245 METAR LIRA 291245Z 21010KT 160V270 9999 SCT018 25/17 Q1016=
200905291215 METAR LIRA 291215Z 24010KT 170V290 9999 SCT018 24/16 Q1016=
200905291145 METAR LIRA 291145Z 24007KT 190V310 9999 SCT018 25/17 Q1016=
200905291115 METAR LIRA 291115Z 32004KT 9999 SCT018 25/15 Q1016=
200905291045 METAR LIRA 291045Z 26003KT 9999 SCT018 25/15 Q1016=
200905291015 METAR LIRA 291015Z 32006KT 9999 SCT018 24/16 Q1017=
200905290945 METAR LIRA 290945Z 32005KT 9999 SCT018 24/16 Q1017=
200905290915 METAR LIRA 290915Z 30001KT 9999 SCT018 23/16 Q1017=
200905290845 METAR LIRA 290845Z 32003KT 9999 SCT018 23/16 Q1017=
200905290815 METAR LIRA 290815Z 02001KT 9999 SCT018 22/16 Q1017=
200905290745 METAR LIRA 290745Z 01002KT 9999 SCT018 SCT070 21/15 Q1017
                        RMK=
200905290715 METAR LIRA 290715Z 03005KT 360V090 9999 FEW018 SCT070 20/14
                        Q1017=
200905290645 METAR LIRA 290645Z 04004KT 9999 FEW018 SCT200 20/14 Q1017
                        RMK=
200905290615 METAR LIRA 290615Z 36002KT 9999 FEW018 SCT200 17/12 Q1017=
200905290545 METAR LIRA 290545Z 01004KT 9999 FEW018 SCT200 16/12 Q1017
                        RMK=
200905290515 METAR LIRA 290515Z 01005KT 9999 FEW018 SCT025 15/09 Q1017=
200905290445 METAR LIRA 290445Z 04005KT 360V090 9999 FEW015 SCT025 15/09
                        Q1017 RMK=
200905290415 METAR LIRA 290415Z 04003KT 9999 SCT015 SCT025 15/09 Q1017=
200905290345 METAR LIRA 290345Z 02003KT 9999 SCT015 SCT025 15/09 Q1017
                        RMK=
200905290315 METAR LIRA 290315Z 04003KT 9999 FEW015 15/09 Q1017 RMK=
200905290245 METAR LIRA 290245Z 02004KT CAVOK 15/08 Q1017 RMK=
200905290215 METAR LIRA 290215Z 06005KT CAVOK 15/08 Q1017 RMK=
200905290145 METAR LIRA 290145Z 04004KT CAVOK 16/09 Q1018 RMK=
200905290115 METAR LIRA 290115Z 05005KT CAVOK 16/10 Q1017 RMK=
200905290045 METAR LIRA 290045Z 04004KT CAVOK 17/09 Q1017 RMK=
200905290015 METAR LIRA 290015Z 03005KT CAVOK 18/10 Q1017 RMK=
200905282350 METAR LIRA 290045Z 04004KT CAVOK 17/09 Q1017 RMK=
200905282345 METAR LIRA 282345Z 03004KT CAVOK 18/10 Q1018=
200905282315 METAR LIRA 282315Z 02005KT CAVOK 19/10 Q1018=
200905282245 METAR LIRA 282245Z 36004KT CAVOK 19/10 Q1018 RMK=
200905282215 METAR LIRA 282215Z 35003KT CAVOK 19/09 Q1018=
200905282145 METAR LIRA 282145Z 05003KT CAVOK 21/09 Q1018 RMK=
200905282115 METAR LIRA 282115Z 02004KT 340V040 CAVOK 20/10 Q1017=
200905282045 METAR LIRA 282045Z 36006KT 310V050 CAVOK 21/13 Q1017 RMK=
200905282015 METAR LIRA 282015Z 04004KT 9999 FEW020 22/17 Q1017=
200905281945 METAR LIRA 281945Z 35005KT 9999 FEW020 22/17 Q1017 RMK=
200905281915 METAR LIRA 281915Z 24002KT 9999 FEW020 23/17 Q1017=
200905281845 METAR LIRA 281845Z 26001KT 9999 FEW020 24/18 Q1017 RMK=
200905281815 METAR LIRA 281815Z 23003KT 9999 FEW020 24/17 Q1016=
200905281745 METAR LIRA 281745Z 25003KT 9999 FEW020 25/16 Q1017 RMK=
200905281715 METAR LIRA 281715Z 24004KT 9999 FEW020TCU 25/16 Q1017=
200905281645 METAR LIRA 281645Z 36001KT 9999 FEW020TCU 25/17 Q1017 RMK=
200905281615 METAR LIRA 281615Z 33001KT 9999 FEW020 25/18 Q1017=
200905281545 METAR LIRA 281545Z 00000KT 9999 FEW020 FEW022TCU SCT200 24/18
                        Q1017 RMK=
200905281515 METAR LIRA 281515Z 14001KT 9999 FEW020 SCT200 22/18 Q1017=
200905281445 METAR LIRA 281445Z 03001KT 9999 FEW018 SCT080 21/18 Q1018
                        RMK=
200905281415 METAR LIRA 281415Z 36001KT 9999 FEW018 FEW020CB SCT070 21/18
                        Q1018=
200905281345 METAR LIRA 281345Z 11004KT 9999 -RA FEW018 FEW020CB SCT070
                        21/17 Q1018 RMK=
200905281315 METAR LIRA 281315Z 08004KT 9999 -RA FEW018 FEW020CB SCT070
                        21/16 Q1018=
200905281245 METAR LIRA 281245Z 17003KT 9999 -RA FEW018 FEW020CB SCT070
                        19/16 Q1018 RMK=
200905281215 METAR LIRA 281215Z 12007KT 090V160 9999 SCT018 FEW020CB SCT030
                        18/16 Q1018 RETS=
200905281145 METAR LIRA 281145Z 13006KT 090V180 9999 SCT016 FEW020CB SCT030
                        19/16 Q1018 RMK RETS=
200905281115 METAR LIRA 281115Z 14010KT 110V180 9999 -TSRA SCT015 SCT020CB
                        BKN030 21/16 Q1018=
200905281045 METAR LIRA 281045Z 15008KT 140V220 9999 -TSRA SCT015 SCT020CB
                        24/17 Q1018=
200905281015 METAR LIRA 281015Z 20006KT 160V240 9999 -TSRA SCT015 SCT020CB
                        24/17 Q1017=
200905280945 METAR LIRA 280945Z 14009KT 100V220 8000 -TSRA SCT015 SCT020CB
                        25/17 Q1017=
200905280915 METAR LIRA 280915Z 34006KT 310V020 8000 SCT018 FEW020CB 24/18
                        Q1017=
200905280845 METAR LIRA 280845Z 35006KT 300V060 9999 SCT018 24/18 Q1017=
200905280815 METAR LIRA 280815Z 01003KT 340V070 9999 FEW018 23/18 Q1017=
200905280745 METAR LIRA 280745Z 03005KT 300V050 9999 FEW018 21/17 Q1017=
200905280715 METAR LIRA 280715Z 02007KT 300V070 9999 FEW018 21/17 Q1017=
200905280645 METAR LIRA 280645Z 01007KT 300V070 9999 FEW018 20/17 Q1017=
200905280615 METAR LIRA 280615Z 35006KT 300V040 9999 FEW018 20/17 Q1017=
200905280545 METAR LIRA 280545Z 03006KT 320V070 9999 FEW016 SCT025 19/16
                        Q1017=
200905280515 METAR LIRA 280515Z 04005KT 350V070 9999 FEW016 SCT025 19/16
                        Q1017=
200905280445 METAR LIRA 280445Z 05005KT 350V070 9999 SCT015 SCT023 19/17
                        Q1016=
200905280415 METAR LIRA 280415Z 05004KT 9000 SCT010 SCT023 19/17 Q1016=
200905280345 METAR LIRA 280345Z 04005KT 7000 SCT015 SCT025 19/17 Q1016=
200905280315 METAR LIRA 280315Z 04006KT 360V090 7000 SCT015 SCT025 19/17
                        Q1016=
200905280245 METAR LIRA 280245Z 03004KT 7000 SCT015 SCT025 18/15 Q1016=
200905280215 METAR LIRA 280215Z 04004KT 7000 SCT015 SCT025 18/15 Q1015=
200905280145 METAR LIRA 280145Z 32004KT 7000 FEW018 19/16 Q1015=
200905280115 METAR LIRA 280115Z 30004KT 7000 FEW018 19/16 Q1015=
200905280045 METAR LIRA 280045Z 00000KT 7000 FEW015 19/17 Q1016=
200905280015 METAR LIRA 280015Z 00000KT 7000 FEW018 20/18 Q1016=
200905272350 METAR LIRA 280045Z 00000KT 7000 FEW015 19/17 Q1016=
200905272345 METAR LIRA 272345Z 16003KT 9000 FEW015 20/19 Q1016=
200905272315 METAR LIRA 272315Z 06001KT 9000 FEW018 21/19 Q1016=
200905272245 METAR LIRA 272245Z 15001KT 8000 FEW015 21/20 Q1016=
200905272215 METAR LIRA 272215Z 19001KT 8000 FEW015 21/20 Q1016=
200905272145 METAR LIRA 272145Z 17004KT 7000 FEW015 21/20 Q1016=
200905272115 METAR LIRA 272115Z 15005KT 7000 FEW015 SCT025 21/19 Q1016=
200905272045 METAR LIRA 272045Z 18004KT 8000 SCT014 SCT025 20/18 Q1016=
200905272015 METAR LIRA 272015Z 22002KT 8000 SCT015 SCT027 20/18 Q1016=
200905271945 METAR LIRA 271945Z 22003KT 8000 SCT015 21/19 Q1015=
200905271915 METAR LIRA 271915Z 22004KT 7000 SCT015 22/19 Q1015=
200905271845 METAR LIRA 271845Z 25002KT 7000 SCT015 22/19 Q1015=
200905271815 METAR LIRA 271815Z 26003KT 220V310 9999 BKN018 22/19 Q1014=
200905271745 METAR LIRA 271745Z 24006KT 190V290 9999 BKN018 23/20 Q1014=
200905271715 METAR LIRA 271715Z 24005KT 190V310 9999 BKN018 23/20 Q1014=
200905271645 METAR LIRA 271645Z 20005KT 160V260 9999 SCT018 23/20 Q1014=
200905271615 METAR LIRA 271615Z 22007KT 170V260 9999 SCT018 24/19 Q1014=
200905271545 METAR LIRA 271545Z 20006KT 170V260 9999 SCT017 25/20 Q1014=
200905271515 METAR LIRA 271515Z 21007KT 150V270 9999 SCT017 26/20 Q1014=
200905271445 METAR LIRA 271445Z 21011KT 160V270 9999 FEW017 FEW018TCU
                        26/19 Q1014=
200905271415 METAR LIRA 271415Z 19010KT 160V260 9999 FEW017 FEW018TCU
                        26/20 Q1015=
200905271345 METAR LIRA 271345Z 19010KT 160V240 9999 FEW017 FEW018TCU
                        26/19 Q1015=
200905271315 METAR LIRA 271315Z 21010KT 160V270 9999 SCT017 FEW018TCU
                        26/19 Q1015=
200905271245 METAR LIRA 271245Z 19011KT 140V260 9999 SCT017 FEW018TCU
                        27/20 Q1015=
200905271215 METAR LIRA 271215Z 19012KT 140V240 9999 SCT017 FEW018TCU
                        27/19 Q1015=
200905271145 METAR LIRA 271145Z 18011KT 150V250 9999 SCT017 26/19 Q1015=
200905271115 METAR LIRA 271115Z 19010KT 140V230 9999 SCT017 26/19 Q1015=
200905271045 METAR LIRA 271045Z 19009KT 140V230 9999 SCT017 25/19 Q1015=
200905271015 METAR LIRA 271015Z 21010KT 150V260 9999 SCT017 25/21 Q1015=
200905270945 METAR LIRA 270945Z 19009KT 150V260 9999 SCT017 25/19 Q1014=
200905270915 METAR LIRA 270915Z 19009KT 130V250 9999 SCT017 24/19 Q1014=
200905270845 METAR LIRA 270845Z 19007KT 150V250 9999 SCT017 24/19 Q1014=
200905270815 METAR LIRA 270815Z 21007KT 140V280 9999 SCT017 23/19 Q1014=
200905270745 METAR LIRA 270745Z 21006KT 170V260 9999 SCT017 SCT030 23/19
                        Q1014=
200905270715 METAR LIRA 270715Z 21006KT 150V320 9999 SCT017 SCT030 22/20
                        Q1014=
200905270645 METAR LIRA 270645Z 22009KT 160V260 9999 SCT017 22/18 Q1014=
200905270615 METAR LIRA 270615Z 19007KT 150V250 9999 SCT017 21/16 Q1013=
200905270545 METAR LIRA 270545Z 21005KT 180V240 9999 SCT017 20/17 Q1013=
200905270515 METAR LIRA 270515Z 21005KT 170V230 9999 FEW017 20/17 Q1013=
200905270445 METAR LIRA 270445Z 09003KT 9999 FEW017 19/17 Q1013=
200905270415 METAR LIRA 270415Z 11002KT 9999 FEW017 20/17 Q1013=
200905270345 METAR LIRA 270345Z 14006KT 9999 FEW070 20/18 Q1013=
200905270315 METAR LIRA 270315Z 14004KT 9999 FEW070 19/18 Q1013=
200905270245 METAR LIRA 270245Z 19007KT 150V240 CAVOK 19/18 Q1013=
200905270215 METAR LIRA 270215Z 23005KT CAVOK 21/19 Q1013=
200905270145 METAR LIRA 270145Z 11003KT CAVOK 21/19 Q1013=
200905270115 METAR LIRA 270115Z 11003KT CAVOK 21/19 Q1013=
200905270045 METAR LIRA 270045Z 11006KT CAVOK 21/17 Q1013=
200905270015 METAR LIRA 270015Z 10004KT 090V150 CAVOK 21/16 Q1014=
200905262345 METAR LIRA 262345Z 14006KT CAVOK 21/13 Q1014=
200905262315 METAR LIRA 262315Z 14005KT CAVOK 22/12 Q1014=
200905262245 METAR LIRA 262245Z 14005KT CAVOK 22/12 Q1014=
200905262215 METAR LIRA 262215Z 17004KT CAVOK 23/16 Q1014=
200905262145 METAR LIRA 262145Z 14005KT CAVOK 23/16 Q1014=
200905262115 METAR LIRA 262115Z 15005KT CAVOK 24/18 Q1014=
200905262045 METAR LIRA 262045Z 15005KT CAVOK 23/17 Q1014=
200905262015 METAR LIRA 262015Z 18005KT CAVOK 24/15 Q1014=
200905261945 METAR LIRA 261945Z 18004KT CAVOK 25/14 Q1014=
200905261915 METAR LIRA 261915Z 19006KT 160V220 CAVOK 26/13 Q1014=
200905261845 METAR LIRA 261845Z 23005KT CAVOK 27/11 Q1013=
200905261815 METAR LIRA 261815Z 23005KT 9999 FEW020 28/10 Q1013=
200905261745 METAR LIRA 261745Z 23004KT 9999 FEW020 29/10 Q1013=
200905261715 METAR LIRA 261715Z 23005KT 9999 FEW020 30/10 Q1013=
200905261645 METAR LIRA 261645Z 23004KT 9999 FEW020 30/10 Q1013=
200905261615 METAR LIRA 261615Z 24005KT 9999 FEW020 30/10 Q1013=
200905261545 METAR LIRA 261545Z 21005KT 190V260 9999 FEW020 31/10 Q1014=
200905261515 METAR LIRA 261515Z 24006KT 180V300 9999 FEW020 31/10 Q1014=
200905261445 METAR LIRA 261445Z 24008KT 190V290 9999 FEW020 32/11 Q1014=
200905261415 METAR LIRA 261415Z 22006KT 140V330 9999 FEW020 32/11 Q1014=
200905261345 METAR LIRA 261345Z 22007KT 160V250 9999 FEW022 32/11 Q1014=
200905261315 METAR LIRA 261315Z 24005KT 190V280 9999 FEW022 33/12 Q1015=
200905261245 METAR LIRA 261245Z 23005KT 170V280 9999 FEW020 32/12 Q1015=
200905261215 METAR LIRA 261215Z 23006KT 160V280 9999 FEW020 32/13 Q1015=
200905261145 METAR LIRA 261145Z 24005KT 200V290 9999 FEW020 32/13 Q1015=
200905261115 METAR LIRA 261115Z 22005KT 130V270 CAVOK 32/14 Q1015=
200905261045 METAR LIRA 261045Z 24005KT 190V330 CAVOK 31/13 Q1015=
200905261015 METAR LIRA 261015Z 24005KT 180V360 CAVOK 30/13 Q1015=
200905260945 METAR LIRA 260945Z 24005KT 200V260 CAVOK 29/12 Q1015=
200905260915 METAR LIRA 260915Z 26005KT CAVOK 29/15 Q1015=
200905260845 METAR LIRA 260845Z 22005KT 180V310 CAVOK 28/15 Q1015=
200905260815 METAR LIRA 260815Z 23005KT 190V250 CAVOK 27/18 Q1016=
200905260745 METAR LIRA 260745Z 19005KT 150V250 CAVOK 25/16 Q1016=
200905260715 METAR LIRA 260715Z 20005KT 170V240 CAVOK 24/15 Q1016=
200905260645 METAR LIRA 260645Z 24004KT CAVOK 21/16 Q1016=
200905260615 METAR LIRA 260615Z 00000KT CAVOK 20/15 Q1015=
200905260545 METAR LIRA 260545Z 00000KT CAVOK 19/15 Q1015=
200905260515 METAR LIRA 260515Z 00000KT CAVOK 19/14 Q1015=
200905260445 METAR LIRA 260445Z 00000KT CAVOK 19/14 Q1015=
200905260415 METAR LIRA 260415Z 00000KT CAVOK 19/14 Q1015=
200905260345 METAR LIRA 260345Z 00000KT CAVOK 19/13 Q1015=
200905260315 METAR LIRA 260315Z 10001KT CAVOK 20/13 Q1015=
200905260245 METAR LIRA 260245Z 00000KT CAVOK 21/14 Q1015=
200905260215 METAR LIRA 260215Z 14002KT CAVOK 21/14 Q1015=
200905260145 METAR LIRA 260145Z 13002KT CAVOK 22/14 Q1016=
200905260115 METAR LIRA 260115Z 13002KT CAVOK 22/15 Q1016=
200905260045 METAR LIRA 260045Z 16003KT CAVOK 21/15 Q1016=
200905260015 METAR LIRA 260015Z 16004KT CAVOK 21/15 Q1016=
200905252345 METAR LIRA 252345Z 00000KT CAVOK 22/15 Q1016=
200905252315 METAR LIRA 252315Z 00000KT CAVOK 22/15 Q1016=
200905252245 METAR LIRA 252245Z 00000KT CAVOK 22/15 Q1016=
200905252215 METAR LIRA 252215Z 09002KT CAVOK 22/15 Q1017=
200905252145 METAR LIRA 252145Z 00000KT CAVOK 22/15 Q1017=
200905252115 METAR LIRA 252115Z 00000KT CAVOK 23/16 Q1017=
200905252045 METAR LIRA 252045Z 22003KT CAVOK 24/15 Q1017=
200905252015 METAR LIRA 252015Z 22004KT CAVOK 24/15 Q1016=
200905251945 METAR LIRA 251945Z 20004KT CAVOK 25/15 Q1016=
200905251915 METAR LIRA 251915Z 21005KT CAVOK 26/14 Q1016=
200905251845 METAR LIRA 251845Z 21003KT CAVOK 26/10 Q1016=
200905251815 METAR LIRA 251815Z 22004KT CAVOK 29/12 Q1016=
200905251745 METAR LIRA 251745Z 19004KT 9999 FEW070 SCT200 29/12 Q1016=
200905251715 METAR LIRA 251715Z 24003KT 9999 FEW025CB BKN200 30/12 Q1016=
200905251645 METAR LIRA 251645Z 24004KT 200V310 9999 FEW025CB SCT200 30/12
                        Q1016=
200905251615 METAR LIRA 251615Z 25006KT 180V320 9999 FEW025CB SCT200 30/13
                        Q1017=
200905251545 METAR LIRA 251545Z 23007KT 180V300 9999 FEW024CB 31/13 Q1017=
200905251515 METAR LIRA 251515Z 24006KT 200V290 9999 FEW024CB 31/13 Q1017=
200905251445 METAR LIRA 251445Z 25007KT 200V300 9999 FEW024CB 31/13 Q1017=
200905251415 METAR LIRA 251415Z 25008KT 190V320 9999 FEW024CB 31/13 Q1017=
200905251345 METAR LIRA 251345Z 24009KT 200V300 9999 FEW022 FEW025TCU
                        32/14 Q1017=
200905251315 METAR LIRA 251315Z 27010KT 210V310 9999 FEW025 32/15 Q1017=
200905251245 METAR LIRA 251245Z 26007KT 210V330 9999 FEW025 32/15 Q1017=
200905251215 METAR LIRA 251215Z 27008KT 230V330 9999 FEW025 32/15 Q1018=
200905251145 METAR LIRA 251145Z 28008KT 210V330 CAVOK 32/17 Q1018=
200905251115 METAR LIRA 251115Z 27007KT 190V320 CAVOK 32/17 Q1018=
200905251045 METAR LIRA 251045Z 27004KT 160V300 CAVOK 31/16 Q1018=
200905251015 METAR LIRA 251015Z 29006KT 260V350 CAVOK 31/16 Q1018=
200905250945 METAR LIRA 250945Z 25003KT 230V310 CAVOK 30/16 Q1018=
200905250915 METAR LIRA 250915Z 24003KT CAVOK 29/17 Q1018=
200905250845 METAR LIRA 250845Z 36001KT CAVOK 26/17 Q1018=
200905250815 METAR LIRA 250815Z 30005KT CAVOK 26/16 Q1018=
200905250745 METAR LIRA 250745Z 32001KT CAVOK 24/17 Q1019=
200905250715 METAR LIRA 250715Z 34002KT CAVOK 24/17 Q1019=
200905250645 METAR LIRA 250645Z 00000KT CAVOK 22/16 Q1019=
200905250615 METAR LIRA 250615Z 03004KT CAVOK 21/16 Q1019=
200905250545 METAR LIRA 250545Z 02001KT CAVOK 19/15 Q1018=
200905250515 METAR LIRA 250515Z 35002KT CAVOK 18/15 Q1018=
200905250445 METAR LIRA 250445Z 00000KT CAVOK 17/15 Q1018=
200905250415 METAR LIRA 250415Z 00000KT CAVOK 17/15 Q1018=
200905250345 METAR LIRA 250345Z 31002KT CAVOK 18/13 Q1018=
200905250315 METAR LIRA 250315Z 33002KT CAVOK 18/14 Q1018=
200905250245 METAR LIRA 250245Z 04002KT CAVOK 18/14 Q1019=
200905250215 METAR LIRA 250215Z 02003KT CAVOK 19/12 Q1019=
200905250145 METAR LIRA 250145Z 03003KT CAVOK 19/11 Q1019=
200905250115 METAR LIRA 250115Z 03003KT CAVOK 19/13 Q1019=
200905250045 METAR LIRA 250045Z 00000KT CAVOK 19/13 Q1019=
200905250015 METAR LIRA 250015Z 13002KT CAVOK 20/16 Q1020=
200905242345 METAR LIRA 242345Z 13001KT CAVOK 20/17 Q1020=
200905242315 METAR LIRA 242315Z 00000KT CAVOK 20/17 Q1020=
200905242245 METAR LIRA 242245Z 00000KT CAVOK 21/17 Q1020=
200905242215 METAR LIRA 242215Z 00000KT CAVOK 21/17 Q1020=
200905242145 METAR LIRA 242145Z 00000KT CAVOK 21/17 Q1020=
200905242115 METAR LIRA 242115Z 20002KT CAVOK 22/17 Q1020=
200905242045 METAR LIRA 242045Z 00000KT CAVOK 22/17 Q1020=
200905242015 METAR LIRA 242015Z 20002KT CAVOK 23/17 Q1019=
200905241945 METAR LIRA 241945Z 20004KT CAVOK 24/18 Q1019=
200905241915 METAR LIRA 241915Z 20005KT CAVOK 24/17 Q1019=
200905241845 METAR LIRA 241845Z 21003KT CAVOK 25/17 Q1019=
200905241815 METAR LIRA 241815Z 22003KT CAVOK 27/15 Q1019=
200905241745 METAR LIRA 241745Z 21003KT CAVOK 28/12 Q1019=
200905241715 METAR LIRA 241715Z 25003KT 200V310 CAVOK 29/12 Q1019=
200905241645 METAR LIRA 241645Z 28005KT 210V330 CAVOK 30/12 Q1019=
200905241615 METAR LIRA 241615Z 25004KT 200V300 CAVOK 30/13 Q1019=
200905241545 METAR LIRA 241545Z 26006KT 210V310 CAVOK 30/14 Q1019=
200905241515 METAR LIRA 241515Z 28007KT 190V340 CAVOK 30/11 Q1019=
200905241445 METAR LIRA 241445Z 25008KT 200V330 CAVOK 31/14 Q1019=
200905241415 METAR LIRA 241415Z 25009KT 200V310 CAVOK 31/15 Q1020=
200905241345 METAR LIRA 241345Z 24008KT 190V320 CAVOK 31/16 Q1020=
200905241315 METAR LIRA 241315Z 27009KT 190V320 CAVOK 32/17 Q1020=
200905241245 METAR LIRA 241245Z 27005KT 210V350 CAVOK 31/15 Q1020=
200905241215 METAR LIRA 241215Z 27006KT 200V020 CAVOK 31/14 Q1020=
200905241145 METAR LIRA 241145Z 27004KT CAVOK 30/14 Q1020=
200905241115 METAR LIRA 241115Z 26007KT 230V290 CAVOK 30/13 Q1020=
200905241045 METAR LIRA 241045Z 27004KT CAVOK 30/12 Q1020=
200905241015 METAR LIRA 241015Z 24004KT CAVOK 29/10 Q1020=
200905240945 METAR LIRA 240945Z 23005KT CAVOK 29/11 Q1020=
200905240915 METAR LIRA 240915Z 24003KT 210V270 CAVOK 28/12 Q1020=
200905240845 METAR LIRA 240845Z 22002KT CAVOK 27/16 Q1020=
200905240815 METAR LIRA 240815Z 27002KT CAVOK 26/15 Q1020=
200905240745 METAR LIRA 240745Z 00000KT CAVOK 24/14 Q1020=
200905240715 METAR LIRA 240715Z 00000KT CAVOK 21/12 Q1020=
200905240645 METAR LIRA 240645Z 33002KT CAVOK 21/14 Q1020=
200905240615 METAR LIRA 240615Z 00000KT CAVOK 20/13 Q1020=
200905240545 METAR LIRA 240545Z 00000KT CAVOK 16/09 Q1020=
200905240515 METAR LIRA 240515Z 03001KT CAVOK 17/09 Q1019=
200905240445 METAR LIRA 240445Z 04003KT CAVOK 17/09 Q1019=
200905240415 METAR LIRA 240415Z 03002KT CAVOK 17/09 Q1019=
200905240345 METAR LIRA 240345Z 08002KT CAVOK 18/09 Q1019=
200905240315 METAR LIRA 240315Z 08002KT CAVOK 18/09 Q1019=
200905240245 METAR LIRA 240245Z 05002KT CAVOK 18/09 Q1019=
200905240215 METAR LIRA 240215Z 04002KT CAVOK 18/09 Q1019=
200905240145 METAR LIRA 240145Z 05002KT CAVOK 19/09 Q1019=
200905240115 METAR LIRA 240115Z 05002KT CAVOK 19/09 Q1019=
200905240045 METAR LIRA 240045Z 10002KT CAVOK 19/09 Q1020=
200905240015 METAR LIRA 240015Z 10002KT CAVOK 19/11 Q1020=
200905232345 METAR LIRA 232345Z 09002KT CAVOK 19/11 Q1020=
200905232315 METAR LIRA 232315Z 14001KT CAVOK 19/12 Q1020=
200905232245 METAR LIRA 232245Z 15001KT CAVOK 20/13 Q1020=
200905232215 METAR LIRA 232215Z 19002KT CAVOK 20/13 Q1020=
200905232145 METAR LIRA 232145Z 00000KT CAVOK 21/14 Q1020=
200905232115 METAR LIRA 232115Z 00000KT CAVOK 22/15 Q1020=
200905232045 METAR LIRA 232045Z 13003KT CAVOK 22/15 Q1020=
200905232015 METAR LIRA 232015Z 19003KT CAVOK 22/14 Q1020=
200905231945 METAR LIRA 231945Z 20002KT CAVOK 23/13 Q1019=
200905231915 METAR LIRA 231915Z 25001KT CAVOK 24/13 Q1019=
200905231845 METAR LIRA 231845Z 22003KT CAVOK 25/11 Q1019=
200905231815 METAR LIRA 231815Z 23005KT CAVOK 26/10 Q1019=
200905231745 METAR LIRA 231745Z 23006KT CAVOK 27/08 Q1019=
200905231715 METAR LIRA 231715Z 22007KT CAVOK 29/08 Q1018=
200905231645 METAR LIRA 231645Z 20006KT 160V250 CAVOK 29/10 Q1018=
200905231615 METAR LIRA 231615Z 17008KT 160V220 CAVOK 29/10 Q1018=
200905231545 METAR LIRA 231545Z 19006KT 130V270 CAVOK 29/09 Q1018=
200905231515 METAR LIRA 231515Z 20005KT 150V270 CAVOK 30/10 Q1019=
200905231445 METAR LIRA 231445Z 21007KT 150V260 CAVOK 30/11 Q1019=
200905231415 METAR LIRA 231415Z 22010KT 150V250 CAVOK 30/12 Q1019=
200905231345 METAR LIRA 231345Z 18010KT 130V280 CAVOK 30/12 Q1019=
200905231315 METAR LIRA 231315Z 22009KT 160V270 CAVOK 30/14 Q1019=
200905231245 METAR LIRA 231245Z 22007KT 160V280 CAVOK 30/13 Q1019=
200905231215 METAR LIRA 231215Z 22009KT 160V270 CAVOK 30/12 Q1019=
200905231145 METAR LIRA 231145Z 21008KT 170V290 CAVOK 30/13 Q1019=
200905231115 METAR LIRA 231115Z 20008KT 150V250 CAVOK 29/13 Q1019=
200905231045 METAR LIRA 231045Z 20007KT 130V240 CAVOK 29/13 Q1019=
200905231015 METAR LIRA 231015Z 20008KT 150V240 CAVOK 28/13 Q1019=
200905230945 METAR LIRA 230945Z 19007KT 150V270 CAVOK 28/14 Q1019=
200905230915 METAR LIRA 230915Z 19007KT 130V250 CAVOK 26/13 Q1019=
200905230845 METAR LIRA 230845Z 19007KT 160V250 CAVOK 26/15 Q1019=
200905230815 METAR LIRA 230815Z 20004KT CAVOK 25/17 Q1019=
200905230745 METAR LIRA 230745Z 21001KT CAVOK 22/15 Q1019=
200905230715 METAR LIRA 230715Z 00000KT CAVOK 21/15 Q1019=
200905230645 METAR LIRA 230645Z 00000KT CAVOK 20/16 Q1019=
200905230615 METAR LIRA 230615Z 01003KT 9999 FEW080 18/14 Q1019=
200905230545 METAR LIRA 230545Z 02002KT 9999 FEW080 18/12 Q1018=
200905230515 METAR LIRA 230515Z 04002KT CAVOK 17/11 Q1018=
200905230445 METAR LIRA 230445Z 05003KT CAVOK 16/11 Q1018=
200905230415 METAR LIRA 230415Z 14001KT CAVOK 17/12 Q1018=
200905230345 METAR LIRA 230345Z 16003KT CAVOK 17/14 Q1018=
200905230315 METAR LIRA 230315Z 16002KT CAVOK 17/14 Q1018=
200905230245 METAR LIRA 230245Z 00000KT CAVOK 17/14 Q1018=
200905230215 METAR LIRA 230215Z 12002KT CAVOK 18/15 Q1019=
200905230145 METAR LIRA 230145Z 34001KT CAVOK 18/15 Q1019=
200905230115 METAR LIRA 230115Z 03001KT CAVOK 18/15 Q1019=
200905230045 METAR LIRA 230045Z 33001KT CAVOK 18/16 Q1019=
200905230015 METAR LIRA 230015Z 06001KT CAVOK 18/16 Q1019=
200905222345 METAR LIRA 222345Z 07002KT CAVOK 19/16 Q1019=
200905222315 METAR LIRA 222315Z 10004KT CAVOK 19/15 Q1019=
200905222245 METAR LIRA 222245Z 08003KT CAVOK 19/15 Q1019=
200905222215 METAR LIRA 222215Z 07002KT CAVOK 19/15 Q1019=
200905222145 METAR LIRA 222145Z 01002KT CAVOK 20/15 Q1019=
200905222115 METAR LIRA 222115Z 06002KT 9999 FEW080 SCT200 20/14 Q1019=
200905222045 METAR LIRA 222045Z 19003KT CAVOK 20/14 Q1019=
200905222015 METAR LIRA 222015Z 19003KT 9999 FEW080 SCT200 21/15 Q1018=
200905221945 METAR LIRA 221945Z 20006KT 160V230 9999 FEW080 SCT200 22/15
                        Q1018=
200905221915 METAR LIRA 221915Z 21005KT 180V240 9999 FEW080 SCT200 22/15
                        Q1018=
200905221845 METAR LIRA 221845Z 21005KT 170V250 9999 FEW080 SCT200 23/15
                        Q1018=
200905221815 METAR LIRA 221815Z 22004KT 9999 FEW080 BKN200 24/15 Q1018=
200905221745 METAR LIRA 221745Z 20006KT 160V230 9999 FEW080 BKN200 26/13
                        Q1018=
200905221715 METAR LIRA 221715Z 21007KT 160V240 9999 FEW080 BKN200 27/12
                        Q1018=
200905221645 METAR LIRA 221645Z 23006KT 190V270 CAVOK 27/15 Q1018=
200905221615 METAR LIRA 221615Z 24007KT 180V300 CAVOK 28/14 Q1018=
200905221545 METAR LIRA 221545Z 24007KT 190V280 CAVOK 28/13 Q1018=
200905221515 METAR LIRA 221515Z 22007KT 190V260 CAVOK 29/12 Q1018=
200905221445 METAR LIRA 221445Z 22008KT 180V290 CAVOK 29/14 Q1019=
200905221415 METAR LIRA 221415Z 24009KT 160V280 CAVOK 29/15 Q1019=
200905221345 METAR LIRA 221345Z 23009KT 190V280 CAVOK 29/15 Q1019=
200905221315 METAR LIRA 221315Z 21008KT 180V290 CAVOK 29/17 Q1018=
200905221245 METAR LIRA 221245Z 21007KT 180V270 CAVOK 29/18 Q1018=
200905221215 METAR LIRA 221215Z 24009KT 190V290 CAVOK 30/20 Q1018=
200905221145 METAR LIRA 221145Z 22011KT 180V260 CAVOK 30/15 Q1018=
200905221115 METAR LIRA 221115Z 22009KT 180V330 CAVOK 29/15 Q1018=
200905221045 METAR LIRA 221045Z 22007KT 120V300 CAVOK 29/14 Q1018=
200905221015 METAR LIRA 221015Z 18006KT 150V250 CAVOK 29/14 Q1018=
200905220945 METAR LIRA 220945Z 21006KT 130V290 CAVOK 28/14 Q1018=
200905220915 METAR LIRA 220915Z 19006KT 140V260 CAVOK 27/14 Q1018=
200905220845 METAR LIRA 220845Z 17005KT 140V240 CAVOK 26/16 Q1018=
200905220815 METAR LIRA 220815Z 17004KT 160V250 CAVOK 25/18 Q1018=
200905220745 METAR LIRA 220745Z 00000KT CAVOK 23/19 Q1018=
200905220715 METAR LIRA 220715Z 00000KT CAVOK 21/18 Q1018=
200905220645 METAR LIRA 220645Z 00000KT CAVOK 20/16 Q1018=
200905220615 METAR LIRA 220615Z 00000KT CAVOK 18/14 Q1018=
200905220545 METAR LIRA 220545Z 00000KT CAVOK 18/15 Q1018=
200905220515 METAR LIRA 220515Z 22001KT CAVOK 17/14 Q1017=
200905220445 METAR LIRA 220445Z 24003KT CAVOK 17/13 Q1017=
200905220415 METAR LIRA 220415Z 00000KT CAVOK 18/13 Q1017=
200905220345 METAR LIRA 220345Z 00000KT CAVOK 18/13 Q1016=
200905220315 METAR LIRA 220315Z 00000KT CAVOK 19/13 Q1016=
200905220245 METAR LIRA 220245Z 00000KT CAVOK 19/13 Q1016=
200905220215 METAR LIRA 220215Z 00000KT CAVOK 19/13 Q1016=
200905220145 METAR LIRA 220145Z 11002KT CAVOK 20/13 Q1016=
200905220115 METAR LIRA 220115Z 11002KT CAVOK 20/14 Q1017=
200905220045 METAR LIRA 220045Z 10002KT CAVOK 20/14 Q1017=
200905220015 METAR LIRA 220015Z 00000KT CAVOK 20/13 Q1017=
200905212350 METAR LIRA 220045Z 10002KT CAVOK 20/14 Q1017=
200905212345 METAR LIRA 212345Z 15003KT CAVOK 21/15 Q1017=
200905212315 METAR LIRA 212315Z 14002KT CAVOK 21/15 Q1017=
200905212245 METAR LIRA 212245Z 14003KT CAVOK 21/14 Q1017=
200905212215 METAR LIRA 212215Z 12002KT CAVOK 21/14 Q1017=
200905212145 METAR LIRA 212145Z 17002KT CAVOK 22/14 Q1017=
200905212115 METAR LIRA 212115Z 00000KT CAVOK 23/15 Q1017=
200905212045 METAR LIRA 212045Z 19002KT CAVOK 23/16 Q1017=
200905212015 METAR LIRA 212015Z 19003KT CAVOK 23/16 Q1017=
200905211945 METAR LIRA 211945Z 18003KT CAVOK 24/16 Q1016=
200905211915 METAR LIRA 211915Z 18005KT CAVOK 24/15 Q1016=
200905211845 METAR LIRA 211845Z 18004KT CAVOK 25/14 Q1016=
200905211815 METAR LIRA 211815Z 21003KT CAVOK 27/15 Q1016=
200905211745 METAR LIRA 211745Z 21003KT CAVOK 27/13 Q1016=
200905211715 METAR LIRA 211715Z 22004KT CAVOK 28/13 Q1016=
200905211645 METAR LIRA 211645Z 21005KT 160V270 CAVOK 28/14 Q1016=
200905211615 METAR LIRA 211615Z 23007KT 190V270 CAVOK 28/13 Q1016=
200905211545 METAR LIRA 211545Z 22007KT 170V270 CAVOK 28/15 Q1016=
200905211515 METAR LIRA 211515Z 21009KT 150V270 CAVOK 28/15 Q1016=
200905211445 METAR LIRA 211445Z 25007KT 190V300 CAVOK 28/14 Q1016=
200905211415 METAR LIRA 211415Z 19009KT 150V260 CAVOK 28/13 Q1016=
200905211345 METAR LIRA 211345Z 22008KT 170V270 9999 FEW022 29/10 Q1016=
200905211315 METAR LIRA 211315Z 22009KT 170V260 9999 FEW022 30/10 Q1016=
200905211245 METAR LIRA 211245Z 20011KT 150V250 9999 FEW022 30/10 Q1016=
200905211215 METAR LIRA 211215Z 19009KT 150V230 9999 FEW022 30/11 Q1016=
200905211145 METAR LIRA 211145Z 25003KT 9999 FEW022 30/12 Q1016=
200905211115 METAR LIRA 211115Z 28006KT 240V320 CAVOK 29/11 Q1017=
200905211045 METAR LIRA 211045Z 28006KT 230V020 CAVOK 28/13 Q1017=
200905211015 METAR LIRA 211015Z 25003KT 260V330 CAVOK 27/13 Q1017=
200905210945 METAR LIRA 210945Z 31006KT 240V350 CAVOK 27/15 Q1017=
200905210915 METAR LIRA 210915Z 30001KT 290V070 CAVOK 26/15 Q1018=
200905210845 METAR LIRA 210845Z 04005KT 300V060 CAVOK 25/15 Q1018=
200905210815 METAR LIRA 210815Z 35005KT 310V030 CAVOK 25/17 Q1018=
200905210745 METAR LIRA 210745Z 36002KT CAVOK 24/17 Q1018=
200905210715 METAR LIRA 210715Z 03004KT CAVOK 23/17 Q1018=
200905210645 METAR LIRA 210645Z 02002KT CAVOK 21/16 Q1018=
200905210615 METAR LIRA 210615Z 03004KT CAVOK 20/15 Q1018=
200905210545 METAR LIRA 210545Z 03003KT 010V070 CAVOK 20/16 Q1018=
200905210515 METAR LIRA 210515Z 04004KT CAVOK 19/15 Q1017=
200905210445 METAR LIRA 210445Z 04003KT CAVOK 18/15 Q1017=
200905210415 METAR LIRA 210415Z 02004KT CAVOK 18/15 Q1017=
200905210345 METAR LIRA 210345Z 04003KT CAVOK 18/15 Q1017=
200905210315 METAR LIRA 210315Z 05004KT CAVOK 17/14 Q1017=
200905210245 METAR LIRA 210245Z 06004KT CAVOK 17/14 Q1017=
200905210215 METAR LIRA 210215Z 04003KT CAVOK 17/13 Q1017=
200905210145 METAR LIRA 210145Z 00000KT CAVOK 18/14 Q1017=
200905210115 METAR LIRA 210115Z 00000KT CAVOK 18/14 Q1017=
200905210045 METAR LIRA 210045Z 00000KT CAVOK 19/14 Q1017=
200905210015 METAR LIRA 210015Z 07002KT CAVOK 19/14 Q1017=
200905202345 METAR LIRA 202345Z 04003KT CAVOK 19/13 Q1017=
200905202315 METAR LIRA 202315Z 06003KT CAVOK 19/13 Q1018=
200905202245 METAR LIRA 202245Z 00000KT CAVOK 20/13 Q1018=
200905202215 METAR LIRA 202215Z 00000KT CAVOK 20/13 Q1018=
200905202145 METAR LIRA 202145Z 00000KT 9999 FEW010 21/12 Q1018=
200905202115 METAR LIRA 202115Z 22004KT 9999 FEW010 21/13 Q1018=
200905202045 METAR LIRA 202045Z 19002KT CAVOK 22/12 Q1018=
200905202015 METAR LIRA 202015Z 19004KT CAVOK 23/13 Q1017=
200905201945 METAR LIRA 201945Z 17005KT CAVOK 24/12 Q1017=
200905201915 METAR LIRA 201915Z 17005KT CAVOK 24/11 Q1017=
200905201845 METAR LIRA 201845Z 16004KT CAVOK 25/11 Q1017=
200905201815 METAR LIRA 201815Z 26004KT 240V300 CAVOK 27/12 Q1017=
200905201745 METAR LIRA 201745Z 27006KT 240V310 CAVOK 28/12 Q1017=
200905201715 METAR LIRA 201715Z 25006KT 210V330 CAVOK 29/12 Q1017=
200905201645 METAR LIRA 201645Z 27007KT 190V320 9999 FEW030 29/12 Q1017=
200905201615 METAR LIRA 201615Z 25008KT 190V300 9999 FEW030 29/11 Q1017=
200905201545 METAR LIRA 201545Z 25008KT 210V320 9999 FEW030 30/10 Q1017=
200905201515 METAR LIRA 201515Z 26007KT 220V320 9999 FEW030 30/10 Q1017=
200905201445 METAR LIRA 201445Z 26010KT 210V310 9999 FEW023 30/10 Q1017=
200905201415 METAR LIRA 201415Z 26011KT 220V310 9999 FEW023 30/11 Q1018=
200905201345 METAR LIRA 201345Z 15009KT 9999 FEW022 29/11 Q1018=
200905201315 METAR LIRA 201315Z 25009KT 210V300 9999 FEW022 29/11 Q1018=
200905201245 METAR LIRA 201245Z 24007KT 200V300 9999 FEW022 30/09 Q1019=
200905201215 METAR LIRA 201215Z 27010KT 190V330 9999 FEW022 30/09 Q1019=
200905201145 METAR LIRA 201145Z 27007KT 9999 FEW022 30/11 Q1019=
200905201115 METAR LIRA 201115Z 28004KT 240V330 9999 FEW022 29/11 Q1019=
200905201045 METAR LIRA 201045Z 36004KT 9999 FEW022 28/12 Q1019=
200905201015 METAR LIRA 201015Z 32004KT 9999 FEW022 27/11 Q1019=
200905200945 METAR LIRA 200945Z 27003KT 240V310 9999 FEW022 27/11 Q1020=
200905200915 METAR LIRA 200915Z 30002KT 9999 FEW022 26/12 Q1020=
200905200845 METAR LIRA 200845Z 30004KT CAVOK 26/14 Q1020=
200905200815 METAR LIRA 200815Z 29003KT CAVOK 25/13 Q1020=
200905200745 METAR LIRA 200745Z 30004KT CAVOK 23/15 Q1020=
200905200715 METAR LIRA 200715Z 04002KT CAVOK 21/14 Q1020=
200905200645 METAR LIRA 200645Z 02004KT CAVOK 20/15 Q1020=
200905200615 METAR LIRA 200615Z 03003KT CAVOK 18/14 Q1019=
200905200545 METAR LIRA 200545Z 36002KT CAVOK 18/14 Q1019=
200905200515 METAR LIRA 200515Z 01006KT CAVOK 17/14 Q1019=
200905200445 METAR LIRA 200445Z 03003KT CAVOK 15/13 Q1018=
200905200415 METAR LIRA 200415Z 06002KT CAVOK 16/13 Q1018=
200905200345 METAR LIRA 200345Z 06001KT CAVOK 16/13 Q1018=
200905200315 METAR LIRA 200315Z 35003KT CAVOK 16/13 Q1018=
200905200245 METAR LIRA 200245Z 07002KT CAVOK 16/13 Q1018=
200905200215 METAR LIRA 200215Z 03003KT CAVOK 17/12 Q1018=
200905200145 METAR LIRA 200145Z 36004KT CAVOK 18/12 Q1018=
200905200115 METAR LIRA 200115Z 07002KT CAVOK 18/13 Q1018=
200905200045 METAR LIRA 200045Z 30002KT CAVOK 18/13 Q1018=
200905200015 METAR LIRA 200015Z 00000KT CAVOK 19/13 Q1018=
200905192345 METAR LIRA 192345Z 00000KT CAVOK 19/12 Q1018=
200905192315 METAR LIRA 192315Z 00000KT CAVOK 19/12 Q1018=
200905192245 METAR LIRA 192245Z 00000KT CAVOK 20/11 Q1018=
200905192215 METAR LIRA 192215Z 00000KT CAVOK 21/11 Q1018=
200905192145 METAR LIRA 192145Z 00000KT CAVOK 21/11 Q1018=
200905192115 METAR LIRA 192115Z 10003KT CAVOK 22/11 Q1018=
200905192045 METAR LIRA 192045Z 15003KT CAVOK 23/11 Q1018=
200905192015 METAR LIRA 192015Z 18005KT CAVOK 23/12 Q1018=
200905191945 METAR LIRA 191945Z 17003KT CAVOK 24/11 Q1018=
200905191915 METAR LIRA 191915Z 16005KT CAVOK 24/11 Q1018=
200905191845 METAR LIRA 191845Z 16005KT 9999 FEW022 25/11 Q1017=
200905191815 METAR LIRA 191815Z 19004KT 9999 FEW022 26/10 Q1017=
200905191745 METAR LIRA 191745Z 19004KT 9999 FEW022 27/09 Q1017=
200905191715 METAR LIRA 191715Z 21004KT 190V250 9999 FEW022 27/10 Q1017=
200905191645 METAR LIRA 191645Z 24006KT 170V300 9999 FEW022 27/10 Q1017=
200905191615 METAR LIRA 191615Z 26008KT 200V310 9999 FEW022 28/10 Q1017=
200905191545 METAR LIRA 191545Z 27010KT 210V310 9999 FEW022 28/11 Q1017=
200905191515 METAR LIRA 191515Z 26010KT 220V310 9999 FEW022 28/12 Q1017=
200905191445 METAR LIRA 191445Z 25009KT 200V310 9999 FEW022 29/13 Q1017=
200905191415 METAR LIRA 191415Z 26010KT 190V320 9999 FEW022 30/13 Q1017=
200905191345 METAR LIRA 191345Z 26010KT 180V320 9999 FEW022 29/13 Q1017=
200905191315 METAR LIRA 191315Z 27010KT 210V310 9999 FEW022 30/12 Q1018=
200905191245 METAR LIRA 191245Z 27009KT 210V320 9999 FEW022 30/09 Q1018=
200905191215 METAR LIRA 191215Z 28010KT 220V350 9999 FEW022 31/10 Q1018=
200905191145 METAR LIRA 191145Z 32007KT 240V360 9999 FEW022 29/12 Q1018=
200905191115 METAR LIRA 191115Z 30009KT 270V360 9999 FEW022 29/13 Q1018=
200905191045 METAR LIRA 191045Z 29006KT 9999 FEW022 28/15 Q1018=
200905191015 METAR LIRA 191015Z 33005KT 270V360 9999 FEW022 28/16 Q1019=
200905190945 METAR LIRA 190945Z 33004KT 290V020 CAVOK 27/17 Q1019=
200905190915 METAR LIRA 190915Z 30005KT CAVOK 26/16 Q1019=
200905190845 METAR LIRA 190845Z 34001KT 9999 FEW022 25/17 Q1019=
200905190815 METAR LIRA 190815Z 33002KT CAVOK 24/17 Q1019=
200905190745 METAR LIRA 190745Z 33003KT CAVOK 22/16 Q1019=
200905190715 METAR LIRA 190715Z 31003KT CAVOK 22/17 Q1019=
200905190645 METAR LIRA 190645Z 02005KT 330V060 CAVOK 20/16 Q1018=
200905190615 METAR LIRA 190615Z 01004KT CAVOK 19/16 Q1018=
200905190545 METAR LIRA 190545Z 04003KT CAVOK 17/15 Q1018=
200905190515 METAR LIRA 190515Z 03003KT CAVOK 17/15 Q1017=
200905190445 METAR LIRA 190445Z 36002KT CAVOK 17/14 Q1017=
200905190415 METAR LIRA 190415Z 36003KT CAVOK 17/15 Q1017=
200905190345 METAR LIRA 190345Z 06004KT CAVOK 17/15 Q1017=
200905190315 METAR LIRA 190315Z 01002KT CAVOK 17/15 Q1017=
200905190245 METAR LIRA 190245Z 04005KT CAVOK 17/15 Q1017=
200905190215 METAR LIRA 190215Z 05004KT CAVOK 17/16 Q1017=
200905190145 METAR LIRA 190145Z 05003KT CAVOK 17/17 Q1017=
200905190115 METAR LIRA 190115Z 06002KT CAVOK 18/16 Q1017=
200905190045 METAR LIRA 190045Z 00000KT CAVOK 18/16 Q1017=
200905190015 METAR LIRA 190015Z 00000KT CAVOK 18/16 Q1017=
200905182350 METAR LIRA 190045Z 00000KT CAVOK 18/16 Q1017=
200905182345 METAR LIRA 182345Z 00000KT CAVOK 18/17 Q1017=
200905182315 METAR LIRA 182315Z 17002KT CAVOK 19/18 Q1017=
200905182245 METAR LIRA 182245Z 17003KT CAVOK 19/17 Q1017=
200905182215 METAR LIRA 182215Z 17003KT CAVOK 20/18 Q1017=
200905182145 METAR LIRA 182145Z 19003KT CAVOK 20/18 Q1017=
200905182115 METAR LIRA 182115Z 20003KT CAVOK 20/18 Q1017=
200905182045 METAR LIRA 182045Z 18003KT CAVOK 20/18 Q1017=
200905182015 METAR LIRA 182015Z 17004KT CAVOK 21/18 Q1017=
200905181945 METAR LIRA 181945Z 20003KT CAVOK 21/16 Q1017=
200905181915 METAR LIRA 181915Z 19004KT CAVOK 22/15 Q1017=
200905181845 METAR LIRA 181845Z 20005KT CAVOK 23/15 Q1017=
200905181815 METAR LIRA 181815Z 18002KT CAVOK 25/16 Q1016=
200905181745 METAR LIRA 181745Z 23005KT CAVOK 25/16 Q1016=
200905181715 METAR LIRA 181715Z 21004KT CAVOK 24/16 Q1016=
200905181645 METAR LIRA 181645Z 24007KT 200V270 9999 FEW020 26/14 Q1016=
200905181615 METAR LIRA 181615Z 24007KT 200V300 9999 FEW020 26/14 Q1016=
200905181545 METAR LIRA 181545Z 23007KT 200V290 9999 FEW018 26/14 Q1016=
200905181515 METAR LIRA 181515Z 26009KT 210V320 9999 FEW018 27/15 Q1016=
200905181445 METAR LIRA 181445Z 26007KT 200V310 9999 FEW018 28/15 Q1016=
200905181415 METAR LIRA 181415Z 25009KT 210V300 9999 FEW018 28/15 Q1016=
200905181345 METAR LIRA 181345Z 27008KT 210V320 9999 FEW018 28/15 Q1016=
200905181315 METAR LIRA 181315Z 28010KT 240V310 9999 FEW018 28/15 Q1016=
200905181245 METAR LIRA 181245Z 20009KT 200V310 CAVOK 28/12 Q1016=
200905181215 METAR LIRA 181215Z 24008KT 200V310 9999 FEW018 28/12 Q1016=
200905181145 METAR LIRA 181145Z 28008KT 220V330 9999 FEW018 28/12 Q1016=
200905181115 METAR LIRA 181115Z 27008KT 200V310 9999 FEW018 29/13 Q1017=
200905181045 METAR LIRA 181045Z 26008KT 210V300 9999 FEW018 29/12 Q1017=
200905181015 METAR LIRA 181015Z 27002KT CAVOK 28/13 Q1017=
200905180945 METAR LIRA 180945Z 23003KT 240V300 CAVOK 27/14 Q1017=
200905180915 METAR LIRA 180915Z 30002KT CAVOK 26/15 Q1017=
200905180845 METAR LIRA 180845Z 29003KT CAVOK 24/17 Q1017=
200905180815 METAR LIRA 180815Z 31002KT CAVOK 23/18 Q1017=
200905180745 METAR LIRA 180745Z 30002KT CAVOK 20/17 Q1017=
200905180715 METAR LIRA 180715Z 34003KT 9999 FEW080 BKN200 19/16 Q1017=
200905180645 METAR LIRA 180645Z 30005KT 9999 FEW080 BKN200 18/16 Q1017=
200905180615 METAR LIRA 180615Z 04002KT 9999 FEW080 BKN200 17/16 Q1016=
200905180600 LIRA INTER RETS CB NE/S/W=
200905180545 METAR LIRA 180545Z 34002KT 9999 FEW080 BKN200 17/15 Q1016=
200905180515 METAR LIRA 180515Z 31003KT 9999 FEW080 SCT200 17/15 Q1016=
200905180445 METAR LIRA 180445Z 06004KT 9999 FEW080 SCT200 17/14 Q1016=
200905180415 METAR LIRA 180415Z 35001KT 9999 FEW080 17/15 Q1016=
200905180345 METAR LIRA 180345Z 02004KT CAVOK 17/15 Q1016=
200905180315 METAR LIRA 180315Z 05003KT CAVOK 18/14 Q1016=
200905180245 METAR LIRA 180245Z 06004KT CAVOK 18/14 Q1016=
200905180215 METAR LIRA 180215Z 36002KT CAVOK 18/15 Q1016=
200905180145 METAR LIRA 180145Z 03002KT CAVOK 19/15 Q1016=
200905180115 METAR LIRA 180115Z 36002KT CAVOK 19/15 Q1016=
200905180045 METAR LIRA 180045Z 05004KT CAVOK 19/15 Q1016=
200905180015 METAR LIRA 180015Z 00000KT CAVOK 18/14 Q1017=
200905172345 METAR LIRA 172345Z 00000KT CAVOK 19/14 Q1017=
200905172315 METAR LIRA 172315Z 00000KT CAVOK 19/14 Q1017=
200905172245 METAR LIRA 172245Z 16001KT CAVOK 19/15 Q1017=
200905172215 METAR LIRA 172215Z 00000KT CAVOK 20/15 Q1017=
200905172145 METAR LIRA 172145Z 00000KT CAVOK 20/15 Q1017=
200905172115 METAR LIRA 172115Z 00000KT CAVOK 21/15 Q1017=
200905172045 METAR LIRA 172045Z 18001KT CAVOK 22/15 Q1017=
200905172015 METAR LIRA 172015Z 18003KT 9999 FEW018 SCT200 22/13 Q1016=
200905171945 METAR LIRA 171945Z 24003KT 9999 FEW018 SCT200 22/13 Q1016=
200905171915 METAR LIRA 171915Z 24004KT 9999 FEW018 FEW020TCU 23/13 Q1016=
200905171845 METAR LIRA 171845Z 22004KT 9999 FEW017 FEW020CB SCT070 25/12
                        Q1016=
200905171815 METAR LIRA 171815Z 13003KT 9999 FEW017 FEW020CB SCT200 27/12
                        Q1016=
200905171745 METAR LIRA 171745Z 21004KT 9999 FEW017 FEW020CB SCT200 27/11
                        Q1016=
200905171715 METAR LIRA 171715Z 26005KT 190V310 9999 FEW017 FEW020CB SCT200
                        27/12 Q1016=
200905171645 METAR LIRA 171645Z 27009KT 210V330 9999 FEW017 FEW020CB 27/13
                        Q1015=
200905171615 METAR LIRA 171615Z 27010KT 220V330 9999 FEW017 FEW020CB 28/14
                        Q1015=
200905171545 METAR LIRA 171545Z 27009KT 220V320 9999 FEW015CB 28/14 Q1015=
200905171515 METAR LIRA 171515Z 27012KT 240V330 9999 FEW015CB 28/15 Q1015=
200905171445 METAR LIRA 171445Z 26010KT 210V310 9999 FEW015CB 28/14 Q1015=
200905171415 METAR LIRA 171415Z 25009KT 200V310 9999 FEW020 30/15 Q1015=
200905171345 METAR LIRA 171345Z 27011KT 230V320 9999 FEW020 30/13 Q1015=
200905171315 METAR LIRA 171315Z 26010KT 220V320 9999 FEW020 30/15 Q1015=
200905171245 METAR LIRA 171245Z 27010KT 200V330 9999 FEW020 29/15 Q1015=
200905171215 METAR LIRA 171215Z 25005KT 210V350 9999 FEW020 29/15 Q1015=
200905171145 METAR LIRA 171145Z 23004KT 9999 FEW020 29/15 Q1015=
200905171115 METAR LIRA 171115Z 25005KT 230V300 9999 FEW020 28/15 Q1015=
200905171045 METAR LIRA 171045Z 31005KT 9999 FEW020 28/16 Q1015=
200905171015 METAR LIRA 171015Z 30002KT 260V320 9999 FEW020 27/17 Q1016=
200905170945 METAR LIRA 170945Z 02004KT CAVOK 25/16 Q1016=
200905170915 METAR LIRA 170915Z 34003KT 320V070 CAVOK 25/16 Q1016=
200905170845 METAR LIRA 170845Z 34005KT 280V030 CAVOK 24/17 Q1016=
200905170815 METAR LIRA 170815Z 34006KT 290V050 CAVOK 22/16 Q1016=
200905170745 METAR LIRA 170745Z 04006KT 010V080 CAVOK 22/17 Q1016=
200905170715 METAR LIRA 170715Z 36004KT 310V070 CAVOK 21/17 Q1016=
200905170645 METAR LIRA 170645Z 04005KT 350V080 CAVOK 19/16 Q1016=
200905170615 METAR LIRA 170615Z 02006KT 350V080 CAVOK 19/16 Q1016=
200905170600 METAR LIRA INTER CB N NW S=
200905170545 METAR LIRA 170545Z 03004KT 340V060 9999 FEW070 18/16 Q1016=
200905170515 METAR LIRA 170515Z 04004KT 9999 SCT070 17/15 Q1016=
200905170500 METAR LIRA INTER CB NW=
200905170445 METAR LIRA 170445Z 05004KT 9999 SCT070 17/15 Q1016=
200905170415 METAR LIRA 170415Z 03003KT 9999 SCT070 18/15 Q1015=
200905170400 METAR LIRA INT CB NE=
200905170345 METAR LIRA 170345Z 04005KT 9999 FEW070 18/15 Q1015=
200905170315 METAR LIRA 170315Z 02004KT 9999 FEW070 18/15 Q1015=
200905170245 METAR LIRA 170245Z 03003KT 9999 FEW030 SCT070 18/15 Q1015=
200905170215 METAR LIRA 170215Z 03003KT 9999 FEW030 SCT070 18/15 Q1015=
200905170145 METAR LIRA 170145Z 02003KT 9999 FEW030 SCT070 19/16 Q1015=
200905170115 METAR LIRA 170115Z 03003KT 9999 FEW030 SCT070 19/16 Q1016=
200905170045 METAR LIRA 170045Z 02002KT 9999 FEW030 BKN070 19/16 Q1016=
200905170015 METAR LIRA 170015Z 01004KT 9999 FEW030 SCT070 19/16 Q1016=
200905170000 METAR LIRA INT=
200905162345 METAR LIRA 162345Z 36002KT 9999 FEW030 SCT070 19/16 Q1016=
200905162315 METAR LIRA 162315Z 03002KT 9999 FEW030 SCT070 19/16 Q1016=
200905162215 METAR LIRA 162215Z 36005KT 9999 FEW030 BKN070 20/12 Q1016=
200905162145 METAR LIRA 162145Z 15005KT 9999 FEW030 BKN070 21/11 Q1016=
200905162115 METAR LIRA 162115Z 14009KT 9999 FEW070 22/12 Q1015=
200905162045 METAR LIRA 162045Z 02004KT 350V100 9999 FEW070 22/12 Q1015=
200905162015 METAR LIRA 162015Z 08008KT 060V140 9999 SCT070 22/12 Q1015=
200905161945 METAR LIRA 161945Z 22004KT 9999 SCT070 23/12 Q1014=
200905161915 METAR LIRA 161915Z 24003KT 9999 SCT070 SCT200 23/11 Q1014=
200905161845 METAR LIRA 161845Z 16009KT 130V200 9999 SCT070 SCT200 23/11
                        Q1013=
200905161815 METAR LIRA 161815Z 16007KT 130V200 9999 SCT070 SCT200 24/10
                        Q1013=
200905161745 METAR LIRA 161745Z 15008KT 120V180 9999 SCT070 SCT200 25/09
                        Q1013=
200905161715 METAR LIRA 161715Z 15014KT 110V190 9999 FEW080 25/10 Q1012=
200905161645 METAR LIRA 161645Z 17013KT 110V190 9999 FEW080 27/10 Q1012=
200905161615 METAR LIRA 161615Z 14016KT 120V180 9999 FEW080 28/12 Q1012=
200905161545 METAR LIRA 161545Z 13014KT 100V180 CAVOK 28/12 Q1011=
200905161515 METAR LIRA 161515Z 14017KT CAVOK 28/12 Q1011=
200905161445 METAR LIRA 161445Z 13016KT CAVOK 28/12 Q1011=
200905161415 METAR LIRA 161415Z 14017KT CAVOK 28/11 Q1011=
200905161345 METAR LIRA 161345Z 15019KT 9999 FEW022 SCT200 29/10 Q1011=
200905161315 METAR LIRA 161315Z 14018KT 9999 FEW022 SCT200 29/10 Q1011=
200905161245 METAR LIRA 161245Z 15015KT 9999 FEW022 SCT200 30/08 Q1011=
200905161215 METAR LIRA 161215Z 15015KT 120V190 9999 FEW022 SCT200 31/08
                        Q1011 WS RWY 15=
200905161145 METAR LIRA 161145Z 16016KT 9999 FEW022 31/07 Q1011 WS RWY
                        15=
200905161115 METAR LIRA 161115Z 14016KT 120V210 CAVOK 30/13 Q1010=
200905161045 METAR LIRA 161045Z 11009KT 070V180 CAVOK 29/14 Q1010=
200905161015 METAR LIRA 161015Z 09003KT 030V120 CAVOK 28/16 Q1010=
200905160945 METAR LIRA 160945Z 03005KT 340V080 CAVOK 26/16 Q1010=
200905160915 METAR LIRA 160915Z 36008KT 310V040 CAVOK 25/17 Q1009=
200905160845 METAR LIRA 160845Z 36006KT 320V060 CAVOK 23/16 Q1009=
200905160815 METAR LIRA 160815Z 02008KT 320V060 9999 FEW080 BKN200 21/17
                        Q1009=
200905160745 METAR LIRA 160745Z 03007KT 350V080 9999 FEW040 BKN200 20/16
                        Q1009=
200905160715 METAR LIRA 160715Z 03006KT 330V090 9999 SCT040 SCT080 20/16
                        Q1009=
200905160645 METAR LIRA 160645Z 02004KT 330V070 9999 SCT040 SCT080 18/15
                        Q1008=
200905160615 METAR LIRA 160615Z 01007KT 330V050 9999 FEW040 SCT080 18/15
                        Q1008=
200905160545 METAR LIRA 160545Z 36007KT 340V040 9999 FEW040 SCT080 17/14
                        Q1008=
200905160515 METAR LIRA 160515Z 02006KT 350V060 9999 FEW040 SCT200 17/13
                        Q1008=
200905160445 METAR LIRA 160445Z 36007KT 330V050 9999 FEW040 SCT200 17/14
                        Q1008=
200905160415 METAR LIRA 160415Z 03004KT 360V070 9999 FEW080 BKN200 17/13
                        Q1007=
200905160345 METAR LIRA 160345Z 02005KT 340V060 9999 FEW080 BKN200 18/13
                        Q1007=
200905160315 METAR LIRA 160315Z 36006KT 340V050 CAVOK 19/14 Q1007=
200905160245 METAR LIRA 160245Z 36007KT 330V050 CAVOK 19/13 Q1007=
200905160215 METAR LIRA 160215Z 36008KT 320V040 9999 FEW080 BKN200 19/15
                        Q1007=
200905160145 METAR LIRA 160145Z 01007KT 330V080 9999 FEW080 SCT200 18/14
                        Q1007=
200905160115 METAR LIRA 160115Z 02005KT 330V070 9999 FEW040 SCT200 18/14
                        Q1007=
200905160045 METAR LIRA 160045Z 04003KT 9999 FEW080 SCT200 18/14 Q1007=
200905160015 METAR LIRA 160015Z 06004KT 9999 FEW040 SCT200 19/14 Q1007=
200905152345 METAR LIRA 152345Z 03005KT 9999 FEW020 SCT080 19/14 Q1007=
200905152315 METAR LIRA 152315Z 01005KT 330V050 9999 FEW020 SCT070 19/13
                        Q1007=
200905152245 METAR LIRA 152245Z 36004KT 290V050 9999 FEW020TCU SCT080
                        20/13 Q1007=
200905152215 METAR LIRA 152215Z 01005KT 310V050 9999 FEW020TCU BKN070
                        21/15 Q1007=
200905152145 METAR LIRA 152145Z 01010KT 330V070 9999 FEW020TCU SCT060
                        20/16 Q1007=
200905152115 METAR LIRA 152115Z 36008KT 310V050 9999 FEW020TCU SCT060
                        19/15 Q1007=
200905152045 METAR LIRA 152045Z 02006KT 330V070 9999 FEW020TCU SCT030
                        20/14 Q1008=
200905152015 METAR LIRA 152015Z 03005KT 330V080 9999 -RA FEW020TCU SCT030
                        20/15 Q1008=
200905151945 METAR LIRA 151945Z 36007KT 330V060 9999 -RA FEW020TCU SCT030
                        20/14 Q1008=
200905151915 METAR LIRA 151915Z 03006KT 330V080 9999 FEW020TCU SCT030
                        21/13 Q1008=
200905151845 METAR LIRA 151845Z 31010KT 300V020 9999 FEW020TCU SCT035
                        BKN200 22/13 Q1007=
200905151815 METAR LIRA 151815Z 01006KT 330V060 9999 FEW020TCU SCT035
                        BKN200 22/14 Q1007=
200905151745 METAR LIRA 151745Z 34006KT 290V030 9999 FEW020CB SCT035 BKN200
                        22/15 Q1007=
200905151715 METAR LIRA 151715Z 34005KT 9999 FEW018 FEW020CB SCT035 BKN090
                        22/13 Q1007=
200905151645 METAR LIRA 151645Z 34007KT 340V060 9999 -RA FEW018 FEW020CB
                        SCT035 BKN090 22/13 Q1007=
200905151615 METAR LIRA 151615Z 06005KT 030V100 9999 -RA FEW018 FEW020CB
                        SCT035 BKN090 23/13 Q1007=
200905151545 METAR LIRA 151545Z 06006KT 030V110 9999 FEW020 SCT035 BKN080
                        23/14 Q1008=
200905151515 METAR LIRA 151515Z 04004KT 9999 FEW020 SCT030 BKN080 23/14
                        Q1008=
200905151445 METAR LIRA 151445Z 27002KT 9999 FEW020 SCT025 BKN070 22/13
                        Q1008=
200905151415 METAR LIRA 151415Z 06002KT 9999 FEW020 SCT040 BKN080 22/12
                        Q1008=
200905151345 METAR LIRA 151345Z 05004KT 9999 -RA FEW020 SCT040 BKN080
                        22/11 Q1008=
200905151315 METAR LIRA 151315Z 02005KT 330V090 9999 FEW020 SCT040 BKN080
                        22/11 Q1008=
200905151245 METAR LIRA 151245Z 05006KT 020V090 9999 FEW020 SCT030 BKN070
                        22/11 Q1008=
200905151215 METAR LIRA 151215Z 06005KT 360V120 9999 FEW020 SCT030 BKN070
                        24/10 Q1008=
200905151145 METAR LIRA 151145Z 14011KT 120V210 9999 -RA FEW020 SCT030
                        BKN070 24/13 Q1008=
200905151115 METAR LIRA 151115Z 15011KT 100V200 9999 FEW020 SCT040 BKN080
                        24/13 Q1008=
200905151045 METAR LIRA 151045Z 16010KT 110V190 9999 FEW040 BKN080 24/14
                        Q1008=
200905151015 METAR LIRA 151015Z 30001KT 9999 SCT040 BKN080 23/14 Q1008=
200905150945 METAR LIRA 150945Z 29003KT 9999 SCT030 BKN080 22/15 Q1008=
200905150915 METAR LIRA 150915Z 03003KT 9999 SCT030 BKN070 21/16 Q1007=
200905150845 METAR LIRA 150845Z 36002KT 9999 SCT030 BKN070 21/15 Q1007=
200905150815 METAR LIRA 150815Z 31003KT 9999 SCT030 BKN070 21/15 Q1007=
200905150745 METAR LIRA 150745Z 32003KT 9999 SCT025 BKN070 20/14 Q1007=
200905150715 METAR LIRA 150715Z 34003KT 9999 SCT025 BKN070 19/14 Q1007=
200905150645 METAR LIRA 150645Z 03002KT 9999 FEW030 SCT070 19/13 Q1007=
200905150615 METAR LIRA 150615Z 21002KT 9999 FEW040 SCT070 18/13 Q1007=
200905150545 METAR LIRA 150545Z 35002KT 9999 -RA SCT040 BKN070 17/12 Q1007=
200905150515 METAR LIRA 150515Z 03002KT 9999 FEW040 BKN070 18/12 Q1007=
200905150445 METAR LIRA 150445Z 03005KT 9999 FEW040 SCT070 17/13 Q1007=
200905150415 METAR LIRA 150415Z 06006KT 9999 SCT040 BKN070 16/12 Q1008=
200905150345 METAR LIRA 150345Z 06004KT 9999 FEW030 BKN070 16/12 Q1008=
200905150315 METAR LIRA 150315Z 02006KT 9999 SCT030 BKN070 16/12 Q1008=
200905150245 METAR LIRA 150245Z 02004KT 9999 SCT030 BKN070 16/12 Q1009=
200905150215 METAR LIRA 150215Z 03004KT 9999 SCT030 BKN070 16/10 Q1009=
200905150145 METAR LIRA 150145Z 03005KT 9999 FEW030 BKN070 16/10 Q1009=
200905150115 METAR LIRA 150115Z 36002KT 9999 -RA FEW030 BKN070 17/10 Q1009=
200905150045 METAR LIRA 150045Z 27002KT 9999 FEW030 SCT070 17/10 Q1009=
200905150015 METAR LIRA 150015Z 00000KT 9999 SCT080 SCT200 17/10 Q1009=
200905142345 METAR LIRA 142345Z 02002KT 9999 SCT080 SCT200 17/09 Q1009=
200905142315 METAR LIRA 142315Z 03003KT 9999 SCT080 SCT200 17/08 Q1009=
200905142245 METAR LIRA 142245Z 03003KT 9999 SCT080 SCT200 18/09 Q1009=
200905142215 METAR LIRA 142215Z 06002KT 9999 SCT080 SCT200 17/09 Q1009=
200905142145 METAR LIRA 142145Z 06003KT 9999 FEW080 SCT200 17/08 Q1009=
200905142115 METAR LIRA 142115Z 06003KT 9999 FEW080 SCT200 18/08 Q1009=
200905142045 METAR LIRA 142045Z 06004KT 9999 FEW080 SCT200 18/09 Q1010=
200905142015 METAR LIRA 142015Z 10003KT 9999 FEW080 SCT200 19/08 Q1010=
200905141945 METAR LIRA 141945Z 09005KT 9999 FEW018 SCT080 20/11 Q1010=
200905141915 METAR LIRA 141915Z 16005KT 9999 FEW018 SCT080 21/11 Q1010=
200905141845 METAR LIRA 141845Z 17005KT 9999 FEW018 SCT080 22/10 Q1010=
200905141815 METAR LIRA 141815Z 18005KT 150V210 9999 FEW018 SCT200 22/10
                        Q1010=
200905141745 METAR LIRA 141745Z 20004KT 9999 FEW018 SCT200 23/08 Q1010=
200905141715 METAR LIRA 141715Z 21006KT 190V270 9999 FEW017 BKN200 25/08
                        Q1010=
200905141645 METAR LIRA 141645Z 22006KT 150V280 CAVOK 25/07 Q1009=
200905141615 METAR LIRA 141615Z 22007KT 160V250 CAVOK 26/08 Q1010=
200905141545 METAR LIRA 141545Z 19010KT 150V260 CAVOK 25/07 Q1010=
200905141515 METAR LIRA 141515Z 19009KT 140V230 CAVOK 25/08 Q1010=
200905141445 METAR LIRA 141445Z 20008KT 140V250 9999 FEW030 BKN200 26/09
                        Q1011=
200905141415 METAR LIRA 141415Z 22009KT 160V260 9999 FEW025 BKN200 26/09
                        Q1011=
200905141345 METAR LIRA 141345Z 22007KT 150V260 9999 FEW025 BKN200 26/10
                        Q1011=
200905141315 METAR LIRA 141315Z 20007KT 150V270 9999 FEW025 BKN200 26/10
                        Q1012=
200905141245 METAR LIRA 141245Z 20006KT 130V280 9999 FEW025 BKN200 25/11
                        Q1012=
200905141215 METAR LIRA 141215Z 21009KT 150V260 9999 FEW025 BKN200 25/12
                        Q1012=
200905141145 METAR LIRA 141145Z 20008KT 160V260 9999 FEW025 BKN200 26/12
                        Q1013=
200905141115 METAR LIRA 141115Z 22006KT 160V260 9999 FEW025 BKN200 26/10
                        Q1013=
200905141045 METAR LIRA 141045Z 21007KT 150V250 9999 FEW025 BKN200 26/10
                        Q1013=
200905141015 METAR LIRA 141015Z 17007KT 140V220 CAVOK 26/11 Q1013=
200905140945 METAR LIRA 140945Z 17008KT 140V240 CAVOK 25/10 Q1013=
200905140915 METAR LIRA 140915Z 23007KT 180V260 CAVOK 25/10 Q1013=
200905140845 METAR LIRA 140845Z 22003KT CAVOK 24/11 Q1013=
200905140815 METAR LIRA 140815Z 11003KT CAVOK 23/15 Q1014=
200905140745 METAR LIRA 140745Z 00000KT CAVOK 22/16 Q1014=
200905140715 METAR LIRA 140715Z 00000KT CAVOK 19/13 Q1014=
200905140645 METAR LIRA 140645Z 01002KT CAVOK 18/12 Q1014=
200905140615 METAR LIRA 140615Z 02003KT CAVOK 16/13 Q1014=
200905140545 METAR LIRA 140545Z 36002KT CAVOK 15/10 Q1014=
200905140515 METAR LIRA 140515Z 35002KT CAVOK 14/09 Q1013=
200905140445 METAR LIRA 140445Z 36002KT CAVOK 14/08 Q1013=
200905140415 METAR LIRA 140415Z 00000KT CAVOK 15/09 Q1013=
200905140345 METAR LIRA 140345Z 14002KT CAVOK 15/09 Q1013=
200905140245 METAR LIRA 140245Z 11004KT CAVOK 15/09 Q1014=
200905140145 METAR LIRA 140145Z 10005KT CAVOK 15/10 Q1014=
200905140115 METAR COR LIRA 140115Z 11005KT CAVOK 16/11 Q1015=
200905140045 METAR LIRA 140045Z 11005KT CAVOK 16/11 Q1015=
200905140015 METAR LIRA 140015Z 11004KT CAVOK 16/11 Q1015=
200905132350 METAR LIRA 140045Z 11005KT CAVOK 16/11 Q1015=
200905132315 METAR LIRA 132315Z 10004KT CAVOK 16/12 Q1016=
200905132245 METAR LIRA 132245Z 11002KT CAVOK 16/13 Q1016=
200905132215 METAR LIRA 132215Z 00000KT CAVOK 17/13 Q1016=
200905132145 METAR LIRA 132145Z 00000KT CAVOK 18/13 Q1016=
200905132115 METAR LIRA 132115Z 16001KT CAVOK 19/13 Q1016=
200905132045 METAR LIRA 132045Z 17002KT CAVOK 19/13 Q1016=
200905132015 METAR LIRA 132015Z 17003KT CAVOK 20/12 Q1016=
200905131945 METAR LIRA 131945Z 18003KT CAVOK 20/12 Q1016=
200905131915 METAR LIRA 131915Z 18003KT CAVOK 20/12 Q1016=
200905131845 METAR LIRA 131845Z 21004KT CAVOK 22/13 Q1016=
200905131815 METAR LIRA 131815Z 23004KT CAVOK 23/13 Q1016=
200905131745 METAR LIRA 131745Z 22004KT CAVOK 23/12 Q1016=
200905131715 METAR LIRA 131715Z 22005KT CAVOK 25/10 Q1016=
200905131645 METAR LIRA 131645Z 20005KT 150V250 CAVOK 25/10 Q1016=
200905131615 METAR LIRA 131615Z 20005KT 170V250 CAVOK 25/10 Q1016=
200905131545 METAR LIRA 131545Z 25006KT 190V280 CAVOK 26/10 Q1016=
200905131515 METAR LIRA 131515Z 22005KT 180V270 CAVOK 26/10 Q1017=
200905131445 METAR LIRA 131445Z 19008KT 140V280 CAVOK 26/10 Q1017=
200905131415 METAR LIRA 131415Z 22007KT 180V270 CAVOK 26/10 Q1017=
200905131345 METAR LIRA 131345Z 24008KT 190V310 CAVOK 27/10 Q1017=
200905131315 METAR LIRA 131315Z 23008KT 190V300 CAVOK 27/10 Q1018=
200905131245 METAR LIRA 131245Z 23008KT 150V300 CAVOK 27/08 Q1018=
200905131215 METAR LIRA 131215Z 23005KT 190V270 CAVOK 27/08 Q1018=
200905131145 METAR LIRA 131145Z 20003KT 200V280 CAVOK 27/09 Q1018=
200905131115 METAR LIRA 131115Z 12002KT CAVOK 26/07 Q1019=
200905131045 METAR LIRA 131045Z 26004KT CAVOK 26/07 Q1019=
200905131015 METAR LIRA 131015Z 24002KT CAVOK 25/08 Q1019=
200905130945 METAR LIRA 130945Z 28004KT 240V320 CAVOK 25/07 Q1019=
200905130915 METAR LIRA 130915Z 32003KT CAVOK 24/06 Q1019=
200905130845 METAR LIRA 130845Z 22003KT CAVOK 23/11 Q1019=
200905130815 METAR LIRA 130815Z 09001KT CAVOK 22/13 Q1019=
200905130745 METAR LIRA 130745Z 02003KT CAVOK 20/12 Q1019=
200905130715 METAR LIRA 130715Z 36003KT CAVOK 19/12 Q1019=
200905130645 METAR LIRA 130645Z 31003KT CAVOK 17/11 Q1018=
200905130615 METAR LIRA 130615Z 03002KT CAVOK 16/12 Q1018=
200905130545 METAR LIRA 130545Z 03003KT CAVOK 14/11 Q1018=
200905130515 METAR LIRA 130515Z 03001KT CAVOK 14/11 Q1018=
200905130445 METAR LIRA 130445Z 02002KT 9999 FEW080 13/09 Q1018=
200905130415 METAR LIRA 130415Z 03003KT 9999 FEW080 13/09 Q1018=
200905130345 METAR LIRA 130345Z 04001KT 9999 FEW080 13/09 Q1018=
200905130315 METAR LIRA 130315Z 04003KT 9999 FEW080 13/08 Q1019=
200905130245 METAR LIRA 130245Z 00002KT 9999 FEW080 14/09 Q1019=
200905130215 METAR LIRA 130215Z 06002KT CAVOK 14/11 Q1019=
200905130145 METAR LIRA 130145Z 06002KT CAVOK 14/11 Q1019=
200905130015 METAR LIRA 130015Z 00003KT CAVOK 14/12 Q1019=
200905122345 METAR LIRA 122345Z 04002KT CAVOK 15/13 Q1019=
200905122315 METAR LIRA 122315Z 03002KT CAVOK 15/13 Q1019=
200905122245 METAR LIRA 122245Z 02003KT CAVOK 16/13 Q1019=
200905122215 METAR LIRA 122215Z 10002KT CAVOK 16/14 Q1019=
200905122145 METAR LIRA 122145Z 10003KT CAVOK 17/14 Q1019=
200905122115 METAR LIRA 122115Z 01002KT CAVOK 19/16 Q1019=
200905122045 METAR LIRA 122045Z 17002KT CAVOK 18/15 Q1019=
200905122015 METAR LIRA 122015Z 16002KT CAVOK 19/15 Q1019=
200905121945 METAR LIRA 121945Z 22003KT CAVOK 19/12 Q1019=
200905121915 METAR LIRA 121915Z 21004KT CAVOK 19/12 Q1019=
200905121845 METAR LIRA 121845Z 21004KT CAVOK 20/12 Q1019=
200905121815 METAR LIRA 121815Z 19004KT CAVOK 21/12 Q1019=
200905121745 METAR LIRA 121745Z 21004KT CAVOK 23/11 Q1019=
200905121715 METAR LIRA 121715Z 22003KT CAVOK 24/09 Q1019=
200905121645 METAR LIRA 121645Z 23005KT 170V260 CAVOK 24/10 Q1019=
200905121615 METAR LIRA 121615Z 22006KT 190V280 CAVOK 24/09 Q1019=
200905121545 METAR LIRA 121545Z 24006KT 180V310 CAVOK 25/09 Q1019=
200905121515 METAR LIRA 121515Z 25005KT 180V310 CAVOK 26/09 Q1019=
200905121445 METAR LIRA 121445Z 24007KT 200V280 CAVOK 27/09 Q1019=
200905121415 METAR LIRA 121415Z 25007KT 180V300 CAVOK 26/09 Q1019=
200905121345 METAR LIRA 121345Z 23007KT 200V300 CAVOK 27/09 Q1019=
200905121315 METAR LIRA 121315Z 27007KT 190V310 CAVOK 27/09 Q1019=
200905121245 METAR LIRA 121245Z 27007KT 240V340 CAVOK 27/09 Q1020=
200905121215 METAR LIRA 121215Z 27006KT 230V330 CAVOK 27/10 Q1020=
200905121145 METAR LIRA 121145Z 22004KT 180V270 CAVOK 26/09 Q1020=
200905121115 METAR LIRA 121115Z 21006KT CAVOK 26/08 Q1020=
200905121045 METAR LIRA 121045Z 22005KT 180V250 CAVOK 25/09 Q1020=
200905121015 METAR LIRA 121015Z 24002KT CAVOK 25/10 Q1020=
200905120945 METAR LIRA 120945Z 24003KT CAVOK 25/09 Q1020=
200905120915 METAR LIRA 120915Z 26004KT CAVOK 24/10 Q1020=
200905120845 METAR LIRA 120845Z 25004KT CAVOK 22/12 Q1020=
200905120815 METAR LIRA 120815Z 00000KT CAVOK 21/13 Q1020=
200905120745 METAR LIRA 120745Z 02001KT CAVOK 19/13 Q1020=
200905120715 METAR LIRA 120715Z 34002KT CAVOK 17/12 Q1020=
200905120645 METAR LIRA 120645Z 02002KT CAVOK 16/12 Q1020=
200905120615 METAR LIRA 120615Z 03004KT CAVOK 15/11 Q1020=
200905120545 METAR LIRA 120545Z 02002KT CAVOK 13/10 Q1019=
200905120515 METAR LIRA 120515Z 01002KT CAVOK 13/10 Q1019=
200905120500 METAR LIRA CONTUS=
200905120445 METAR LIRA 120445Z 04003KT CAVOK 13/10 Q1019=
200905120415 METAR LIRA 120415Z 03003KT CAVOK 14/10 Q1019=
200905120345 METAR LIRA 120345Z 06003KT CAVOK 14/10 Q1019=
200905120315 METAR LIRA 120315Z 03002KT CAVOK 14/10 Q1019=
200905120245 METAR LIRA 120245Z 01002KT CAVOK 14/09 Q1019=
200905120215 METAR LIRA 120215Z 07002KT CAVOK 14/09 Q1019=
200905120200 METAR LIRA INT=
200905120145 METAR LIRA 120145Z 07002KT CAVOK 14/09 Q1019=
200905120115 METAR LIRA 120115Z 07001KT CAVOK 15/09 Q1019=
200905120045 METAR LIRA 120045Z 00000KT CAVOK 15/09 Q1019=
200905120015 METAR LIRA 120015Z 00000KT CAVOK 16/09 Q1019=
200905112345 METAR LIRA 112345Z 11001KT CAVOK 16/09 Q1019=
200905112315 METAR LIRA 112315Z 09002KT CAVOK 17/09 Q1019=
200905112215 METAR LIRA 112215Z 11002KT CAVOK 17/09 Q1019=
200905112145 METAR LIRA 112145Z 00000KT CAVOK 18/10 Q1019=
200905112115 METAR LIRA 112115Z 09002KT CAVOK 18/10 Q1019=
200905112045 METAR LIRA 112045Z 07001KT CAVOK 18/09 Q1019=
200905112015 METAR LIRA 112015Z 00000KT CAVOK 19/09 Q1019=
200905111945 METAR LIRA 111945Z 00000KT CAVOK 19/09 Q1019=
200905111915 METAR LIRA 111915Z 18001KT CAVOK 20/09 Q1019=
200905111845 METAR LIRA 111845Z 22002KT CAVOK 22/05 Q1019=
200905111815 METAR LIRA 111815Z 24003KT CAVOK 22/05 Q1019=
200905111745 METAR LIRA 111745Z 25003KT CAVOK 23/04 Q1019=
200905111715 METAR LIRA 111715Z 25005KT 210V280 CAVOK 24/06 Q1019=
200905111645 METAR LIRA 111645Z 26003KT CAVOK 24/06 Q1019=
200905111615 METAR LIRA 111615Z 24005KT 220V300 CAVOK 25/05 Q1019=
200905111545 METAR LIRA 111545Z 24006KT 200V310 CAVOK 25/05 Q1019=
200905111515 METAR LIRA 111515Z 26006KT 200V330 CAVOK 25/05 Q1019=
200905111445 METAR LIRA 111445Z 25004KT 210V310 CAVOK 25/05 Q1019=
200905111415 METAR LIRA 111415Z 27007KT 200V310 CAVOK 25/05 Q1019=
200905111345 METAR LIRA 111345Z 27006KT 190V310 9999 FEW022 26/06 Q1019=
200905111315 METAR LIRA 111315Z 27009KT 200V330 9999 FEW022 26/07 Q1019=
200905111245 METAR LIRA 111245Z 26009KT 220V320 9999 FEW022 26/08 Q1019=
200905111145 METAR LIRA 111145Z 26006KT 200V260 9999 FEW022 26/07 Q1020=
200905111115 METAR LIRA 111115Z 23007KT 180V330 9999 FEW022 25/09 Q1020=
200905111045 METAR LIRA 111045Z 28004KT 210V340 CAVOK 25/10 Q1020=
200905111015 METAR LIRA 111015Z 18003KT CAVOK 24/08 Q1020=
200905110945 METAR LIRA 110945Z 24007KT CAVOK 24/09 Q1020=
200905110915 METAR LIRA 110915Z 27006KT 210V320 CAVOK 23/10 Q1020=
200905110845 METAR LIRA 110845Z 26003KT CAVOK 22/12 Q1020=
200905110815 METAR LIRA 110815Z 26002KT CAVOK 21/13 Q1020=
200905110800 LIRA CONTUS=
200905110745 METAR LIRA 110745Z 33001KT CAVOK 20/12 Q1020=
200905110715 METAR LIRA 110715Z 34001KT CAVOK 18/11 Q1020=
200905110645 METAR LIRA 110645Z 35002KT CAVOK 18/13 Q1020=
200905110615 METAR LIRA 110615Z 35003KT CAVOK 15/11 Q1019=
200905110545 METAR LIRA 110545Z 04002KT CAVOK 14/11 Q1019=
200905110515 METAR LIRA 110515Z 04002KT CAVOK 13/10 Q1019=
200905110445 METAR LIRA 110445Z 06003KT CAVOK 12/10 Q1019=
200905110415 METAR LIRA 110415Z 06003KT CAVOK 11/09 Q1019=
200905110345 METAR LIRA 110345Z 28003KT CAVOK 12/09 Q1019=
200905110315 METAR LIRA 110315Z 04003KT CAVOK 12/10 Q1019=
200905110245 METAR LIRA 110245Z 06002KT CAVOK 13/10 Q1019=
200905110215 METAR LIRA 110215Z 00000KT CAVOK 13/10 Q1019=
200905110145 METAR LIRA 110145Z 00000KT CAVOK 13/10 Q1019=
200905110115 METAR LIRA 110115Z 00000KT CAVOK 13/09 Q1019=
200905110045 METAR LIRA 110045Z 00000KT CAVOK 14/09 Q1019=
200905110015 METAR LIRA 110015Z 04003KT CAVOK 15/09 Q1019=
200905102345 METAR LIRA 102345Z 00000KT CAVOK 14/10 Q1020=
200905102315 METAR LIRA 102315Z 00000KT CAVOK 15/10 Q1020=
200905102245 METAR LIRA 102245Z 00000KT CAVOK 15/10 Q1020=
200905102215 METAR LIRA 102215Z 00000KT CAVOK 16/09 Q1020=
200905102145 METAR LIRA 102145Z 00000KT CAVOK 16/09 Q1020=
200905102115 METAR LIRA 102115Z 10002KT CAVOK 16/09 Q1020=
200905102045 METAR LIRA 102045Z 08002KT CAVOK 17/09 Q1020=
200905102015 METAR LIRA 102015Z 00000KT CAVOK 18/08 Q1020=
200905101945 METAR LIRA 101945Z 00000KT CAVOK 18/09 Q1020=
200905101915 METAR LIRA 101915Z 00000KT CAVOK 19/09 Q1020=
200905101845 METAR LIRA 101845Z 23001KT CAVOK 20/09 Q1020=
200905101815 METAR LIRA 101815Z 25002KT CAVOK 21/10 Q1020=
200905101745 METAR LIRA 101745Z 26004KT CAVOK 22/10 Q1020=
200905101715 METAR LIRA 101715Z 24004KT 210V300 CAVOK 22/09 Q1020=
200905101645 METAR LIRA 101645Z 26006KT 200V330 CAVOK 23/08 Q1020=
200905101615 METAR LIRA 101615Z 22007KT 190V260 9999 FEW025 BKN200 24/08
                        Q1019=
200905101545 METAR LIRA 101545Z 21006KT 180V270 9999 FEW022 SCT200 24/08
                        Q1020=
200905101515 METAR LIRA 101515Z 21006KT 180V210 9999 FEW022 SCT200 24/09
                        Q1020=
200905101445 METAR LIRA 101445Z 22008KT 170V280 9999 FEW022 SCT200 25/10
                        Q1020=
200905101415 METAR LIRA 101415Z 21007KT 150V280 9999 FEW022 SCT200 24/11
                        Q1020=
200905101345 METAR LIRA 101345Z 22009KT 180V280 9999 FEW022 SCT200 25/12
                        Q1021=
200905101315 METAR LIRA 101315Z 22008KT 180V280 9999 FEW022 SCT200 25/13
                        Q1021=
200905101245 METAR LIRA 101245Z 23009KT 190V270 9999 FEW022 SCT200 25/10
                        Q1021=
200905101215 METAR LIRA 101215Z 24008KT 180V280 9999 FEW022 SCT200 26/10
                        Q1021=
200905101145 METAR LIRA 101145Z 27003KT 210V300 9999 FEW022 SCT200 25/09
                        Q1021=
200905101115 METAR LIRA 101115Z 24003KT 190V270 9999 FEW022 SCT200 25/08
                        Q1021=
200905101045 METAR LIRA 101045Z 24005KT 200V280 9999 FEW022 SCT200 24/09
                        Q1021=
200905101015 METAR LIRA 101015Z 28002KT 9999 FEW022 24/11 Q1021=
200905100945 METAR LIRA 100945Z 30004KT 9999 FEW022 SCT200 23/11 Q1022=
200905100915 METAR LIRA 100915Z 34003KT 9999 FEW022 SCT200 22/12 Q1022=
200905100845 METAR LIRA 100845Z 02003KT CAVOK 21/13 Q1022=
200905100815 METAR LIRA 100815Z 02002KT CAVOK 19/13 Q1022=
200905100745 METAR LIRA 100745Z 01003KT CAVOK 18/12 Q1022=
200905100715 METAR LIRA 100715Z 36002KT CAVOK 16/12 Q1022=
200905100645 METAR LIRA 100645Z 35003KT CAVOK 15/11 Q1022=
200905100615 METAR LIRA 100615Z 36003KT CAVOK 13/11 Q1022=
200905100545 METAR LIRA 100545Z 01003KT CAVOK 12/10 Q1021=
200905100515 METAR LIRA 100515Z 03004KT CAVOK 11/10 Q1021=
200905100445 METAR LIRA 100445Z 03003KT CAVOK 11/10 Q1021=
200905100415 METAR LIRA 100415Z 04003KT CAVOK 12/08 Q1021=
200905100345 METAR LIRA 100345Z 00000KT 9999 FEW080 12/08 Q1021=
200905100315 METAR LIRA 100315Z 00000KT CAVOK 12/08 Q1021=
200905100245 METAR LIRA 100245Z 06002KT CAVOK 12/08 Q1021=
200905100215 METAR LIRA 100215Z 05003KT CAVOK 13/09 Q1021=
200905100145 METAR LIRA 100145Z 04003KT CAVOK 14/10 Q1021=
200905100115 METAR LIRA 100115Z 05003KT CAVOK 14/10 Q1021=
200905100045 METAR LIRA 100045Z 05002KT CAVOK 14/10 Q1021=
200905100015 METAR LIRA 100015Z 00000KT CAVOK 14/10 Q1021=
200905092345 METAR LIRA 092345Z 06002KT CAVOK 14/10 Q1021=
200905092315 METAR LIRA 092315Z 08002KT CAVOK 15/11 Q1021=
200905092245 METAR LIRA 092245Z 10002KT CAVOK 15/11 Q1022=
200905092215 METAR LIRA 092215Z 09002KT CAVOK 15/11 Q1022=
200905092145 METAR LIRA 092145Z 09001KT CAVOK 16/12 Q1022=
200905092115 METAR LIRA 092115Z 00000KT CAVOK 16/11 Q1022=
200905092045 METAR LIRA 092045Z 00000KT CAVOK 16/11 Q1022=
200905092015 METAR LIRA 092015Z 07003KT CAVOK 17/11 Q1022=
200905091945 METAR LIRA 091945Z 18001KT 9999 FEW080 SCT200 18/11 Q1022=
200905091915 METAR LIRA 091915Z 22002KT 9999 FEW080 SCT200 18/11 Q1022=
200905091845 METAR LIRA 091845Z 20003KT 9999 FEW080 SCT200 19/10 Q1022=
200905091815 METAR LIRA 091815Z 22003KT 9999 FEW080 SCT200 20/10 Q1022=
200905091745 METAR LIRA 091745Z 23003KT 9999 FEW080 SCT200 20/09 Q1022=
200905091715 METAR LIRA 091715Z 22003KT CAVOK 21/09 Q1022=
200905091645 METAR LIRA 091645Z 23004KT CAVOK 21/10 Q1022=
200905091615 METAR LIRA 091615Z 22005KT 180V270 CAVOK 22/10 Q1022=
200905091545 METAR LIRA 091545Z 23007KT 170V260 CAVOK 23/09 Q1022=
200905091515 METAR LIRA 091515Z 24006KT 200V300 9999 FEW030 BKN200 22/10
                        Q1022=
200905091445 METAR LIRA 091445Z 19007KT 160V260 9999 FEW025 BKN200 22/10
                        Q1021=
200905091415 METAR LIRA 091415Z 23006KT 140V270 9999 FEW025 BKN200 23/10
                        Q1022=
200905091345 METAR LIRA 091345Z 20005KT 180V260 9999 FEW025 BKN200 23/10
                        Q1022=
200905091315 METAR LIRA 091315Z 22006KT 180V300 9999 FEW025 BKN200 23/09
                        Q1022=
200905091245 METAR LIRA 091245Z 21007KT 160V340 9999 FEW025 BKN200 23/09
                        Q1022=
200905091215 METAR LIRA 091215Z 22007KT 180V300 9999 FEW025 BKN200 23/10
                        Q1022=
200905091145 METAR LIRA 091145Z 23007KT 150V270 9999 FEW025 SCT200 23/10
                        Q1022=
200905091115 METAR LIRA 091115Z 22006KT 170V260 9999 FEW025 SCT200 23/11
                        Q1022=
200905091045 METAR LIRA 091045Z 25008KT 190V290 9999 FEW025 SCT200 23/09
                        Q1022=
200905091015 METAR LIRA 091015Z 23006KT 9999 FEW025 BKN200 22/11 Q1022=
200905090945 METAR LIRA 090945Z 20004KT 150V240 CAVOK 21/11 Q1022=
200905090915 METAR LIRA 090915Z 20004KT CAVOK 21/10 Q1022=
200905090845 METAR LIRA 090845Z 23002KT CAVOK 20/11 Q1022=
200905090815 METAR LIRA 090815Z 00000KT CAVOK 19/12 Q1022=
200905090745 METAR LIRA 090745Z 30002KT CAVOK 17/12 Q1022=
200905090715 METAR LIRA 090715Z 34002KT CAVOK 16/11 Q1022=
200905090645 METAR LIRA 090645Z 00000KT CAVOK 15/11 Q1022=
200905090615 METAR LIRA 090615Z 04001KT CAVOK 13/10 Q1022=
200905090545 METAR LIRA 090545Z 04003KT CAVOK 12/10 Q1022=
200905090515 METAR LIRA 090515Z 03003KT CAVOK 11/09 Q1022=
200905090445 METAR LIRA 090445Z 03002KT CAVOK 10/09 Q1022=
200905090415 METAR LIRA 090415Z 02002KT CAVOK 10/08 Q1022=
200905090345 METAR LIRA 090345Z 03001KT CAVOK 10/07 Q1021=
200905090315 METAR LIRA 090315Z 36001KT CAVOK 11/07 Q1021=
200905090245 METAR LIRA 090245Z 07002KT CAVOK 11/06 Q1021=
200905090215 METAR LIRA 090215Z 02002KT CAVOK 12/07 Q1022=
200905090145 METAR LIRA 090145Z 00000KT CAVOK 12/07 Q1022=
200905090115 METAR LIRA 090115Z 00000KT CAVOK 12/06 Q1022=
200905090045 METAR LIRA 090045Z 11001KT CAVOK 14/08 Q1022=
200905090015 METAR LIRA 090015Z 12002KT CAVOK 13/08 Q1022=
200905082345 METAR LIRA 082345Z 00000KT CAVOK 13/08 Q1022=
200905082315 METAR LIRA 082315Z 09003KT CAVOK 14/10 Q1022=
200905082245 METAR LIRA 082245Z 10001KT CAVOK 14/10 Q1023=
200905082215 METAR LIRA 082215Z 00000KT CAVOK 14/10 Q1023=
200905082145 METAR LIRA 082145Z 11002KT CAVOK 15/12 Q1023=
200905082115 METAR LIRA 082115Z 11002KT CAVOK 15/12 Q1023=
200905082045 METAR LIRA 082045Z 13004KT CAVOK 15/12 Q1023=
200905082015 METAR LIRA 082015Z 00000KT 9999 FEW070 16/12 Q1022=
200905081945 METAR LIRA 081945Z 22002KT 9999 FEW070 16/11 Q1022=
200905081915 METAR LIRA 081915Z 22002KT 9999 FEW070 17/12 Q1022=
200905081845 METAR LIRA 081845Z 19005KT CAVOK 19/11 Q1021=
200905081815 METAR LIRA 081815Z 21003KT CAVOK 19/11 Q1021=
200905081745 METAR LIRA 081745Z 22003KT CAVOK 20/11 Q1021=
200905081715 METAR LIRA 081715Z 23005KT 180V250 CAVOK 21/11 Q1021=
200905081645 METAR LIRA 081645Z 23007KT 170V260 9999 FEW020 21/10 Q1021=
200905081615 METAR LIRA 081615Z 21006KT 160V250 9999 FEW020 21/10 Q1021=
200905081545 METAR LIRA 081545Z 22008KT 160V260 CAVOK 22/10 Q1021=
200905081515 METAR LIRA 081515Z 23008KT 160V260 9999 FEW017 22/11 Q1021=
200905081445 METAR LIRA 081445Z 23006KT 170V280 9999 FEW017 22/10 Q1022=
200905081415 METAR LIRA 081415Z 23007KT 180V300 9999 FEW017 22/10 Q1022=
200905081345 METAR LIRA 081345Z 23007KT 160V300 9999 FEW017 22/10 Q1022=
200905081315 METAR LIRA 081315Z 24006KT 180V270 9999 FEW017 22/10 Q1022=
200905081245 METAR LIRA 081245Z 23007KT 180V270 9999 FEW017 23/10 Q1022=
200905081215 METAR LIRA 081215Z 21006KT 170V300 9999 FEW017 SCT200 23/12
                        Q1022=
200905081145 METAR LIRA 081145Z 24009KT 150V300 9999 FEW017 SCT200 23/12
                        Q1022=
200905081115 METAR LIRA 081115Z 23010KT 200V300 9999 FEW017 SCT200 23/10
                        Q1022=
200905081045 METAR LIRA 081045Z 24006KT 200V330 9999 FEW017 SCT200 23/09
                        Q1022=
200905081015 METAR LIRA 081015Z 24004KT 190V330 9999 FEW017 SCT200 22/09
                        Q1022=
200905080945 METAR LIRA 080945Z 22004KT 180V260 9999 FEW015 SCT200 21/09
                        Q1022=
200905080915 METAR LIRA 080915Z 23004KT 180V280 CAVOK 21/09 Q1022=
200905080845 METAR LIRA 080845Z 22005KT 170V240 CAVOK 20/11 Q1022=
200905080815 METAR LIRA 080815Z 21004KT CAVOK 19/12 Q1022=
200905080745 METAR LIRA 080745Z 00000KT 9999 FEW080 SCT200 17/12 Q1022=
200905080715 METAR LIRA 080715Z 36002KT 9999 FEW080 SCT200 17/12 Q1022=
200905080645 METAR LIRA 080645Z 04001KT 9999 FEW080 SCT200 15/12 Q1022=
200905080615 METAR LIRA 080615Z 03003KT 9999 FEW080 14/11 Q1022=
200905080545 METAR LIRA 080545Z 01002KT 9999 FEW080 13/09 Q1022=
200905080515 METAR LIRA 080515Z 02001KT 9999 FEW080 12/10 Q1021=
200905080445 METAR LIRA 080445Z 06002KT CAVOK 12/10 Q1021=
200905080415 METAR LIRA 080415Z 00000KT CAVOK 12/10 Q1021=
200905080345 METAR LIRA 080345Z 15004KT CAVOK 13/10 Q1021=
200905080315 METAR LIRA 080315Z 16004KT CAVOK 13/10 Q1021=
200905080245 METAR LIRA 080245Z 16003KT CAVOK 13/10 Q1021=
200905080215 METAR LIRA 080215Z 15003KT CAVOK 13/10 Q1021=
200905080145 METAR LIRA 080145Z 16003KT CAVOK 13/09 Q1021=
200905080115 METAR LIRA 080115Z 15003KT CAVOK 14/10 Q1021=
200905080045 METAR LIRA 080045Z 16003KT CAVOK 14/10 Q1021=
200905080015 METAR LIRA 080015Z 17003KT CAVOK 14/09 Q1021=
200905072350 METAR LIRA 080045Z 16003KT CAVOK 14/10 Q1021=
200905072345 METAR LIRA 072345Z 16002KT CAVOK 15/08 Q1021=
200905072315 METAR LIRA 072315Z 18002KT CAVOK 15/09 Q1021=
200905072245 METAR LIRA 072245Z 17003KT CAVOK 15/08 Q1021=
200905072215 METAR LIRA 072215Z 14004KT CAVOK 15/08 Q1021=
200905072145 METAR LIRA 072145Z 16004KT CAVOK 16/09 Q1021=
200905072115 METAR LIRA 072115Z 17004KT CAVOK 16/08 Q1021=
200905072045 METAR LIRA 072045Z 18004KT CAVOK 17/09 Q1021=
200905072015 METAR LIRA 072015Z 17004KT CAVOK 17/08 Q1021=
200905071945 METAR LIRA 071945Z 17004KT CAVOK 17/08 Q1021=
200905071915 METAR LIRA 071915Z 19005KT CAVOK 18/09 Q1021=
200905071845 METAR LIRA 071845Z 19003KT CAVOK 19/09 Q1020=
200905071815 METAR LIRA 071815Z 21004KT 9999 FEW080 20/09 Q1020=
200905071745 METAR LIRA 071745Z 23005KT 200V300 9999 FEW080 20/09 Q1020=
200905071715 METAR LIRA 071715Z 26005KT 210V300 9999 FEW070 21/09 Q1020=
200905071645 METAR LIRA 071645Z 25005KT 190V300 9999 FEW080 22/10 Q1020=
200905071615 METAR LIRA 071615Z 26006KT 220V310 9999 FEW020 22/10 Q1020=
200905071545 METAR LIRA 071545Z 22006KT 150V260 9999 FEW020 22/10 Q1020=
200905071515 METAR LIRA 071515Z 25007KT 190V300 9999 FEW020 23/10 Q1020=
200905071445 METAR LIRA 071445Z 20007KT 150V250 9999 FEW020 23/11 Q1020=
200905071415 METAR LIRA 071415Z 23008KT 190V290 9999 FEW020 23/12 Q1020=
200905071345 METAR LIRA 071345Z 25006KT 180V300 9999 FEW020 23/15 Q1020=
200905071315 METAR LIRA 071315Z 22009KT 170V260 9999 FEW020 23/15 Q1020=
200905071245 METAR LIRA 071245Z 22008KT 180V280 9999 FEW020 23/15 Q1020=
200905071215 METAR LIRA 071215Z 24008KT 170V290 9999 FEW020 23/15 Q1020=
200905071145 METAR LIRA 071145Z 23008KT 150V260 9999 FEW020 23/11 Q1020=
200905071115 METAR LIRA 071115Z 24006KT 210V270 9999 FEW020 23/12 Q1020=
200905071045 METAR LIRA 071045Z 25006KT 9999 FEW022 23/13 Q1020=
200905071015 METAR LIRA 071015Z 35004KT 9999 FEW022 22/13 Q1020=
200905070945 METAR LIRA 070945Z 29004KT 9999 FEW022 21/13 Q1020=
200905070915 METAR LIRA 070915Z 36001KT 9999 FEW022 21/13 Q1020=
200905070845 METAR LIRA 070845Z 30002KT 9999 FEW022 21/13 Q1020=
200905070815 METAR LIRA 070815Z 05002KT CAVOK 20/13 Q1020=
200905070745 METAR LIRA 070745Z 02003KT CAVOK 18/12 Q1020=
200905070715 METAR LIRA 070715Z 34002KT CAVOK 17/12 Q1020=
200905070645 METAR LIRA 070645Z 30002KT CAVOK 16/12 Q1020=
200905070615 METAR LIRA 070615Z 30002KT CAVOK 15/12 Q1020=
200905070545 METAR LIRA 070545Z 02002KT CAVOK 13/12 Q1019=
200905070515 METAR LIRA 070515Z 05004KT CAVOK 12/11 Q1019=
200905070445 METAR LIRA 070445Z 08004KT CAVOK 11/10 Q1018=
200905070415 METAR LIRA 070415Z 08003KT CAVOK 12/10 Q1018=
200905070345 METAR LIRA 070345Z 03003KT CAVOK 11/10 Q1018=
200905070315 METAR LIRA 070315Z 34002KT CAVOK 12/10 Q1018=
200905070245 METAR LIRA 070245Z 33002KT CAVOK 12/11 Q1018=
200905070215 METAR LIRA 070215Z 00000KT CAVOK 13/12 Q1018=
200905070145 METAR LIRA 070145Z 00000KT 9999 SCT080 SCT200 13/11 Q1018=
200905070115 METAR LIRA 070115Z 00000KT 9999 SCT080 SCT200 13/12 Q1018=
200905070045 METAR LIRA 070045Z 16001KT 9999 SCT080 13/11 Q1018=
200905070015 METAR LIRA 070015Z 16002KT 9999 SCT070 SCT200 13/11 Q1019=
200905062345 METAR LIRA 062345Z 13004KT 9999 SCT070 SCT200 14/12 Q1019=
200905062315 METAR LIRA 062315Z 20002KT 9999 SCT070 SCT200 14/12 Q1019=
200905062245 METAR LIRA 062245Z 30002KT 9999 SCT070 14/12 Q1018=
200905062215 METAR LIRA 062215Z 12002KT 9999 FEW060 15/12 Q1018=
200905062145 METAR LIRA 062145Z 14002KT 9999 FEW060 15/12 Q1018=
200905062115 METAR LIRA 062115Z 17003KT CAVOK 15/11 Q1018=
200905062045 METAR LIRA 062045Z 17003KT CAVOK 16/12 Q1018=
200905062015 METAR LIRA 062015Z 18002KT CAVOK 16/12 Q1018=
200905061945 METAR LIRA 061945Z 19004KT CAVOK 16/11 Q1018=
200905061915 METAR LIRA 061915Z 18003KT 9999 FEW030 16/11 Q1018=
200905061845 METAR LIRA 061845Z 19004KT 9999 FEW030 SCT100 16/10 Q1018=
200905061815 METAR LIRA 061815Z 19003KT 9999 FEW030 SCT100 17/10 Q1017=
200905061745 METAR LIRA 061745Z 23005KT 200V270 9999 FEW030 SCT090 17/09
                        Q1017=
200905061715 METAR LIRA 061715Z 24006KT 190V300 9999 FEW020 SCT090 19/10
                        Q1017=
200905061645 METAR LIRA 061645Z 25004KT 210V310 9999 FEW020 SCT070 19/10
                        Q1017=
200905061615 METAR LIRA 061615Z 25006KT 200V300 9999 FEW020 SCT080 20/11
                        Q1017=
200905061545 METAR LIRA 061545Z 27008KT 220V320 9999 FEW020 SCT070 20/11
                        Q1017=
200905061515 METAR LIRA 061515Z 27007KT 220V350 9999 FEW020 SCT070 20/11
                        Q1017=
200905061445 METAR LIRA 061445Z 27008KT 220V330 9999 FEW020 SCT070 21/11
                        Q1017=
200905061415 METAR LIRA 061415Z 28010KT 230V330 9999 FEW020 SCT070 21/11
                        Q1018=
200905061345 METAR LIRA 061345Z 26008KT 220V320 9999 FEW020 SCT200 21/09
                        Q1018=
200905061315 METAR LIRA 061315Z 27009KT 190V340 9999 FEW020 SCT200 22/10
                        Q1018=
200905061245 METAR LIRA 061245Z 33006KT 290V040 9999 FEW020 SCT200 22/10
                        Q1018=
200905061215 METAR LIRA 061215Z 33006KT 290V040 9999 FEW020 SCT200 22/11
                        Q1018=
200905061145 METAR LIRA 061145Z 35004KT 9999 FEW020 SCT070 21/12 Q1018=
200905061115 METAR LIRA 061115Z 16003KT 9999 FEW020 SCT200 21/12 Q1018=
200905061045 METAR LIRA 061045Z 30005KT 250V360 9999 FEW020 BKN070 20/12
                        Q1018=
200905061015 METAR LIRA 061015Z 30005KT 230V310 9999 FEW020 SCT200 20/12
                        Q1018=
200905060945 METAR LIRA 060945Z 23003KT 9999 FEW020 SCT200 19/12 Q1018=
200905060915 METAR LIRA 060915Z 31004KT 9999 FEW020 SCT200 19/11 Q1018=
200905060845 METAR LIRA 060845Z 28002KT 9999 FEW020 17/10 Q1018=
200905060815 METAR LIRA 060815Z 02003KT CAVOK 16/11 Q1018=
200905060745 METAR LIRA 060745Z 03003KT CAVOK 15/11 Q1018=
200905060715 METAR LIRA 060715Z 02003KT CAVOK 14/12 Q1018=
200905060645 METAR LIRA 060645Z 36004KT CAVOK 12/10 Q1018=
200905060615 METAR LIRA 060615Z 36002KT CAVOK 10/10 Q1018=
200905060545 METAR LIRA 060545Z 04005KT 360V070 CAVOK 09/08 Q1018=
200905060515 METAR LIRA 060515Z 02002KT CAVOK 09/08 Q1017=
200905060445 METAR LIRA 060445Z 03002KT 9000 NSC 09/08 Q1017=
200905060415 METAR LIRA 060415Z 02002KT 9000 NSC 09/09 Q1017=
200905060345 METAR LIRA 060345Z 05004KT CAVOK 09/09 Q1017=
200905060315 METAR LIRA 060315Z 05004KT CAVOK 10/09 Q1017=
200905060245 METAR LIRA 060245Z 01003KT CAVOK 10/09 Q1017=
200905060215 METAR LIRA 060215Z 06003KT CAVOK 10/10 Q1017=
200905060145 METAR LIRA 060145Z 01003KT CAVOK 11/10 Q1017=
200905060115 METAR LIRA 060115Z 02002KT CAVOK 11/10 Q1017=
200905060045 METAR LIRA 060045Z 01002KT CAVOK 11/10 Q1017=
200905060015 METAR LIRA 060015Z 02002KT CAVOK 12/11 Q1017=
200905052350 METAR LIRA 060045Z 01002KT CAVOK 11/10 Q1017=
200905052345 METAR LIRA 052345Z 00000KT CAVOK 11/11 Q1017=
200905052315 METAR LIRA 052315Z 06003KT CAVOK 12/11 Q1017=
200905052245 METAR LIRA 052245Z 03003KT CAVOK 12/12 Q1017=
200905052215 METAR LIRA 052215Z 04001KT CAVOK 13/12 Q1017=
200905052145 METAR LIRA 052145Z 04002KT CAVOK 13/12 Q1017=
200905052115 METAR LIRA 052115Z 02001KT CAVOK 13/13 Q1017=
200905052045 METAR LIRA 052045Z 00000KT CAVOK 14/13 Q1017=
200905052015 METAR LIRA 052015Z 00000KT CAVOK 14/13 Q1017=
200905051945 METAR LIRA 051945Z 02003KT 9999 FEW080 15/14 Q1017=
200905051915 METAR LIRA 051915Z 32002KT 9999 FEW020TCU 15/13 Q1017=
200905051845 METAR LIRA 051845Z 29001KT 9999 FEW020CB 16/13 Q1016=
200905051815 METAR LIRA 051815Z 36001KT 9999 FEW020CB 16/13 Q1016=
200905051745 METAR LIRA 051745Z 35001KT 9999 FEW020 FEW022CB 16/14 Q1016=
200905051715 METAR LIRA 051715Z 06004KT 030V100 9999 FEW020CB SCT080 17/14
                        Q1016=
200905051645 METAR LIRA 051645Z 09004KT 9999 FEW018 FEW020CB SCT080 16/14
                        Q1016=
200905051615 METAR LIRA 051615Z 03002KT 9999 FEW018 FEW020CB BKN200 16/14
                        Q1016=
200905051545 METAR LIRA 051545Z 07003KT 9999 -RA FEW017 FEW018TCU FEW020CB
                        BKN060 15/12 Q1015 RETS=
200905051515 METAR LIRA 051515Z 10004KT 9999 -RA FEW017 FEW020CB BKN060
                        15/13 Q1015 RETS=
200905051445 METAR LIRA 051445Z 14001KT 9000 -TSRA FEW017 FEW020CB BKN060
                        15/12 Q1015=
200905051415 METAR LIRA 051415Z 21008KT 9000 -TSRA FEW017 FEW020CB BKN060
                        15/12 Q1015=
200905051345 METAR LIRA 051345Z 27008KT 210V310 9000 -TSRA SCT017 FEW018TCU
                        SCT020CB 20/15 Q1016=
200905051315 METAR LIRA 051315Z 21008KT 150V250 8000 TS SCT017 FEW018TCU
                        SCT020CB 20/13 Q1015=
200905051245 METAR LIRA 051245Z 19008KT 130V240 9999 TS SCT017 FEW020TCU
                        SCT022CB 21/14 Q1015=
200905051215 METAR LIRA 051215Z 19007KT 130V220 9999 SCT018 FEW020TCU
                        FEW022CB 21/13 Q1015=
200905051145 METAR LIRA 051145Z 20006KT 150V250 9999 FEW018 FEW020TCU
                        FEW022CB 21/11 Q1015=
200905051115 METAR LIRA 051115Z 23005KT 180V300 9999 FEW018 FEW020TCU
                        FEW022CB 20/11 Q1015=
200905051045 METAR LIRA 051045Z 23006KT 210V300 9999 FEW020 FEW022TCU
                        20/11 Q1016=
200905051015 METAR LIRA 051015Z 20004KT 150V240 9999 FEW020 BKN090 20/11
                        Q1016=
200905050945 METAR LIRA 050945Z 26005KT 210V310 9999 FEW020 BKN090 20/12
                        Q1016=
200905050915 METAR LIRA 050915Z 11002KT 9999 FEW020 SCT090 19/12 Q1016=
200905050845 METAR LIRA 050845Z 22002KT 9999 FEW025 SCT080 18/12 Q1015=
200905050815 METAR LIRA 050815Z 20002KT 9999 FEW025 SCT080 18/12 Q1015=
200905050745 METAR LIRA 050745Z 10001KT 9999 SCT080 16/12 Q1015=
200905050715 METAR LIRA 050715Z 25001KT 9999 FEW080 SCT200 15/12 Q1015=
200905050645 METAR LIRA 050645Z 33005KT 9999 FEW035 14/12 Q1015=
200905050615 METAR LIRA 050615Z 30006KT 9999 FEW018 SCT200 14/12 Q1014=
200905050545 METAR LIRA 050545Z 30007KT 240V340 9999 FEW017 BKN070 14/11
                        Q1014=
200905050515 METAR LIRA 050515Z 03005KT 360V080 9999 FEW017 BKN070 14/11
                        Q1013=
200905050445 METAR LIRA 050445Z 07009KT 040V140 9999 -DZ FEW017 BKN080
                        13/11 Q1014=
200905050415 METAR LIRA 050415Z 08005KT 010V100 9999 FEW017 BKN080 13/11
                        Q1014=
200905050345 METAR LIRA 050345Z 04004KT 030V090 9999 FEW017 SCT080 13/11
                        Q1014=
200905050315 METAR LIRA 050315Z 05005KT 9999 FEW030 SCT080 12/10 Q1014=
200905050245 METAR LIRA 050245Z 33001KT 9999 FEW030 SCT080 12/10 Q1014=
200905050215 METAR LIRA 050215Z 07004KT 9999 FEW030 SCT080 12/11 Q1014=
200905050145 METAR LIRA 050145Z 36004KT 9999 FEW030 SCT080 13/10 Q1014=
200905050115 METAR LIRA 050115Z 36002KT 9999 FEW030 SCT080 13/11 Q1014=
200905050045 METAR LIRA 050045Z 17003KT 9999 FEW030 SCT080 14/11 Q1014=
200905050015 METAR LIRA 050015Z 17003KT 9999 FEW080 14/12 Q1014=
200905042345 METAR LIRA 042345Z 18003KT 9999 FEW080 14/12 Q1014=
200905042315 METAR LIRA 042315Z 18002KT 9999 FEW080 14/12 Q1014=
200905042245 METAR LIRA 042245Z 18004KT CAVOK 15/12 Q1014=
200905042215 METAR LIRA 042215Z 18003KT CAVOK 15/12 Q1014=
200905042145 METAR LIRA 042145Z 18002KT CAVOK 15/12 Q1014=
200905042115 METAR LIRA 042115Z 16003KT CAVOK 15/12 Q1014=
200905042045 METAR LIRA 042045Z 19004KT CAVOK 15/12 Q1014=
200905042015 METAR LIRA 042015Z 16004KT CAVOK 15/07 Q1014=
200905041945 METAR LIRA 041945Z 16005KT 9999 FEW017 SCT200 16/07 Q1014=
200905041915 METAR LIRA 041915Z 19005KT 9999 FEW017 SCT200 16/07 Q1014=
200905041845 METAR LIRA 041845Z 21004KT 9999 FEW018 SCT200 17/07 Q1014=
200905041815 METAR LIRA 041815Z 21005KT 9999 FEW017 FEW018CB SCT200 17/07
                        Q1014=
200905041745 METAR LIRA 041745Z 20003KT 9999 FEW017 FEW018CB SCT200 19/09
                        Q1013=
200905041715 METAR LIRA 041715Z 22005KT 180V250 9999 FEW017 FEW018CB SCT200
                        19/08 Q1013=
200905041645 METAR LIRA 041645Z 23006KT 180V300 9999 FEW017 FEW018CB SCT200
                        19/08 Q1013=
200905041615 METAR LIRA 041615Z 26008KT 210V300 9999 FEW017 FEW018TCU
                        FEW020CB 20/08 Q1013=
200905041545 METAR LIRA 041545Z 25008KT 190V310 9999 FEW017 FEW018TCU
                        FEW020CB 20/08 Q1013=
200905041515 METAR LIRA 041515Z 27009KT 210V340 9999 FEW017 FEW018TCU
                        FEW020CB 21/09 Q1013=
200905041445 METAR LIRA 041445Z 27010KT 210V330 9999 FEW018 FEW020TCU
                        22/10 Q1014=
200905041415 METAR LIRA 041415Z 26007KT 210V320 9999 SCT018 FEW022TCU
                        22/10 Q1014=
200905041345 METAR LIRA 041345Z 27010KT 200V310 9999 SCT018 FEW020TCU
                        22/10 Q1014=
200905041315 METAR LIRA 041315Z 26010KT 200V340 9999 SCT018 FEW020TCU
                        22/08 Q1014=
200905041245 METAR LIRA 041245Z 26011KT 210V310 9999 FEW018 FEW020TCU
                        22/08 Q1014=
200905041215 METAR LIRA 041215Z 27008KT 210V320 9999 FEW018 FEW020TCU
                        22/06 Q1014=
200905041145 METAR LIRA 041145Z 29007KT 190V350 9999 SCT018 23/08 Q1015=
200905041115 METAR LIRA 041115Z 31007KT 210V350 9999 FEW018 22/09 Q1015=
200905041045 METAR LIRA 041045Z 33003KT 9999 FEW018 20/08 Q1015=
200905041015 METAR LIRA 041015Z 01004KT 300V030 9999 FEW018 20/08 Q1015=
200905040945 METAR LIRA 040945Z 01003KT 9999 FEW018 19/09 Q1015=
200905040915 METAR LIRA 040915Z 34005KT 280V030 9999 FEW018 18/09 Q1015=
200905040845 METAR LIRA 040845Z 01004KT 330V050 CAVOK 17/07 Q1016=
200905040815 METAR LIRA 040815Z 03004KT 310V070 CAVOK 16/08 Q1016=
200905040745 METAR LIRA 040745Z 03007KT 350V090 CAVOK 14/08 Q1016=
200905040715 METAR LIRA 040715Z 01007KT 320V070 CAVOK 13/08 Q1016=
200905040645 METAR LIRA 040645Z 33007KT 280V360 CAVOK 13/08 Q1016=
200905040615 METAR LIRA 040615Z 02006KT 310V070 CAVOK 11/07 Q1016=
200905040545 METAR LIRA 040545Z 01004KT CAVOK 10/07 Q1016=
200905040515 METAR LIRA 040515Z 00000KT CAVOK 09/06 Q1015=
200905040445 METAR LIRA 040445Z 05006KT 9999 FEW070 09/06 Q1016=
200905040415 METAR LIRA 040415Z 02005KT 9999 FEW070 09/07 Q1016=
200905040345 METAR LIRA 040345Z 01002KT 9999 FEW070 09/07 Q1016=
200905040315 METAR LIRA 040315Z 04004KT CAVOK 09/07 Q1016=
200905040245 METAR LIRA 040245Z 05003KT CAVOK 09/07 Q1016=
200905040215 METAR LIRA 040215Z 04003KT CAVOK 08/07 Q1016=
200905040145 METAR LIRA 040145Z 01002KT CAVOK 08/06 Q1016=
200905040115 METAR LIRA 040115Z 07004KT CAVOK 09/06 Q1016=
200905040045 METAR LIRA 040045Z 08002KT CAVOK 09/06 Q1016=
200905040015 METAR LIRA 040015Z 35001KT CAVOK 09/07 Q1017=
200905032350 METAR LIRA 040045Z 08002KT CAVOK 09/06 Q1016=
200905032345 METAR LIRA 032345Z 13002KT CAVOK 10/07 Q1017=
200905032315 METAR LIRA 032315Z 20001KT CAVOK 10/08 Q1017=
200905032245 METAR LIRA 032245Z 12002KT CAVOK 10/08 Q1017=
200905032215 METAR LIRA 032215Z 13002KT CAVOK 11/08 Q1017=
200905032145 METAR LIRA 032145Z 00000KT 9999 FEW020 10/09 Q1017=
200905032115 METAR LIRA 032115Z 16001KT 9999 FEW020 11/09 Q1017=
200905032045 METAR LIRA 032045Z 14003KT 9999 FEW020 11/09 Q1017=
200905032015 METAR LIRA 032015Z 17001KT 9999 FEW020 12/09 Q1017=
200905031945 METAR LIRA 031945Z 21002KT 9999 FEW020 12/09 Q1017=
200905031915 METAR LIRA 031915Z 22002KT 9999 FEW020 13/09 Q1017=
200905031845 METAR LIRA 031845Z 22004KT 9999 FEW015 SCT070 14/09 Q1017=
200905031815 METAR LIRA 031815Z 21004KT 160V250 9999 FEW015 SCT070 14/09
                        Q1016=
200905031745 METAR LIRA 031745Z 18007KT 9999 FEW015 SCT070 15/08 Q1016=
200905031715 METAR LIRA 031715Z 20008KT 160V230 9999 FEW015 FEW020CB 18/05
                        Q1016=
200905031645 METAR LIRA 031645Z 14005KT 020V170 9999 FEW015 FEW020CB 18/06
                        Q1016=
200905031615 METAR LIRA 031615Z 01009G21KT 300V090 9999 FEW015 FEW020CB
                        19/08 Q1016=
200905031545 METAR LIRA 031545Z 01015KT 330V060 9999 SCT016 FEW020CB 18/03
                        Q1016=
200905031515 METAR LIRA 031515Z 36016G27KT 310V040 9999 SCT016 FEW020CB
                        SCT030 19/04 Q1016=
200905031445 METAR LIRA 031445Z 26004KT 9999 SCT016 FEW020CB 19/04 Q1016=
200905031415 METAR LIRA 031415Z 31007KT 240V030 9999 BKN016 FEW020CB 19/04
                        Q1016=
200905031345 METAR LIRA 031345Z 33017KT 280V030 9999 BKN016 FEW020CB 19/04
                        Q1016=
200905031315 METAR LIRA 031315Z 34014KT 300V030 9999 BKN016 20/04 Q1016=
200905031245 METAR LIRA 031245Z 33015KT 300V020 9999 SCT016 20/02 Q1016=
200905031215 METAR LIRA 031215Z 34013KT 290V090 9999 SCT016 20/05 Q1016=
200905031145 METAR LIRA 031145Z 33015G25KT 270V040 9999 SCT016 20/04 Q1016=
200905031115 METAR LIRA 031115Z 04010KT 300V110 9999 SCT016 19/03 Q1016=
200905031045 METAR LIRA 031045Z 34017KT 300V060 9999 SCT016 19/05 Q1016=
200905031015 METAR LIRA 031015Z 33012KT 290V010 9999 SCT016 19/06 Q1017=
200905030945 METAR LIRA 030945Z 33013KT 330V030 9999 FEW015 18/05 Q1017=
200905030915 METAR LIRA 030915Z 34010G23KT 290V040 9999 FEW015 17/06 Q1017=
200905030845 METAR LIRA 030845Z 35009KT 310V080 9999 FEW015 17/07 Q1017=
200905030815 METAR LIRA 030815Z 01009KT 300V060 9999 FEW080 16/09 Q1017=
200905030745 METAR LIRA 030745Z 36008KT 310V070 9999 FEW080 15/09 Q1018=
200905030715 METAR LIRA 030715Z 36010KT 300V050 9999 FEW080 14/08 Q1018=
200905030645 METAR LIRA 030645Z 01011KT 9999 FEW080 14/09 Q1018=
200905030615 METAR LIRA 030615Z 35009KT 300V060 9999 FEW018 14/09 Q1018=
200905030545 METAR LIRA 030545Z 02005KT 9999 FEW018 14/09 Q1018=
200905030515 METAR LIRA 030515Z 01003KT 9999 FEW018 13/09 Q1018=
200905030445 METAR LIRA 030445Z 05004KT 9999 FEW018 SCT080 13/08 Q1018=
200905030415 METAR LIRA 030415Z 11005KT 9999 FEW018 SCT030 14/08 Q1018=
200905030345 METAR LIRA 030345Z 02003KT 9999 SCT018 SCT025 14/07 Q1018=
200905030315 METAR LIRA 030315Z 34004KT 9999 FEW018 SCT070 14/07 Q1018=
200905030245 METAR LIRA 030245Z 05010KT 350V100 9999 FEW025 BKN070 14/08
                        Q1018=
200905030215 METAR LIRA 030215Z 35004KT 330V070 9999 SCT070 SCT200 13/08
                        Q1018=
200905030145 METAR LIRA 030145Z 02007KT 340V080 9999 SCT070 SCT200 13/08
                        Q1018=
200905030115 METAR LIRA 030115Z 04008KT 350V090 9999 SCT070 SCT200 13/08
                        Q1018=
200905030045 METAR LIRA 030045Z 01007KT 310V060 9999 SCT070 SCT200 13/09
                        Q1018=
200905030015 METAR LIRA 030015Z 36008KT 310V050 9999 FEW070 SCT200 13/10
                        Q1018=
200905022345 METAR LIRA 022345Z 03005KT 9999 FEW070 SCT200 13/10 Q1018=
200905022315 METAR LIRA 022315Z 01005KT 9999 FEW030 SCT200 13/10 Q1018=
200905022245 METAR LIRA 022245Z 02003KT 9999 FEW030 SCT200 14/10 Q1018=
200905022215 METAR LIRA 022215Z 04006KT 9999 FEW030 SCT200 14/10 Q1018=
200905022145 METAR LIRA 022145Z 04004KT 9999 FEW030 SCT200 14/09 Q1018=
200905022115 METAR LIRA 022115Z 06003KT 9999 FEW018 SCT070 15/10 Q1018=
200905022045 METAR LIRA 022045Z 04002KT 9999 FEW018 SCT070 16/09 Q1018=
200905022015 METAR LIRA 022015Z 10002KT 9999 FEW018 SCT070 16/09 Q1018=
200905021945 METAR LIRA 021945Z 08003KT 9999 FEW018 SCT070 16/11 Q1018=
200905021915 METAR LIRA 021915Z 00000KT 9999 FEW018 FEW020CB SCT070 17/11
                        Q1017=
200905021845 METAR LIRA 021845Z 15005KT 9999 FEW018 FEW020CB SCT070 18/11
                        Q1017=
200905021815 METAR LIRA 021815Z 14004KT 9999 FEW018 FEW020CB SCT070 18/11
                        Q1017=
200905021745 METAR LIRA 021745Z 17004KT 9999 SCT018 FEW020CB SCT070 19/11
                        Q1017=
200905021715 METAR LIRA 021715Z 21003KT 9999 SCT018 FEW020CB SCT070 19/12
                        Q1017=
200905021645 METAR LIRA 021645Z 22005KT 9999 SCT018 FEW020CB SCT070 19/12
                        Q1017=
200905021615 METAR LIRA 021615Z 23006KT 160V260 9999 SCT018 FEW020CB SCT070
                        20/12 Q1017=
200905021545 METAR LIRA 021545Z 16009KT 130V210 9999 FEW018 FEW020TCU
                        21/13 Q1016=
200905021515 METAR LIRA 021515Z 17010KT 120V210 9999 FEW018 FEW020TCU
                        20/11 Q1017 RETS=
200905021445 METAR LIRA 021445Z 15011KT 120V190 9999 FEW018 FEW020CB 19/09
                        Q1017 RETS=
200905021415 METAR LIRA 021415Z 18010KT 140V220 9999 TS FEW018 FEW020CB
                        20/09 Q1017=
200905021345 METAR LIRA 021345Z 24006KT 160V240 9999 TS FEW018 FEW020CB
                        SCT070 20/07 Q1017=
200905021315 METAR LIRA 021315Z 31002KT 9999 TS FEW018 FEW020CB SCT030
                        22/09 Q1017=
200905021245 METAR LIRA 021245Z 02002KT 9999 TS FEW018 FEW020CB SCT030
                        24/08 Q1016=
200905021215 METAR LIRA 021215Z 04012G23KT 340V080 9999 FEW018 FEW020CB
                        SCT070 24/08 Q1016=
200905021145 METAR LIRA 021145Z 03006KT 300V060 9999 FEW018 FEW020TCU
                        SCT200 24/10 Q1016=
200905021115 METAR LIRA 021115Z 34007KT 310V020 9999 FEW018 FEW020TCU
                        SCT200 23/10 Q1017=
200905021045 METAR LIRA 021045Z 33007KT 330V010 9999 FEW020 SCT200 22/09
                        Q1017=
200905021015 METAR LIRA 021015Z 36005KT 270V060 9999 FEW020 SCT200 21/11
                        Q1017=
200905020945 METAR LIRA 020945Z 34005KT 280V030 9999 FEW020 SCT200 20/10
                        Q1017=
200905020915 METAR LIRA 020915Z 01005KT 300V060 9999 FEW020 SCT200 19/10
                        Q1017=
200905020845 METAR LIRA 020845Z 36004KT 320V030 9999 FEW020 18/10 Q1017=
200905020815 METAR LIRA 020815Z 36006KT 330V060 CAVOK 17/11 Q1017=
200905020745 METAR LIRA 020745Z 36007KT 320V060 CAVOK 14/09 Q1017=
200905020715 METAR LIRA 020715Z 02006KT 340V060 CAVOK 14/09 Q1017=
200905020645 METAR LIRA 020645Z 02005KT 300V050 CAVOK 13/09 Q1016=
200905020615 METAR LIRA 020615Z 01003KT 340V050 CAVOK 11/08 Q1016=
200905020545 METAR LIRA 020545Z 02005KT 330V060 CAVOK 11/09 Q1016=
200905020515 METAR LIRA 020515Z 04006KT CAVOK 10/08 Q1016=
200905020445 METAR LIRA 020445Z 05002KT CAVOK 10/08 Q1015=
200905020415 METAR LIRA 020415Z 06005KT CAVOK 10/08 Q1015=
200905020345 METAR LIRA 020345Z 35003KT CAVOK 11/08 Q1015=
200905020315 METAR LIRA 020315Z 35005KT CAVOK 11/08 Q1015=
200905020245 METAR LIRA 020245Z 04004KT CAVOK 11/08 Q1015=
200905020215 METAR LIRA 020215Z 08004KT CAVOK 11/09 Q1015=
200905020145 METAR LIRA 020145Z 02003KT CAVOK 11/09 Q1015=
200905020115 METAR LIRA 020115Z 08002KT CAVOK 12/10 Q1015=
200905020045 METAR LIRA 020045Z 04006KT CAVOK 12/09 Q1015=
200905020015 METAR LIRA 020015Z 04006KT CAVOK 12/10 Q1015=
200905012345 METAR LIRA 012345Z 06003KT CAVOK 12/09 Q1015=
200905012315 METAR LIRA 012315Z 02005KT CAVOK 13/09 Q1015=
200905012245 METAR LIRA 012245Z 36004KT CAVOK 13/08 Q1015=
200905012215 METAR LIRA 012215Z 05003KT CAVOK 14/09 Q1015=
200905012145 METAR LIRA 012145Z 08002KT CAVOK 14/09 Q1014=
200905012115 METAR LIRA 012115Z 34002KT CAVOK 14/09 Q1014=
200905012045 METAR LIRA 012045Z 10005KT CAVOK 14/08 Q1014=
200905012015 METAR LIRA 012015Z 10006KT CAVOK 16/12 Q1013=
200905011945 METAR LIRA 011945Z 14004KT CAVOK 16/11 Q1013=
200905011915 METAR LIRA 011915Z 14006KT 090V150 CAVOK 16/11 Q1013=
200905011845 METAR LIRA 011845Z 14008KT 9999 FEW060 17/11 Q1013=
200905011815 METAR LIRA 011815Z 16006KT 9999 FEW030 17/11 Q1012=
200905011745 METAR LIRA 011745Z 16006KT 140V210 9999 FEW030 18/11 Q1012=
200905011715 METAR LIRA 011715Z 18006KT 150V220 9999 FEW020 19/11 Q1012=
200905011645 METAR LIRA 011645Z 19006KT 160V240 9999 FEW020 19/11 Q1012=
200905011615 METAR LIRA 011615Z 20007KT 170V240 9999 FEW020 19/12 Q1012=
200905011545 METAR LIRA 011545Z 19006KT 150V230 9999 FEW020 19/12 Q1012=
200905011515 METAR LIRA 011515Z 20009KT 160V240 9999 FEW018 19/13 Q1012=
200905011445 METAR LIRA 011445Z 18008KT 160V240 9999 SCT018 19/13 Q1012=
200905011415 METAR LIRA 011415Z 18010KT 140V230 9999 SCT018 19/12 Q1012=
200905011345 METAR LIRA 011345Z 20010KT 150V230 9999 SCT020 20/08 Q1012=
200905011315 METAR LIRA 011315Z 17013KT 070V200 9999 SCT020 SCT070 20/08
                        Q1011=
200905011245 METAR LIRA 011245Z 35005KT 280V060 9999 SCT018 SCT070 21/09
                        Q1011=
200905011215 METAR LIRA 011215Z 01007KT 300V070 9999 SCT018 20/09 Q1011=
200905011145 METAR LIRA 011145Z 01004KT 340V070 9999 SCT018 20/10 Q1011=
200905011115 METAR LIRA 011115Z 11004KT 9999 SCT018 20/10 Q1011=
200905011045 METAR LIRA 011045Z 01003KT 360V120 9999 FEW018 19/10 Q1011=
200905011015 METAR LIRA 011015Z 01003KT 340V110 9999 FEW018 19/11 Q1011=
200905010945 METAR LIRA 010945Z 01007KT 330V080 9999 FEW022 18/11 Q1011=
200905010915 METAR LIRA 010915Z 35007KT 300V080 9999 FEW022 17/11 Q1011=
200905010845 METAR LIRA 010845Z 04007KT 320V070 9999 FEW022 15/09 Q1011=
200905010815 METAR LIRA 010815Z 02007KT 330V100 9999 FEW022 14/09 Q1011=
200905010745 METAR LIRA 010745Z 01007KT 330V070 CAVOK 14/10 Q1011=
200905010715 METAR LIRA 010715Z 01006KT 330V070 CAVOK 14/10 Q1011=
200905010645 METAR LIRA 010645Z 02006KT 320V060 CAVOK 11/08 Q1011=
200905010615 METAR LIRA 010615Z 02007KT 320V060 CAVOK 10/09 Q1011=
200905010545 METAR LIRA 010545Z 04007KT 340V080 CAVOK 09/09 Q1011=
200905010515 METAR LIRA 010515Z 04006KT 010V080 9999 FEW070 09/08 Q1011=
200905010445 METAR LIRA 010445Z 03005KT 9999 FEW070 08/07 Q1011=
200905010415 METAR LIRA 010415Z 05006KT 9999 FEW070 09/07 Q1011=
200905010345 METAR LIRA 010345Z 04004KT 9999 FEW060 09/08 Q1011=
200905010315 METAR LIRA 010315Z 32002KT 9999 FEW070 09/08 Q1011=
200905010245 METAR LIRA 010245Z 36003KT CAVOK 09/08 Q1011=
200905010215 METAR LIRA 010215Z 04002KT 9999 SCT060 09/08 Q1011=
200905010145 METAR LIRA 010145Z 04004KT 9999 FEW070 09/08 Q1011=
200905010115 METAR LIRA 010115Z 05004KT 9999 FEW070 09/08 Q1011=
200905010045 METAR LIRA 010045Z 05003KT CAVOK 10/09 Q1011=
200905010015 METAR LIRA 010015Z 05004KT 9999 FEW080 10/09 Q1011=

</pre>

</body>
</html>
