##########################################################
# Query made at 11/10/2014 16:33:02 UTC
# Time interval: from 11/01/2011 00:00  to 12/01/2011 23:59  UTC
##########################################################

##########################################################
# LIRA, Roma / Ciampino (Italy)
# WMO index: 16239
# Latitude 41-47N. Longitude 012-35E. Altitude 129 m.
##########################################################

###################################
#  METAR/SPECI from LIRA
###################################
201112012350 METAR LIRA 020045Z 09002KT CAVOK 08/07 Q1026=
201112012345 METAR LIRA 012345Z 18002KT CAVOK 09/09 Q1026=
201112012315 METAR LIRA 012315Z 15003KT CAVOK 08/08 Q1026=
201112012245 METAR LIRA 012245Z 14002KT CAVOK 08/07 Q1027=
201112012215 METAR LIRA 012215Z 15003KT CAVOK 08/07 Q1027=
201112012145 METAR LIRA 012145Z 09002KT CAVOK 09/08 Q1027=
201112012115 METAR LIRA 012115Z 00000KT CAVOK 08/07 Q1027=
201112012045 METAR LIRA 012045Z 00000KT CAVOK 09/08 Q1027=
201112012015 METAR LIRA 012015Z 05002KT 9999 FEW010 10/09 Q1027=
201112011945 METAR LIRA 011945Z 14003KT 9999 FEW010 10/10 Q1027=
201112011915 METAR LIRA 011915Z 11004KT 9999 FEW010 10/10 Q1027=
201112011845 METAR LIRA 011845Z 13002KT 9999 FEW010 11/10 Q1027=
201112011815 METAR LIRA 011815Z 15004KT 9999 FEW010 11/10 Q1027=
201112011745 METAR LIRA 011745Z 15005KT CAVOK 10/10 Q1027=
201112011715 METAR LIRA 011715Z 15004KT CAVOK 11/10 Q1027=
201112011645 METAR LIRA 011645Z 20002KT 9999 FEW025 12/10 Q1026=
201112011615 METAR LIRA 011615Z 00000KT 9999 FEW025 12/10 Q1026=
201112011545 METAR LIRA 011545Z 00000KT 9999 FEW025 14/11 Q1026=
201112011515 METAR LIRA 011515Z 00000KT 9999 FEW025 16/10 Q1026=
201112011445 METAR LIRA 011445Z 30002KT 9999 FEW020 16/11 Q1026=
201112011415 METAR LIRA 011415Z 33002KT 9999 FEW020 16/10 Q1027=
201112011345 METAR LIRA 011345Z 00000KT 9999 FEW020 16/09 Q1027=
201112011315 METAR LIRA 011315Z 36001KT 9999 FEW020 17/10 Q1027=
201112011245 METAR LIRA 011245Z 00000KT 9999 FEW020 16/09 Q1027=
201112011215 METAR LIRA 011215Z 01002KT 9999 FEW020 16/09 Q1027=
201112011145 METAR LIRA 011145Z 36001KT 9999 FEW020 15/08 Q1028=
201112011115 METAR LIRA 011115Z 35003KT 9999 FEW020 15/09 Q1028=
201112011045 METAR LIRA 011045Z 33002KT 9999 FEW020 14/08 Q1029=
201112011015 METAR LIRA 011015Z 36002KT 9999 FEW020 12/08 Q1029=
201112010945 METAR LIRA 010945Z 04001KT 9000 FEW005 12/08 Q1029=
201112010915 METAR LIRA 010915Z 03003KT 9000 FEW005 10/07 Q1029=
201112010845 METAR LIRA 010845Z 03002KT CAVOK 09/07 Q1028=
201112010815 METAR LIRA 010815Z 01002KT CAVOK 08/07 Q1028=
201112010745 METAR LIRA 010745Z 01002KT 9000 NSC 07/07 Q1028=
201112010715 METAR LIRA 010715Z 04002KT 9000 SKC 06/06 Q1028=
201112010645 METAR LIRA 010645Z 05005KT 9000 FEW030 05/05 Q1028=
201112010615 METAR LIRA 010615Z 04002KT 8000 SCT070 05/05 Q1028=
201112010545 METAR LIRA 010545Z 36002KT 8000 SCT070 05/05 Q1028=
201112010515 METAR LIRA 010515Z 05002KT 8000 SCT070 05/05 Q1028=
201112010445 METAR LIRA 010445Z 04003KT 8000 FEW080 05/05 Q1028=
201112010415 METAR LIRA 010415Z 06002KT 8000 FEW080 05/05 Q1028=
201112010345 METAR LIRA 010345Z 08003KT 8000 FEW080 05/05 Q1028=
201112010315 METAR LIRA 010315Z 05003KT 8000 FEW080 06/06 Q1028=
201112010245 METAR LIRA 010245Z 03003KT 8000 FEW080 05/05 Q1028=
201112010215 METAR LIRA 010215Z 00000KT CAVOK 05/05 Q1028=
201112010145 METAR LIRA 010145Z 04001KT CAVOK 05/05 Q1028=
201112010115 METAR LIRA 010115Z 06003KT CAVOK 05/05 Q1028=
201112010045 METAR LIRA 010045Z 06003KT CAVOK 05/05 Q1028=
201112010015 METAR LIRA 010015Z 02002KT CAVOK 06/06 Q1028=
201111302350 METAR LIRA 010045Z 06003KT CAVOK 05/05 Q1028=
201111302345 METAR LIRA 302345Z 04001KT CAVOK 06/06 Q1028=
201111302315 METAR LIRA 302315Z 00000KT CAVOK 07/06 Q1028=
201111302245 METAR LIRA 302245Z 32002KT CAVOK 07/07 Q1028=
201111302215 METAR LIRA 302215Z 07003KT CAVOK 08/06 Q1028=
201111302145 METAR LIRA 302145Z 04003KT CAVOK 09/07 Q1028=
201111302115 METAR LIRA 302115Z 05004KT CAVOK 09/07 Q1028=
201111302045 METAR LIRA 302045Z 05002KT CAVOK 09/08 Q1028=
201111302015 METAR LIRA 302015Z 08001KT CAVOK 09/08 Q1028=
201111301945 METAR LIRA 301945Z 00000KT CAVOK 08/07 Q1027=
201111301915 METAR LIRA 301915Z 00000KT CAVOK 08/07 Q1027=
201111301845 METAR LIRA 301845Z 00000KT CAVOK 09/07 Q1027=
201111301815 METAR LIRA 301815Z 07003KT CAVOK 09/07 Q1027=
201111301745 METAR LIRA 301745Z 05003KT CAVOK 10/07 Q1027=
201111301715 METAR LIRA 301715Z 00000KT CAVOK 10/07 Q1027=
201111301645 METAR LIRA 301645Z 34001KT CAVOK 12/08 Q1026=
201111301615 METAR LIRA 301615Z 32001KT CAVOK 13/08 Q1026=
201111301545 METAR LIRA 301545Z 33002KT CAVOK 13/07 Q1026=
201111301515 METAR LIRA 301515Z 34003KT CAVOK 14/08 Q1026=
201111301445 METAR LIRA 301445Z 34001KT CAVOK 15/08 Q1026=
201111301415 METAR LIRA 301415Z 33003KT CAVOK 15/08 Q1026=
201111301345 METAR LIRA 301345Z 01002KT CAVOK 15/08 Q1026=
201111301315 METAR LIRA 301315Z 03004KT 9999 FEW020 14/08 Q1026=
201111301245 METAR LIRA 301245Z 03004KT 9999 FEW020 14/07 Q1026=
201111301215 METAR LIRA 301215Z 01004KT CAVOK 14/07 Q1027=
201111301145 METAR LIRA 301145Z 36004KT CAVOK 14/07 Q1027=
201111301115 METAR LIRA 301115Z 36003KT CAVOK 13/07 Q1027=
201111301045 METAR LIRA 301045Z 02002KT CAVOK 13/08 Q1027=
201111301015 METAR LIRA 301015Z 02003KT CAVOK 11/07 Q1027=
201111300945 METAR LIRA 300945Z 01004KT CAVOK 10/07 Q1027=
201111300915 METAR LIRA 300915Z 02003KT CAVOK 09/07 Q1027=
201111300845 METAR LIRA 300845Z 04002KT CAVOK 08/07 Q1027=
201111300815 METAR LIRA 300815Z 03002KT CAVOK 07/06 Q1027=
201111300745 METAR LIRA 300745Z 05003KT CAVOK 06/05 Q1026=
201111300715 METAR LIRA 300715Z 04003KT CAVOK 05/05 Q1026=
201111300645 METAR LIRA 300645Z 05002KT CAVOK 05/05 Q1026=
201111300615 METAR LIRA 300615Z 05004KT CAVOK 04/04 Q1026=
201111300545 METAR LIRA 300545Z 06003KT CAVOK 04/04 Q1026=
201111300515 METAR LIRA 300515Z 03003KT CAVOK 04/04 Q1025=
201111300445 METAR LIRA 300445Z 04003KT CAVOK 04/04 Q1025=
201111300415 METAR LIRA 300415Z 07003KT CAVOK 04/04 Q1025=
201111300345 METAR LIRA 300345Z 04003KT CAVOK 04/04 Q1025=
201111300315 METAR LIRA 300315Z 06003KT CAVOK 04/04 Q1025=
201111300245 METAR LIRA 300245Z 02002KT CAVOK 05/05 Q1025=
201111300215 METAR LIRA 300215Z 03001KT CAVOK 05/05 Q1025=
201111300145 METAR LIRA 300145Z 04002KT CAVOK 06/06 Q1025=
201111300115 METAR LIRA 300115Z 05001KT CAVOK 06/06 Q1025=
201111300045 METAR LIRA 300045Z 35001KT CAVOK 06/06 Q1025=
201111300015 METAR LIRA 300015Z 06002KT CAVOK 06/06 Q1025=
201111292350 METAR LIRA 300045Z 35001KT CAVOK 06/06 Q1025=
201111292345 METAR LIRA 292345Z 04003KT CAVOK 06/06 Q1025=
201111292315 METAR LIRA 292315Z 04002KT CAVOK 06/05 Q1025=
201111292245 METAR LIRA 292245Z 00000KT CAVOK 07/06 Q1025=
201111292215 METAR LIRA 292215Z 00000KT CAVOK 07/07 Q1025=
201111292145 METAR LIRA 292145Z 10001KT CAVOK 07/07 Q1024=
201111292115 METAR LIRA 292115Z 11001KT 9000 NSC 08/06 Q1024=
201111292045 METAR LIRA 292045Z 09001KT 9000 FEW010 08/06 Q1024=
201111292015 METAR LIRA 292015Z 12001KT 9000 FEW010 08/06 Q1024=
201111291945 METAR LIRA 291945Z 12001KT 8000 NSC 09/08 Q1024=
201111291915 METAR LIRA 291915Z 00000KT 8000 NSC 09/08 Q1024=
201111291845 METAR LIRA 291845Z 13001KT 9000 NSC 09/08 Q1024=
201111291815 METAR LIRA 291815Z 00000KT 8000 NSC 09/08 Q1024=
201111291745 METAR LIRA 291745Z 12002KT 8000 NSC 09/08 Q1024=
201111291715 METAR LIRA 291715Z 13001KT 8000 FEW070 09/08 Q1023=
201111291645 METAR LIRA 291645Z 00000KT 8000 FEW070 11/09 Q1023=
201111291615 METAR LIRA 291615Z 00000KT 8000 FEW070 12/10 Q1023=
201111291545 METAR LIRA 291545Z 28001KT 8000 FEW080 13/10 Q1023=
201111291515 METAR LIRA 291515Z 31001KT 9999 FEW070 14/10 Q1023=
201111291445 METAR LIRA 291445Z 36001KT 9999 FEW015 15/10 Q1023=
201111291415 METAR LIRA 291415Z 30002KT 9999 FEW015 15/10 Q1023=
201111291345 METAR LIRA 291345Z 00000KT 9999 FEW015 15/10 Q1023=
201111291315 METAR LIRA 291315Z 29002KT 9999 FEW015 15/11 Q1023=
201111291245 METAR LIRA 291245Z 00000KT 9999 FEW015 15/10 Q1024=
201111291215 METAR LIRA 291215Z 02002KT 9999 FEW012 13/08 Q1024=
201111291145 METAR LIRA 291145Z 01003KT 9999 FEW012 13/08 Q1024=
201111291115 METAR LIRA 291115Z 02002KT 9999 FEW012 12/08 Q1024=
201111291045 METAR LIRA 291045Z 03003KT 9999 FEW008 12/08 Q1024=
201111291015 METAR LIRA 291015Z 02003KT 9999 FEW008 10/07 Q1025=
201111290945 METAR LIRA 290945Z 03003KT 9999 FEW080 08/06 Q1024=
201111290915 METAR LIRA 290915Z 04003KT 9999 FEW030 07/05 Q1024=
201111290845 METAR LIRA 290845Z 05004KT 9999 FEW080 05/05 Q1024=
201111290815 METAR LIRA 290815Z 05004KT 9999 FEW080 05/05 Q1024=
201111290745 METAR LIRA 290745Z 04002KT 9999 FEW080 05/05 Q1024=
201111290715 METAR LIRA 290715Z 05002KT 9999 FEW080 05/05 Q1024=
201111290645 METAR LIRA 290645Z 05004KT 8000 FEW080 05/05 Q1024=
201111290615 METAR LIRA 290615Z 03003KT 8000 FEW080 05/05 Q1024=
201111290545 METAR LIRA 290545Z 00000KT 8000 FEW080 04/04 Q1024=
201111290515 METAR LIRA 290515Z 08005KT 9999 FEW070 04/04 Q1024=
201111290445 METAR LIRA 290445Z 05003KT 9999 FEW060 05/05 Q1024=
201111290415 METAR LIRA 290415Z 03002KT 9999 FEW060 05/05 Q1024=
201111290345 METAR LIRA 290345Z 04002KT 9999 FEW060 05/05 Q1024=
201111290315 METAR LIRA 290315Z 05002KT 9999 FEW007 05/05 Q1024=
201111290245 METAR LIRA 290245Z 03003KT 9999 FEW007 05/05 Q1024=
201111290215 METAR LIRA 290215Z 06002KT 9999 FEW007 05/05 Q1024=
201111290145 METAR LIRA 290145Z 06003KT 9999 FEW007 05/05 Q1024=
201111290115 METAR LIRA 290115Z 03001KT CAVOK 05/05 Q1024=
201111290045 METAR LIRA 290045Z 02001KT CAVOK 06/05 Q1024=
201111290015 METAR LIRA 290015Z 05001KT 8000 NSC 06/06 Q1024=
201111282350 METAR LIRA 290045Z 02001KT CAVOK 06/05 Q1024=
201111282345 METAR LIRA 282345Z 04002KT 8000 NSC 06/06 Q1024=
201111282315 METAR LIRA 282315Z 04001KT 8000 NSC 06/06 Q1024=
201111282245 METAR LIRA 282245Z 03001KT 7000 FEW010 07/06 Q1024=
201111282215 METAR LIRA 282215Z 00000KT 7000 FEW010 07/07 Q1024=
201111282145 METAR LIRA 282145Z 03001KT 8000 FEW010 08/07 Q1024=
201111282115 METAR LIRA 282115Z 03001KT 8000 NSC 08/07 Q1024=
201111282045 METAR LIRA 282045Z 36001KT CAVOK 08/07 Q1024=
201111282015 METAR LIRA 282015Z 35001KT CAVOK 09/08 Q1024=
201111281945 METAR LIRA 281945Z 07003KT CAVOK 09/08 Q1024=
201111281915 METAR LIRA 281915Z 08004KT CAVOK 09/08 Q1024=
201111281845 METAR LIRA 281845Z 08002KT CAVOK 10/09 Q1024=
201111281815 METAR LIRA 281815Z 13001KT CAVOK 10/10 Q1024=
201111281745 METAR LIRA 281745Z 12001KT CAVOK 10/09 Q1024=
201111281715 METAR LIRA 281715Z 15002KT CAVOK 10/10 Q1024=
201111281645 METAR LIRA 281645Z 00000KT CAVOK 12/10 Q1024=
201111281615 METAR LIRA 281615Z 26001KT CAVOK 13/11 Q1024=
201111281545 METAR LIRA 281545Z 24002KT CAVOK 14/09 Q1024=
201111281515 METAR LIRA 281515Z 00000KT CAVOK 15/09 Q1024=
201111281445 METAR LIRA 281445Z 00000KT CAVOK 15/09 Q1024=
201111281415 METAR LIRA 281415Z 05001KT CAVOK 15/09 Q1024=
201111281345 METAR LIRA 281345Z 32002KT CAVOK 15/09 Q1024=
201111281315 METAR LIRA 281315Z 01004KT CAVOK 15/09 Q1024=
201111281245 METAR LIRA 281245Z 01004KT CAVOK 15/09 Q1024=
201111281215 METAR LIRA 281215Z 32004KT CAVOK 15/08 Q1024=
201111281145 METAR LIRA 281145Z 33004KT CAVOK 15/08 Q1025=
201111281115 METAR LIRA 281115Z 35003KT CAVOK 14/09 Q1025=
201111281045 METAR LIRA 281045Z 02003KT CAVOK 13/09 Q1025=
201111281015 METAR LIRA 281015Z 03005KT 010V070 CAVOK 12/09 Q1026=
201111280945 METAR LIRA 280945Z 04005KT CAVOK 11/08 Q1026=
201111280915 METAR LIRA 280915Z 01003KT CAVOK 09/07 Q1026=
201111280845 METAR LIRA 280845Z 04004KT CAVOK 08/07 Q1026=
201111280815 METAR LIRA 280815Z 04002KT 8000 NSC 08/07 Q1025=
201111280745 METAR LIRA 280745Z 04003KT 8000 NSC 07/07 Q1025=
201111280715 METAR LIRA 280715Z 04003KT 8000 NSC 06/06 Q1025=
201111280645 METAR LIRA 280645Z 01001KT 8000 NSC 05/05 Q1025=
201111280615 METAR LIRA 280615Z 04003KT CAVOK 05/05 Q1025=
201111280545 METAR LIRA 280545Z 05003KT CAVOK 05/05 Q1025=
201111280515 METAR LIRA 280515Z 00000KT CAVOK 05/05 Q1025=
201111280445 METAR LIRA 280445Z 04003KT CAVOK 05/05 Q1025=
201111280415 METAR LIRA 280415Z 02004KT CAVOK 05/05 Q1025=
201111280345 METAR LIRA 280345Z 06002KT CAVOK 06/05 Q1025=
201111280315 METAR LIRA 280315Z 04001KT CAVOK 06/06 Q1025=
201111280245 METAR LIRA 280245Z 00000KT CAVOK 06/06 Q1026=
201111280215 METAR LIRA 280215Z 03001KT CAVOK 06/06 Q1027=
201111280145 METAR LIRA 280145Z 05002KT CAVOK 06/06 Q1026=
201111280115 METAR LIRA 280115Z 02002KT CAVOK 06/04 Q1026=
201111280045 METAR LIRA 280045Z 02002KT CAVOK 06/05 Q1026=
201111280015 METAR LIRA 280015Z 04003KT CAVOK 06/05 Q1026=
201111272350 METAR LIRA 280045Z 02002KT CAVOK 06/05 Q1026=
201111272345 METAR LIRA 272345Z 04001KT CAVOK 07/06 Q1026=
201111272315 METAR LIRA 272315Z 15002KT CAVOK 07/05 Q1027=
201111272245 METAR LIRA 272245Z 15001KT CAVOK 07/05 Q1027=
201111272215 METAR LIRA 272215Z 10001KT CAVOK 07/06 Q1027=
201111272145 METAR LIRA 272145Z 11002KT CAVOK 09/08 Q1027=
201111272115 METAR LIRA 272115Z 14001KT CAVOK 09/08 Q1027=
201111272045 METAR LIRA 272045Z 12001KT CAVOK 09/08 Q1027=
201111272015 METAR LIRA 272015Z 14001KT CAVOK 09/08 Q1027=
201111271945 METAR LIRA 271945Z 17002KT CAVOK 10/09 Q1026=
201111271915 METAR LIRA 271915Z 00000KT CAVOK 10/09 Q1026=
201111271845 METAR LIRA 271845Z 10002KT CAVOK 10/08 Q1026=
201111271815 METAR LIRA 271815Z 14001KT CAVOK 10/09 Q1026=
201111271745 METAR LIRA 271745Z 11003KT CAVOK 11/08 Q1026=
201111271715 METAR LIRA 271715Z 10001KT CAVOK 11/08 Q1026=
201111271645 METAR LIRA 271645Z 15001KT CAVOK 12/09 Q1026=
201111271615 METAR LIRA 271615Z 24001KT CAVOK 13/09 Q1026=
201111271545 METAR LIRA 271545Z 26001KT CAVOK 15/10 Q1026=
201111271515 METAR LIRA 271515Z 28001KT CAVOK 16/09 Q1026=
201111271445 METAR LIRA 271445Z 32002KT CAVOK 17/09 Q1026=
201111271415 METAR LIRA 271415Z 34002KT CAVOK 17/09 Q1026=
201111271345 METAR LIRA 271345Z 00000KT CAVOK 17/10 Q1026=
201111271315 METAR LIRA 271315Z 28002KT CAVOK 17/09 Q1026=
201111271245 METAR LIRA 271245Z 00000KT 9999 FEW020 17/10 Q1027=
201111271215 METAR LIRA 271215Z 00000KT 9999 FEW020 16/11 Q1027=
201111271145 METAR LIRA 271145Z 00000KT 9999 FEW016 15/10 Q1027=
201111271115 METAR LIRA 271115Z 34002KT 9999 FEW016 14/10 Q1028=
201111271045 METAR LIRA 271045Z 00000KT 9999 FEW016 14/10 Q1028=
201111271015 METAR LIRA 271015Z 36001KT 9999 FEW007 12/10 Q1028=
201111270945 METAR LIRA 270945Z 00000KT 9999 FEW007 11/09 Q1028=
201111270915 METAR LIRA 270915Z 05003KT 9999 FEW007 10/09 Q1029=
201111270845 METAR LIRA 270845Z 03004KT 9999 FEW007 09/08 Q1028=
201111270815 METAR LIRA 270815Z 02002KT 8000 FEW007 08/08 Q1028=
201111270745 METAR LIRA 270745Z 04002KT 8000 FEW007 07/07 Q1028=
201111270715 METAR LIRA 270715Z 04002KT 8000 FEW007 07/06 Q1028=
201111270645 METAR LIRA 270645Z 05002KT 9999 FEW007 06/06 Q1028=
201111270615 METAR LIRA 270615Z 05002KT 9999 FEW007 06/06 Q1027=
201111270545 METAR LIRA 270545Z 06002KT 9999 FEW007 06/06 Q1027=
201111270515 METAR LIRA 270515Z 04002KT CAVOK 06/06 Q1027=
201111270445 METAR LIRA 270445Z 07001KT CAVOK 06/05 Q1028=
201111270415 METAR LIRA 270415Z 05002KT CAVOK 06/05 Q1028=
201111270345 METAR LIRA 270345Z 05003KT CAVOK 06/06 Q1028=
201111270315 METAR LIRA 270315Z 02002KT CAVOK 06/06 Q1028=
201111270245 METAR LIRA 270245Z 03001KT CAVOK 06/06 Q1028=
201111270215 METAR LIRA 270215Z 03003KT CAVOK 07/06 Q1028=
201111270145 METAR LIRA 270145Z 00000KT CAVOK 07/06 Q1028=
201111270115 METAR LIRA 270115Z 04002KT CAVOK 07/06 Q1028=
201111270045 METAR LIRA 270045Z 00000KT CAVOK 07/06 Q1028=
201111270015 METAR LIRA 270015Z 10002KT CAVOK 07/06 Q1028=
201111262350 METAR LIRA 270045Z 00000KT CAVOK 07/06 Q1028=
201111262345 METAR LIRA 262345Z 00000KT CAVOK 08/07 Q1028=
201111262315 METAR LIRA 262315Z 05001KT CAVOK 08/07 Q1028=
201111262245 METAR LIRA 262245Z 02003KT CAVOK 08/07 Q1028=
201111262215 METAR LIRA 262215Z 12001KT CAVOK 08/07 Q1028=
201111262145 METAR LIRA 262145Z 09001KT CAVOK 09/08 Q1028=
201111262115 METAR LIRA 262115Z 08001KT CAVOK 09/08 Q1028=
201111262045 METAR LIRA 262045Z 05003KT CAVOK 09/08 Q1028=
201111262015 METAR LIRA 262015Z 00000KT CAVOK 10/09 Q1027=
201111261945 METAR LIRA 261945Z 15001KT CAVOK 10/08 Q1027=
201111261915 METAR LIRA 261915Z 16003KT CAVOK 10/09 Q1027=
201111261845 METAR LIRA 261845Z 14001KT CAVOK 11/10 Q1027=
201111261815 METAR LIRA 261815Z 14001KT CAVOK 11/10 Q1027=
201111261745 METAR LIRA 261745Z 12001KT CAVOK 11/10 Q1027=
201111261715 METAR LIRA 261715Z 00000KT CAVOK 12/11 Q1026=
201111261645 METAR LIRA 261645Z 23003KT CAVOK 13/10 Q1026=
201111261615 METAR LIRA 261615Z 12002KT CAVOK 14/10 Q1026=
201111261545 METAR LIRA 261545Z 06001KT CAVOK 15/09 Q1026=
201111261515 METAR LIRA 261515Z 35002KT CAVOK 16/10 Q1026=
201111261445 METAR LIRA 261445Z 34005KT CAVOK 17/10 Q1026=
201111261415 METAR LIRA 261415Z 33004KT 9999 FEW018 17/10 Q1026=
201111261345 METAR LIRA 261345Z 34004KT 320V030 9999 FEW018 17/10 Q1026=
201111261315 METAR LIRA 261315Z 34002KT 9999 FEW018 17/10 Q1026=
201111261245 METAR LIRA 261245Z 05002KT 9999 FEW018 16/11 Q1027=
201111261215 METAR LIRA 261215Z 36003KT 9999 FEW018 16/11 Q1027=
201111261145 METAR LIRA 261145Z 01003KT 9999 FEW018 15/11 Q1027=
201111261115 METAR LIRA 261115Z 02004KT 9999 FEW018 14/11 Q1028=
201111261045 METAR LIRA 261045Z 02004KT 9999 FEW018 14/11 Q1027=
201111261015 METAR LIRA 261015Z 04002KT 9999 FEW018 13/10 Q1027=
201111260945 METAR LIRA 260945Z 36004KT CAVOK 12/10 Q1027=
201111260915 METAR LIRA 260915Z 36003KT CAVOK 11/10 Q1027=
201111260845 METAR LIRA 260845Z 02002KT 9000 FEW080 10/10 Q1027=
201111260815 METAR LIRA 260815Z 02003KT 8000 FEW080 10/09 Q1027=
201111260745 METAR LIRA 260745Z 03004KT 6000 FEW080 09/08 Q1027=
201111260715 METAR LIRA 260715Z 06005KT 6000 FEW080 09/08 Q1026=
201111260645 METAR LIRA 260645Z 09001KT 4500 BR FEW080 07/07 Q1026=
201111260615 METAR LIRA 260615Z 04002KT 3500 MIFG FEW080 07/07 Q1026=
201111260545 METAR LIRA 260545Z 02002KT 6000 FEW080 08/08 Q1026=
201111260515 METAR LIRA 260515Z 36001KT 6000 FEW080 08/08 Q1026=
201111260445 METAR LIRA 260445Z 00000KT 6000 FEW080 08/08 Q1026=
201111260415 METAR LIRA 260415Z 07003KT 6000 FEW080 08/08 Q1026=
201111260345 METAR LIRA 260345Z 06002KT 6000 FEW080 08/08 Q1026=
201111260315 METAR LIRA 260315Z 35003KT 6000 FEW080 09/09 Q1026=
201111260245 METAR LIRA 260245Z 06004KT 6000 FEW080 09/09 Q1026=
201111260215 METAR LIRA 260215Z 05004KT 5000 BR SCT080 09/08 Q1026=
201111260145 METAR LIRA 260145Z 08003KT 4000 BR FEW004 SCT080 09/09 Q1026=
201111260115 METAR LIRA 260115Z 07002KT 4000 BR FEW004 SCT080 10/09 Q1026=
201111260045 METAR LIRA 260045Z 01001KT 4000 BR FEW004 SCT080 10/10 Q1026=
201111260015 METAR LIRA 260015Z 00000KT 7000 SCT080 10/10 Q1026=
201111252350 METAR LIRA 260045Z 01001KT 4000 BR FEW004 SCT080 10/10 Q1026=
201111252345 METAR LIRA 252345Z 06002KT 7000 SCT080 11/10 Q1026=
201111252315 METAR LIRA 252315Z 00000KT 8000 SCT080 11/10 Q1026=
201111252245 METAR LIRA 252245Z 06001KT 8000 SCT080 11/11 Q1026=
201111252215 METAR LIRA 252215Z 13001KT 8000 SCT080 11/11 Q1026=
201111252145 METAR LIRA 252145Z 00000KT 8000 SCT080 12/11 Q1026=
201111252115 METAR LIRA 252115Z 00000KT 8000 BKN080 12/11 Q1026=
201111252045 METAR LIRA 252045Z 00000KT 8000 BKN080 11/11 Q1026=
201111252015 METAR LIRA 252015Z 00000KT 8000 BKN080 11/11 Q1026=
201111251945 METAR LIRA 251945Z 11001KT 8000 SCT080 11/11 Q1026=
201111251915 METAR LIRA 251915Z 13001KT 8000 SCT080 11/11 Q1026=
201111251845 METAR LIRA 251845Z 15001KT 8000 SCT080 11/11 Q1026=
201111251815 METAR LIRA 251815Z 10002KT 8000 SCT080 11/11 Q1026=
201111251745 METAR LIRA 251745Z 00000KT 8000 SCT080 12/11 Q1026=
201111251715 METAR LIRA 251715Z 00000KT 8000 FEW080 13/12 Q1025=
201111251645 METAR LIRA 251645Z 17002KT 6000 FEW010 13/13 Q1024=
201111251615 METAR LIRA 251615Z 17002KT 6000 FEW018 FEW022TCU 14/13 Q1024=
201111251545 METAR LIRA 251545Z 20003KT 6000 FEW018 FEW022CB 15/14 Q1024=
201111251515 METAR LIRA 251515Z 18003KT 6000 FEW018 FEW022CB SCT070 16/14
                        Q1025=
201111251445 METAR LIRA 251445Z 18003KT 7000 FEW018 FEW022CB 16/14 Q1025=
201111251415 METAR LIRA 251415Z 00000KT 9999 FEW020 FEW022CB 17/13 Q1026=
201111251345 METAR LIRA 251345Z 11001KT 9999 FEW020 FEW022CB 16/13 Q1026=
201111251315 METAR LIRA 251315Z 09003KT 9999 FEW020 FEW022CB 16/12 Q1026=
201111251245 METAR LIRA 251245Z 00000KT 9999 FEW020 FEW022CB 17/12 Q1026=
201111251215 METAR LIRA 251215Z 12001KT 9999 FEW020 17/12 Q1026=
201111251145 METAR LIRA 251145Z 07002KT 9999 FEW020 16/11 Q1026=
201111251115 METAR LIRA 251115Z 04003KT 9999 FEW020 15/11 Q1027=
201111251045 METAR LIRA 251045Z 01004KT 9999 FEW020 15/11 Q1027=
201111251015 METAR LIRA 251015Z 36003KT 9999 FEW020 14/10 Q1027=
201111251000 METAR LIRA CONTUS CB ALL QUADS=
201111250945 METAR LIRA 250945Z 02003KT 9999 FEW020 SCT080 13/10 Q1027=
201111250915 METAR LIRA 250915Z 04003KT 9999 FEW020 SCT080 12/09 Q1026=
201111250900 METAR LIRA INTER CB ALL QUADS=
201111250845 METAR LIRA 250845Z 03003KT 9999 FEW020 SCT070 11/09 Q1026=
201111250815 METAR LIRA 250815Z 04004KT 9999 FEW020 SCT070 10/09 Q1026=
201111250745 METAR LIRA 250745Z 04003KT 9999 FEW070 10/09 Q1026=
201111250715 METAR LIRA 250715Z 04002KT 9999 SCT070 09/08 Q1026=
201111250645 METAR LIRA 250645Z 03003KT 9999 SCT070 08/08 Q1026=
201111250615 METAR LIRA 250615Z 02001KT 9999 SCT070 08/08 Q1025=
201111250545 METAR LIRA 250545Z 04002KT 9999 FEW040 SCT060 08/08 Q1025=
201111250515 METAR LIRA 250515Z 03003KT 9999 FEW040 SCT060 08/07 Q1025=
201111250445 METAR LIRA 250445Z 06003KT 8000 SCT080 08/07 Q1025=
201111250415 METAR LIRA 250415Z 06004KT 8000 SCT080 08/07 Q1025=
201111250345 METAR LIRA 250345Z 05005KT 8000 FEW080 07/07 Q1025=
201111250315 METAR LIRA 250315Z 05003KT 8000 FEW080 07/07 Q1025=
201111250245 METAR LIRA 250245Z 04003KT 9999 FEW080 07/07 Q1025=
201111250215 METAR LIRA 250215Z 04003KT 9999 FEW080 07/07 Q1025=
201111250145 METAR LIRA 250145Z 05005KT 9999 FEW080 08/07 Q1025=
201111250115 METAR LIRA 250115Z 04004KT 9999 FEW080 08/08 Q1025=
201111250045 METAR LIRA 250045Z 06005KT CAVOK 08/08 Q1025=
201111250015 METAR LIRA 250015Z 05004KT CAVOK 09/08 Q1025=
201111242350 METAR LIRA 250045Z 06005KT CAVOK 08/08 Q1025=
201111242345 METAR LIRA 242345Z 04003KT 9999 FEW080 09/08 Q1025=
201111242315 METAR LIRA 242315Z 04003KT 9999 FEW080 09/09 Q1025=
201111242245 METAR LIRA 242245Z 02003KT 9999 FEW080 10/09 Q1025=
201111242215 METAR LIRA 242215Z 04001KT 9999 FEW080 10/09 Q1025=
201111242145 METAR LIRA 242145Z 05003KT 9999 FEW080 10/09 Q1025=
201111242115 METAR LIRA 242115Z 04003KT 9999 SCT080 11/10 Q1025=
201111242045 METAR LIRA 242045Z 05003KT 9999 FEW080 11/10 Q1025=
201111242015 METAR LIRA 242015Z 03003KT 9999 FEW080 11/11 Q1025=
201111241945 METAR LIRA 241945Z 03002KT 9999 FEW080 12/11 Q1025=
201111241915 METAR LIRA 241915Z 03003KT CAVOK 12/11 Q1025=
201111241845 METAR LIRA 241845Z 04002KT CAVOK 13/11 Q1024=
201111241815 METAR LIRA 241815Z 03001KT CAVOK 13/10 Q1024=
201111241745 METAR LIRA 241745Z 06002KT 9999 FEW080 13/11 Q1024=
201111241715 METAR LIRA 241715Z 06002KT 9999 FEW080 13/10 Q1023=
201111241645 METAR LIRA 241645Z 08001KT 9999 FEW070 13/10 Q1023=
201111241615 METAR LIRA 241615Z 07003KT 9999 FEW018 SCT070 14/10 Q1023=
201111241545 METAR LIRA 241545Z 04003KT 9999 FEW018 SCT070 15/10 Q1023=
201111241515 METAR LIRA 241515Z 03003KT 9999 FEW018 SCT070 15/10 Q1023=
201111241445 METAR LIRA 241445Z 03003KT 9999 FEW018 SCT070 15/10 Q1023=
201111241415 METAR LIRA 241415Z 04004KT 9999 FEW018 SCT070 15/10 Q1023=
201111241345 METAR LIRA 241345Z /////KT 9999 FEW018 SCT070 16/11 Q1023=
201111241315 METAR LIRA 241315Z 01006KT 9999 FEW018 SCT030 16/11 Q1023=
201111241245 METAR LIRA 241245Z 36004KT 9999 FEW018 SCT030 16/11 Q1023=
201111241215 METAR LIRA 241215Z 02004KT 9999 FEW018 16/11 Q1023=
201111241145 METAR LIRA 241145Z 02005KT 9999 FEW018 SCT030 16/11 Q1023=
201111241115 METAR LIRA 241115Z /////KT 9999 FEW018 16/11 Q1023=
201111241045 METAR LIRA 241045Z /////KT 9999 FEW018 15/11 Q1023=
201111241015 METAR LIRA 241015Z /////KT 9999 FEW018 14/10 Q1023=
201111240945 METAR LIRA 240945Z 03004KT 9999 FEW018 13/10 Q1023=
201111240915 METAR LIRA 240915Z 02006KT 350V050 9999 FEW018 12/10 Q1022=
201111240845 METAR LIRA 240845Z 03004KT 9999 FEW018 11/09 Q1022=
201111240815 METAR LIRA 240815Z 04004KT 9999 FEW030 10/09 Q1022=
201111240745 METAR LIRA 240745Z 04006KT 010V080 9999 FEW030 09/08 Q1022=
201111240715 METAR LIRA 240715Z 04006KT 9999 FEW030 08/08 Q1022=
201111240645 METAR LIRA 240645Z 05006KT 9999 FEW030 08/08 Q1021=
201111240615 METAR LIRA 240615Z 05005KT 9999 FEW030 SCT070 08/08 Q1021=
201111240545 METAR LIRA 240545Z 06005KT 9999 FEW030 08/08 Q1021=
201111240515 METAR LIRA 240515Z 04004KT 9999 FEW030 SCT070 08/08 Q1021=
201111240445 METAR LIRA 240445Z 05003KT 9999 FEW030 SCT080 09/09 Q1021=
201111240415 METAR LIRA 240415Z 05004KT 9999 FEW030 SCT080 09/09 Q1021=
201111240345 METAR LIRA 240345Z 03003KT 9999 FEW030 SCT080 09/09 Q1020=
201111240315 METAR LIRA 240315Z 06006KT 9999 FEW040 SCT080 09/09 Q1021=
201111240245 METAR LIRA 240245Z 05006KT 9999 FEW040 10/09 Q1021=
201111240215 METAR LIRA 240215Z 05006KT 9999 FEW040 10/09 Q1021=
201111240145 METAR LIRA 240145Z 04004KT 9999 FEW018 SCT025 10/09 Q1021=
201111240115 METAR LIRA 240115Z 04005KT 9999 FEW018 SCT025 10/09 Q1020=
201111240045 METAR LIRA 240045Z 03005KT 9999 FEW018 SCT025 11/10 Q1020=
201111240015 METAR LIRA 240015Z 02005KT 340V060 9999 FEW016 SCT025 11/11
                        Q1020=
201111232350 METAR LIRA 240045Z 03005KT 9999 FEW018 SCT025 11/10 Q1020=
201111232345 METAR LIRA 232345Z 03003KT 9999 FEW016 SCT025 11/11 Q1020=
201111232315 METAR LIRA 232315Z 05005KT 9999 FEW016 SCT025 12/12 Q1020=
201111232245 METAR LIRA 232245Z 03006KT 9999 FEW016 SCT025 12/12 Q1020=
201111232215 METAR LIRA 232215Z 01004KT 9999 FEW016 SCT025 12/12 Q1020=
201111232145 METAR LIRA 232145Z 33003KT 9999 FEW016 SCT025 13/13 Q1019=
201111232115 METAR LIRA 232115Z 05004KT 9999 FEW016 SCT025 13/13 Q1019=
201111232045 METAR LIRA 232045Z 06004KT 9999 FEW016 SCT025 13/13 Q1019=
201111232015 METAR LIRA 232015Z 07004KT 9999 -RA FEW016 SCT025 13/13 Q1019=
201111231945 METAR LIRA 231945Z 35002KT 9999 -RA FEW018 SCT025 14/13 Q1018=
201111231915 METAR LIRA 231915Z 35002KT 9999 -RA FEW018 SCT025 14/14 Q1018=
201111231845 METAR LIRA 231845Z 00000KT 8000 -RA FEW018 SCT025 15/13 Q1017=
201111231815 METAR LIRA 231815Z 11004KT 9999 SCT025 SCT060 14/13 Q1017=
201111231745 METAR LIRA 231745Z 06003KT 9999 SCT025 SCT060 14/13 Q1017=
201111231715 METAR LIRA 231715Z 03004KT 9999 FEW015 BKN025 14/13 Q1017=
201111231645 METAR LIRA 231645Z 09007KT 9999 FEW015 BKN027 14/13 Q1016=
201111231615 METAR LIRA 231615Z 08006KT 9999 FEW015 BKN027 14/14 Q1016=
201111231545 METAR LIRA 231545Z 05005KT 8000 FEW015 BKN027 14/13 Q1016=
201111231515 METAR LIRA 231515Z 03004KT 8000 -RA FEW015 BKN027 14/14 Q1016=
201111231445 METAR LIRA 231445Z 06002KT 8000 -RA FEW015 BKN027 15/15 Q1016=
201111231415 METAR LIRA 231415Z 00000KT 8000 -RA FEW015 BKN027 16/15 Q1016=
201111231345 METAR LIRA 231345Z 14002KT 9999 -DZ FEW015 BKN030 16/14 Q1016=
201111231315 METAR LIRA 231315Z 35001KT 9999 -DZ FEW018 BKN030 16/13 Q1016=
201111231245 METAR LIRA 231245Z 05003KT 9999 FEW018 BKN030 16/13 Q1015=
201111231215 METAR LIRA 231215Z 02005KT 340V060 9999 FEW018 BKN080 16/12
                        Q1015=
201111231145 METAR LIRA 231145Z 03005KT 350V060 9999 FEW018 BKN080 16/12
                        Q1016=
201111231115 METAR LIRA 231115Z 02007KT 340V050 9999 FEW018 BKN080 16/12
                        Q1016=
201111231045 METAR LIRA 231045Z 01005KT 9999 FEW018 BKN080 16/13 Q1016=
201111231015 METAR LIRA 231015Z 02003KT 9999 FEW018 BKN080 15/12 Q1016=
201111230945 METAR LIRA 230945Z 01005KT 9999 FEW018 BKN080 13/11 Q1016=
201111230915 METAR LIRA 230915Z 01005KT 9999 FEW018 SCT080 13/11 Q1016=
201111230845 METAR LIRA 230845Z 01006KT 340V050 9999 FEW018 SCT080 12/11
                        Q1015=
201111230815 METAR LIRA 230815Z 02004KT 9999 FEW018 SCT080 11/11 Q1015=
201111230745 METAR LIRA 230745Z 02006KT 350V060 9999 FEW018 SCT080 11/10
                        Q1015=
201111230715 METAR LIRA 230715Z 04004KT 9999 FEW018 SCT080 10/09 Q1014=
201111230645 METAR LIRA 230645Z 05004KT 9999 FEW018 SCT080 09/09 Q1014=
201111230615 METAR LIRA 230615Z 02004KT 9999 FEW018 SCT080 09/09 Q1014=
201111230545 METAR LIRA 230545Z 03005KT 9999 FEW018 SCT080 09/09 Q1014=
201111230515 METAR LIRA 230515Z 04004KT 9999 FEW080 09/09 Q1014=
201111230445 METAR LIRA 230445Z 05004KT 9999 FEW060 09/09 Q1014=
201111230415 METAR LIRA 230415Z 02005KT 9999 FEW060 10/09 Q1014=
201111230345 METAR LIRA 230345Z 02004KT 9999 FEW060 10/10 Q1014=
201111230315 METAR LIRA 230315Z 05003KT 9999 FEW060 10/09 Q1014=
201111230245 METAR LIRA 230245Z 04003KT 9999 FEW060 10/10 Q1014=
201111230215 METAR LIRA 230215Z 06005KT 9999 FEW060 10/10 Q1014=
201111230145 METAR LIRA 230145Z 05005KT 9999 FEW060 10/09 Q1014=
201111230115 METAR LIRA 230115Z 04005KT 9999 FEW060 11/10 Q1014=
201111230045 METAR LIRA 230045Z 04006KT 9999 FEW060 11/10 Q1014=
201111230015 METAR LIRA 230015Z 02005KT 330V050 9999 SCT060 12/11 Q1014=
201111222350 METAR LIRA 230045Z 04006KT 9999 FEW060 11/10 Q1014=
201111222345 METAR LIRA 222345Z 03005KT 360V060 9999 SCT060 12/11 Q1014=
201111222315 METAR LIRA 222315Z 03005KT 9999 SCT060 12/11 Q1015=
201111222245 METAR LIRA 222245Z 02005KT 9999 FEW020 BKN060 12/12 Q1014=
201111222215 METAR LIRA 222215Z 04007KT 9999 FEW020 BKN060 13/12 Q1014=
201111222145 METAR LIRA 222145Z 04007KT 360V060 9999 FEW020 BKN060 13/12
                        Q1014=
201111222115 METAR LIRA 222115Z 03008KT 350V060 9999 FEW018 BKN060 13/13
                        Q1014=
201111222045 METAR LIRA 222045Z 01007KT 9999 FEW018 BKN060 14/13 Q1014=
201111222015 METAR LIRA 222015Z 06007KT 9999 FEW018 SCT030 15/12 Q1014=
201111221945 METAR LIRA 221945Z 03006KT 360V080 9999 FEW017 SCT030 15/12
                        Q1014=
201111221915 METAR LIRA 221915Z 03005KT 9999 FEW017 SCT030 14/12 Q1014=
201111221845 METAR LIRA 221845Z 02006KT 330V060 9999 FEW017 SCT030 14/12
                        Q1013=
201111221815 METAR LIRA 221815Z 02006KT 340V060 9999 FEW017 SCT030 14/12
                        Q1013=
201111221745 METAR LIRA 221745Z 04005KT 310V090 9999 FEW017 SCT030 14/12
                        Q1013=
201111221715 METAR LIRA 221715Z 02004KT 9999 FEW018 SCT025 BKN070 14/13
                        Q1013=
201111221645 METAR LIRA 221645Z 02004KT 9999 FEW018 SCT025 BKN070 14/12
                        Q1013=
201111221615 METAR LIRA 221615Z 01005KT 9999 FEW018 FEW020CB SCT025 14/13
                        Q1012=
201111221545 METAR LIRA 221545Z 02004KT 9999 -RA FEW018 FEW020CB SCT025
                        BKN070 14/13 Q1012=
201111221515 METAR LIRA 221515Z 05006KT 020V080 9999 FEW018 SCT025 15/13
                        Q1012=
201111221445 METAR LIRA 221445Z 04009KT 010V070 9999 FEW018 FEW020CB SCT025
                        15/13 Q1012=
201111221415 METAR LIRA 221415Z 04006KT 360V070 9999 FEW018 FEW020CB SCT025
                        15/13 Q1012=
201111221345 METAR LIRA 221345Z 04008KT 360V090 9999 FEW018 FEW020CB SCT025
                        BKN070 15/13 Q1012=
201111221315 METAR LIRA 221315Z 04009KT 9000 -RA FEW018 FEW020CB SCT025
                        15/14 Q1013=
201111221245 METAR LIRA 221245Z 03005KT 9000 -RA FEW018 FEW020CB SCT025
                        BKN070 15/13 Q1013=
201111221215 METAR LIRA 221215Z 05008KT 010V070 8000 -RA FEW018 FEW020TCU
                        SCT025 15/13 Q1013=
201111221145 METAR LIRA 221145Z 07011KT 9999 -RA FEW018 SCT025 BKN070
                        16/11 Q1013=
201111221115 METAR LIRA 221115Z 09014G24KT 9999 FEW018 SCT025 BKN070 16/12
                        Q1013=
201111221045 METAR LIRA 221045Z 07013KT 030V100 9999 FEW018 SCT025 BKN070
                        16/12 Q1013=
201111221015 METAR LIRA 221015Z 05010KT 010V070 9999 SCT025 BKN070 15/13
                        Q1014=
201111220945 METAR LIRA 220945Z 05012KT 9999 FEW018 SCT025 BKN060 15/13
                        Q1014=
201111220915 METAR LIRA 220915Z 04009KT 9999 FEW018 SCT025 BKN060 14/12
                        Q1014=
201111220845 METAR LIRA 220845Z 04010KT 9999 FEW018 SCT025 BKN060 14/12
                        Q1014=
201111220815 METAR LIRA 220815Z 06006KT 9999 FEW018 SCT025 BKN060 14/11
                        Q1014=
201111220745 METAR LIRA 220745Z 10012KT 9999 FEW018 SCT030 BKN060 14/11
                        Q1014=
201111220715 METAR LIRA 220715Z 06006KT 030V100 9999 -RA FEW018 SCT030
                        BKN060 14/12 Q1014=
201111220645 METAR LIRA 220645Z 08011KT 9999 -RA FEW025 SCT060 15/11 Q1013=
201111220615 METAR LIRA 220615Z 08014KT 9999 FEW020 SCT030 BKN060 15/11
                        Q1013=
201111220545 METAR LIRA 220545Z 10014KT 9999 FEW030 BKN060 15/12 Q1013=
201111220515 METAR LIRA 220515Z 09011KT 9999 FEW030 BKN070 15/12 Q1013=
201111220445 METAR LIRA 220445Z 07004KT 9999 FEW030 BKN070 13/11 Q1014=
201111220415 METAR LIRA 220415Z 07008KT 030V110 9999 FEW018 BKN070 14/11
                        Q1014=
201111220345 METAR LIRA 220345Z 06004KT 9999 -RA FEW018 SCT030 13/11 Q1014=
201111220315 METAR LIRA 220315Z 09017KT 9999 -RA FEW018 BKN070 13/11 Q1014=
201111220245 METAR LIRA 220245Z 04005KT 9999 -RA FEW020 SCT030 10/10 Q1015=
201111220215 METAR LIRA 220215Z 01002KT 9999 -RA FEW020 BKN030 10/10 Q1016=
201111220145 METAR LIRA 220145Z 32003KT 9999 -RA FEW020 BKN030 10/10 Q1016=
201111220115 METAR LIRA 220115Z 33003KT 9999 -RA FEW020 BKN030 11/11 Q1016=
201111220045 METAR LIRA 220045Z 33003KT 9999 -RA FEW020 BKN030 12/10 Q1016=
201111220015 METAR LIRA 220015Z 01002KT 9999 FEW020 SCT030 13/10 Q1016=
201111212350 METAR LIRA 220045Z 33003KT 9999 -RA FEW020 BKN030 12/10 Q1016=
201111212345 METAR LIRA 212345Z 03003KT 9999 FEW020 SCT035 12/10 Q1016=
201111212315 METAR LIRA 212315Z 05005KT 030V100 9999 FEW020 SCT035 12/10
                        Q1016=
201111212245 METAR LIRA 212245Z 06005KT 9999 FEW030 SCT070 12/10 Q1016=
201111212215 METAR LIRA 212215Z 06005KT 050V130 9999 FEW030 12/10 Q1016=
201111212145 METAR LIRA 212145Z 07002KT 9999 FEW060 11/09 Q1016=
201111212115 METAR LIRA 212115Z 07005KT CAVOK 11/10 Q1016=
201111212045 METAR LIRA 212045Z 04003KT CAVOK 11/10 Q1016=
201111212015 METAR LIRA 212015Z 03001KT CAVOK 11/10 Q1016=
201111211945 METAR LIRA 211945Z 09003KT CAVOK 11/10 Q1016=
201111211915 METAR LIRA 211915Z 07001KT CAVOK 11/10 Q1017=
201111211845 METAR LIRA 211845Z 21001KT CAVOK 12/10 Q1017=
201111211815 METAR LIRA 211815Z 02004KT 9999 FEW080 13/11 Q1017=
201111211745 METAR LIRA 211745Z 04004KT 9999 FEW070 13/11 Q1017=
201111211715 METAR LIRA 211715Z 05003KT 9999 FEW070 14/11 Q1017=
201111211645 METAR LIRA 211645Z 09003KT 9999 FEW035 14/11 Q1017=
201111211615 METAR LIRA 211615Z 00000KT 9999 FEW035 14/11 Q1017=
201111211545 METAR LIRA 211545Z 30001KT 9999 FEW080 15/12 Q1017=
201111211515 METAR LIRA 211515Z 33003KT 9999 FEW080 16/12 Q1017=
201111211445 METAR LIRA 211445Z 04003KT 9999 FEW023 18/14 Q1018=
201111211415 METAR LIRA 211415Z 15009KT 9999 FEW023 18/13 Q1018=
201111211345 METAR LIRA 211345Z 18006KT 9999 FEW023 18/13 Q1018=
201111211315 METAR LIRA 211315Z 09002KT 9999 FEW023 SCT080 19/12 Q1018=
201111211245 METAR LIRA 211245Z 03002KT 9999 FEW020 SCT070 17/11 Q1019=
201111211215 METAR LIRA 211215Z 24001KT 9999 FEW020 SCT070 17/10 Q1019=
201111211145 METAR LIRA 211145Z 01004KT 9999 FEW020 SCT070 16/08 Q1019=
201111211115 METAR LIRA 211115Z 35003KT 9999 FEW020 SCT070 16/09 Q1020=
201111211045 METAR LIRA 211045Z 02002KT 9999 FEW020 SCT070 15/08 Q1020=
201111211015 METAR LIRA 211015Z 36003KT 9999 FEW020 SCT070 13/06 Q1020=
201111210945 METAR LIRA 210945Z 36003KT 9999 FEW020 SCT070 11/06 Q1020=
201111210915 METAR LIRA 210915Z 04002KT 9999 FEW020 SCT070 09/05 Q1020=
201111210845 METAR LIRA 210845Z 03001KT 9999 FEW020 SCT070 06/03 Q1020=
201111210815 METAR LIRA 210815Z 01003KT 9999 FEW020 SCT060 06/04 Q1020=
201111210745 METAR LIRA 210745Z 04003KT 9999 FEW020 SCT060 06/03 Q1020=
201111210715 METAR LIRA 210715Z 02003KT 9999 FEW022 SCT070 05/03 Q1020=
201111210645 METAR LIRA 210645Z 03003KT 9999 FEW022 SCT070 05/03 Q1020=
201111210615 METAR LIRA 210615Z 02002KT 9999 FEW025 05/03 Q1020=
201111210545 METAR LIRA 210545Z 35002KT 9999 FEW040 04/03 Q1020=
201111210515 METAR LIRA 210515Z 04001KT 8000 FEW080 04/04 Q1020=
201111210445 METAR LIRA 210445Z 00000KT 8000 FEW080 04/04 Q1020=
201111210415 METAR LIRA 210415Z 03001KT 8000 FEW080 04/03 Q1020=
201111210345 METAR LIRA 210345Z 00000KT 8000 FEW080 04/04 Q1020=
201111210315 METAR LIRA 210315Z 00000KT 8000 FEW080 04/03 Q1020=
201111210245 METAR LIRA 210245Z 36002KT 8000 FEW080 04/03 Q1020=
201111210215 METAR LIRA 210215Z 03001KT CAVOK 04/04 Q1021=
201111210145 METAR LIRA 210145Z 01001KT CAVOK 04/04 Q1021=
201111210115 METAR LIRA 210115Z 03002KT CAVOK 04/03 Q1021=
201111210045 METAR LIRA 210045Z 03002KT CAVOK 05/04 Q1021=
201111210015 METAR LIRA 210015Z 01002KT CAVOK 05/04 Q1021=
201111202350 METAR LIRA 210045Z 03002KT CAVOK 05/04 Q1021=
201111202345 METAR LIRA 202345Z 03003KT CAVOK 05/04 Q1022=
201111202315 METAR LIRA 202315Z 03002KT CAVOK 05/04 Q1022=
201111202245 METAR LIRA 202245Z 02003KT CAVOK 06/04 Q1022=
201111202215 METAR LIRA 202215Z 05001KT CAVOK 06/05 Q1022=
201111202145 METAR LIRA 202145Z 03002KT CAVOK 07/04 Q1022=
201111202115 METAR LIRA 202115Z 10001KT CAVOK 07/04 Q1022=
201111202045 METAR LIRA 202045Z 06003KT CAVOK 08/05 Q1022=
201111202015 METAR LIRA 202015Z 08003KT CAVOK 08/04 Q1022=
201111201945 METAR LIRA 201945Z 11005KT CAVOK 08/04 Q1022=
201111201915 METAR LIRA 201915Z 14002KT CAVOK 09/05 Q1022=
201111201845 METAR LIRA 201845Z 10006KT CAVOK 08/04 Q1021=
201111201815 METAR LIRA 201815Z 12004KT CAVOK 09/04 Q1021=
201111201745 METAR LIRA 201745Z 11004KT CAVOK 09/05 Q1021=
201111201715 METAR LIRA 201715Z 00000KT 9999 FEW080 09/05 Q1021=
201111201645 METAR LIRA 201645Z 09003KT CAVOK 11/05 Q1021=
201111201615 METAR LIRA 201615Z 05002KT CAVOK 12/05 Q1021=
201111201545 METAR LIRA 201545Z 03002KT CAVOK 13/05 Q1021=
201111201515 METAR LIRA 201515Z 05006KT CAVOK 14/05 Q1021=
201111201445 METAR LIRA 201445Z 05002KT CAVOK 15/06 Q1022=
201111201415 METAR LIRA 201415Z 00000KT CAVOK 15/05 Q1022=
201111201345 METAR LIRA 201345Z 33001KT CAVOK 15/05 Q1022=
201111201315 METAR LIRA 201315Z 30002KT CAVOK 15/05 Q1022=
201111201245 METAR LIRA 201245Z 31003KT CAVOK 15/05 Q1022=
201111201215 METAR LIRA 201215Z 02003KT CAVOK 15/05 Q1022=
201111201145 METAR LIRA 201145Z 02004KT CAVOK 14/06 Q1023=
201111201115 METAR LIRA 201115Z 01004KT CAVOK 13/06 Q1023=
201111201045 METAR LIRA 201045Z 02004KT CAVOK 12/05 Q1023=
201111201015 METAR LIRA 201015Z 03004KT 9999 FEW080 12/05 Q1023=
201111200945 METAR LIRA 200945Z 01005KT 9000 FEW070 11/06 Q1023=
201111200915 METAR LIRA 200915Z 03004KT 9000 SCT070 10/07 Q1023=
201111200845 METAR LIRA 200845Z 36005KT 9000 SCT070 08/06 Q1023=
201111200815 METAR LIRA 200815Z 06002KT 9000 SCT070 06/04 Q1023=
201111200745 METAR LIRA 200745Z 03003KT 9000 SCT070 05/03 Q1023=
201111200715 METAR LIRA 200715Z 03003KT 8000 NSC 03/02 Q1022=
201111200645 METAR LIRA 200645Z 02003KT 8000 NSC 03/03 Q1022=
201111200615 METAR LIRA 200615Z 04003KT 8000 NSC 03/03 Q1022=
201111200545 METAR LIRA 200545Z 04002KT 8000 NSC 03/03 Q1022=
201111200515 METAR LIRA 200515Z 04002KT 8000 NSC 03/03 Q1022=
201111200445 METAR LIRA 200445Z 04003KT 8000 NSC 04/03 Q1022=
201111200415 METAR LIRA 200415Z 04003KT 8000 NSC 04/04 Q1022=
201111200345 METAR LIRA 200345Z 03002KT 8000 NSC 04/04 Q1022=
201111200315 METAR LIRA 200315Z 03002KT 8000 NSC 04/03 Q1022=
201111200245 METAR LIRA 200245Z 35002KT 8000 NSC 04/04 Q1022=
201111200215 METAR LIRA 200215Z 03002KT 8000 NSC 04/04 Q1022=
201111200145 METAR LIRA 200145Z 01002KT 8000 FEW005 05/04 Q1022=
201111200115 METAR LIRA 200115Z 03003KT 8000 FEW005 05/04 Q1022=
201111200045 METAR LIRA 200045Z 05003KT 8000 FEW005 05/04 Q1023=
201111200015 METAR LIRA 200015Z 03003KT 8000 FEW005 05/05 Q1023=
201111192350 METAR LIRA 200045Z 05003KT 8000 FEW005 05/04 Q1023=
201111192345 METAR LIRA 192345Z 04002KT 8000 FEW005 05/05 Q1023=
201111192315 METAR LIRA 192315Z 04002KT 8000 FEW005 05/05 Q1023=
201111192245 METAR LIRA 192245Z 03002KT 8000 FEW005 06/06 Q1023=
201111192215 METAR LIRA 192215Z 04002KT 8000 FEW005 06/05 Q1023=
201111192145 METAR LIRA 192145Z 05003KT 8000 FEW005 06/05 Q1023=
201111192115 METAR LIRA 192115Z 08003KT 8000 FEW005 07/06 Q1023=
201111192045 METAR LIRA 192045Z 07001KT 8000 NSC 08/06 Q1023=
201111192015 METAR LIRA 192015Z 06002KT 9000 NSC 08/06 Q1022=
201111191945 METAR LIRA 191945Z 06002KT CAVOK 08/06 Q1022=
201111191915 METAR LIRA 191915Z 12003KT 9000 NSC 09/06 Q1022=
201111191845 METAR LIRA 191845Z 12001KT 9000 NSC 09/06 Q1022=
201111191815 METAR LIRA 191815Z 12002KT CAVOK 09/06 Q1022=
201111191745 METAR LIRA 191745Z 13002KT CAVOK 10/06 Q1022=
201111191715 METAR LIRA 191715Z 12003KT CAVOK 10/07 Q1022=
201111191645 METAR LIRA 191645Z 10003KT CAVOK 11/07 Q1022=
201111191615 METAR LIRA 191615Z 10002KT CAVOK 12/06 Q1022=
201111191545 METAR LIRA 191545Z 05002KT CAVOK 13/06 Q1022=
201111191515 METAR LIRA 191515Z 02002KT CAVOK 13/05 Q1022=
201111191445 METAR LIRA 191445Z 35002KT CAVOK 14/05 Q1022=
201111191415 METAR LIRA 191415Z 34002KT CAVOK 14/05 Q1022=
201111191345 METAR LIRA 191345Z 34003KT CAVOK 15/04 Q1022=
201111191315 METAR LIRA 191315Z 05002KT CAVOK 15/05 Q1022=
201111191245 METAR LIRA 191245Z 36002KT CAVOK 15/05 Q1023=
201111191215 METAR LIRA 191215Z 36003KT CAVOK 14/06 Q1023=
201111191145 METAR LIRA 191145Z 03003KT CAVOK 14/06 Q1023=
201111191115 METAR LIRA 191115Z 02003KT CAVOK 13/06 Q1023=
201111191045 METAR LIRA 191045Z 36003KT CAVOK 12/06 Q1024=
201111191015 METAR LIRA 191015Z 36002KT CAVOK 12/06 Q1024=
201111190945 METAR LIRA 190945Z 02003KT CAVOK 10/05 Q1024=
201111190915 METAR LIRA 190915Z 02003KT CAVOK 08/05 Q1024=
201111190845 METAR LIRA 190845Z 01003KT CAVOK 07/05 Q1024=
201111190815 METAR LIRA 190815Z 01003KT CAVOK 06/04 Q1024=
201111190745 METAR LIRA 190745Z 02002KT CAVOK 05/04 Q1023=
201111190715 METAR LIRA 190715Z 03002KT CAVOK 04/03 Q1023=
201111190645 METAR LIRA 190645Z 05002KT CAVOK 03/02 Q1023=
201111190615 METAR LIRA 190615Z 04002KT CAVOK 02/02 Q1023=
201111190545 METAR LIRA 190545Z 04003KT CAVOK 02/02 Q1023=
201111190515 METAR LIRA 190515Z 34002KT CAVOK 03/02 Q1023=
201111190445 METAR LIRA 190445Z 05002KT CAVOK 03/02 Q1023=
201111190415 METAR LIRA 190415Z 04002KT CAVOK 03/02 Q1023=
201111190345 METAR LIRA 190345Z 03002KT CAVOK 03/02 Q1023=
201111190315 METAR LIRA 190315Z 03002KT CAVOK 03/03 Q1023=
201111190245 METAR LIRA 190245Z 04003KT CAVOK 03/03 Q1023=
201111190215 METAR LIRA 190215Z 04001KT CAVOK 04/03 Q1024=
201111190145 METAR LIRA 190145Z 03002KT CAVOK 04/03 Q1024=
201111190115 METAR LIRA 190115Z 04003KT CAVOK 04/03 Q1024=
201111190045 METAR LIRA 190045Z 05002KT CAVOK 04/04 Q1024=
201111190015 METAR LIRA 190015Z 03003KT CAVOK 05/03 Q1024=
201111182350 METAR LIRA 190045Z 05002KT CAVOK 04/04 Q1024=
201111182345 METAR LIRA 182345Z 03003KT CAVOK 05/03 Q1024=
201111182315 METAR LIRA 182315Z 08001KT CAVOK 06/02 Q1024=
201111182245 METAR LIRA 182245Z 10003KT CAVOK 06/02 Q1024=
201111182215 METAR LIRA 182215Z 11003KT CAVOK 06/02 Q1024=
201111182145 METAR LIRA 182145Z 11003KT CAVOK 06/03 Q1024=
201111182115 METAR LIRA 182115Z 12001KT CAVOK 07/03 Q1024=
201111182045 METAR LIRA 182045Z 12002KT CAVOK 07/03 Q1024=
201111182015 METAR LIRA 182015Z 13003KT CAVOK 08/02 Q1024=
201111181945 METAR LIRA 181945Z 14002KT CAVOK 08/03 Q1024=
201111181915 METAR LIRA 181915Z 12001KT CAVOK 07/03 Q1023=
201111181845 METAR LIRA 181845Z 15004KT CAVOK 07/04 Q1023=
201111181815 METAR LIRA 181815Z 16003KT CAVOK 08/04 Q1023=
201111181745 METAR LIRA 181745Z 15003KT CAVOK 09/05 Q1023=
201111181715 METAR LIRA 181715Z 15003KT CAVOK 08/04 Q1023=
201111181645 METAR LIRA 181645Z 16002KT 9999 FEW070 09/03 Q1023=
201111181615 METAR LIRA 181615Z 09001KT 9999 FEW070 11/02 Q1023=
201111181545 METAR LIRA 181545Z 32002KT CAVOK 13/03 Q1023=
201111181515 METAR LIRA 181515Z 33002KT 9999 FEW070 14/03 Q1023=
201111181445 METAR LIRA 181445Z 34001KT 9999 FEW070 15/03 Q1024=
201111181415 METAR LIRA 181415Z 33004KT 9999 FEW018 15/03 Q1024=
201111181345 METAR LIRA 181345Z 31003KT 9999 FEW018 15/04 Q1024=
201111181315 METAR LIRA 181315Z 30002KT 9999 FEW018 16/08 Q1024=
201111181245 METAR LIRA 181245Z 33002KT 9999 FEW018 15/07 Q1024=
201111181215 METAR LIRA 181215Z 32001KT 9999 FEW018 15/08 Q1025=
201111181145 METAR LIRA 181145Z 32003KT 9999 FEW018 14/06 Q1024=
201111181115 METAR LIRA 181115Z 03002KT 9999 FEW018 14/06 Q1024=
201111181045 METAR LIRA 181045Z 34002KT 9999 FEW018 12/05 Q1024=
201111181015 METAR LIRA 181015Z 35003KT 9999 FEW018 11/06 Q1024=
201111180945 METAR LIRA 180945Z 01004KT 9999 FEW018 10/06 Q1024=
201111180915 METAR LIRA 180915Z 01002KT 9999 FEW018 09/05 Q1024=
201111180845 METAR LIRA 180845Z 04002KT 9999 FEW070 07/04 Q1024=
201111180815 METAR LIRA 180815Z 00004KT 9999 FEW070 07/04 Q1024=
201111180745 METAR LIRA 180745Z 05003KT 9999 FEW070 05/03 Q1024=
201111180715 METAR LIRA 180715Z 04001KT 9999 FEW070 05/04 Q1024=
201111180645 METAR LIRA 180645Z 04004KT 9999 FEW070 04/03 Q1024=
201111180615 METAR LIRA 180615Z 03002KT 9999 FEW070 03/02 Q1024=
201111180545 METAR LIRA 180545Z 04003KT 9999 FEW070 03/03 Q1024=
201111180515 METAR LIRA 180515Z 04002KT CAVOK 03/03 Q1024=
201111180445 METAR LIRA 180445Z 04003KT CAVOK 04/03 Q1024=
201111180415 METAR LIRA 180415Z 04003KT CAVOK 04/03 Q1024=
201111180345 METAR LIRA 180345Z 02001KT CAVOK 04/03 Q1024=
201111180315 METAR LIRA 180315Z 02002KT CAVOK 04/03 Q1024=
201111180245 METAR LIRA 180245Z 03002KT CAVOK 04/03 Q1024=
201111180215 METAR LIRA 180215Z 03002KT CAVOK 04/04 Q1024=
201111180145 METAR LIRA 180145Z 05003KT CAVOK 04/04 Q1024=
201111180115 METAR LIRA 180115Z 05003KT CAVOK 05/04 Q1024=
201111180045 METAR LIRA 180045Z 04002KT CAVOK 05/04 Q1024=
201111180015 METAR LIRA 180015Z 03002KT CAVOK 05/04 Q1024=
201111172350 METAR LIRA 180045Z 04002KT CAVOK 05/04 Q1024=
201111172345 METAR LIRA 172345Z 02001KT CAVOK 05/04 Q1024=
201111172315 METAR LIRA 172315Z 03002KT CAVOK 06/04 Q1024=
201111172245 METAR LIRA 172245Z 04002KT CAVOK 06/04 Q1024=
201111172215 METAR LIRA 172215Z 10003KT CAVOK 06/04 Q1024=
201111172145 METAR LIRA 172145Z 05002KT CAVOK 07/04 Q1024=
201111172115 METAR LIRA 172115Z 06001KT CAVOK 07/04 Q1024=
201111172045 METAR LIRA 172045Z 13002KT CAVOK 08/05 Q1024=
201111172015 METAR LIRA 172015Z 13003KT CAVOK 08/05 Q1024=
201111171945 METAR LIRA 171945Z 13002KT CAVOK 09/05 Q1024=
201111171915 METAR LIRA 171915Z 14003KT CAVOK 09/05 Q1023=
201111171845 METAR LIRA 171845Z 12003KT CAVOK 08/04 Q1023=
201111171815 METAR LIRA 171815Z 14002KT CAVOK 08/04 Q1023=
201111171745 METAR LIRA 171745Z 14001KT CAVOK 09/05 Q1023=
201111171715 METAR LIRA 171715Z 09001KT CAVOK 09/04 Q1022=
201111171645 METAR LIRA 171645Z 00000KT CAVOK 11/05 Q1022=
201111171615 METAR LIRA 171615Z 00000KT CAVOK 12/04 Q1022=
201111171545 METAR LIRA 171545Z 28001KT CAVOK 14/04 Q1022=
201111171515 METAR LIRA 171515Z 32002KT CAVOK 15/03 Q1022=
201111171445 METAR LIRA 171445Z 30002KT CAVOK 15/03 Q1022=
201111171415 METAR LIRA 171415Z 29002KT CAVOK 15/03 Q1022=
201111171345 METAR LIRA 171345Z 30004KT CAVOK 16/03 Q1022=
201111171315 METAR LIRA 171315Z 33005KT CAVOK 15/04 Q1022=
201111171245 METAR LIRA 171245Z 33003KT 9999 FEW020 15/03 Q1022=
201111171215 METAR LIRA 171215Z 31001KT 9999 FEW020 15/03 Q1022=
201111171145 METAR LIRA 171145Z 35002KT 9999 FEW020 14/05 Q1022=
201111171115 METAR LIRA 171115Z 02003KT CAVOK 14/07 Q1022=
201111171045 METAR LIRA 171045Z 35002KT CAVOK 13/06 Q1022=
201111171015 METAR LIRA 171015Z 01003KT CAVOK 12/07 Q1022=
201111170945 METAR LIRA 170945Z 04004KT CAVOK 11/06 Q1022=
201111170915 METAR LIRA 170915Z 02004KT CAVOK 09/05 Q1022=
201111170845 METAR LIRA 170845Z 03004KT CAVOK 08/05 Q1022=
201111170815 METAR LIRA 170815Z 03004KT 360V060 8000 NSC 07/04 Q1022=
201111170745 METAR LIRA 170745Z 03003KT 8000 NSC 06/04 Q1022=
201111170715 METAR LIRA 170715Z 04002KT 8000 NSC 05/04 Q1022=
201111170700 METAR LIRA CONTUS/CB SW=
201111170645 METAR LIRA 170645Z 04002KT 8000 NSC 04/04 Q1022=
201111170615 METAR LIRA 170615Z 04004KT CAVOK 04/03 Q1021=
201111170600 METAR LIRA INTER/CB E=
201111170545 METAR LIRA 170545Z 03004KT CAVOK 04/03 Q1021=
201111170515 METAR LIRA 170515Z 03003KT CAVOK 04/03 Q1021=
201111170445 METAR LIRA 170445Z 04003KT CAVOK 04/04 Q1020=
201111170415 METAR LIRA 170415Z 05004KT CAVOK 04/03 Q1020=
201111170345 METAR LIRA 170345Z 04004KT CAVOK 04/03 Q1020=
201111170315 METAR LIRA 170315Z 02003KT CAVOK 04/04 Q1020=
201111170245 METAR LIRA 170245Z 36003KT CAVOK 05/04 Q1020=
201111170215 METAR LIRA 170215Z 00000KT CAVOK 04/04 Q1020=
201111170145 METAR LIRA 170145Z 02002KT CAVOK 05/03 Q1020=
201111170115 METAR LIRA 170115Z 03002KT CAVOK 05/03 Q1020=
201111170045 METAR LIRA 170045Z 02002KT CAVOK 05/03 Q1020=
201111170015 METAR LIRA 170015Z 05001KT CAVOK 06/04 Q1020=
201111162350 METAR LIRA 170045Z 02002KT CAVOK 05/03 Q1020=
201111162345 METAR LIRA 162345Z 00000KT CAVOK 06/05 Q1020=
201111162315 METAR LIRA 162315Z 01002KT CAVOK 06/05 Q1020=
201111162245 METAR LIRA 162245Z 02002KT CAVOK 06/05 Q1020=
201111162215 METAR LIRA 162215Z 04002KT CAVOK 06/05 Q1020=
201111162145 METAR LIRA 162145Z 05001KT CAVOK 07/05 Q1020=
201111162115 METAR LIRA 162115Z 04002KT CAVOK 07/05 Q1020=
201111162045 METAR LIRA 162045Z 00000KT CAVOK 08/05 Q1020=
201111162015 METAR LIRA 162015Z 08002KT CAVOK 08/05 Q1020=
201111161945 METAR LIRA 161945Z 03001KT CAVOK 08/05 Q1019=
201111161915 METAR LIRA 161915Z 00000KT CAVOK 09/05 Q1019=
201111161845 METAR LIRA 161845Z 00000KT CAVOK 09/05 Q1019=
201111161815 METAR LIRA 161815Z 08003KT CAVOK 09/05 Q1019=
201111161745 METAR LIRA 161745Z 10002KT CAVOK 10/06 Q1019=
201111161715 METAR LIRA 161715Z 09003KT CAVOK 10/06 Q1019=
201111161645 METAR LIRA 161645Z 09004KT CAVOK 11/05 Q1019=
201111161615 METAR LIRA 161615Z 06003KT CAVOK 13/03 Q1018=
201111161545 METAR LIRA 161545Z 02001KT CAVOK 14/03 Q1018=
201111161515 METAR LIRA 161515Z 33001KT CAVOK 14/02 Q1018=
201111161445 METAR LIRA 161445Z 33004KT CAVOK 15/02 Q1018=
201111161415 METAR LIRA 161415Z 32004KT CAVOK 15/02 Q1018=
201111161345 METAR LIRA 161345Z 35004KT CAVOK 15/02 Q1018=
201111161315 METAR LIRA 161315Z 35005KT CAVOK 15/03 Q1018=
201111161245 METAR LIRA 161245Z 35003KT CAVOK 15/04 Q1018=
201111161215 METAR LIRA 161215Z 02003KT CAVOK 14/05 Q1018=
201111161145 METAR LIRA 161145Z 01004KT CAVOK 14/05 Q1018=
201111161115 METAR LIRA 161115Z 36005KT CAVOK 13/05 Q1019=
201111161045 METAR LIRA 161045Z 02003KT CAVOK 12/05 Q1019=
201111161015 METAR LIRA 161015Z 05003KT 010V080 CAVOK 11/05 Q1019=
201111160945 METAR LIRA 160945Z 04005KT 340V060 CAVOK 10/04 Q1019=
201111160915 METAR LIRA 160915Z 04006KT 020V080 9000 NSC 09/04 Q1019=
201111160900 METAR LIRA INTER CB NW SW SE=
201111160845 METAR LIRA 160845Z 01003KT 8000 NSC 08/04 Q1019=
201111160815 METAR LIRA 160815Z 03004KT 8000 NSC 07/03 Q1019=
201111160745 METAR LIRA 160745Z 04004KT 8000 NSC 06/05 Q1018=
201111160715 METAR LIRA 160715Z 03002KT 8000 NSC 04/03 Q1018=
201111160645 METAR LIRA 160645Z 04002KT 8000 NSC 04/03 Q1018=
201111160615 METAR LIRA 160615Z 04002KT 8000 NSC 03/03 Q1017=
201111160545 METAR LIRA 160545Z 05002KT 8000 NSC 03/02 Q1017=
201111160515 METAR LIRA 160515Z 05003KT 8000 NSC 03/02 Q1017=
201111160445 METAR LIRA 160445Z 05002KT 8000 NSC 03/02 Q1017=
201111160415 METAR LIRA 160415Z 04001KT 8000 NSC 03/03 Q1017=
201111160345 METAR LIRA 160345Z 03003KT 8000 NSC 04/03 Q1017=
201111160315 METAR LIRA 160315Z 01002KT 8000 NSC 04/04 Q1017=
201111160245 METAR LIRA 160245Z 00000KT 8000 NSC 04/03 Q1017=
201111160215 METAR LIRA 160215Z 04002KT 8000 NSC 04/04 Q1017=
201111160145 METAR LIRA 160145Z 04004KT 8000 NSC 05/04 Q1017=
201111160115 METAR LIRA 160115Z 04002KT CAVOK 05/04 Q1017=
201111160045 METAR LIRA 160045Z 07003KT CAVOK 05/05 Q1017=
201111160015 METAR LIRA 160015Z 04003KT CAVOK 05/04 Q1017=
201111152350 METAR LIRA 160045Z 07003KT CAVOK 05/05 Q1017=
201111152345 METAR LIRA 152345Z 04001KT CAVOK 06/04 Q1017=
201111152315 METAR LIRA 152315Z 02002KT CAVOK 06/05 Q1017=
201111152245 METAR LIRA 152245Z 09001KT CAVOK 06/04 Q1017=
201111152215 METAR LIRA 152215Z 04004KT CAVOK 06/05 Q1017=
201111152145 METAR LIRA 152145Z 00000KT CAVOK 06/03 Q1017=
201111152115 METAR LIRA 152115Z 00000KT CAVOK 07/03 Q1017=
201111152045 METAR LIRA 152045Z 15003KT CAVOK 07/03 Q1017=
201111152015 METAR LIRA 152015Z 13001KT CAVOK 08/02 Q1017=
201111151945 METAR LIRA 151945Z 00000KT CAVOK 08/02 Q1017=
201111151915 METAR LIRA 151915Z 13002KT CAVOK 08/02 Q1017=
201111151845 METAR LIRA 151845Z 15002KT CAVOK 09/02 Q1017=
201111151815 METAR LIRA 151815Z 13002KT CAVOK 09/03 Q1016=
201111151745 METAR LIRA 151745Z 13002KT CAVOK 09/04 Q1016=
201111151715 METAR LIRA 151715Z 14001KT CAVOK 10/04 Q1016=
201111151645 METAR LIRA 151645Z 10002KT CAVOK 11/04 Q1016=
201111151615 METAR LIRA 151615Z 06002KT CAVOK 12/03 Q1016=
201111151545 METAR LIRA 151545Z 05001KT CAVOK 14/03 Q1016=
201111151515 METAR LIRA 151515Z 02001KT CAVOK 14/04 Q1016=
201111151445 METAR LIRA 151445Z 03003KT CAVOK 14/04 Q1016=
201111151415 METAR LIRA 151415Z 34003KT CAVOK 15/05 Q1016=
201111151345 METAR LIRA 151345Z 32004KT CAVOK 15/06 Q1016=
201111151315 METAR LIRA 151315Z 33004KT 300V020 9999 FEW022 15/07 Q1017=
201111151245 METAR LIRA 151245Z 35003KT 9999 FEW022 15/07 Q1017=
201111151215 METAR LIRA 151215Z 02003KT 9999 FEW022 15/07 Q1017=
201111151145 METAR LIRA 151145Z 02003KT 9999 FEW020 14/07 Q1017=
201111151115 METAR LIRA 151115Z 36003KT 9999 FEW020 14/07 Q1018=
201111151045 METAR LIRA 151045Z 36003KT 9999 FEW020 13/07 Q1018=
201111151015 METAR LIRA 151015Z 04002KT 9999 FEW020 12/06 Q1019=
201111150945 METAR LIRA 150945Z 04003KT 9999 FEW020 11/05 Q1019=
201111150915 METAR LIRA 150915Z 03003KT 9999 FEW070 09/04 Q1019=
201111150845 METAR LIRA 150845Z 03003KT 9999 FEW060 08/04 Q1019=
201111150815 METAR LIRA 150815Z 03004KT 9999 FEW060 07/04 Q1019=
201111150745 METAR LIRA 150745Z 04003KT CAVOK 07/04 Q1019=
201111150715 METAR LIRA 150715Z 03002KT CAVOK 05/04 Q1018=
201111150645 METAR LIRA 150645Z 03002KT CAVOK 04/03 Q1018=
201111150615 METAR LIRA 150615Z 03002KT CAVOK 04/03 Q1018=
201111150545 METAR LIRA 150545Z 04003KT CAVOK 04/03 Q1018=
201111150515 METAR LIRA 150515Z 04003KT CAVOK 03/03 Q1019=
201111150445 METAR LIRA 150445Z 04003KT CAVOK 04/03 Q1019=
201111150415 METAR LIRA 150415Z 03003KT CAVOK 04/03 Q1019=
201111150345 METAR LIRA 150345Z 03002KT CAVOK 04/04 Q1019=
201111150315 METAR LIRA 150315Z 03002KT CAVOK 04/04 Q1019=
201111150245 METAR LIRA 150245Z 04003KT CAVOK 04/04 Q1020=
201111150215 METAR LIRA 150215Z 03002KT CAVOK 05/04 Q1020=
201111150145 METAR LIRA 150145Z 04002KT CAVOK 05/04 Q1020=
201111150115 METAR LIRA 150115Z 03003KT CAVOK 05/04 Q1020=
201111150045 METAR LIRA 150045Z 03001KT 9999 FEW070 05/04 Q1020=
201111150015 METAR LIRA 150015Z 02002KT 9999 FEW070 06/05 Q1020=
201111142350 METAR LIRA 150045Z 03001KT 9999 FEW070 05/04 Q1020=
201111142345 METAR LIRA 142345Z 02002KT 9999 FEW070 06/05 Q1020=
201111142315 METAR LIRA 142315Z 03003KT 9999 FEW070 06/05 Q1021=
201111142245 METAR LIRA 142245Z 03002KT 9999 FEW070 06/04 Q1021=
201111142215 METAR LIRA 142215Z 05002KT 9999 FEW005 07/06 Q1021=
201111142145 METAR LIRA 142145Z 07002KT 9999 FEW005 07/06 Q1021=
201111142115 METAR LIRA 142115Z 09002KT 9999 FEW005 08/06 Q1021=
201111142045 METAR LIRA 142045Z 08004KT 9999 FEW005 08/06 Q1021=
201111142015 METAR LIRA 142015Z 06002KT CAVOK 08/07 Q1021=
201111141945 METAR LIRA 141945Z 11002KT CAVOK 09/06 Q1021=
201111141915 METAR LIRA 141915Z 12004KT 9999 FEW003 09/07 Q1021=
201111141845 METAR LIRA 141845Z 12004KT CAVOK 09/06 Q1022=
201111141815 METAR LIRA 141815Z 12003KT CAVOK 10/08 Q1022=
201111141745 METAR LIRA 141745Z 11004KT CAVOK 10/08 Q1022=
201111141715 METAR LIRA 141715Z 10003KT CAVOK 10/08 Q1021=
201111141645 METAR LIRA 141645Z 07002KT CAVOK 12/08 Q1021=
201111141615 METAR LIRA 141615Z 05002KT CAVOK 12/07 Q1021=
201111141545 METAR LIRA 141545Z 03001KT CAVOK 13/07 Q1021=
201111141515 METAR LIRA 141515Z 05002KT 9999 FEW017 13/07 Q1021=
201111141445 METAR LIRA 141445Z 05001KT 9999 FEW017 14/07 Q1022=
201111141415 METAR LIRA 141415Z 03003KT 9999 FEW017 14/07 Q1022=
201111141345 METAR LIRA 141345Z 04003KT 9999 FEW017 14/08 Q1022=
201111141315 METAR LIRA 141315Z 03002KT 9999 FEW017 14/07 Q1022=
201111141245 METAR LIRA 141245Z 04003KT 9999 FEW017 14/07 Q1022=
201111141215 METAR LIRA 141215Z 35004KT 9999 FEW017 14/07 Q1023=
201111141145 METAR LIRA 141145Z 01003KT 9999 FEW017 13/06 Q1023=
201111141115 METAR LIRA 141115Z 03003KT 9999 FEW017 13/07 Q1024=
201111141045 METAR LIRA 141045Z 33003KT 9999 FEW017 12/06 Q1024=
201111141015 METAR LIRA 141015Z 35002KT CAVOK 11/05 Q1025=
201111140945 METAR LIRA 140945Z 02003KT CAVOK 10/05 Q1025=
201111140915 METAR LIRA 140915Z 36002KT CAVOK 08/04 Q1025=
201111140845 METAR LIRA 140845Z 36002KT CAVOK 08/06 Q1025=
201111140815 METAR LIRA 140815Z 03004KT CAVOK 07/04 Q1025=
201111140745 METAR LIRA 140745Z 04005KT 360V070 CAVOK 06/04 Q1025=
201111140715 METAR LIRA 140715Z 04005KT CAVOK 05/05 Q1025=
201111140645 METAR LIRA 140645Z 05004KT CAVOK 04/04 Q1025=
201111140615 METAR LIRA 140615Z 04003KT CAVOK 04/04 Q1025=
201111140545 METAR LIRA 140545Z 05003KT CAVOK 04/04 Q1025=
201111140515 METAR LIRA 140515Z 03003KT CAVOK 04/04 Q1025=
201111140445 METAR LIRA 140445Z 04004KT CAVOK 04/03 Q1025=
201111140415 METAR LIRA 140415Z 04004KT CAVOK 04/04 Q1025=
201111140345 METAR LIRA 140345Z 04003KT CAVOK 05/04 Q1026=
201111140315 METAR LIRA 140315Z 04003KT CAVOK 05/04 Q1026=
201111140245 METAR LIRA 140245Z 04004KT CAVOK 05/04 Q1026=
201111140215 METAR LIRA 140215Z 03003KT CAVOK 05/04 Q1026=
201111140145 METAR LIRA 140145Z 02001KT CAVOK 05/04 Q1026=
201111140115 METAR LIRA 140115Z 03002KT CAVOK 06/05 Q1027=
201111140100 METAR LIRA INTER LOW CLDS MVNG S=
201111140045 METAR LIRA 140045Z 03002KT CAVOK 06/05 Q1027=
201111140015 METAR LIRA 140015Z 02001KT CAVOK 06/05 Q1027=
201111132350 METAR LIRA 140045Z 03002KT CAVOK 06/05 Q1027=
201111132345 METAR LIRA 132345Z 03003KT CAVOK 06/05 Q1027=
201111132315 METAR LIRA 132315Z 01003KT CAVOK 07/05 Q1027=
201111132245 METAR LIRA 132245Z 06002KT CAVOK 07/05 Q1027=
201111132215 METAR LIRA 132215Z 05001KT CAVOK 08/06 Q1027=
201111132145 METAR LIRA 132145Z 05002KT CAVOK 08/06 Q1027=
201111132115 METAR LIRA 132115Z 05003KT CAVOK 08/06 Q1027=
201111132045 METAR LIRA 132045Z 12001KT CAVOK 08/06 Q1027=
201111132015 METAR LIRA 132015Z 14002KT CAVOK 08/06 Q1027=
201111131945 METAR LIRA 131945Z 14003KT CAVOK 08/06 Q1027=
201111131915 METAR LIRA 131915Z 12003KT CAVOK 09/07 Q1027=
201111131845 METAR LIRA 131845Z 15004KT CAVOK 10/06 Q1027=
201111131815 METAR LIRA 131815Z 16005KT CAVOK 09/06 Q1027=
201111131745 METAR LIRA 131745Z 16005KT 9999 FEW070 09/06 Q1027=
201111131715 METAR LIRA 131715Z 20004KT 9999 FEW070 11/06 Q1027=
201111131645 METAR LIRA 131645Z 16002KT 9999 FEW070 11/05 Q1027=
201111131615 METAR LIRA 131615Z 17002KT 9999 FEW070 13/04 Q1027=
201111131545 METAR LIRA 131545Z 00000KT 9999 FEW070 14/03 Q1027=
201111131515 METAR LIRA 131515Z 01002KT 9999 FEW070 15/04 Q1027=
201111131445 METAR LIRA 131445Z 34001KT 9999 FEW020 15/03 Q1027=
201111131415 METAR LIRA 131415Z 34002KT 9999 FEW020 15/03 Q1027=
201111131345 METAR LIRA 131345Z 33003KT 9999 FEW020 15/02 Q1027=
201111131315 METAR LIRA 131315Z 32002KT 9999 FEW020 15/02 Q1027=
201111131245 METAR LIRA 131245Z 32003KT 9999 FEW020 14/03 Q1027=
201111131215 METAR LIRA 131215Z 33003KT 9999 FEW020 14/03 Q1028=
201111131145 METAR LIRA 131145Z 32003KT 9999 FEW020 14/03 Q1028=
201111131115 METAR LIRA 131115Z 03003KT 9999 FEW020 13/03 Q1028=
201111131045 METAR LIRA 131045Z 34004KT 9999 FEW020 13/04 Q1028=
201111131015 METAR LIRA 131015Z 36003KT 9999 FEW020 12/03 Q1028=
201111130945 METAR LIRA 130945Z 02004KT 9999 FEW030 11/03 Q1028=
201111130915 METAR LIRA 130915Z 03006KT 340V080 9999 FEW030 10/03 Q1028=
201111130845 METAR LIRA 130845Z 02006KT 9999 FEW030 10/03 Q1028=
201111130815 METAR LIRA 130815Z 01006KT 320V050 9999 FEW030 09/03 Q1028=
201111130745 METAR LIRA 130745Z 01005KT 9999 FEW030 08/03 Q1028=
201111130715 METAR LIRA 130715Z 03004KT 9999 FEW030 07/04 Q1028=
201111130645 METAR LIRA 130645Z 04004KT 9999 SCT030 06/04 Q1028=
201111130615 METAR LIRA 130615Z 02004KT 9999 SCT030 06/04 Q1028=
201111130545 METAR LIRA 130545Z 02003KT 9999 SCT030 07/04 Q1028=
201111130515 METAR LIRA 130515Z 04003KT 9999 SCT030 07/04 Q1027=
201111130445 METAR LIRA 130445Z 02004KT 9999 SCT030 07/04 Q1027=
201111130415 METAR LIRA 130415Z 03000KT 9999 SCT030 07/04 Q1027=
201111130345 METAR LIRA 130345Z 03004KT 9999 SCT030 07/04 Q1027=
201111130245 METAR LIRA 130245Z 03005KT 9999 BKN050 07/05 Q1027=
201111130215 METAR LIRA 130215Z 03005KT 9999 BKN050 07/05 Q1027=
201111130145 METAR LIRA 130145Z 02004KT 9999 BKN050 08/06 Q1027=
201111130115 METAR LIRA 130115Z 02003KT 9999 SCT050 07/06 Q1027=
201111130045 METAR LIRA 130045Z 02004KT 9999 SCT050 07/06 Q1027=
201111130015 METAR LIRA 130015Z 04004KT 9999 FEW040 07/06 Q1027=
201111122350 METAR LIRA 130045Z 02004KT 9999 SCT050 07/06 Q1027=
201111122345 METAR LIRA 122345Z 03004KT 9999 FEW040 07/06 Q1027=
201111122315 METAR LIRA 122315Z 04004KT 9999 FEW060 08/06 Q1027=
201111122245 METAR LIRA 122245Z 04004KT 9999 FEW060 08/06 Q1027=
201111122215 METAR LIRA 122215Z 04005KT 9999 FEW018 08/07 Q1027=
201111122145 METAR LIRA 122145Z 04004KT CAVOK 08/07 Q1027=
201111122115 METAR LIRA 122115Z 04003KT CAVOK 08/07 Q1026=
201111122045 METAR LIRA 122045Z 04004KT CAVOK 09/07 Q1026=
201111122015 METAR LIRA 122015Z 05004KT CAVOK 10/07 Q1026=
201111121945 METAR LIRA 121945Z 02003KT CAVOK 10/07 Q1026=
201111121915 METAR LIRA 121915Z 02003KT CAVOK 10/06 Q1026=
201111121845 METAR LIRA 121845Z 36007KT 330V040 CAVOK 12/06 Q1025=
201111121815 METAR LIRA 121815Z 02006KT CAVOK 12/06 Q1025=
201111121745 METAR LIRA 121745Z 02005KT CAVOK 13/07 Q1025=
201111121715 METAR LIRA 121715Z 03006KT CAVOK 13/07 Q1025=
201111121645 METAR LIRA 121645Z 03006KT CAVOK 14/07 Q1025=
201111121615 METAR LIRA 121615Z 02005KT CAVOK 15/07 Q1025=
201111121545 METAR LIRA 121545Z 35004KT 9999 FEW018 16/08 Q1025=
201111121515 METAR LIRA 121515Z 34004KT 9999 FEW020 17/09 Q1025=
201111121445 METAR LIRA 121445Z 35006KT 9999 FEW020 18/08 Q1025=
201111121415 METAR LIRA 121415Z 35006KT 320V040 9999 FEW020 18/08 Q1024=
201111121345 METAR LIRA 121345Z 36004KT 9999 FEW020 18/08 Q1024=
201111121315 METAR LIRA 121315Z 32005KT 9999 FEW020 18/08 Q1024=
201111121245 METAR LIRA 121245Z 35005KT 330V040 9999 FEW020 18/09 Q1025=
201111121215 METAR LIRA 121215Z 36004KT 320V030 9999 FEW020 17/09 Q1025=
201111121145 METAR LIRA 121145Z 03005KT 350V060 9999 FEW020 17/10 Q1025=
201111121115 METAR LIRA 121115Z 02006KT 340V050 9999 FEW020 17/10 Q1025=
201111121045 METAR LIRA 121045Z 03005KT 350V060 9999 FEW020 15/10 Q1025=
201111121015 METAR LIRA 121015Z 02005KT 350V060 9999 FEW020 14/09 Q1026=
201111120945 METAR LIRA 120945Z 03005KT 330V060 9999 FEW020 13/10 Q1026=
201111120915 METAR LIRA 120915Z 02007KT 350V050 9999 FEW020 12/09 Q1026=
201111120845 METAR LIRA 120845Z 02006KT 340V040 9999 FEW020 12/09 Q1026=
201111120815 METAR LIRA 120815Z 03005KT 360V060 CAVOK 11/09 Q1026=
201111120745 METAR LIRA 120745Z 03005KT CAVOK 10/08 Q1026=
201111120715 METAR LIRA 120715Z 03004KT 9999 FEW020 09/08 Q1025=
201111120645 METAR LIRA 120645Z 03004KT 9999 FEW020 08/07 Q1025=
201111120615 METAR LIRA 120615Z 04003KT CAVOK 08/07 Q1025=
201111120545 METAR LIRA 120545Z 05004KT 9999 FEW020 08/07 Q1025=
201111120515 METAR LIRA 120515Z 04003KT 9999 FEW020 08/08 Q1024=
201111120445 METAR LIRA 120445Z 03004KT CAVOK 08/07 Q1024=
201111120415 METAR LIRA 120415Z 04004KT CAVOK 08/08 Q1024=
201111120345 METAR LIRA 120345Z 05005KT CAVOK 08/08 Q1024=
201111120315 METAR LIRA 120315Z 05004KT CAVOK 08/08 Q1024=
201111120245 METAR LIRA 120245Z 05002KT CAVOK 09/08 Q1024=
201111120215 METAR LIRA 120215Z 05003KT CAVOK 09/08 Q1024=
201111120145 METAR LIRA 120145Z 05003KT CAVOK 09/08 Q1024=
201111120115 METAR LIRA 120115Z 04003KT CAVOK 09/09 Q1024=
201111120045 METAR LIRA 120045Z 04004KT CAVOK 09/09 Q1024=
201111120015 METAR LIRA 120015Z 04002KT CAVOK 10/09 Q1024=
201111112350 METAR LIRA 120045Z 04004KT CAVOK 09/09 Q1024=
201111112345 METAR LIRA 112345Z 04002KT CAVOK 10/10 Q1024=
201111112315 METAR LIRA 112315Z 02003KT CAVOK 10/10 Q1024=
201111112245 METAR LIRA 112245Z 05003KT 8000 NSC 11/10 Q1024=
201111112215 METAR LIRA 112215Z 03001KT 8000 FEW010 11/11 Q1023=
201111112145 METAR LIRA 112145Z 04001KT 9999 FEW060 12/11 Q1023=
201111112115 METAR LIRA 112115Z 00000KT 9999 FEW070 12/11 Q1023=
201111112045 METAR LIRA 112045Z 36001KT 9999 FEW080 12/11 Q1022=
201111112015 METAR LIRA 112015Z 09002KT 9999 FEW080 12/11 Q1022=
201111111945 METAR LIRA 111945Z 15003KT 9999 FEW060 13/12 Q1022=
201111111915 METAR LIRA 111915Z 14004KT 9999 SCT080 12/12 Q1022=
201111111845 METAR LIRA 111845Z 13002KT 9999 FEW080 13/12 Q1022=
201111111815 METAR LIRA 111815Z 15002KT CAVOK 12/12 Q1021=
201111111745 METAR LIRA 111745Z 16002KT CAVOK 13/12 Q1021=
201111111715 METAR LIRA 111715Z 18003KT 9999 FEW025 15/13 Q1021=
201111111645 METAR LIRA 111645Z 19002KT 9999 FEW018 15/13 Q1020=
201111111615 METAR LIRA 111615Z 21002KT 9999 FEW018 SCT025 16/13 Q1020=
201111111545 METAR LIRA 111545Z 27001KT 9999 FEW018 18/11 Q1020=
201111111515 METAR LIRA 111515Z 30002KT 9999 FEW018 19/10 Q1020=
201111111445 METAR LIRA 111445Z 30004KT 9999 FEW018 18/10 Q1019=
201111111415 METAR LIRA 111415Z 27002KT 9999 FEW018 18/10 Q1019=
201111111345 METAR LIRA 111345Z 36002KT 9999 FEW018 18/11 Q1019=
201111111315 METAR LIRA 111315Z 29002KT 9999 FEW018 18/10 Q1019=
201111111245 METAR LIRA 111245Z 31001KT 9999 FEW018 18/11 Q1019=
201111111215 METAR LIRA 111215Z 33003KT 9999 FEW018 18/12 Q1019=
201111111145 METAR LIRA 111145Z 34001KT 9999 FEW018 18/13 Q1020=
201111111115 METAR LIRA 111115Z 36001KT 9999 FEW018 18/13 Q1020=
201111111045 METAR LIRA 111045Z 36003KT 9999 FEW018 17/12 Q1020=
201111111015 METAR LIRA 111015Z 35002KT 9999 FEW018 16/12 Q1019=
201111110945 METAR LIRA 110945Z 03004KT 9999 FEW018 15/12 Q1019=
201111110915 METAR LIRA 110915Z 36002KT 9999 FEW018 13/11 Q1019=
201111110845 METAR LIRA 110845Z 01004KT 9999 FEW018 13/12 Q1019=
201111110815 METAR LIRA 110815Z 02003KT 9999 FEW018 11/10 Q1019=
201111110745 METAR LIRA 110745Z 03004KT CAVOK 10/10 Q1019=
201111110715 METAR LIRA 110715Z 04003KT CAVOK 10/09 Q1018=
201111110645 METAR LIRA 110645Z 05003KT CAVOK 09/09 Q1018=
201111110615 METAR LIRA 110615Z 05004KT CAVOK 08/08 Q1017=
201111110545 METAR LIRA 110545Z 04004KT CAVOK 08/08 Q1017=
201111110515 METAR LIRA 110515Z 05004KT CAVOK 08/08 Q1017=
201111110445 METAR LIRA 110445Z 03003KT CAVOK 08/08 Q1017=
201111110415 METAR LIRA 110415Z 05005KT CAVOK 08/08 Q1017=
201111110345 METAR LIRA 110345Z 04003KT CAVOK 08/08 Q1017=
201111110315 METAR LIRA 110315Z 04002KT CAVOK 08/08 Q1017=
201111110245 METAR LIRA 110245Z 05002KT CAVOK 09/09 Q1017=
201111110215 METAR LIRA 110215Z 05002KT CAVOK 09/09 Q1017=
201111110145 METAR LIRA 110145Z 04001KT CAVOK 09/09 Q1017=
201111110115 METAR LIRA 110115Z 05001KT CAVOK 09/09 Q1017=
201111110045 METAR LIRA 110045Z 02001KT CAVOK 10/10 Q1017=
201111110015 METAR LIRA 110015Z 04002KT CAVOK 10/10 Q1017=
201111102350 METAR LIRA 110045Z 02001KT CAVOK 10/10 Q1017=
201111102345 METAR LIRA 102345Z 04001KT CAVOK 10/10 Q1017=
201111102315 METAR LIRA 102315Z 04002KT CAVOK 10/09 Q1017=
201111102245 METAR LIRA 102245Z 04003KT CAVOK 11/09 Q1017=
201111102215 METAR LIRA 102215Z 10001KT CAVOK 11/09 Q1017=
201111102145 METAR LIRA 102145Z 11004KT CAVOK 11/09 Q1016=
201111102115 METAR LIRA 102115Z 12002KT CAVOK 12/10 Q1016=
201111102045 METAR LIRA 102045Z 13002KT CAVOK 12/10 Q1016=
201111102015 METAR LIRA 102015Z 14003KT CAVOK 12/10 Q1016=
201111101945 METAR LIRA 101945Z 15002KT CAVOK 12/11 Q1016=
201111101915 METAR LIRA 101915Z 11002KT CAVOK 12/11 Q1016=
201111101845 METAR LIRA 101845Z 13003KT CAVOK 13/11 Q1016=
201111101815 METAR LIRA 101815Z 12003KT CAVOK 13/12 Q1016=
201111101745 METAR LIRA 101745Z 15002KT CAVOK 14/13 Q1016=
201111101715 METAR LIRA 101715Z 15003KT CAVOK 14/12 Q1016=
201111101645 METAR LIRA 101645Z 26002KT CAVOK 15/13 Q1016=
201111101615 METAR LIRA 101615Z 27002KT CAVOK 16/12 Q1016=
201111101545 METAR LIRA 101545Z 26002KT 9999 FEW020 18/12 Q1016=
201111101515 METAR LIRA 101515Z 30002KT 9999 FEW020 18/10 Q1016=
201111101445 METAR LIRA 101445Z 30002KT 9999 FEW020 19/10 Q1016=
201111101415 METAR LIRA 101415Z 31001KT 9999 FEW020 19/11 Q1016=
201111101345 METAR LIRA 101345Z 26002KT 9999 FEW020 19/12 Q1016=
201111101315 METAR LIRA 101315Z 27002KT 9999 FEW020 19/13 Q1016=
201111101245 METAR LIRA 101245Z 15001KT 9999 FEW020 20/14 Q1017=
201111101215 METAR LIRA 101215Z 00000KT 9999 FEW020 19/13 Q1017=
201111101145 METAR LIRA 101145Z 29002KT 9999 FEW020 18/12 Q1017=
201111101115 METAR LIRA 101115Z 33001KT 9999 FEW020 18/12 Q1018=
201111101045 METAR LIRA 101045Z 36002KT 9999 FEW020 17/11 Q1018=
201111101015 METAR LIRA 101015Z 35004KT 9999 FEW020 16/11 Q1018=
201111100945 METAR LIRA 100945Z 02004KT 9999 FEW020 15/09 Q1018=
201111100915 METAR LIRA 100915Z 03004KT 9999 FEW020 14/10 Q1018=
201111100845 METAR LIRA 100845Z 02004KT 9999 FEW080 13/10 Q1018=
201111100815 METAR LIRA 100815Z 03004KT 9999 FEW080 12/10 Q1018=
201111100745 METAR LIRA 100745Z 03003KT 9999 FEW080 11/10 Q1018=
201111100715 METAR LIRA 100715Z 04002KT 9999 FEW080 10/09 Q1018=
201111100645 METAR LIRA 100645Z 05002KT 9999 FEW080 09/09 Q1018=
201111100615 METAR LIRA 100615Z 05002KT 9999 FEW080 08/08 Q1018=
201111100545 METAR LIRA 100545Z 06003KT 9999 FEW080 09/08 Q1018=
201111100515 METAR LIRA 100515Z 03003KT 9999 FEW080 09/08 Q1018=
201111100445 METAR LIRA 100445Z 35002KT CAVOK 09/08 Q1018=
201111100415 METAR LIRA 100415Z 04003KT CAVOK 09/08 Q1018=
201111100345 METAR LIRA 100345Z 06002KT CAVOK 09/08 Q1018=
201111100315 METAR LIRA 100315Z 06003KT CAVOK 09/09 Q1018=
201111100245 METAR LIRA 100245Z 05003KT CAVOK 09/09 Q1018=
201111100215 METAR LIRA 100215Z 05002KT CAVOK 10/09 Q1018=
201111100145 METAR LIRA 100145Z 05003KT CAVOK 10/09 Q1018=
201111100115 METAR LIRA 100115Z 03004KT 9999 FEW010 10/09 Q1019=
201111100045 METAR LIRA 100045Z 07004KT 9999 FEW010 10/09 Q1019=
201111100015 METAR LIRA 100015Z 09002KT 9999 FEW010 09/09 Q1019=
201111092350 METAR LIRA 100045Z 07004KT 9999 FEW010 10/09 Q1019=
201111092345 METAR LIRA 092345Z 05003KT 9999 FEW010 10/09 Q1019=
201111092315 METAR LIRA 092315Z 05003KT CAVOK 10/09 Q1019=
201111092245 METAR LIRA 092245Z 06003KT CAVOK 10/09 Q1019=
201111092215 METAR LIRA 092215Z 36002KT CAVOK 11/09 Q1019=
201111092145 METAR LIRA 092145Z 05002KT CAVOK 12/10 Q1019=
201111092115 METAR LIRA 092115Z 08002KT CAVOK 12/10 Q1019=
201111092045 METAR LIRA 092045Z 09002KT CAVOK 13/11 Q1019=
201111092015 METAR LIRA 092015Z 08001KT CAVOK 13/11 Q1019=
201111091945 METAR LIRA 091945Z 10002KT CAVOK 13/11 Q1019=
201111091915 METAR LIRA 091915Z 12001KT CAVOK 14/12 Q1019=
201111091845 METAR LIRA 091845Z 12001KT CAVOK 14/12 Q1019=
201111091815 METAR LIRA 091815Z 15002KT CAVOK 14/12 Q1019=
201111091745 METAR LIRA 091745Z 00000KT CAVOK 14/12 Q1019=
201111091715 METAR LIRA 091715Z 00000KT CAVOK 16/13 Q1019=
201111091645 METAR LIRA 091645Z 26003KT CAVOK 17/13 Q1019=
201111091615 METAR LIRA 091615Z 04002KT 9999 FEW020 18/12 Q1019=
201111091545 METAR LIRA 091545Z 03002KT 9999 FEW020 19/13 Q1019=
201111091515 METAR LIRA 091515Z 03002KT 9999 FEW020 19/11 Q1018=
201111091445 METAR LIRA 091445Z 02002KT 9999 FEW017 20/11 Q1019=
201111091415 METAR LIRA 091415Z 01003KT 9999 FEW017 20/10 Q1019=
201111091345 METAR LIRA 091345Z 35002KT 9999 FEW017 20/11 Q1019=
201111091315 METAR LIRA 091315Z 34004KT 9999 FEW017 20/11 Q1019=
201111091245 METAR LIRA 091245Z 33002KT 9999 FEW017 20/14 Q1019=
201111091215 METAR LIRA 091215Z 32004KT 9999 FEW017 19/12 Q1019=
201111091145 METAR LIRA 091145Z 32005KT 9999 FEW017 18/11 Q1020=
201111091115 METAR LIRA 091115Z 36002KT 9999 FEW015 18/11 Q1020=
201111091045 METAR LIRA 091045Z 01003KT 9999 FEW015 17/11 Q1020=
201111091015 METAR LIRA 091015Z 36003KT CAVOK 17/12 Q1020=
201111091000 METAR LIRA INTER=
201111090945 METAR LIRA 090945Z 36004KT CAVOK 16/12 Q1020=
201111090915 METAR LIRA 090915Z 02005KT CAVOK 15/12 Q1020=
201111090845 METAR LIRA 090845Z 01004KT CAVOK 14/12 Q1020=
201111090815 METAR LIRA 090815Z 36005KT CAVOK 13/12 Q1020=
201111090745 METAR LIRA 090745Z 36003KT CAVOK 12/12 Q1020=
201111090715 METAR LIRA 090715Z 04002KT CAVOK 12/11 Q1020=
201111090645 METAR LIRA 090645Z 05002KT CAVOK 11/10 Q1020=
201111090615 METAR LIRA 090615Z 04002KT CAVOK 11/10 Q1020=
201111090545 METAR LIRA 090545Z 04002KT CAVOK 11/10 Q1020=
201111090515 METAR LIRA 090515Z 01003KT CAVOK 10/10 Q1020=
201111090445 METAR LIRA 090445Z 05002KT CAVOK 10/10 Q1020=
201111090415 METAR LIRA 090415Z 05004KT CAVOK 10/10 Q1020=
201111090345 METAR LIRA 090345Z 10001KT CAVOK 11/11 Q1020=
201111090315 METAR LIRA 090315Z 07002KT CAVOK 11/11 Q1020=
201111090245 METAR LIRA 090245Z 07002KT CAVOK 11/11 Q1020=
201111090215 METAR LIRA 090215Z 03002KT 9999 FEW070 11/11 Q1020=
201111090145 METAR LIRA 090145Z 03002KT 9999 FEW070 11/11 Q1020=
201111090115 METAR LIRA 090115Z 05002KT 9999 FEW070 12/11 Q1020=
201111090045 METAR LIRA 090045Z 05002KT 9999 FEW070 12/11 Q1020=
201111090015 METAR LIRA 090015Z 01002KT 9999 FEW070 12/11 Q1020=
201111082350 METAR LIRA 090045Z 05002KT 9999 FEW070 12/11 Q1020=
201111082345 METAR LIRA 082345Z 01002KT 9999 FEW070 12/11 Q1020=
201111082315 METAR LIRA 082315Z 02002KT 9999 FEW025 12/12 Q1020=
201111082245 METAR LIRA 082245Z 05002KT 9999 FEW025 13/12 Q1020=
201111082215 METAR LIRA 082215Z 04003KT 9999 FEW025 13/12 Q1021=
201111082145 METAR LIRA 082145Z 05001KT 9999 FEW025 SCT070 13/12 Q1020=
201111082115 METAR LIRA 082115Z 06005KT 9999 FEW025 13/11 Q1020=
201111082045 METAR LIRA 082045Z 13005KT 9999 FEW025 14/12 Q1020=
201111082015 METAR LIRA 082015Z 33001KT 9999 FEW025 13/11 Q1020=
201111081945 METAR LIRA 081945Z 13004KT 9999 FEW017TCU SCT025 15/13 Q1020=
201111081915 METAR LIRA 081915Z 13004KT 9999 FEW017TCU SCT025 15/13 Q1020=
201111081845 METAR LIRA 081845Z 10006KT 9999 -RA FEW010 FEW017TCU SCT025
                        14/13 Q1020=
201111081815 METAR LIRA 081815Z 09004KT 9999 FEW010 FEW017CB SCT025 13/12
                        Q1020 RETS RERA=
201111081745 METAR LIRA 081745Z 06005KT 020V080 9999 FEW010 FEW017CB SCT025
                        12/12 Q1020 RETS RERA=
201111081715 METAR LIRA 081715Z 06009KT 8000 TSRA FEW010 FEW017CB BKN025
                        12/12 Q1020=
201111081645 METAR LIRA 081645Z 07008KT 6000 TSRA FEW010 SCT015 FEW020CB
                        12/12 Q1021=
201111081615 METAR LIRA 081615Z 05005KT 5000 TSRA BR BKN013 SCT020CB 13/12
                        Q1021=
201111081545 METAR LIRA 081545Z 09002KT 3000 TSRA BR BKN013 SCT020CB 13/13
                        Q1021=
201111081515 METAR LIRA 081515Z 16005KT 3000 TSRA BR BKN013 SCT020CB 13/12
                        Q1021=
201111081445 METAR LIRA 081445Z 25001KT 2500 TSRA BR BKN015 SCT020CB 13/13
                        Q1020=
201111081415 METAR LIRA 081415Z 30006KT 280V350 9999 BKN018 FEW022CB 14/13
                        Q1020=
201111081345 METAR LIRA 081345Z 32006KT 9999 -RA BKN018 FEW022CB 15/14
                        Q1019=
201111081315 METAR LIRA 081315Z 29009KT 260V340 9999 SCT018 FEW022CB 15/12
                        Q1019=
201111081245 METAR LIRA 081245Z 15016KT 9999 SCT018 FEW022CB 19/11 Q1019=
201111081215 METAR LIRA 081215Z 17011KT 9999 SCT018 FEW022TCU 19/12 Q1019=
201111081145 METAR LIRA 081145Z 17015KT 120V210 9999 SCT018 20/12 Q1020=
201111081115 METAR LIRA 081115Z 16015KT 9999 SCT018 20/13 Q1020=
201111081045 METAR LIRA 081045Z 16015KT 9999 SCT018 20/12 Q1020=
201111081015 METAR LIRA 081015Z 14017KT 9999 SCT018 19/13 Q1020=
201111080945 METAR LIRA 080945Z 14014KT 090V170 9999 FEW018 SCT030 19/13
                        Q1020=
201111080915 METAR LIRA 080915Z 12014KT 9999 FEW018 SCT070 19/14 Q1020=
201111080845 METAR LIRA 080845Z 14011G22KT 100V160 9999 FEW018 SCT070
                        19/13 Q1020=
201111080815 METAR LIRA 080815Z 12011KT 080V160 9999 FEW018 SCT070 19/14
                        Q1020=
201111080745 METAR LIRA 080745Z 12008KT 9999 FEW018 SCT070 18/13 Q1019=
201111080715 METAR LIRA 080715Z 12008KT 9999 FEW018 FEW022CB SCT070 17/13
                        Q1019=
201111080645 METAR LIRA 080645Z 13008KT 9999 FEW018 FEW022CB SCT070 17/13
                        Q1019=
201111080615 METAR LIRA 080615Z 13009KT 9999 SCT018 SCT070 16/12 Q1019=
201111080545 METAR LIRA 080545Z 13009KT 9999 FEW018 SCT030 16/11 Q1019=
201111080515 METAR LIRA 080515Z 14011KT 9999 FEW018 SCT030 16/12 Q1019=
201111080445 METAR LIRA 080445Z 15010KT 9999 FEW015 FEW017CB 17/12 Q1019=
201111080415 METAR LIRA 080415Z 13010KT 9999 FEW015 FEW017CB 17/12 Q1019=
201111080345 METAR LIRA 080345Z 14010KT 9999 FEW015 FEW017CB 17/13 Q1019=
201111080315 METAR LIRA 080315Z 15012KT 9999 FEW015 FEW017CB 17/13 Q1019=
201111080245 METAR LIRA 080245Z 13011KT 9999 FEW015 FEW017CB 16/12 Q1020=
201111080215 METAR LIRA 080215Z 13012KT 9999 FEW015 FEW017CB 17/13 Q1020=
201111080145 METAR LIRA 080145Z 14017KT 9999 FEW030 17/13 Q1020=
201111080115 METAR LIRA 080115Z 13015KT 9999 FEW030 17/12 Q1020=
201111080045 METAR LIRA 080045Z 13015G25KT 9999 FEW018 SCT030 17/11 Q1020=
201111080015 METAR LIRA 080015Z 14014KT 9999 FEW018 SCT030 17/11 Q1020=
201111072350 METAR LIRA 080045Z 13015G25KT 9999 FEW018 SCT030 17/11 Q1020=
201111072345 METAR LIRA 072345Z 14015KT 9999 FEW018 SCT030 17/10 Q1020=
201111072315 METAR LIRA 072315Z 14012G22KT 9999 FEW018 SCT030 16/10 Q1020=
201111072245 METAR LIRA 072245Z 13010KT 9999 FEW018 SCT030 16/11 Q1020=
201111072215 METAR LIRA 072215Z 13012KT 9999 FEW018 SCT030 16/12 Q1020=
201111072145 METAR LIRA 072145Z 13012KT 9999 FEW018 SCT030 17/13 Q1019=
201111072115 METAR LIRA 072115Z 13016KT 9999 FEW018 SCT030 17/14 Q1019=
201111072045 METAR LIRA 072045Z 14019KT 9999 FEW018 SCT030 17/13 Q1019=
201111072015 METAR LIRA 072015Z 14014KT 9999 SCT012 FEW015CB BKN030 16/13
                        Q1019=
201111071945 METAR LIRA 071945Z 12014KT 9999 SCT012 FEW015CB BKN030 17/14
                        Q1019=
201111071915 METAR LIRA 071915Z 13012KT 9999 SCT012 FEW015CB BKN030 16/14
                        Q1018=
201111071845 METAR LIRA 071845Z 12013KT 9999 SCT012 FEW015CB BKN030 17/14
                        Q1018=
201111071815 METAR LIRA 071815Z 14012KT 9999 SCT012 FEW015CB BKN030 16/15
                        Q1018=
201111071745 METAR LIRA 071745Z 14012KT 9999 -RA SCT012 FEW015CB BKN030
                        16/15 Q1018=
201111071715 METAR LIRA 071715Z 14015KT 9999 -RA SCT008 FEW017CB SCT070
                        16/14 Q1018=
201111071645 METAR LIRA 071645Z 14016KT 9999 SCT008 FEW017CB SCT070 17/14
                        Q1018=
201111071615 METAR LIRA 071615Z 13013KT 9999 SCT008 FEW017CB SCT025 17/15
                        Q1017=
201111071545 METAR LIRA 071545Z 15012KT 9999 SCT008 FEW017CB SCT025 17/16
                        Q1017=
201111071515 METAR LIRA 071515Z 15013KT 9999 SCT014 FEW017CB SCT025 18/16
                        Q1017=
201111071445 METAR LIRA 071445Z 15013KT 9999 FEW015 FEW017CB SCT070 18/16
                        Q1017=
201111071415 METAR LIRA 071415Z 16014KT 9999 FEW016 FEW018CB SCT070 18/16
                        Q1017=
201111071345 METAR LIRA 071345Z 15013KT 9999 FEW016 FEW018CB SCT070 18/16
                        Q1017=
201111071315 METAR LIRA 071315Z 15002KT 9999 -RA SCT016 FEW018CB SCT070
                        16/15 Q1017 RERA=
201111071245 METAR LIRA 071245Z 23009G19KT 170V260 9999 -RA SCT016 FEW018CB
                        SCT070 16/15 Q1017 RERA=
201111071215 METAR LIRA 071215Z 14015KT 9999 SCT016 FEW018CB SCT080 18/13
                        Q1017=
201111071145 METAR LIRA 071145Z 14014G24KT 9999 FEW016 FEW020CB SCT080
                        20/13 Q1017=
201111071115 METAR LIRA 071115Z 13013KT 110V170 9999 FEW016 FEW020TCU
                        SCT080 19/11 Q1017=
201111071045 METAR LIRA 071045Z 14014KT 9999 FEW016 FEW020TCU SCT080 19/12
                        Q1017=
201111071015 METAR LIRA 071015Z 14016KT 9999 FEW016 FEW020CB SCT080 18/13
                        Q1017=
201111070945 METAR LIRA 070945Z 15012KT 9999 FEW016 FEW020CB SCT030 19/13
                        Q1017=
201111070915 METAR LIRA 070915Z 13013KT 100V160 9999 FEW016 FEW020CB SCT030
                        18/12 Q1017=
201111070845 METAR LIRA 070845Z 13014KT 9999 FEW016 FEW020CB SCT030 16/12
                        Q1017=
201111070815 METAR LIRA 070815Z 14009KT 9999 FEW016 FEW020CB SCT030 15/12
                        Q1016=
201111070745 METAR LIRA 070745Z 13012KT 9999 FEW016 FEW020CB SCT030 15/12
                        Q1016=
201111070715 METAR LIRA 070715Z 14012KT 9999 FEW016 FEW020CB SCT030 15/12
                        Q1016=
201111070645 METAR LIRA 070645Z 14012KT 9999 FEW016 FEW020CB SCT030 15/12
                        Q1016=
201111070615 METAR LIRA 070615Z 13013KT 9999 FEW016 FEW020CB SCT030 14/13
                        Q1015=
201111070545 METAR LIRA 070545Z 14010KT 9999 FEW016 FEW020CB SCT030 14/13
                        Q1015 RETS=
201111070515 METAR LIRA 070515Z 14009KT 9999 FEW016 FEW020CB SCT025 14/13
                        Q1015 RETS=
201111070445 METAR LIRA 070445Z 14011KT 8000 TSRA FEW016CB BKN025 13/13
                        Q1015 RERA=
201111070415 METAR LIRA 070415Z 14009KT 8000 TSRA FEW016CB BKN025 12/12
                        Q1015 RERA=
201111070345 METAR LIRA 070345Z 06003KT 8000 +RA FEW016CB BKN025 12/12
                        Q1015 RETS=
201111070315 METAR LIRA 070315Z 14003KT 8000 RA FEW016CB BKN025 12/12
                        Q1015 RETS=
201111070245 METAR LIRA 070245Z 15008KT 8000 -TSRA FEW016CB BKN030 13/11
                        Q1015=
201111070215 METAR LIRA 070215Z 14006KT 9999 -RA FEW016 BKN040 13/11 Q1014=
201111070145 METAR LIRA 070145Z 15007KT 9999 FEW016 BKN040 13/11 Q1014=
201111070115 METAR LIRA 070115Z 15013KT 120V200 9999 FEW016TCU SCT020
                        13/10 Q1014=
201111070045 METAR LIRA 070045Z 09001KT 9999 FEW016TCU SCT060 12/11 Q1014
                        RETS=
201111070015 METAR LIRA 070015Z 11007KT 9999 -RA FEW016CB SCT030 12/11
                        Q1014 RETS=
201111062350 METAR LIRA 070045Z 09001KT 9999 FEW016TCU SCT060 12/11 Q1014
                        RETS=
201111062345 METAR LIRA 062345Z 14010KT 9999 -TSRA FEW016CB SCT030 13/12
                        Q1014=
201111062315 METAR LIRA 062315Z 15014KT 9999 -TSRA FEW016CB SCT025 13/12
                        Q1014=
201111062245 METAR LIRA 062245Z 20015G25KT 7000 RA FEW016CB BKN022 13/10
                        Q1013=
201111062215 METAR LIRA 062215Z 11006KT 9999 FEW016CB BKN050 12/10 Q1013=
201111062145 METAR LIRA 062145Z 06005KT 9999 FEW016TCU BKN060 12/09 Q1013=
201111062115 METAR LIRA 062115Z 36004KT 9999 FEW016TCU BKN060 11/10 Q1013=
201111062045 METAR LIRA 062045Z 09004KT 9999 FEW016 SCT060 12/10 Q1013=
201111062015 METAR LIRA 062015Z 00000KT 9999 FEW016 SCT060 11/10 Q1013=
201111061945 METAR LIRA 061945Z 13003KT 9999 FEW016 SCT060 11/09 Q1013=
201111061915 METAR LIRA 061915Z 04002KT 9999 FEW015TCU SCT030 12/10 Q1013=
201111061845 METAR LIRA 061845Z 03005KT 9999 FEW015TCU SCT030 11/10 Q1013=
201111061815 METAR LIRA 061815Z 07008KT 9999 -RA FEW015CB SCT030 12/12
                        Q1013=
201111061745 METAR LIRA 061745Z 06008KT 9999 -RA FEW014 FEW015CB SCT030
                        11/11 Q1013=
201111061715 METAR LIRA 061715Z 06006KT 9999 -RA FEW015 FEW018CB SCT030
                        11/11 Q1013=
201111061645 METAR LIRA 061645Z 07003KT 8000 -RA FEW015 FEW018CB BKN025
                        11/11 Q1013=
201111061615 METAR LIRA 061615Z 17006KT 4000 -TSRA FEW004 SCT018CB BKN025
                        11/11 Q1013=
201111061545 METAR LIRA 061545Z 19014G27KT 4000 -TSRA FEW004 SCT013 FEW018CB
                        15/11 Q1011=
201111061515 METAR LIRA 061515Z 07004KT 9999 FEW020 SCT030 15/11 Q1011=
201111061445 METAR LIRA 061445Z 05006KT 010V080 9999 FEW020 SCT030 15/11
                        Q1011=
201111061415 METAR LIRA 061415Z 06008KT 9999 FEW020 SCT030 16/12 Q1011=
201111061345 METAR LIRA 061345Z 02002KT 9999 FEW020 FEW022TCU BKN030 16/11
                        Q1011=
201111061315 METAR LIRA 061315Z 07002KT 9999 SCT020 FEW022CB BKN030 16/10
                        Q1011=
201111061245 METAR LIRA 061245Z 29012G22KT 270V340 9999 SCT020 FEW022CB
                        BKN030 16/10 Q1011=
201111061215 METAR LIRA 061215Z 26003KT 9999 FEW020 FEW022CB SCT030 19/13
                        Q1010=
201111061145 METAR LIRA 061145Z 18007KT 150V220 9999 FEW020 FEW022TCU
                        SCT030 20/13 Q1010=
201111061115 METAR LIRA 061115Z 20006KT 9999 FEW020 SCT070 20/13 Q1010=
201111061045 METAR LIRA 061045Z 28006KT 180V240 9999 FEW020 SCT070 20/13
                        Q1010=
201111061015 METAR LIRA 061015Z 21004KT 9999 FEW020 SCT070 19/13 Q1010=
201111060945 METAR LIRA 060945Z 18007KT 9999 FEW020 SCT070 18/13 Q1009=
201111060915 METAR LIRA 060915Z 14009KT 9999 FEW020 SCT070 18/12 Q1009=
201111060845 METAR LIRA 060845Z 15009KT 9999 FEW020 SCT070 17/13 Q1010=
201111060815 METAR LIRA 060815Z 15007KT 9999 FEW018 FEW020CB SCT070 16/12
                        Q1009=
201111060745 METAR LIRA 060745Z 15007KT 9999 FEW016 SCT030 14/12 Q1009=
201111060715 METAR LIRA 060715Z 11004KT 9999 FEW016 SCT030 13/11 Q1009=
201111060645 METAR LIRA 060645Z 11007KT 9999 FEW016 FEW020CB SCT030 13/11
                        Q1009=
201111060615 METAR LIRA 060615Z 11008KT 9999 FEW016 FEW020CB SCT030 13/11
                        Q1009=
201111060545 METAR LIRA 060545Z 10012KT 9999 FEW016 FEW020CB SCT025 13/11
                        Q1009=
201111060515 METAR LIRA 060515Z 08012KT 9999 SCT016 FEW020CB SCT025 13/12
                        Q1008=
201111060445 METAR LIRA 060445Z 09011KT 9999 -RA SCT015 FEW017CB BKN025
                        14/12 Q1007=
201111060415 METAR LIRA 060415Z 16027G39KT 050V200 7000 -RA SCT015 FEW017CB
                        BKN025 16/10 Q1008=
201111060345 METAR LIRA 060345Z 06012G22KT 7000 -RA SCT008 FEW015CB BKN025
                        13/13 Q1008 RERA=
201111060315 METAR LIRA 060315Z 11010KT 6000 RA SCT008 FEW015CB BKN025
                        14/13 Q1009=
201111060245 METAR LIRA 060245Z 14009KT 6000 RA SCT008 FEW015CB BKN025
                        14/13 Q1009 RETS=
201111060215 METAR LIRA 060215Z 14007KT 7000 -RA SCT008 FEW017CB BKN022
                        14/14 Q1009 RETS=
201111060145 METAR LIRA 060145Z 17008KT 120V190 8000 -TSRA SCT008 FEW017CB
                        SCT022 15/15 Q1009=
201111060115 METAR LIRA 060115Z 16010KT 8000 -TSRA SCT008 FEW017CB SCT022
                        15/15 Q1009 RETS=
201111060045 METAR LIRA 060045Z 19009KT 150V210 8000 -TSRA SCT008 FEW017CB
                        SCT022 15/15 Q1008 RETS=
201111060015 METAR LIRA 060015Z 10010KT 8000 -TSRA SCT016 FEW018CB SCT070
                        18/12 Q1007=
201111052350 METAR LIRA 060045Z 19009KT 150V210 8000 -TSRA SCT008 FEW017CB
                        SCT022 15/15 Q1008 RETS=
201111052345 METAR LIRA 052345Z 10013G23KT 9999 FEW022 BKN080 19/13 Q1007=
201111052315 METAR LIRA 052315Z 11014G35KT 090V170 9999 FEW022 SCT080
                        19/13 Q1007=
201111052245 METAR LIRA 052245Z 13019G35KT 9999 FEW022 SCT080 19/13 Q1007=
201111052215 METAR LIRA 052215Z 13020KT 9999 FEW020 SCT080 19/12 Q1008=
201111052145 METAR LIRA 052145Z 12017KT 080V140 9999 FEW020 SCT080 19/12
                        Q1008=
201111052115 METAR LIRA 052115Z 13015KT 090V170 9999 FEW020 SCT080 19/12
                        Q1009=
201111052045 METAR LIRA 052045Z 12014G24KT 050V120 9999 FEW020 SCT070
                        18/12 Q1009=
201111052015 METAR LIRA 052015Z 09004KT 9999 FEW020 SCT030 17/12 Q1009=
201111051945 METAR LIRA 051945Z 11004KT 030V150 9999 FEW020 SCT030 18/12
                        Q1009=
201111051915 METAR LIRA 051915Z 08005KT 060V130 9999 FEW020 SCT030 18/12
                        Q1010=
201111051845 METAR LIRA 051845Z 13012G27KT 9999 FEW020 SCT030 19/12 Q1010=
201111051815 METAR LIRA 051815Z 13011KT 9999 FEW020 SCT030 18/12 Q1010=
201111051745 METAR LIRA 051745Z 11009KT 9999 FEW020 SCT030 18/14 Q1009=
201111051715 METAR LIRA 051715Z 12009G24KT 100V160 9999 FEW020 SCT030
                        19/14 Q1009=
201111051645 METAR LIRA 051645Z 13016G26KT 9999 FEW020 BKN030 19/14 Q1009=
201111051615 METAR LIRA 051615Z 13012KT 9999 FEW018 BKN030 19/14 Q1010=
201111051545 METAR LIRA 051545Z 13010KT 9999 FEW018 BKN030 19/14 Q1010=
201111051515 METAR LIRA 051515Z 12012KT 9999 FEW018 BKN030 19/15 Q1010=
201111051445 METAR LIRA 051445Z 13014KT 9999 FEW018 SCT080 19/15 Q1010=
201111051415 METAR LIRA 051415Z 13013KT 110V170 9999 FEW018 SCT035 19/15
                        Q1011=
201111051345 METAR LIRA 051345Z 14016KT 9999 FEW018 SCT035 BKN080 19/15
                        Q1011=
201111051315 METAR LIRA 051315Z 14014KT 9999 FEW018 SCT035 BKN080 19/15
                        Q1011=
201111051245 METAR LIRA 051245Z 14018KT 9999 FEW018 SCT035 BKN070 19/15
                        Q1011=
201111051215 METAR LIRA 051215Z 14017KT 9999 FEW018 SCT040 BKN070 20/15
                        Q1011=
201111051145 METAR LIRA 051145Z 13017KT 100V160 9999 FEW018 BKN070 21/16
                        Q1012=
201111051115 METAR LIRA 051115Z 13018G32KT 9000 FEW015 SCT030 20/15 Q1012=
201111051045 METAR LIRA 051045Z 11011G24KT 070V150 9000 FEW015 SCT030
                        BKN070 20/15 Q1012=
201111051015 METAR LIRA 051015Z 11011KT 9000 FEW015 SCT025 BKN070 18/16
                        Q1012=
201111050945 METAR LIRA 050945Z 12014KT 8000 -RA FEW016 BKN025 19/16 Q1012=
201111050915 METAR LIRA 050915Z 13015KT 7000 -RA FEW016 BKN025 18/16 Q1013=
201111050845 METAR LIRA 050845Z 13013KT 6000 -RA FEW016 BKN025 18/16 Q1013=
201111050815 METAR LIRA 050815Z 13012KT 6000 -RA FEW016 BKN025 18/16 Q1013=
201111050745 METAR LIRA 050745Z 13014KT 7000 -RA FEW017 BKN030 18/15 Q1013=
201111050715 METAR LIRA 050715Z 13014G26KT 7000 FEW017 BKN030 18/15 Q1012=
201111050645 METAR LIRA 050645Z 13013G26KT 8000 FEW017 SCT030 BKN070 18/15
                        Q1012=
201111050615 METAR LIRA 050615Z 14014G28KT 110V190 8000 FEW018 SCT030
                        BKN070 18/15 Q1012=
201111050545 METAR LIRA 050545Z 14017KT 8000 SCT018 BKN030 17/15 Q1012=
201111050515 METAR LIRA 050515Z 16014KT 9999 FEW018 SCT025 18/15 Q1012=
201111050445 METAR LIRA 050445Z 14012KT 9999 FEW018 BKN070 18/14 Q1012=
201111050415 METAR LIRA 050415Z 13012KT 9999 FEW018 BKN070 18/13 Q1012=
201111050345 METAR LIRA 050345Z 13018KT 9999 FEW018 SCT070 17/13 Q1012=
201111050315 METAR LIRA 050315Z 13014KT 9999 FEW018 SCT070 17/12 Q1012=
201111050245 METAR LIRA 050245Z 14019KT 9999 FEW018 SCT070 18/11 Q1013=
201111050215 METAR LIRA 050215Z 14011KT 9999 FEW018 SCT070 18/12 Q1013=
201111050145 METAR LIRA 050145Z 14009KT 9999 FEW018 SCT070 18/11 Q1013=
201111050115 METAR LIRA 050115Z 13008KT 090V180 9999 FEW018 SCT070 18/11
                        Q1013=
201111050045 METAR LIRA 050045Z 14011KT 080V160 9999 FEW018 SCT070 18/10
                        Q1013=
201111050015 METAR LIRA 050015Z 14011KT 9999 FEW018 SCT070 18/10 Q1014=
201111042350 METAR LIRA 050045Z 14011KT 080V160 9999 FEW018 SCT070 18/10
                        Q1013=
201111042345 METAR LIRA 042345Z 13012KT 9999 FEW018 SCT070 18/09 Q1014=
201111042315 METAR LIRA 042315Z 12009KT 9999 FEW018 SCT070 18/10 Q1014=
201111042245 METAR LIRA 042245Z 14010KT 9999 FEW018 SCT070 18/11 Q1014=
201111042215 METAR LIRA 042215Z 14011KT 9999 FEW018 SCT070 18/10 Q1014=
201111042145 METAR LIRA 042145Z 15012KT 9999 FEW018 SCT070 18/11 Q1014=
201111042115 METAR LIRA 042115Z 15007G23KT 100V180 9999 FEW018 SCT070
                        18/10 Q1014=
201111042045 METAR LIRA 042045Z 15012KT 9999 FEW018 SCT070 18/11 Q1014=
201111042015 METAR LIRA 042015Z 14013KT 9999 FEW018 SCT070 18/10 Q1014=
201111041945 METAR LIRA 041945Z 14011KT 9999 FEW018 18/10 Q1014=
201111041915 METAR LIRA 041915Z 13012KT 9999 FEW018 SCT070 18/10 Q1014=
201111041845 METAR LIRA 041845Z 14012KT 9999 FEW018 SCT070 18/11 Q1014=
201111041815 METAR LIRA 041815Z 12007KT 080V140 9999 FEW018 17/14 Q1014=
201111041745 METAR LIRA 041745Z 16004KT 9999 FEW018 17/15 Q1014=
201111041715 METAR LIRA 041715Z 14009KT 9999 FEW018 18/15 Q1014=
201111041645 METAR LIRA 041645Z 15010KT 9999 FEW018 18/16 Q1014=
201111041615 METAR LIRA 041615Z 16010KT 9999 FEW018 18/16 Q1014=
201111041545 METAR LIRA 041545Z 16010KT 9999 FEW018 19/16 Q1014=
201111041515 METAR LIRA 041515Z 15009KT 9999 FEW018 19/16 Q1014=
201111041445 METAR LIRA 041445Z 14011KT 110V170 9999 FEW018 19/15 Q1014=
201111041415 METAR LIRA 041415Z 14010KT 9999 FEW018 20/15 Q1014=
201111041345 METAR LIRA 041345Z 14012KT 110V170 9999 FEW018 20/15 Q1014=
201111041315 METAR LIRA 041315Z 15013KT 9999 FEW018 20/15 Q1015=
201111041245 METAR LIRA 041245Z 14015KT 9999 FEW018 20/15 Q1015=
201111041215 METAR LIRA 041215Z 15016KT 9999 FEW018 SCT080 20/14 Q1015=
201111041145 METAR LIRA 041145Z 15012KT 9999 FEW018 21/15 Q1015=
201111041115 METAR LIRA 041115Z 14012KT 9999 FEW018 21/16 Q1015=
201111041045 METAR LIRA 041045Z 15014KT 9999 FEW018 SCT030 20/15 Q1015=
201111041015 METAR LIRA 041015Z 14016KT 9999 FEW018 SCT030 20/15 Q1015=
201111040945 METAR LIRA 040945Z 14017KT 9999 FEW018 BKN030 20/16 Q1015=
201111040915 METAR LIRA 040915Z 14016G26KT 9999 FEW018 BKN030 20/16 Q1016=
201111040845 METAR LIRA 040845Z 14015KT 9999 FEW018 BKN030 19/15 Q1015=
201111040815 METAR LIRA 040815Z 16014KT 9999 FEW018 BKN030 18/14 Q1015=
201111040745 METAR LIRA 040745Z 14010KT 9999 FEW018 SCT030 18/15 Q1015=
201111040715 METAR LIRA 040715Z 14013KT 9999 SCT030 17/15 Q1015=
201111040645 METAR LIRA 040645Z 15009KT 9999 SCT030 SCT070 17/13 Q1015=
201111040615 METAR LIRA 040615Z 15003KT 9999 FEW030 SCT070 16/13 Q1015=
201111040545 METAR LIRA 040545Z 15004KT 9999 FEW030 SCT070 16/12 Q1015=
201111040515 METAR LIRA 040515Z 16006KT 9999 SCT070 16/12 Q1015=
201111040445 METAR LIRA 040445Z 14005KT 9999 SCT070 15/11 Q1015=
201111040415 METAR LIRA 040415Z 16003KT 9999 FEW060 15/11 Q1015=
201111040345 METAR LIRA 040345Z 14007KT 9999 FEW060 15/11 Q1015=
201111040315 METAR LIRA 040315Z 18004KT 9999 FEW060 15/09 Q1015=
201111040245 METAR LIRA 040245Z 10003KT 9999 FEW025 SCT060 14/12 Q1015=
201111040215 METAR LIRA 040215Z 13001KT 9999 FEW025 BKN060 14/14 Q1015=
201111040145 METAR LIRA 040145Z 00000KT 9999 SCT025 SCT070 14/13 Q1015=
201111040115 METAR LIRA 040115Z 29001KT 9999 FEW010 SCT025 14/13 Q1015=
201111040045 METAR LIRA 040045Z 00000KT 9999 SCT025 SCT070 14/13 Q1015=
201111040015 METAR LIRA 040015Z 06003KT 9999 SCT025 SCT070 14/13 Q1015=
201111032350 METAR LIRA 040045Z 00000KT 9999 SCT025 SCT070 14/13 Q1015=
201111032345 METAR LIRA 032345Z 00000KT 9999 FEW020 SCT025 14/13 Q1016=
201111032315 METAR LIRA 032315Z 00000KT 9999 SCT025 SCT070 14/13 Q1016=
201111032245 METAR LIRA 032245Z 00000KT 9999 SCT025 SCT070 14/13 Q1016=
201111032215 METAR LIRA 032215Z 08001KT 9999 SCT025 SCT070 14/13 Q1016=
201111032145 METAR LIRA 032145Z 03001KT 9999 FEW020 SCT025 BKN070 15/13
                        Q1016=
201111032115 METAR LIRA 032115Z 03001KT 9999 SCT025 SCT070 15/13 Q1016=
201111032045 METAR LIRA 032045Z 00000KT 9999 SCT025 SCT070 15/13 Q1016=
201111032015 METAR LIRA 032015Z 00000KT 9999 SCT025 SCT070 15/13 Q1016=
201111031945 METAR LIRA 031945Z 00000KT CAVOK 15/13 Q1016=
201111031915 METAR LIRA 031915Z 14006KT CAVOK 15/14 Q1016=
201111031845 METAR LIRA 031845Z 13008KT CAVOK 15/14 Q1016=
201111031815 METAR LIRA 031815Z 15006KT CAVOK 16/14 Q1016=
201111031745 METAR LIRA 031745Z 17006KT 9999 FEW070 16/15 Q1016=
201111031715 METAR LIRA 031715Z 17005KT 9999 FEW070 16/15 Q1016=
201111031645 METAR LIRA 031645Z 16006KT 9999 FEW020 SCT200 16/14 Q1016=
201111031615 METAR LIRA 031615Z 16006KT 9999 FEW020 SCT200 17/14 Q1016=
201111031545 METAR LIRA 031545Z 17006KT 9999 FEW020 SCT200 17/13 Q1016=
201111031515 METAR LIRA 031515Z 17007KT 9999 FEW020 18/12 Q1016=
201111031445 METAR LIRA 031445Z 19007KT 9999 FEW020 18/11 Q1016=
201111031415 METAR LIRA 031415Z 19006KT 150V220 9999 FEW020 19/10 Q1016=
201111031345 METAR LIRA 031345Z 18008KT 9999 FEW020 19/11 Q1016=
201111031315 METAR LIRA 031315Z 20008KT 9999 FEW020 19/10 Q1016=
201111031245 METAR LIRA 031245Z 18009KT 9999 SCT020 19/10 Q1016=
201111031215 METAR LIRA 031215Z 18008KT 9999 SCT020 20/13 Q1016=
201111031145 METAR LIRA 031145Z 14007KT 130V210 9999 SCT020 21/14 Q1016=
201111031115 METAR LIRA 031115Z 14004KT 9999 SCT020 20/13 Q1016=
201111031045 METAR LIRA 031045Z 19003KT 9999 FEW020 19/12 Q1017=
201111031015 METAR LIRA 031015Z 34003KT 9999 FEW023 18/12 Q1017=
201111030945 METAR LIRA 030945Z 35002KT 9999 FEW023 17/12 Q1017=
201111030915 METAR LIRA 030915Z 34002KT 9999 FEW023 16/12 Q1017=
201111030845 METAR LIRA 030845Z 36003KT 9999 FEW030 SCT070 15/12 Q1017=
201111030815 METAR LIRA 030815Z 05003KT 9999 FEW030 SCT070 14/12 Q1017=
201111030745 METAR LIRA 030745Z 03003KT 9999 SCT030 BKN070 13/12 Q1017=
201111030715 METAR LIRA 030715Z 01002KT 9999 SCT030 BKN070 12/11 Q1017=
201111030645 METAR LIRA 030645Z 01002KT 9999 SCT030 BKN070 11/11 Q1017=
201111030615 METAR LIRA 030615Z 01001KT 9999 SCT030 BKN070 11/11 Q1017=
201111030545 METAR LIRA 030545Z 03002KT 9999 SCT030 BKN070 11/11 Q1017=
201111030515 METAR LIRA 030515Z 36002KT 9999 FEW030 SCT070 10/10 Q1017=
201111030445 METAR LIRA 030445Z 06002KT 9999 SCT070 10/10 Q1017=
201111030415 METAR LIRA 030415Z 07002KT 9999 FEW070 10/10 Q1017=
201111030345 METAR LIRA 030345Z 07002KT 9999 FEW070 11/10 Q1017=
201111030315 METAR LIRA 030315Z 05001KT 9999 FEW070 11/11 Q1017=
201111030245 METAR LIRA 030245Z 35002KT 9999 FEW070 11/11 Q1017=
201111030215 METAR LIRA 030215Z 05002KT 9999 FEW060 12/11 Q1017=
201111030145 METAR LIRA 030145Z 04002KT 9999 FEW060 12/11 Q1017=
201111030115 METAR LIRA 030115Z 36002KT 9999 FEW060 12/12 Q1017=
201111030045 METAR LIRA 030045Z 00000KT 9999 FEW060 12/11 Q1017=
201111030015 METAR LIRA 030015Z 10001KT 9999 SCT040 SCT060 13/11 Q1017=
201111022350 METAR LIRA 030045Z 00000KT 9999 FEW060 12/11 Q1017=
201111022345 METAR LIRA 022345Z 05002KT 9999 SCT040 SCT060 13/11 Q1017=
201111022315 METAR LIRA 022315Z 17001KT 9999 SCT040 SCT060 13/12 Q1017=
201111022245 METAR LIRA 022245Z 07001KT 9999 SCT040 SCT060 14/12 Q1017=
201111022215 METAR LIRA 022215Z 10003KT 9999 SCT060 14/13 Q1018=
201111022145 METAR LIRA 022145Z 11003KT 9999 SCT060 14/13 Q1018=
201111022115 METAR LIRA 022115Z 10001KT 9999 BKN060 14/13 Q1018=
201111022045 METAR LIRA 022045Z 00000KT 9999 SCT070 13/12 Q1018=
201111022015 METAR LIRA 022015Z 13002KT 9999 SCT070 14/13 Q1017=
201111021945 METAR LIRA 021945Z 11002KT 9999 FEW070 14/13 Q1017=
201111021915 METAR LIRA 021915Z 13002KT 9999 FEW080 13/11 Q1017=
201111021845 METAR LIRA 021845Z 12002KT 9999 FEW080 14/12 Q1017=
201111021815 METAR LIRA 021815Z 15002KT 9999 FEW080 14/12 Q1017=
201111021745 METAR LIRA 021745Z 20001KT 9999 FEW080 16/13 Q1017=
201111021715 METAR LIRA 021715Z 23002KT CAVOK 16/13 Q1017=
201111021645 METAR LIRA 021645Z 22003KT CAVOK 17/12 Q1017=
201111021615 METAR LIRA 021615Z 18004KT 9999 FEW025 17/12 Q1017=
201111021545 METAR LIRA 021545Z 20003KT 9999 FEW025 18/12 Q1017=
201111021515 METAR LIRA 021515Z 22004KT 9999 FEW018 19/12 Q1017=
201111021445 METAR LIRA 021445Z 21004KT 9999 FEW018 19/12 Q1017=
201111021415 METAR LIRA 021415Z 21004KT 9999 FEW020 20/13 Q1017=
201111021345 METAR LIRA 021345Z 24005KT 9999 SCT020 SCT030 21/13 Q1017=
201111021315 METAR LIRA 021315Z 26003KT 9999 SCT018 20/13 Q1017=
201111021245 METAR LIRA 021245Z 25003KT 9999 SCT018 20/13 Q1017=
201111021215 METAR LIRA 021215Z 31002KT 9999 SCT018 20/13 Q1017=
201111021145 METAR LIRA 021145Z 35002KT 9999 FEW018 19/12 Q1017=
201111021115 METAR LIRA 021115Z 02001KT 9999 FEW024 SCT200 19/12 Q1018=
201111021045 METAR LIRA 021045Z 31003KT 9999 FEW025 18/12 Q1018=
201111021015 METAR LIRA 021015Z 01003KT 9999 FEW030 17/12 Q1018=
201111020945 METAR LIRA 020945Z 02004KT CAVOK 16/12 Q1019=
201111020915 METAR LIRA 020915Z 36004KT CAVOK 15/12 Q1019=
201111020845 METAR LIRA 020845Z 02004KT CAVOK 13/11 Q1019=
201111020815 METAR LIRA 020815Z 02003KT CAVOK 12/10 Q1019=
201111020745 METAR LIRA 020745Z 02004KT CAVOK 11/10 Q1018=
201111020715 METAR LIRA 020715Z 05003KT 9999 FEW020 10/10 Q1018=
201111020645 METAR LIRA 020645Z 04003KT 9999 FEW020 10/10 Q1018=
201111020615 METAR LIRA 020615Z 04002KT CAVOK 09/09 Q1018=
201111020545 METAR LIRA 020545Z 04003KT CAVOK 09/09 Q1018=
201111020515 METAR LIRA 020515Z 05004KT CAVOK 09/09 Q1018=
201111020445 METAR LIRA 020445Z 04003KT CAVOK 09/09 Q1019=
201111020415 METAR LIRA 020415Z 03003KT CAVOK 09/09 Q1019=
201111020345 METAR LIRA 020345Z 05004KT CAVOK 09/09 Q1019=
201111020315 METAR LIRA 020315Z 06004KT CAVOK 09/09 Q1019=
201111020245 METAR LIRA 020245Z 04004KT CAVOK 10/10 Q1019=
201111020215 METAR LIRA 020215Z 03003KT CAVOK 10/10 Q1019=
201111020145 METAR LIRA 020145Z 06004KT CAVOK 11/10 Q1019=
201111020115 METAR LIRA 020115Z 05004KT CAVOK 11/10 Q1019=
201111020045 METAR LIRA 020045Z 05004KT CAVOK 11/11 Q1019=
201111020015 METAR LIRA 020015Z 05003KT CAVOK 11/11 Q1019=
201111012350 METAR LIRA 020045Z 05004KT CAVOK 11/11 Q1019=
201111012345 METAR LIRA 012345Z 04002KT CAVOK 11/11 Q1019=
201111012315 METAR LIRA 012315Z 06002KT CAVOK 12/11 Q1018=
201111012245 METAR LIRA 012245Z 03002KT CAVOK 12/12 Q1018=
201111012215 METAR LIRA 012215Z 03001KT CAVOK 13/11 Q1018=
201111012145 METAR LIRA 012145Z 09001KT CAVOK 13/11 Q1018=
201111012115 METAR LIRA 012115Z 00000KT CAVOK 13/11 Q1018=
201111012045 METAR LIRA 012045Z 00000KT CAVOK 13/11 Q1018=
201111012015 METAR LIRA 012015Z 11001KT CAVOK 14/11 Q1018=
201111011945 METAR LIRA 011945Z 11003KT CAVOK 14/11 Q1018=
201111011915 METAR LIRA 011915Z 10002KT CAVOK 14/12 Q1018=
201111011845 METAR LIRA 011845Z 10004KT CAVOK 15/11 Q1018=
201111011815 METAR LIRA 011815Z 10002KT CAVOK 15/12 Q1018=
201111011745 METAR LIRA 011745Z 08003KT 9999 SCT080 15/12 Q1018=
201111011715 METAR LIRA 011715Z 08003KT 9999 SCT080 16/12 Q1018=
201111011645 METAR LIRA 011645Z 09002KT 9999 SCT080 16/09 Q1018=
201111011615 METAR LIRA 011615Z 03001KT 9999 SCT080 17/10 Q1018=
201111011545 METAR LIRA 011545Z 36003KT 9999 SCT080 18/10 Q1018=
201111011515 METAR LIRA 011515Z 36004KT 9999 SCT080 19/09 Q1018=
201111011445 METAR LIRA 011445Z 33004KT 9999 FEW080 19/09 Q1018=
201111011415 METAR LIRA 011415Z 33003KT 9999 FEW023 20/09 Q1018=
201111011345 METAR LIRA 011345Z 30003KT 9999 FEW023 20/09 Q1018=
201111011315 METAR LIRA 011315Z 29003KT 9999 FEW023 BKN200 20/09 Q1018=
201111011245 METAR LIRA 011245Z 01003KT 9999 FEW023 20/09 Q1018=
201111011215 METAR LIRA 011215Z 01003KT 9999 FEW023 20/10 Q1018=
201111011145 METAR LIRA 011145Z 02002KT 9999 FEW023 19/11 Q1018=
201111011115 METAR LIRA 011115Z 01003KT 9999 FEW023 19/12 Q1018=
201111011045 METAR LIRA 011045Z 03003KT 9999 FEW023 17/12 Q1019=
201111011015 METAR LIRA 011015Z 36003KT 9999 FEW023 17/12 Q1019=
201111010945 METAR LIRA 010945Z 03004KT 9999 FEW023 16/11 Q1019=
201111010915 METAR LIRA 010915Z 02006KT 9999 FEW023 15/11 Q1019=
201111010845 METAR LIRA 010845Z 03005KT 360V060 9999 FEW023 15/12 Q1019=
201111010815 METAR LIRA 010815Z 02004KT 9999 FEW023 14/12 Q1019=
201111010800 METAR LIRA CB ALQUADS AND OVHD LOW CLOUD MVG N=
201111010745 METAR LIRA 010745Z 02004KT 9999 FEW030 12/12 Q1019=
201111010715 METAR LIRA 010715Z 03002KT 9999 FEW030 11/11 Q1019=
201111010645 METAR LIRA 010645Z 01002KT 9999 FEW030 11/10 Q1019=
201111010615 METAR LIRA 010615Z 02004KT 9999 FEW030 10/10 Q1018=
201111010545 METAR LIRA 010545Z 02001KT 9999 FEW030 10/10 Q1018=
201111010515 METAR LIRA 010515Z 05003KT 9999 FEW025 10/10 Q1018=
201111010445 METAR LIRA 010445Z 04004KT 8000 NSC 10/10 Q1018=
201111010415 METAR LIRA 010415Z 03003KT 8000 NSC 10/10 Q1018=
201111010345 METAR LIRA 010345Z 03002KT 8000 NSC 11/11 Q1018=
201111010315 METAR LIRA 010315Z 02003KT 8000 NSC 12/11 Q1018=
201111010245 METAR LIRA 010245Z 03002KT 8000 NSC 12/11 Q1018=
201111010215 METAR LIRA 010215Z 04002KT 9999 SCT080 12/12 Q1019=
201111010145 METAR LIRA 010145Z 04003KT 9999 SCT080 12/12 Q1019=
201111010115 METAR LIRA 010115Z 03001KT 9999 SCT080 13/12 Q1019=
201111010045 METAR LIRA 010045Z 04002KT 9999 SCT070 13/13 Q1019=
201111010015 METAR LIRA 010015Z 04002KT 9999 SCT070 13/13 Q1019=

</pre>

</body>
</html>
