##########################################################
# Query made at 11/10/2014 14:37:07 UTC
# Time interval: from 11/01/2008 00:00  to 12/01/2008 23:59  UTC
##########################################################

##########################################################
# LIRA, Roma / Ciampino (Italy)
# WMO index: 16239
# Latitude 41-47N. Longitude 012-35E. Altitude 129 m.
##########################################################

###################################
#  METAR/SPECI from LIRA
###################################
200812012345 METAR LIRA 012345Z 14007KT 9999 -RA SCT015 BKN030 10/08 Q1011=
200812012315 METAR LIRA 012315Z 18007KT 9999 -RA SCT015 BKN030 10/07 Q1011=
200812012245 METAR LIRA 012245Z 09001KT 9999 -RA FEW018 SCT030 10/07 Q1011=
200812012215 METAR LIRA 012215Z 23002KT 9999 FEW020TCU SCT030 10/07 Q1011=
200812012145 METAR LIRA 012145Z 12004KT 9999 FEW020TCU SCT030 11/06 Q1011=
200812012115 METAR LIRA 012115Z 19002KT 9999 FEW020TCU SCT030 11/06 Q1011
                        WS RWY 15=
200812012045 METAR LIRA 012045Z 30007KT 150V340 9999 FEW020TCU SCT025
                        11/07 Q1011=
200812012015 METAR LIRA 012015Z 16008KT 9999 -RA SCT020 SCT030 10/07 Q1010=
200812011945 METAR LIRA 011945Z 14005KT 9999 SCT030 SCT060 11/08 Q1010=
200812011915 METAR LIRA 011915Z 18004KT 9999 FEW020 SCT035 11/08 Q1010=
200812011845 METAR LIRA 011845Z 19003KT 9999 FEW020 BKN060 10/08 Q1010=
200812011815 METAR LIRA 011815Z 18006KT 9999 FEW020 SCT040 10/08 Q1010=
200812011745 METAR LIRA 011745Z 17005KT 9999 FEW018 11/06 Q1009=
200812011715 METAR LIRA 011715Z 24010KT 200V310 9999 -DZ FEW018TCU SCT020
                        11/07 Q1009=
200812011645 METAR LIRA 011645Z 25009G19KT 200V290 9999 -RA FEW015 FEW018CB
                        FEW020TCU SCT023 13/07 Q1009=
200812011615 METAR LIRA 011615Z 26006KT 210V310 9999 -RA FEW015 FEW018CB
                        FEW020TCU SCT023 14/06 Q1008=
200812011545 METAR LIRA 011545Z 20011KT 170V240 9999 FEW015 FEW018CB FEW020TCU
                        SCT023 13/06 Q1008=
200812011515 METAR LIRA 011515Z 20010KT 170V260 9999 FEW015 FEW018CB FEW020TCU
                        SCT030 13/07 Q1008=
200812011445 METAR LIRA 011445Z 18008KT 9999 FEW015 FEW018CB FEW020TCU
                        SCT030 13/08 Q1008=
200812011415 METAR COR LIRA 011415Z 19007KT 150V230 9999 SCT018 BKN025
                        12/08 Q1008 RETS=
200812011345 METAR LIRA 011345Z 20009KT 160V260 9999 SCT015 FEW020CB SCT025
                        11/07 Q1008 RETS=
200812011315 METAR LIRA 011315Z 22007KT 190V290 9999 TS SCT015 FEW020CB
                        SCT025 14/09 Q1008=
200812011245 METAR LIRA 011245Z 23010KT 8000 -TSRA SCT015 FEW020CB SCT025
                        15/06 Q1008=
200812011215 METAR LIRA 011215Z 20014G25KT 160V240 9999 SCT018 SCT070
                        15/05 Q1008=
200812011145 METAR LIRA 011145Z 22012G22KT 170V280 9999 SCT018 SCT070
                        15/04 Q1008=
200812011115 METAR LIRA 011115Z 22010KT 170V270 9999 SCT018 14/05 Q1008=
200812011045 METAR LIRA 011045Z 22009KT 180V260 9999 SCT018 14/05 Q1008=
200812011015 METAR LIRA 011015Z 21013G25KT 160V250 9999 SCT015 FEW020TCU
                        14/06 Q1008=
200812010945 METAR LIRA 010945Z 22014G29KT 160V260 9999 SCT015 FEW018TCU
                        12/06 Q1008=
200812010915 METAR LIRA 010915Z 22014G25KT 160V260 9999 FEW015 FEW018TCU
                        13/05 Q1007=
200812010845 METAR LIRA 010845Z 23010KT 180V270 9999 FEW015 FEW018TCU
                        13/06 Q1007=
200812010815 METAR LIRA 010815Z 23013G23KT 180V270 9999 SCT015 FEW018TCU
                        SCT023 13/06 Q1007=
200812010745 METAR LIRA 010745Z 22011G21KT 180V270 9999 SCT015 FEW018TCU
                        BKN023 13/07 Q1006=
200812010715 METAR LIRA 010715Z 23008KT 170V270 9999 SCT015 FEW018TCU
                        BKN023 13/07 Q1006=
200812010645 METAR LIRA 010645Z 22012G24KT 170V270 9999 SCT015 FEW018TCU
                        BKN023 13/07 Q1005 RETS=
200812010615 METAR LIRA 010615Z 22009KT 180V270 9999 SCT015 FEW018TCU
                        BKN023 13/07 Q1005 RETS=
200812010545 METAR LIRA 010545Z 23010KT 180V270 9999 TS FEW018 FEW020CB
                        SCT025 14/08 Q1004=
200812010515 METAR LIRA 010515Z 24012G22KT 190V270 9999 TS FEW015 FEW020CB
                        SCT030 14/08 Q1003=
200812010445 METAR LIRA 010445Z 22013G23KT 140V260 9999 SCT015 FEW017TCU
                        SCT028 15/07 Q1003=
200812010415 METAR LIRA 010415Z 20017G32KT 150V240 9999 SCT015 FEW017TCU
                        SCT028 15/07 Q1002=
200812010345 METAR LIRA 010345Z 20022G32KT 160V260 9999 SCT015 FEW017CB
                        SCT025 15/10 Q1002 RETS=
200812010315 METAR LIRA 010315Z 21018G32KT 160V250 9999 SCT015 FEW017CB
                        SCT025 15/10 Q1002 RETS=
200812010245 METAR LIRA 010245Z 21024G40KT 160V240 8000 TS SCT015 FEW017CB
                        SCT025 15/10 Q1002 RETS=
200812010215 METAR LIRA 010215Z 18020G32KT 150V220 8000 -TSRA SCT015 FEW017CB
                        BKN025 15/10 Q1002=
200812010145 METAR LIRA 010145Z 17019KT 8000 SCT015 FEW018TCU SCT028 15/11
                        Q1002=
200812010115 METAR LIRA 010115Z 17022G34KT 140V200 8000 SCT015 FEW018TCU
                        SCT028 15/10 Q1003=
200812010045 METAR LIRA 010045Z 17022G32KT 8000 SCT015 FEW018TCU SCT028
                        14/11 Q1003=
200812010015 METAR LIRA 010015Z 17021KT 8000 SCT015 FEW018CB SCT028 13/11
                        Q1004=
200811302350 METAR LIRA 010045Z 17022G32KT 8000 SCT015 FEW018TCU SCT028
                        14/11 Q1003=
200811302345 METAR LIRA 302345Z 17018G29KT 7000 -RA SCT015 FEW018CB BKN028
                        14/10 Q1004=
200811302315 METAR LIRA 302315Z 17022KT 7000 -RA SCT015 FEW018CB BKN028
                        14/11 Q1005=
200811302245 METAR LIRA 302245Z 17021G32KT 7000 -RA SCT015 FEW018CB BKN070
                        15/10 Q1005=
200811302215 METAR LIRA 302215Z 17017G34KT 7000 SCT015 FEW018CB SCT070
                        15/09 Q1006 WS RWY 15=
200811302145 METAR LIRA 302145Z 17022G32KT 7000 FEW015 FEW018CB SCT070
                        15/10 Q1006 WS RWY 15=
200811302115 METAR LIRA 302115Z 17021KT 7000 FEW015 FEW018CB SCT070 15/11
                        Q1006=
200811302045 METAR LIRA 302045Z 17021KT 120V200 7000 FEW015 FEW018CB SCT070
                        15/10 Q1006=
200811302015 METAR LIRA 302015Z 17018KT 130V190 7000 FEW015 FEW018CB SCT070
                        15/11 Q1006=
200811301945 METAR LIRA 301945Z 16020KT 130V200 8000 FEW015 FEW018CB SCT070
                        15/10 Q1007=
200811301915 METAR LIRA 301915Z 17017KT 140V210 8000 FEW015 FEW018CB SCT070
                        15/10 Q1007=
200811301845 METAR LIRA 301845Z 17017G29KT 130V200 8000 FEW015 FEW018CB
                        SCT070 15/10 Q1007=
200811301815 METAR LIRA 301815Z 15018KT 120V190 8000 FEW015 FEW018CB SCT070
                        15/11 Q1007=
200811301745 METAR LIRA 301745Z 15020KT 8000 FEW015 FEW018CB SCT070 14/11
                        Q1007=
200811301715 METAR LIRA 301715Z 15019KT 8000 FEW015 FEW018CB SCT070 14/10
                        Q1007=
200811301645 METAR LIRA 301645Z 15018KT 8000 FEW015 FEW018CB SCT028 14/09
                        Q1008 RETS=
200811301615 METAR COR LIRA 301615Z 15019G29KT 100V180 6000 FEW015 FEW018CB
                        SCT025 13/08 Q1008 RETS=
200811301545 METAR LIRA 301545Z 15009KT 6000 -TSRA FEW015 FEW018CB SCT025
                        14/09 Q1008=
200811301515 METAR LIRA 301515Z 16017KT 6000 -TSRA FEW015 FEW018CB SCT025
                        14/09 Q1008=
200811301445 METAR LIRA 301445Z 18010KT 9999 FEW020 SCT070 15/08 Q1009=
200811301415 METAR LIRA 301415Z 18010KT 9999 FEW020 BKN200 15/08 Q1009=
200811301345 METAR LIRA 301345Z 19012KT 9999 FEW020 BKN200 16/08 Q1009=
200811301315 METAR LIRA 301315Z 19008KT 140V240 9999 FEW018 SCT200 16/08
                        Q1009=
200811301245 METAR LIRA 301245Z 20008KT 160V240 9999 FEW018 SCT200 16/09
                        Q1009=
200811301215 METAR LIRA 301215Z 19012KT 150V250 9999 FEW018 SCT200 15/09
                        Q1009=
200811301145 METAR LIRA 301145Z 20012KT 160V240 9999 FEW018 SCT025 14/09
                        Q1009=
200811301115 METAR LIRA 301115Z 19011KT 160V240 9999 FEW018 SCT023 14/09
                        Q1009=
200811301045 METAR LIRA 301045Z 19011KT 150V240 9999 FEW015 FEW018CB SCT070
                        12/09 Q1009=
200811301015 METAR LIRA 301015Z 18012KT 9999 FEW015 FEW018CB BKN090 12/09
                        Q1009 RETS=
200811300945 METAR LIRA 300945Z 18010KT 9999 FEW015 FEW018CB BKN070 11/10
                        Q1009 RETS=
200811300915 METAR LIRA 300915Z 16018KT 120V210 6000 -TSRA FEW015 FEW018CB
                        BKN023 11/10 Q1008=
200811300845 METAR LIRA 300845Z 18004KT 8000 -TSRA SCT015 FEW018CB BKN023
                        11/09 Q1008=
200811300815 METAR LIRA 300815Z 18004KT 9999 SCT015 FEW020CB SCT023 BKN080
                        10/09 Q1008=
200811300745 METAR LIRA 300745Z 19004KT 9999 SCT015 FEW018CB BKN023 09/08
                        Q1008 RETS=
200811300715 METAR LIRA 300715Z 14008KT 9999 FEW015 FEW018CB BKN025 09/08
                        Q1008 RETS=
200811300645 METAR LIRA 300645Z 11002KT 6000 -TSRA FEW010 SCT015 FEW018CB
                        07/07 Q1008=
200811300615 METAR LIRA 300615Z 15008KT 090V180 6000 -TSRA FEW010 SCT015
                        SCT018CB 08/08 Q1007=
200811300545 METAR LIRA 300545Z 17009KT 6000 TSRA SCT015 SCT018CB BKN025
                        09/07 Q1007=
200811300515 METAR LIRA 300515Z 19010KT 6000 TSRA SCT015 SCT018CB BKN025
                        14/11 Q1007=
200811300445 METAR LIRA 300445Z 17019G29KT 140V210 7000 -TSRA SCT015 SCT017CB
                        BKN025 14/10 Q1006=
200811300415 METAR LIRA 300415Z 17020G35KT 130V220 9999 TS SCT015 SCT018CB
                        14/10 Q1005=
200811300345 METAR LIRA 300345Z 17021G31KT 9999 TS SCT015 FEW018CB SCT025
                        14/09 Q1006=
200811300315 METAR LIRA 300315Z 17020KT 9999 SCT015 FEW018CB SCT025 14/09
                        Q1006=
200811300245 METAR LIRA 300245Z 17019G32KT 9999 SCT015 FEW018CB SCT025
                        14/09 Q1007=
200811300215 METAR LIRA 300215Z 17017KT 120V190 9999 SCT015 FEW018CB SCT025
                        14/08 Q1007=
200811300145 METAR LIRA 300145Z 17015KT 9999 SCT015 FEW018CB SCT025 14/09
                        Q1008=
200811300115 METAR LIRA 300115Z 17013KT 9999 SCT015 FEW018CB SCT025 14/09
                        Q1008=
200811300045 METAR LIRA 300045Z 17016KT 9999 SCT015 FEW018CB SCT025 14/09
                        Q1008=
200811300015 METAR LIRA 300015Z 19013G23KT 160V230 9999 SCT015 FEW017TCU
                        SCT025 14/09 Q1008=
200811292345 METAR LIRA 292345Z 19011KT 150V230 9999 SCT015 FEW017TCU
                        SCT025 15/10 Q1008=
200811292315 METAR LIRA 292315Z 19013KT 8000 -RA SCT015 FEW017TCU SCT025
                        14/10 Q1008=
200811292245 METAR LIRA 292245Z 19013KT 160V240 9999 SCT015 FEW017TCU
                        14/10 Q1008=
200811292215 METAR LIRA 292215Z 19013KT 150V240 9999 SCT015 FEW017TCU
                        13/10 Q1008=
200811292145 METAR LIRA 292145Z 19011KT 9999 SCT015 FEW017TCU 14/11 Q1008=
200811292115 METAR LIRA 292115Z 18012KT 150V210 9999 SCT015 FEW017TCU
                        14/11 Q1008=
200811292045 METAR LIRA 292045Z 18014KT 130V210 9999 SCT015 FEW017TCU
                        14/11 Q1008=
200811292015 METAR LIRA 292015Z 17015KT 9999 SCT015 FEW017TCU SCT025 13/10
                        Q1007=
200811291945 METAR LIRA 291945Z 16020G30KT 8000 SCT015 FEW017TCU SCT025
                        13/10 Q1007 RERA=
200811291915 METAR LIRA 291915Z 16014KT 8000 -RA FEW018 FEW020TCU BKN025
                        12/08 Q1007 RERA=
200811291845 METAR LIRA 291845Z 16013KT 140V210 9999 FEW018 SCT070 13/09
                        Q1007=
200811291815 METAR LIRA 291815Z 17011KT 120V190 9999 FEW018 SCT070 13/08
                        Q1007=
200811291745 METAR LIRA 291745Z 15013KT 9999 FEW018 SCT070 13/08 Q1007=
200811291715 METAR LIRA 291715Z 16018KT 9999 FEW020 SCT070 12/08 Q1007=
200811291645 METAR LIRA 291645Z 15007KT 9999 FEW020 12/07 Q1007=
200811291615 METAR LIRA 291615Z 15007KT 9999 FEW020 13/06 Q1007=
200811291545 METAR LIRA 291545Z 18006KT 140V190 9999 FEW020 14/06 Q1007=
200811291015 METAR LIRA 291015Z 14004KT 9000 -RA FEW013 SCT025 BKN070
                        11/10 Q1006=
200811290945 METAR LIRA 290945Z 18003KT 7000 -RA FEW015 BKN025 11/09 Q1006=
200811290915 METAR LIRA 290915Z 19006KT 4000 -RA BR SCT018 SCT025 BKN070
                        12/09 Q1005=
200811290845 METAR LIRA 290845Z 00000KT 8000 -RA FEW018 SCT030 BKN070
                        11/09 Q1004=
200811290815 METAR LIRA 290815Z 00000KT 9999 FEW018 SCT035 BKN070 11/09
                        Q1004=
200811290745 METAR LIRA 290745Z 19004KT 9999 FEW018 BKN070 11/08 Q1003=
200811290715 METAR LIRA 290715Z 18004KT 9999 FEW018 SCT070 12/11 Q1002=
200811290645 METAR LIRA 290645Z 25005KT 210V300 9999 FEW018 SCT070 12/11
                        Q1001=
200811290615 METAR LIRA 290615Z 25008KT 210V280 9999 -RA FEW015 SCT025
                        12/11 Q1000=
200811290545 METAR LIRA 290545Z 20009KT 8000 -RA SCT013 BKN025 11/10 Q0999=
200811290515 METAR LIRA 290515Z 17010KT 8000 -RA SCT013 BKN025 11/09 Q0998=
200811290415 METAR LIRA 290415Z 15009KT 9999 -RA SCT015 BKN025 11/08 Q0998=
200811290345 METAR LIRA 290345Z 16010KT 9999 -RA SCT015 FEW020CB SCT025
                        11/09 Q0998=
200811290315 METAR LIRA 290315Z 16010KT 9999 SCT015 SCT025 11/08 Q0998=
200811290245 METAR LIRA 290245Z 16008KT 9999 FEW015 SCT025 11/08 Q0997=
200811290145 METAR LIRA 290145Z 17010KT 9999 FEW015 SCT025 11/08 Q0997=
200811290045 METAR LIRA 290045Z 16010KT 9999 FEW015 SCT025 11/09 Q0997
                        RERA=
200811282345 METAR LIRA 282345Z 19010G20KT 140V210 6000 -RA FEW015 FEW020CB
                        SCT025 11/10 Q0997=
200811281945 METAR LIRA 281945Z 17020G30KT 150V220 6000 -TSRA SCT015 SCT020CB
                        BKN025 13/11 Q0997=
200811281915 METAR LIRA 281915Z 16009KT 9999 -RA SCT016 FEW020CB SCT025
                        14/10 Q0997=
200811281845 METAR LIRA 281845Z 16010KT 9999 FEW016 FEW020CB SCT025 14/11
                        Q0997=
200811281815 METAR LIRA 281815Z 18011KT 130V210 9999 FEW016 14/12 Q0997=
200811281745 METAR LIRA 281745Z 17011KT 9999 FEW016 FEW020CB SCT030 15/12
                        Q0997 RERA=
200811281715 METAR LIRA 281715Z 16011KT 9999 FEW016 FEW020CB SCT025 15/12
                        Q0997 RERA=
200811281645 METAR LIRA 281645Z 16011KT 9999 -RA FEW016 FEW020CB SCT025
                        14/12 Q0997=
200811281615 METAR LIRA 281615Z 16011KT 9999 -RA FEW016 FEW020CB SCT025
                        13/11 Q0997 RETS=
200811281545 METAR LIRA 281545Z 15012KT 080V210 9999 -RA FEW016 FEW020CB
                        SCT025 13/11 Q0997 RETS=
200811281515 METAR LIRA 281515Z 15007KT 100V180 9999 -TSRA SCT016 FEW020CB
                        BKN023 13/11 Q0998=
200811281445 METAR LIRA 281445Z 03004KT 8000 -TSRA FEW016 FEW020CB BKN025
                        15/11 Q0998 RETS=
200811281415 METAR LIRA 281415Z 06009KT 360V120 8000 -RA FEW016 SCT018CB
                        BKN023 14/10 Q0998 RETS=
200811281345 METAR LIRA 281345Z 15014KT 120V190 5000 -TSRA BR SCT013 SCT018CB
                        BKN023 14/11 Q0998=
200811281315 METAR LIRA 281315Z 15016G27KT 100V190 9999 -RA FEW015 SCT020CB
                        BKN025 14/11 Q0998=
200811281245 METAR LIRA 281245Z 14016KT 090V180 9999 -RA FEW015 FEW020CB
                        SCT025 14/10 Q0998=
200811281215 METAR LIRA 281215Z 12020G34KT 090V170 9999 -RA FEW015 FEW020CB
                        SCT025 13/10 Q0999=
200811281145 METAR LIRA 281145Z 14028G40KT 100V180 9999 -RA FEW015 FEW020CB
                        SCT025 13/11 Q0999 WS RWY 15=
200811281115 METAR LIRA 281115Z 13018KT 070V150 9999 -RA FEW015 FEW020CB
                        SCT025 14/10 Q1000 RERA WS RWY 15=
200811281045 METAR LIRA 281045Z 10016KT 060V130 7000 -RA FEW015 FEW020CB
                        SCT025 15/10 Q1001 RERA=
200811281015 METAR LIRA 281015Z 13028G44KT 3000 RA FEW015 FEW020CB BKN023
                        15/11 Q1001=
200811280945 METAR LIRA 280945Z 14024G41KT 090V180 9999 FEW016 FEW020CB
                        SCT025 BKN070 14/10 Q1002 WS RWY
                        15=
200811280915 METAR LIRA 280915Z 13025G38KT 090V170 9999 -RA FEW016 FEW020CB
                        BKN070 14/10 Q1003 WS RWY 15=
200811280845 METAR LIRA 280845Z 15028G38KT 100V190 9000 -RA FEW016 FEW020CB
                        SCT025 BKN070 16/09 Q1004 RERA=
200811280815 METAR LIRA 280815Z 14024G40KT 090V180 9999 -RA FEW016 SCT025
                        BKN070 15/09 Q1004 RERA=
200811280745 METAR LIRA 280745Z 14020G43KT 7000 RA FEW016 SCT025 BKN070
                        14/07 Q1004 WS RWY 15=
200811280715 METAR LIRA 280715Z 14018G33KT 090V190 9999 -RA FEW016 SCT025
                        BKN070 13/06 Q1004 WS RWY 15=
200811280700 METAR LIRA INTER CB NE/SW=
200811280645 METAR LIRA 280645Z 11004KT 070V170 9999 -RA FEW016 SCT025
                        BKN070 14/05 Q1005=
200811280615 METAR LIRA 280615Z 11014KT 070V140 9999 FEW016 SCT025 BKN080
                        15/06 Q1005=
200811280545 METAR LIRA 280545Z 12015G25KT 9999 FEW016 SCT025 14/06 Q1006=
200811280515 METAR LIRA 280515Z 12014KT 080V170 9999 FEW016 SCT025 15/06
                        Q1006=
200811280445 METAR LIRA 280445Z 13019G29KT 080V160 9999 FEW015 SCT025
                        12/05 Q1007=
200811280415 METAR LIRA 280415Z VRB02KT 060V040 9999 FEW015 SCT025 12/05
                        Q1008=
200811280345 METAR LIRA 280345Z 14017G27KT 040V210 9999 FEW015 SCT025
                        12/05 Q1008=
200811280315 METAR LIRA 280315Z 09011KT 050V130 9999 FEW015 SCT025 11/05
                        Q1009=
200811280245 METAR LIRA 280245Z 08010KT 050V110 9999 FEW015 SCT025 11/05
                        Q1009=
200811280215 METAR LIRA 280215Z 11013KT 060V140 9999 FEW015 SCT025 11/05
                        Q1010=
200811280145 METAR LIRA 280145Z 11015KT 080V140 9999 FEW015 SCT025 11/06
                        Q1011=
200811280115 METAR LIRA 280115Z 10015G25KT 9999 -RA FEW015 SCT025 11/06
                        Q1012=
200811280045 METAR LIRA 280045Z 10011KT 040V150 9999 -RA FEW015 SCT025
                        11/04 Q1012=
200811280015 METAR LIRA 280015Z 06012KT 020V100 9999 -RA FEW015 SCT025
                        10/04 Q1012=
200811272345 METAR LIRA 272345Z 11015KT 9999 FEW015 SCT025 10/03 Q1014=
200811272315 METAR LIRA 272315Z 07009KT 030V090 9999 FEW030 SCT070 11/03
                        Q1014=
200811272245 METAR LIRA 272245Z 07008KT 040V110 9999 FEW030 SCT070 12/05
                        Q1015=
200811272215 METAR LIRA 272215Z 11015KT 080V140 9999 FEW030 SCT070 11/04
                        Q1015=
200811272145 METAR LIRA 272145Z 10008KT 060V130 9999 SCT070 11/04 Q1015=
200811272115 METAR LIRA 272115Z 06008KT 010V090 9999 FEW070 11/04 Q1016=
200811272045 METAR LIRA 272045Z 06009KT 030V110 9999 FEW070 10/04 Q1016=
200811272015 METAR LIRA 272015Z 08009KT 060V120 9999 FEW080 10/04 Q1017=
200811271945 METAR LIRA 271945Z 10008KT 050V120 9999 FEW080 10/04 Q1017=
200811271915 METAR LIRA 271915Z 08007KT CAVOK 10/04 Q1017=
200811271845 METAR LIRA 271845Z 07007KT 030V130 9999 FEW070 10/03 Q1017=
200811271815 METAR LIRA 271815Z 09009KT 9999 FEW070 10/03 Q1018=
200811271745 METAR LIRA 271745Z 09006KT 050V170 9999 FEW070 11/04 Q1018=
200811271715 METAR LIRA 271715Z 07007KT 9999 SCT070 11/03 Q1018=
200811271645 METAR LIRA 271645Z 06005KT 9999 FEW020 BKN070 11/03 Q1019=
200811271615 METAR LIRA 271615Z 12003KT 9999 FEW020 BKN070 12/03 Q1019=
200811271545 METAR LIRA 271545Z 09004KT 9999 FEW020 BKN070 12/03 Q1019=
200811271515 METAR LIRA 271515Z 15004KT 9999 FEW020 SCT070 13/02 Q1020=
200811271445 METAR LIRA 271445Z 00000KT 9999 FEW020 SCT080 14/01 Q1020=
200811271415 METAR LIRA 271415Z 19001KT 9999 SCT080 14/01 Q1020=
200811271345 METAR LIRA 271345Z 19001KT 9999 FEW020 14/02 Q1020=
200811271315 METAR LIRA 271315Z 27001KT 9999 FEW020 SCT080 14/02 Q1021=
200811271245 METAR LIRA 271245Z 00000KT 9999 FEW020 14/03 Q1022=
200811271215 METAR LIRA 271215Z 33003KT 9999 FEW020 SCT200 13/03 Q1022=
200811271145 METAR LIRA 271145Z 35005KT 310V040 9999 FEW020 SCT200 13/03
                        Q1022=
200811271115 METAR LIRA 271115Z 00005KT 9999 FEW020 SCT200 13/03 Q1022=
200811271045 METAR LIRA 271045Z 01004KT 9999 FEW020 SCT200 13/03 Q1023=
200811271015 METAR LIRA 271015Z 04004KT 340V090 9999 FEW020 12/06 Q1019=
200811270945 METAR LIRA 270945Z 02006KT 310V060 9999 FEW020 10/05 Q1023=
200811270915 METAR LIRA 270915Z 02005KT 310V060 9999 FEW020 10/05 Q1022=
200811270845 METAR LIRA 270845Z 02005KT 330V050 9999 FEW020 08/04 Q1022=
200811270815 METAR LIRA 270815Z 00003KT 9999 FEW020 07/03 Q1022=
200811270745 METAR LIRA 270745Z 01002KT 9999 FEW020 05/03 Q1022=
200811270715 METAR LIRA 270715Z 01003KT 010V090 9999 FEW020 04/03 Q1022=
200811270645 METAR LIRA 270645Z 34001KT 9999 FEW070 04/02 Q1022=
200811270615 METAR LIRA 270615Z 02002KT 9999 FEW070 04/02 Q1022=
200811270545 METAR LIRA 270545Z 02002KT 9999 FEW070 04/02 Q1022=
200811270515 METAR LIRA 270515Z 04002KT 9999 FEW070 04/02 Q1022=
200811270445 METAR LIRA 270445Z 36002KT 9999 FEW070 04/03 Q1022=
200811270415 METAR LIRA 270415Z 01003KT 9999 FEW070 04/03 Q1022=
200811270345 METAR LIRA 270345Z 03004KT 9999 FEW070 05/03 Q1022=
200811270315 METAR LIRA 270315Z 02002KT 9999 SCT070 05/04 Q1022=
200811270245 METAR LIRA 270245Z 03003KT 9999 SCT070 05/04 Q1022=
200811270215 METAR LIRA 270215Z 03003KT 9999 SCT073 05/04 Q1022=
200811270145 METAR LIRA 270145Z 00002KT 9999 SCT070 05/04 Q1022=
200811270115 METAR LIRA 270115Z 07004KT 9999 SCT070 06/04 Q1022=
200811270045 METAR LIRA 270045Z 06003KT 9999 SCT070 06/04 Q1022=
200811270015 METAR LIRA 270015Z 36003KT 9999 SCT070 06/05 Q1022=
200811262345 METAR LIRA 262345Z 03003KT 9999 SCT070 06/05 Q1022=
200811262315 METAR LIRA 262315Z 36003KT 9999 FEW030 SCT070 07/05 Q1022=
200811262245 METAR LIRA 262245Z 32004KT 9999 SCT070 07/05 Q1022=
200811262215 METAR LIRA 262215Z 04001KT 9999 SCT070 07/05 Q1021=
200811262145 METAR LIRA 262145Z 03005KT 340V060 9999 FEW070 07/05 Q1021=
200811262115 METAR LIRA 262115Z 05002KT 9999 FEW010 07/05 Q1021=
200811262045 METAR LIRA 262045Z 04003KT 9999 FEW010 07/04 Q1021=
200811262015 METAR LIRA 262015Z 06002KT 9999 FEW010 07/04 Q1021=
200811261945 METAR LIRA 261945Z 00000KT 9999 FEW070 08/06 Q1020=
200811261915 METAR LIRA 261915Z 00000KT 9999 FEW070 09/06 Q1020=
200811261845 METAR LIRA 261845Z 26002KT 9999 FEW020 SCT070 09/06 Q1020=
200811261815 METAR LIRA 261815Z 09003KT 9999 FEW020 SCT070 10/06 Q1019=
200811261745 METAR LIRA 261745Z 10003KT 9999 FEW015CB SCT025 10/06 Q1019=
200811261715 METAR LIRA 261715Z 12003KT 9999 FEW016 FEW018CB SCT030 11/06
                        Q1019=
200811261645 METAR LIRA 261645Z 18004KT 9999 FEW016 FEW018CB SCT030 11/06
                        Q1018=
200811261615 METAR LIRA 261615Z 18004KT 9999 FEW016 FEW018CB SCT030 11/06
                        Q1018=
200811261545 METAR LIRA 261545Z 19006KT 9999 FEW016 FEW018CB SCT030 12/07
                        Q1017=
200811261515 METAR LIRA 261515Z 19007KT 9999 FEW018 FEW020TCU SCT030 12/07
                        Q1017=
200811261445 METAR LIRA 261445Z 19003KT 9999 FEW018 FEW020TCU SCT030 14/07
                        Q1017=
200811261415 METAR LIRA 261415Z 33001KT 9999 FEW018 FEW020TCU SCT030 14/07
                        Q1017=
200811261345 METAR LIRA 261345Z 31004KT 9999 FEW018 FEW020TCU 14/07 Q1017=
200811261315 METAR LIRA 261315Z 00000KT 9999 FEW018 FEW020TCU 13/07 Q1017=
200811261245 METAR LIRA 261245Z 26003KT 9999 FEW016 FEW020TCU 13/06 Q1017=
200811261215 METAR LIRA 261215Z 30003KT 9999 SCT016 13/07 Q1016=
200811261145 METAR LIRA 261145Z 00000KT 9999 FEW016 11/08 Q1016=
200811261115 METAR LIRA 261115Z 00000KT 9999 FEW016 10/08 Q1017=
200811261045 METAR LIRA 261045Z 01002KT 9999 FEW016 09/07 Q1016=
200811261015 METAR LIRA 261015Z 09003KT 8000 FEW016 SCT035 08/07 Q1017=
200811260945 METAR LIRA 260945Z 05004KT 7000 FEW016 SCT030 06/05 Q1017=
200811260915 METAR LIRA 260915Z 01003KT 8000 FEW020 SCT030 06/05 Q1016=
200811260845 METAR LIRA 260845Z 03003KT 8000 FEW020 06/05 Q1016=
200811260815 METAR LIRA 260815Z 02003KT 6000 FEW010 FEW020CB SCT200 05/05
                        Q1016=
200811260745 METAR LIRA 260745Z 04003KT 5000 1700S BR FEW007 FEW020CB
                        SCT200 05/04 Q1015=
200811260715 METAR LIRA 260715Z 06001KT 4000 0900S R15//// FG FEW001 FEW020CB
                        04/03 Q1014=
200811260645 METAR LIRA 260645Z 07002KT 4000 0600S R15//// FG SCT001 FEW020CB
                        04/03 Q1014=
200811260615 METAR LIRA 260615Z 04002KT 3000 0800S R15//// FG BKN001 FEW020CB
                        05/04 Q1014=
200811260545 METAR LIRA 260545Z 03003KT 0900 R15//// FG SCT001 05/04 Q1014=
200811260515 METAR LIRA 260515Z 06005KT 020V100 0800 R15//// FG BKN001
                        04/03 Q1013=
200811260445 METAR LIRA 260445Z 06005KT 0200 R15//// FG BKN001 04/03 Q1013=
200811260415 METAR LIRA 260415Z 07004KT 2500 BR SCT005 05/04 Q1013=
200811260345 METAR LIRA 260345Z 07002KT 5000 BR FEW006 05/05 Q1012=
200811260315 METAR LIRA 260315Z 03001KT 9999 FEW070 06/05 Q1012=
200811260245 METAR LIRA 260245Z 03002KT 9999 FEW080 06/05 Q1012=
200811260215 METAR LIRA 260215Z 03003KT 8000 FEW020 SCT070 06/06 Q1012=
200811260145 METAR LIRA 260145Z 03004KT 8000 FEW020 SCT070 07/06 Q1012=
200811260115 METAR LIRA 260115Z 04004KT 8000 FEW020 SCT080 07/06 Q1012=
200811260045 METAR LIRA 260045Z 06004KT 8000 FEW020 SCT080 07/07 Q1011=
200811260015 METAR LIRA 260015Z 05004KT 8000 FEW020 SCT080 08/07 Q1011=
200811252350 METAR LIRA 260045Z 06004KT 8000 FEW020 SCT080 07/07 Q1011=
200811252345 METAR LIRA 252345Z 04003KT 8000 FEW020 SCT080 08/07 Q1010=
200811252315 METAR LIRA 252315Z 07003KT 8000 FEW020 SCT080 08/08 Q1010=
200811252245 METAR LIRA 252245Z 00000KT 8000 FEW017 SCT080 09/08 Q1010=
200811252215 METAR LIRA 252215Z 00000KT 8000 FEW017 SCT070 09/08 Q1009=
200811252145 METAR LIRA 252145Z 00000KT 8000 SCT012 SCT080 09/08 Q1009=
200811252115 METAR LIRA 252115Z 36002KT 8000 SCT012 SCT080 09/08 Q1009=
200811252045 METAR LIRA 252045Z 05004KT 8000 SCT012 SCT080 09/08 Q1008=
200811252015 METAR LIRA 252015Z 05007KT 010V090 8000 SCT012 SCT025 09/07
                        Q1007=
200811251945 METAR LIRA 251945Z 36003KT 270V080 8000 SCT012 FEW017CB SCT025
                        09/07 Q1007 RETS=
200811251915 METAR LIRA 251915Z 15012KT 8000 SCT012 FEW015CB BKN025 10/08
                        Q1006 RETS=
200811251845 METAR LIRA 251845Z 21005KT 7000 -TSRA SCT006 FEW015CB BKN022
                        10/08 Q1006=
200811251815 METAR LIRA 251815Z 34003KT 7000 -TSRA SCT016 FEW017CB BKN025
                        10/07 Q1005=
200811251745 METAR LIRA 251745Z 16004KT 9999 -RA FEW016 FEW017CB BKN030
                        11/06 Q1004=
200811251715 METAR LIRA 251715Z 18007KT 9999 -RA FEW016 FEW017CB BKN030
                        10/07 Q1003=
200811251645 METAR LIRA 251645Z 19002KT 9999 FEW016 BKN025 12/08 Q1003=
200811251615 METAR LIRA 251615Z 19003KT 9999 FEW016 BKN025 12/08 Q1002=
200811251545 METAR LIRA 251545Z 20002KT 9999 FEW016 SCT023 BKN080 12/08
                        Q1002=
200811251515 METAR LIRA 251515Z 16006KT 130V220 9999 FEW016 SCT025 BKN080
                        12/08 Q1002=
200811251445 METAR LIRA 251445Z 00000KT 9999 FEW016 BKN080 13/10 Q1001=
200811251415 METAR LIRA 251415Z 17002KT 9999 FEW016 BKN080 13/10 Q1001=
200811251345 METAR LIRA 251345Z 16002KT 9999 FEW016 BKN080 13/09 Q1001=
200811251315 METAR LIRA 251315Z 15003KT 9999 FEW018 BKN080 13/09 Q1001=
200811251245 METAR LIRA 251245Z 14002KT 9999 FEW018 BKN080 13/09 Q1000=
200811251215 METAR LIRA 251215Z 10002KT 9999 FEW018 BKN080 13/09 Q1000=
200811251145 METAR LIRA 251145Z 08002KT 9999 FEW018 BKN080 13/08 Q1000=
200811251115 METAR LIRA 251115Z 14004KT 9999 FEW016 BKN080 13/08 Q1000=
200811251045 METAR LIRA 251045Z 10005KT 9999 FEW016 SCT028 12/08 Q1000=
200811251015 METAR LIRA 251015Z 13003KT 9999 SCT016 SCT025 12/08 Q1001=
200811250945 METAR LIRA 250945Z 16002KT 9999 SCT016 SCT025 12/08 Q1001=
200811250915 METAR LIRA 250915Z 20003KT 9999 FEW016 SCT025 12/09 Q1000=
200811250845 METAR LIRA 250845Z 23002KT 9999 FEW016 SCT025 11/09 Q1000=
200811250815 METAR LIRA 250815Z 18005KT 9999 SCT010 SCT025 11/09 Q1000=
200811250745 METAR LIRA 250745Z 18003KT 9999 FEW010 FEW017TCU SCT025 10/08
                        Q0999=
200811250715 METAR LIRA 250715Z 19003KT 9999 FEW010 FEW017TCU SCT025 10/09
                        Q0999=
200811250645 METAR LIRA 250645Z 28001KT 9999 SCT007 SCT023 10/09 Q0998=
200811250615 METAR LIRA 250615Z 19003KT 9999 SCT007 SCT023 10/09 Q0998=
200811250545 METAR LIRA 250545Z 15005KT 9999 SCT010 SCT023 11/10 Q0997=
200811250515 METAR LIRA 250515Z 16005KT 9999 FEW017 SCT070 11/10 Q0997=
200811250445 METAR LIRA 250445Z 17008KT 9999 FEW017 SCT070 11/09 Q0996=
200811250415 METAR LIRA 250415Z 16006KT 8000 FEW015 SCT070 11/09 Q0996=
200811250345 METAR LIRA 250345Z 16006KT 8000 FEW015 SCT070 11/09 Q0996=
200811250315 METAR LIRA 250315Z 17003KT 7000 -RA FEW015 FEW017TCU SCT070
                        11/09 Q0996=
200811250245 METAR LIRA 250245Z 17006KT 7000 -RA FEW015 FEW017TCU BKN070
                        11/10 Q0996=
200811250215 METAR LIRA 250215Z 18005KT 8000 -RA FEW015 FEW017TCU SCT070
                        11/09 Q0996=
200811250145 METAR LIRA 250145Z 20004KT 5000 -RA BR FEW005 FEW016TCU BKN070
                        11/09 Q0996=
200811250115 METAR LIRA 250115Z 13005KT 8000 -RA FEW005 FEW016TCU BKN070
                        11/09 Q0996 RERA=
200811250045 METAR LIRA 250045Z 18012KT 130V210 6000 RA SCT005 FEW016TCU
                        BKN070 11/10 Q0996=
200811250015 METAR LIRA 250015Z 20008G18KT 150V260 6000 -RA SCT005 FEW016TCU
                        BKN070 12/09 Q0996=
200811242345 METAR LIRA 242345Z 17008KT 150V220 8000 -RA FEW012 SCT025
                        BKN070 11/10 Q0996=
200811242315 METAR LIRA 242315Z 19008KT 140V220 8000 -RA FEW012 BKN070
                        11/10 Q0997=
200811242245 METAR LIRA 242245Z 16010KT 130V200 8000 -RA FEW012 SCT025
                        BKN070 11/09 Q0997=
200811242215 METAR LIRA 242215Z 18002KT 8000 -RA FEW018 BKN070 11/09 Q0997=
200811242145 METAR LIRA 242145Z 04005KT 360V180 8000 -RA FEW017 BKN070
                        10/09 Q0997=
200811242115 METAR LIRA 242115Z 16003KT 8000 FEW018 SCT070 10/08 Q0997=
200811242045 METAR LIRA 242045Z 36002KT 8000 FEW017 BKN080 10/08 Q0996=
200811242015 METAR LIRA 242015Z 28004KT 8000 FEW015 SCT070 10/08 Q0996=
200811241945 METAR LIRA 241945Z 18004KT 8000 FEW015 SCT070 09/08 Q0996=
200811241915 METAR LIRA 241915Z 13005KT 7000 FEW008 FEW015CB BKN025 08/07
                        Q0996=
200811241845 METAR LIRA 241845Z 08004KT 7000 -RA SCT010 FEW015CB BKN025
                        08/07 Q1007 RERA=
200811241815 METAR LIRA 241815Z 06005KT 5000 -RA SCT008 FEW015CB BKN025
                        07/07 Q0997=
200811241745 METAR LIRA 241745Z 07003KT 4000 RA BR SCT002 FEW015CB BKN020
                        07/07 Q0997=
200811241715 METAR LIRA 241715Z 05003KT 4000 RA BR SCT002 FEW015CB BKN020
                        08/07 Q0997=
200811241645 METAR LIRA 241645Z 33002KT 4000 RA BR SCT003 FEW015CB BKN022
                        09/09 Q0997=
200811241615 METAR LIRA 241615Z 01009KT 310V090 4000 -RA BR SCT003 FEW015CB
                        BKN023 10/10 Q0996 RETS=
200811241545 METAR LIRA 241545Z 01009KT 310V020 4000 -RA BR SCT003 FEW015CB
                        BKN023 12/11 Q0996 RETS=
200811241515 METAR LIRA 241515Z 23003KT 170V240 4000 -TSRA BR SCT006 SCT015CB
                        BKN023 13/10 Q0996=
200811241445 METAR LIRA 241445Z 23009KT 190V330 2500 -TSRA BR SCT005 SCT015CB
                        BKN023 10/07 Q0996=
200811241415 METAR LIRA 241415Z 20016G27KT 170V240 9999 -RA FEW013 FEW020TCU
                        BKN025 14/10 Q0996=
200811241345 METAR LIRA 241345Z 18015G25KT 150V240 9999 -RA FEW013 FEW020TCU
                        BKN025 13/07 Q0996=
200811241315 METAR LIRA 241315Z 17017G27KT 120V210 9999 FEW016 FEW020CB
                        BKN025 13/07 Q0996=
200811241245 METAR LIRA 241245Z 16019KT 9999 FEW016 FEW020CB BKN025 13/07
                        Q0997=
200811241215 METAR LIRA 241215Z 17019KT 9999 FEW016 BKN025 13/07 Q0998=
200811241145 METAR LIRA 241145Z 16021KT 9999 FEW016 SCT025 12/06 Q0998=
200811241115 METAR LIRA 241115Z 16019KT 130V210 9999 FEW016 BKN025 12/06
                        Q0999=
200811241045 METAR LIRA 241045Z 16019KT 9999 FEW016 SCT025 11/05 Q0999=
200811241015 METAR LIRA 241015Z 15021KT 9999 FEW016 SCT025 11/05 Q1000=
200811240945 METAR LIRA 240945Z 16018KT 9999 FEW016 BKN025 11/04 Q1000=
200811240915 METAR LIRA 240915Z 15009KT 9999 FEW016 BKN025 11/04 Q1001=
200811240845 METAR LIRA 240845Z 16018KT 9999 FEW016 BKN025 11/04 Q1001=
200811240815 METAR LIRA 240815Z 15013KT 9999 FEW016 BKN025 10/04 Q1001=
200811240745 METAR LIRA 240745Z 15014KT 100V180 9999 FEW016 BKN025 10/04
                        Q1002=
200811240715 METAR LIRA 240715Z 15014KT 120V210 9999 FEW016 BKN025 10/04
                        Q1002=
200811240645 METAR LIRA 240645Z 150P99KT 9999 FEW016 BKN025 09/03 Q1002=
200811240615 METAR LIRA 240615Z 15010KT 9999 FEW016 BKN025 08/03 Q1002=
200811240545 METAR LIRA 240545Z 15010KT 9999 FEW016 BKN070 06/02 Q1002=
200811240515 METAR LIRA 240515Z 15010KT 9999 FEW070 05/01 Q1003=
200811240445 METAR LIRA 240445Z 15009KT 9999 FEW070 05/01 Q1003=
200811240415 METAR LIRA 240415Z 15009KT 9999 FEW070 05/01 Q1004=
200811240345 METAR LIRA 240345Z 15007KT CAVOK 04/00 Q1004=
200811240315 METAR LIRA 240315Z 14007KT CAVOK 04/00 Q1004=
200811240245 METAR LIRA 240245Z 16008KT CAVOK 03/M00 Q1005=
200811240215 METAR LIRA 240215Z 15010KT CAVOK 02/M00 Q1005=
200811240145 METAR LIRA 240145Z 00000KT CAVOK 00/M03 Q1006=
200811240115 METAR LIRA 240115Z 33001KT CAVOK 00/M03 Q1007=
200811240045 METAR LIRA 240045Z 00000KT CAVOK 00/M03 Q1007=
200811240015 METAR LIRA 240015Z 35002KT CAVOK 01/M03 Q1007=
200811232345 METAR LIRA 232345Z 16001KT CAVOK 01/M03 Q1008=
200811232315 METAR LIRA 232315Z 04002KT CAVOK 01/M04 Q1008=
200811232245 METAR LIRA 232245Z 07002KT CAVOK 01/M04 Q1008=
200811232215 METAR LIRA 232215Z 00000KT CAVOK 01/M04 Q1008=
200811232145 METAR LIRA 232145Z 17002KT CAVOK 01/M04 Q1008=
200811232115 METAR LIRA 232115Z 12002KT CAVOK 01/M04 Q1008=
200811232045 METAR LIRA 232045Z 07004KT CAVOK 02/M03 Q1008=
200811232015 METAR LIRA 232015Z 00000KT CAVOK 03/M03 Q1008=
200811231945 METAR LIRA 231945Z 15004KT CAVOK 03/M03 Q1008=
200811231915 METAR LIRA 231915Z 16005KT CAVOK 03/M03 Q1008=
200811231845 METAR LIRA 231845Z 13003KT CAVOK 03/M03 Q1008=
200811231815 METAR LIRA 231815Z 17003KT CAVOK 03/M02 Q1008=
200811231745 METAR LIRA 231745Z 10003KT CAVOK 04/M02 Q1008=
200811231715 METAR LIRA 231715Z 09004KT CAVOK 04/M02 Q1008=
200811231645 METAR LIRA 231645Z 06002KT CAVOK 06/M01 Q1007=
200811231615 METAR LIRA 231615Z 06002KT CAVOK 06/M00 Q1007=
200811231545 METAR LIRA 231545Z 09001KT CAVOK 07/01 Q1007=
200811231515 METAR LIRA 231515Z 05003KT 9999 FEW080 06/01 Q1007=
200811231445 METAR LIRA 231445Z 08003KT 9999 FEW080 07/M00 Q1007=
200811231415 METAR LIRA 231415Z 07004KT 9999 FEW040 07/M00 Q1007=
200811231345 METAR LIRA 231345Z 05004KT 9999 FEW040 SCT080 07/M00 Q1007=
200811231315 METAR LIRA 231315Z 03005KT 330V070 9999 FEW040 SCT080 07/M01
                        Q1007=
200811231245 METAR LIRA 231245Z 02005KT 330V070 9999 FEW040 SCT080 06/M00
                        Q1007=
200811231215 METAR LIRA 231215Z 05005KT 350V080 9999 FEW035 SCT080 06/M01
                        Q1007=
200811231145 METAR LIRA 231145Z 04005KT 340V080 9999 FEW035 BKN070 05/M01
                        Q1007=
200811231115 METAR LIRA 231115Z 03005KT 350V080 9999 FEW035 BKN070 05/M01
                        Q1007=
200811231045 METAR LIRA 231045Z 03005KT 340V100 9999 SCT035 BKN070 05/M02
                        Q1007=
200811231015 METAR LIRA 231015Z 04004KT 350V080 9999 SCT035 BKN070 05/M02
                        Q1007=
200811230945 METAR LIRA 230945Z 03006KT 320V070 9999 SCT035 BKN070 05/M01
                        Q1007=
200811230915 METAR LIRA 230915Z 03006KT 330V060 9999 SCT035 BKN070 05/M02
                        Q1007=
200811230845 METAR LIRA 230845Z 03005KT 9999 SCT035 BKN070 04/M02 Q1006=
200811230815 METAR LIRA 230815Z 03004KT 9999 SCT035 BKN070 04/M02 Q1006=
200811230745 METAR LIRA 230745Z 01004KT 9999 FEW035 BKN070 04/M02 Q1006=
200811230715 METAR LIRA 230715Z 02004KT 9999 FEW035 BKN070 04/M02 Q1006=
200811230645 METAR LIRA 230645Z 06004KT 9999 FEW035 BKN070 05/M02 Q1005=
200811230615 METAR LIRA 230615Z 08002KT 9999 SCT035 BKN070 05/M02 Q1005=
200811230545 METAR LIRA 230545Z 04002KT 9999 FEW035 BKN070 04/M04 Q1004=
200811230515 METAR LIRA 230515Z 03003KT 9999 FEW035 BKN070 05/M03 Q1004=
200811230445 METAR LIRA 230445Z 03003KT 340V070 9999 SCT035 SCT060 05/M03
                        Q1004=
200811230415 METAR LIRA 230415Z 35005KT 9999 SCT030 SCT060 05/M03 Q1004=
200811230345 METAR LIRA 230345Z 35003KT 9999 SCT030 SCT070 05/M03 Q1003=
200811230315 METAR LIRA 230315Z 35003KT 9999 BKN030 05/M03 Q1003=
200811230245 METAR LIRA 230245Z 36004KT 9999 BKN030 05/M03 Q1003=
200811230215 METAR LIRA 230215Z 36004KT 9999 SCT030 SCT060 06/M02 Q1003=
200811230145 METAR LIRA 230145Z 01004KT 9999 SCT030 SCT060 06/M01 Q1003=
200811230115 METAR LIRA 230115Z 03004KT 9999 SCT030 SCT060 06/M01 Q1003=
200811230045 METAR LIRA 230045Z 04003KT 9999 SCT030 SCT060 06/M01 Q1003=
200811230015 METAR LIRA 230015Z 36003KT 9999 SCT030 SCT060 06/M02 Q1003=
200811222345 METAR LIRA 222345Z 03002KT 9999 SCT030 SCT060 06/M02 Q1003=
200811222315 METAR LIRA 222315Z 05002KT 9999 SCT040 06/M03 Q1003=
200811222245 METAR LIRA 222245Z 04004KT 010V070 9999 FEW040 07/M04 Q1002=
200811222215 METAR LIRA 222215Z 05004KT 9999 FEW030 08/M04 Q1002=
200811222145 METAR LIRA 222145Z 06005KT 330V060 9999 SCT030 SCT070 08/M04
                        Q1003=
200811222115 METAR LIRA 222115Z 36005KT 330V030 9999 SCT030 SCT070 08/M04
                        Q1002=
200811222045 METAR LIRA 222045Z 35003KT 9999 BKN030 09/M04 Q1002=
200811222015 METAR LIRA 222015Z 36006KT 310V020 9999 SCT030 SCT070 09/M02
                        Q1002=
200811221945 METAR LIRA 221945Z 36006KT 310V020 9999 SCT030 SCT070 09/M02
                        Q1001=
200811221915 METAR LIRA 221915Z 35006KT 300V020 9999 BKN030 09/M01 Q1001=
200811221845 METAR LIRA 221845Z 35003KT 9999 BKN030 09/M01 Q1001=
200811221815 METAR LIRA 221815Z 36002KT 9999 BKN030 09/M01 Q1000=
200811221745 METAR LIRA 221745Z 02002KT 9999 SCT030 SCT060 09/M01 Q1000=
200811221715 METAR LIRA 221715Z 05003KT 9999 FEW020 BKN030 09/M02 Q0999=
200811221645 METAR LIRA 221645Z 06005KT 9999 FEW018 BKN030 09/M04 Q0998=
200811221615 METAR LIRA 221615Z 04003KT 9999 FEW018 BKN030 10/M04 Q0998=
200811221545 METAR LIRA 221545Z 01006KT 330V070 9999 FEW018 BKN030 11/M04
                        Q0998=
200811221515 METAR LIRA 221515Z 01006KT 310V060 9999 FEW020 BKN035 11/M05
                        Q0998=
200811221445 METAR LIRA 221445Z 36009KT 310V040 9999 FEW018 BKN035 11/M06
                        Q0998=
200811221415 METAR LIRA 221415Z 29004KT 9999 FEW018 BKN035 12/M08 Q0998=
200811221345 METAR LIRA 221345Z 32004KT 9999 FEW018 BKN035 12/M08 Q0998=
200811221315 METAR LIRA 221315Z 34006KT 300V020 9999 FEW018 SCT035 12/M04
                        Q0997=
200811221245 METAR LIRA 221245Z 34010KT 300V040 9999 FEW018 SCT035 12/M05
                        Q0997=
200811221215 METAR LIRA 221215Z 34006KT 290V050 9999 FEW018 SCT035 12/M06
                        Q0997=
200811221145 METAR LIRA 221145Z 35009KT 310V020 9999 FEW018 SCT035 12/M05
                        Q0997=
200811221115 METAR LIRA 221115Z 35013KT 310V050 9999 FEW018 SCT030 12/M03
                        Q0997=
200811221045 METAR LIRA 221045Z 36011KT 310V030 9999 FEW018 SCT030 12/M02
                        Q0997=
200811221015 METAR LIRA 221015Z 35008KT 290V020 9999 FEW018 SCT030 12/M02
                        Q0997=
200811220945 METAR LIRA 220945Z 34009KT 290V020 9999 FEW018 SCT030 11/02
                        Q0996=
200811220915 METAR LIRA 220915Z 36009KT 300V050 9999 FEW018 SCT030 11/02
                        Q0996=
200811220845 METAR LIRA 220845Z 01008KT 310V080 9999 FEW018 SCT030 10/02
                        Q0996=
200811220815 METAR LIRA 220815Z 36009KT 310V040 9999 FEW018 BKN030 10/02
                        Q0995=
200811220745 METAR LIRA 220745Z 36009KT 320V050 9999 FEW018 BKN030 10/07
                        Q0995=
200811220715 METAR LIRA 220715Z 36008KT 310V040 9999 FEW018 SCT030 10/07
                        Q0995=
200811220645 METAR LIRA 220645Z 36011KT 310V040 9999 FEW018 SCT030 10/07
                        Q0995 RERA=
200811220615 METAR LIRA 220615Z 36011KT 310V040 9999 FEW018 SCT030 10/08
                        Q0995 RERA=
200811220545 METAR LIRA 220545Z 33008KT 250V330 9999 -RA SCT015 BKN025
                        10/08 Q0995=
200811220515 METAR LIRA 220515Z 33004KT 9999 -RA SCT016 BKN030 09/03 Q0995=
200811220445 METAR LIRA 220445Z 35009KT 310V020 6000 -RA SCT016 BKN030
                        11/05 Q0994 RERA=
200811220415 METAR LIRA 220415Z 36012G24KT 300V050 5000 RA BR SCT016 BKN030
                        13/08 Q0994=
200811220345 METAR LIRA 220345Z 29008KT 250V330 9000 SCT017 BKN030 14/11
                        Q0994=
200811220315 METAR LIRA 220315Z 25005KT 220V300 9000 FEW018 BKN030 14/11
                        Q0994=
200811220245 METAR LIRA 220245Z 28006KT 220V330 9000 -RA FEW018 BKN030
                        13/12 Q0995=
200811220215 METAR LIRA 220215Z 00000KT 8000 -RA FEW018 BKN030 13/12 Q0995=
200811220145 METAR LIRA 220145Z 00000KT 8000 -RA FEW018 BKN030 13/12 Q0995=
200811220115 METAR LIRA 220115Z 00000KT 8000 FEW018 SCT030 13/12 Q0995=
200811220045 METAR LIRA 220045Z 00000KT 7000 FEW017 SCT030 13/13 Q0995=
200811220015 METAR LIRA 220015Z 00000KT 7000 FEW017 BKN030 13/13 Q0995=
200811212345 METAR LIRA 212345Z 16005KT 7000 FEW017 BKN030 13/12 Q0995=
200811212315 METAR LIRA 212315Z 19003KT 7000 SCT017 SCT030 13/13 Q0996=
200811212245 METAR LIRA 212245Z 19003KT 7000 SCT017 SCT030 13/13 Q0996=
200811212215 METAR LIRA 212215Z 19004KT 7000 SCT017 SCT030 14/13 Q0997=
200811212145 METAR LIRA 212145Z 25003KT 7000 -DZ SCT016 BKN025 14/13 Q0997=
200811212115 METAR LIRA 212115Z 19003KT 170V230 6000 -DZ SCT016 BKN025
                        14/13 Q0998=
200811212045 METAR LIRA 212045Z 22006KT 180V270 6000 -DZ SCT016 BKN025
                        14/13 Q0998=
200811212015 METAR LIRA 212015Z 22005KT 190V260 6000 -RA SCT016 BKN025
                        14/13 Q0999=
200811211945 METAR LIRA 211945Z 24008KT 190V290 6000 -RA SCT016 BKN025
                        14/13 Q0999=
200811211915 METAR LIRA 211915Z 23007KT 200V290 6000 -RA SCT016 BKN025
                        14/12 Q1000=
200811211845 METAR LIRA 211845Z 23006KT 180V280 6000 -RA SCT016 BKN025
                        15/12 Q1001=
200811211815 METAR LIRA 211815Z 22007KT 180V260 6000 -DZ SCT016 BKN025
                        15/12 Q1001=
200811211745 METAR LIRA 211745Z 22006KT 140V270 6000 -DZ SCT016 BKN025
                        15/12 Q1002=
200811211715 METAR LIRA 211715Z 21006KT 160V250 6000 -DZ SCT016 BKN030
                        14/12 Q1002=
200811211645 METAR LIRA 211645Z 23007KT 190V260 6000 -DZ SCT016 BKN030
                        14/11 Q1002=
200811211615 METAR LIRA 211615Z 20009KT 160V270 6000 -DZ SCT016 BKN030
                        14/12 Q1002=
200811211545 METAR LIRA 211545Z 22011KT 160V280 6000 -DZ SCT016 BKN030
                        14/12 Q1003=
200811211515 METAR LIRA 211515Z 24011G22KT 180V280 6000 -DZ SCT016 BKN030
                        14/11 Q1004=
200811211445 METAR LIRA 211445Z 23008KT 180V270 6000 -DZ SCT016 BKN030
                        14/11 Q1005=
200811211415 METAR LIRA 211415Z 22008KT 170V260 7000 -RA SCT016 BKN030
                        14/11 Q1005=
200811211345 METAR LIRA 211345Z 23007KT 160V270 7000 SCT016 BKN030 15/11
                        Q1006=
200811211315 METAR LIRA 211315Z 23011KT 180V270 8000 -DZ SCT018 BKN030
                        15/10 Q1007=
200811211245 METAR LIRA 211245Z 24012KT 180V280 8000 -DZ SCT018 BKN030
                        15/10 Q1007=
200811211215 METAR LIRA 211215Z 23011KT 170V280 8000 -RA SCT018 BKN030
                        15/10 Q1008=
200811211145 METAR LIRA 211145Z 23009KT 190V280 8000 SCT018 BKN030 15/10
                        Q1008 WS RWY 15=
200811211115 METAR LIRA 211115Z 23010KT 170V260 9999 -RA FEW018 BKN030
                        15/09 Q1009 WS RWY 15=
200811211045 METAR LIRA 211045Z 23015G25KT 180V280 9999 -RA FEW018 BKN030
                        15/09 Q1010=
200811211015 METAR LIRA 211015Z 21012KT 170V260 9999 FEW018 BKN030 14/09
                        Q1010=
200811210945 METAR LIRA 210945Z 23011KT 160V270 9999 FEW016 BKN030 14/10
                        Q1011=
200811210915 METAR LIRA 210915Z 24012G22KT 190V300 7000 -RA SCT016 BKN030
                        14/08 Q1011=
200811210845 METAR LIRA 210845Z 23010G21KT 9999 FEW016 BKN030 14/08 Q1011=
200811210815 METAR LIRA 210815Z 21012KT 9999 FEW016 BKN030 14/09 Q1011=
200811210745 METAR LIRA 210745Z 22009KT 160V270 9999 FEW016 SCT030 BKN060
                        14/09 Q1012=
200811210715 METAR LIRA 210715Z 20009KT 180V270 9999 FEW016 BKN030 13/11
                        Q1012=
200811210645 METAR LIRA 210645Z 21006KT 170V250 9000 -RA FEW016 BKN030
                        13/12 Q1013=
200811210615 METAR LIRA 210615Z 18006KT 6000 -RA FEW016 BKN030 14/10 Q1013=
200811210545 METAR LIRA 210545Z 23004KT 9999 -DZ FEW018 SCT030 14/09 Q1014=
200811210515 METAR LIRA 210515Z 24006KT 9999 FEW018 BKN070 13/09 Q1014=
200811210445 METAR LIRA 210445Z 23005KT 220V290 9999 -RA SCT018 BKN030
                        14/09 Q1014=
200811210415 METAR LIRA 210415Z 24010KT 170V270 9999 -RA SCT018 BKN030
                        13/10 Q1014=
200811210345 METAR LIRA 210345Z 22005KT 150V270 9999 SCT018 BKN030 13/11
                        Q1014=
200811210315 METAR LIRA 210315Z 20008KT 180V240 9999 SCT018 BKN030 13/10
                        Q1015=
200811210245 METAR LIRA 210245Z 19005KT 9999 SCT018 BKN030 12/10 Q1015=
200811210215 METAR LIRA 210215Z 18005KT 9999 FEW023 SCT070 12/10 Q1015=
200811210145 METAR LIRA 210145Z 18004KT 9999 FEW023 SCT070 13/11 Q1016=
200811210115 METAR LIRA 210115Z 19004KT 9999 FEW023 SCT070 13/11 Q1016=
200811210045 METAR LIRA 210045Z 20005KT 160V260 9999 FEW023 SCT070 13/11
                        Q1017=
200811210015 METAR LIRA 210015Z 20004KT 9999 FEW023 13/11 Q1017=
200811202350 METAR LIRA 210045Z 20005KT 160V260 9999 FEW023 SCT070 13/11
                        Q1017=
200811202345 METAR LIRA 202345Z 18005KT 9999 FEW023 14/11 Q1017=
200811202315 METAR LIRA 202315Z 20005KT 9999 SCT018 13/11 Q1018=
200811202245 METAR LIRA 202245Z 23004KT 9999 SCT018 FEW020TCU 13/11 Q1018=
200811202215 METAR LIRA 202215Z 20005KT 9999 -RA SCT018 FEW020TCU SCT070
                        13/11 Q1018=
200811202145 METAR LIRA 202145Z 16005KT 9999 -RA FEW018 BKN070 12/10 Q1019=
200811202115 METAR LIRA 202115Z 19005KT 9999 -RA FEW018 SCT030 13/10 Q1019=
200811202045 METAR LIRA 202045Z 18005KT 9999 -RA FEW017 SCT030 BKN070
                        13/10 Q1019=
200811202015 METAR LIRA 202015Z 16005KT 9999 FEW018 SCT070 13/10 Q1019=
200811201945 METAR LIRA 201945Z 17004KT 9999 FEW018 SCT070 13/11 Q1019=
200811201915 METAR LIRA 201915Z 18005KT 9999 FEW018 SCT070 13/10 Q1019=
200811201845 METAR LIRA 201845Z 18005KT 9999 FEW018 14/10 Q1019=
200811201815 METAR LIRA 201815Z 19005KT 9999 FEW016 13/10 Q1019=
200811201745 METAR LIRA 201745Z 18004KT 9999 SCT016 FEW018TCU 13/10 Q1019=
200811201715 METAR LIRA 201715Z 16006KT 9999 SCT016 FEW018TCU 13/10 Q1019=
200811201645 METAR LIRA 201645Z 18004KT 9999 FEW016 FEW018TCU 14/10 Q1019=
200811201615 METAR LIRA 201615Z 19004KT 9999 FEW016 FEW018TCU 15/11 Q1019=
200811201545 METAR LIRA 201545Z 22003KT 9999 FEW016 FEW020TCU 16/10 Q1019=
200811201515 METAR LIRA 201515Z 23005KT 9999 FEW016 FEW020TCU 17/10 Q1019=
200811201445 METAR LIRA 201445Z 24006KT 9999 FEW016 FEW020TCU SCT030 16/10
                        Q1019=
200811201415 METAR LIRA 201415Z 25004KT 9999 FEW018 SCT030 17/10 Q1019=
200811201345 METAR LIRA 201345Z 20004KT 9999 FEW018 SCT030 17/10 Q1019=
200811201315 METAR LIRA 201315Z 21002KT 9999 SCT018 17/10 Q1019=
200811201245 METAR LIRA 201245Z 26002KT 9999 SCT018 16/09 Q1019=
200811201215 METAR LIRA 201215Z 26002KT 9999 FEW016 SCT018 17/10 Q1019=
200811201145 METAR LIRA 201145Z 00000KT 9999 FEW016 SCT018 17/10 Q1020=
200811201115 METAR LIRA 201115Z 26003KT 9999 SCT015 FEW018TCU 16/11 Q1020=
200811201045 METAR LIRA 201045Z 00000KT 9000 FEW016 FEW018TCU 15/10 Q1021=
200811201015 METAR LIRA 201015Z 04002KT 9000 FEW016 14/10 Q1021=
200811200945 METAR LIRA 200945Z 04004KT 9000 FEW016 13/09 Q1021=
200811200915 METAR LIRA 200915Z 35003KT 9000 FEW016 14/12 Q1021=
200811200845 METAR LIRA 200845Z 34002KT 9000 FEW016 SCT200 10/08 Q1021=
200811200815 METAR LIRA 200815Z 13003KT 9000 FEW016 SCT035 08/07 Q1021=
200811200745 METAR LIRA 200745Z 06001KT 9000 FEW020 SCT035 07/07 Q1021=
200811200715 METAR LIRA 200715Z 04002KT 9000 FEW070 07/06 Q1021=
200811200645 METAR LIRA 200645Z 01002KT 9000 FEW070 SCT200 07/06 Q1021=
200811200615 METAR LIRA 200615Z 08002KT 9000 FEW020 SCT200 07/06 Q1021=
200811200545 METAR LIRA 200545Z 04002KT 9000 FEW020 07/06 Q1021=
200811200515 METAR LIRA 200515Z 02002KT 8000 FEW020 07/06 Q1020=
200811200445 METAR LIRA 200445Z 02001KT 8000 FEW020 07/06 Q1020=
200811200415 METAR LIRA 200415Z 07002KT 8000 FEW017 08/07 Q1020=
200811200345 METAR LIRA 200345Z 07002KT 8000 FEW017 08/07 Q1020=
200811200315 METAR LIRA 200315Z 01003KT 8000 FEW017 08/08 Q1020=
200811200045 METAR LIRA 200045Z 03003KT 8000 FEW018 SCT070 10/09 Q1020=
200811200015 METAR LIRA 200015Z 12001KT 9999 FEW017 SCT025 10/09 Q1020=
200811192345 METAR LIRA 192345Z 00000KT 9999 FEW017 SCT025 11/09 Q1020=
200811192315 METAR LIRA 192315Z 23001KT 9999 FEW017 SCT025 11/09 Q1020=
200811192245 METAR LIRA 192245Z 35002KT 9999 FEW017 SCT025 11/09 Q1020=
200811192215 METAR LIRA 192215Z 34003KT 9999 FEW017 SCT025 12/09 Q1020=
200811192145 METAR LIRA 192145Z 05002KT 9999 FEW017 SCT025 12/09 Q1020=
200811192115 METAR LIRA 192115Z 00000KT 9999 FEW017 SCT025 12/09 Q1020=
200811192045 METAR LIRA 192045Z 10003KT 9999 FEW017 SCT025 12/10 Q1020=
200811192015 METAR LIRA 192015Z 09003KT 9999 FEW017 SCT025 12/10 Q1020=
200811191945 METAR LIRA 191945Z 07003KT 9999 FEW017 SCT025 12/10 Q1019=
200811191915 METAR LIRA 191915Z 14003KT 9999 FEW017 SCT025 12/10 Q1019=
200811191845 METAR LIRA 191845Z 16006KT 9999 FEW017 SCT025 12/10 Q1019=
200811191815 METAR LIRA 191815Z 17005KT 9999 FEW015 SCT025 12/08 Q1019=
200811191745 METAR LIRA 191745Z 16004KT 9999 FEW015 SCT025 13/08 Q1019=
200811191715 METAR LIRA 191715Z 16003KT 9999 SCT016 FEW020TCU 14/08 Q1018=
200811191645 METAR LIRA 191645Z 18004KT 9999 SCT016 FEW020TCU 14/10 Q1018=
200811191615 METAR LIRA 191615Z 19004KT 9999 SCT018 FEW020CB 14/10 Q1018=
200811191545 METAR LIRA 191545Z 22003KT 9999 SCT016 FEW020CB 15/09 Q1018
                        RERA=
200811191515 METAR LIRA 191515Z 25004KT 9999 -RA SCT016 FEW020CB 15/09
                        Q1018 RERA=
200811191445 METAR LIRA 191445Z 00000KT 9999 SCT016 FEW020TCU 15/09 Q1017=
200811191415 METAR LIRA 191415Z 00000KT 9999 SCT016 FEW020CB 16/08 Q1017=
200811191345 METAR LIRA 191345Z 23003KT 9999 SCT016 FEW020CB 16/09 Q1017=
200811191315 METAR LIRA 191315Z 28003KT 9999 SCT016 FEW020TCU 16/08 Q1017=
200811191245 METAR LIRA 191245Z 19003KT 9999 SCT016 16/08 Q1017=
200811191215 METAR LIRA 191215Z 23005KT 180V290 9999 SCT016 16/08 Q1017=
200811191145 METAR LIRA 191145Z 20004KT 9999 FEW016 14/07 Q1017=
200811191115 METAR LIRA 191115Z 00000KT 9999 FEW016 13/07 Q1017=
200811191045 METAR LIRA 191045Z 35002KT 9999 FEW016 12/07 Q1017=
200811191015 METAR LIRA 191015Z 04003KT 9999 FEW016 11/07 Q1017=
200811190945 METAR LIRA 190945Z 04003KT 9999 FEW016 09/06 Q1017=
200811190915 METAR LIRA 190915Z 04002KT 9999 SCT016 09/05 Q1017=
200811190845 METAR LIRA 190845Z 04004KT 360V090 9999 SCT016 07/05 Q1017=
200811190815 METAR LIRA 190815Z 03003KT 9999 SCT015 07/04 Q1016=
200811190745 METAR LIRA 190745Z 06003KT 9999 SCT015 06/04 Q1016=
200811190715 METAR LIRA 190715Z 03004KT 9999 SCT014 05/03 Q1016=
200811190700 METAR LIRA INTER CBALQUADS=
200811190645 METAR LIRA 190645Z 08002KT 9999 SCT014 06/04 Q1015=
200811190615 METAR LIRA 190615Z 07002KT 9999 SCT014 06/04 Q1015=
200811190545 METAR LIRA 190545Z 04002KT 9999 SCT012 06/04 Q1015=
200811190515 METAR LIRA 190515Z 03003KT 9999 SCT012 06/04 Q1014=
200811190445 METAR LIRA 190445Z 03002KT 9999 SCT018 06/04 Q1014=
200811190415 METAR LIRA 190415Z 00002KT 9999 SCT018 06/04 Q1014=
200811190345 METAR LIRA 190345Z 02003KT 9999 FEW018 07/05 Q1013=
200811190315 METAR LIRA 190315Z 03003KT 9999 SCT018 07/06 Q1014=
200811190245 METAR LIRA 190245Z 02002KT 9999 SCT018 SCT070 07/06 Q1014=
200811190215 METAR LIRA 190215Z 01002KT 9999 SCT018 07/06 Q1014=
200811190145 METAR LIRA 190145Z 02003KT 9999 FEW015 SCT070 07/06 Q1013=
200811190115 METAR LIRA 190115Z 05003KT 9999 FEW015 SCT070 07/06 Q1013=
200811190045 METAR LIRA 190045Z 01002KT 9999 FEW015 SCT070 07/06 Q1013=
200811190015 METAR LIRA 190015Z 01001KT 9999 FEW015 SCT070 07/06 Q1013=
200811182345 METAR LIRA 182345Z 00000KT 9999 FEW015 SCT070 08/06 Q1013=
200811182315 METAR LIRA 182315Z 04002KT 9999 FEW015 08/06 Q1013=
200811182245 METAR LIRA 182245Z 02003KT 9999 FEW015 08/06 Q1013=
200811182215 METAR LIRA 182215Z 10002KT 9999 FEW015 09/06 Q1013=
200811182145 METAR LIRA 182145Z 10002KT 9999 FEW015 09/06 Q1013=
200811182115 METAR LIRA 182115Z 06002KT 9999 FEW015 09/06 Q1013=
200811182045 METAR LIRA 182045Z 11002KT 9999 FEW015 09/07 Q1013=
200811182015 METAR LIRA 182015Z 11002KT 9999 FEW015 10/07 Q1013=
200811181945 METAR LIRA 181945Z 11002KT 9999 FEW015 10/07 Q1012=
200811181915 METAR LIRA 181915Z 09001KT 9999 FEW015 10/07 Q1012=
200811181845 METAR LIRA 181845Z 00000KT 9999 FEW070 10/07 Q1012=
200811181815 METAR LIRA 181815Z 10003KT 9999 FEW020 10/07 Q1012=
200811181745 METAR LIRA 181745Z 10002KT 9999 FEW020 10/07 Q1012=
200811181715 METAR LIRA 181715Z 15004KT 9999 FEW020 10/07 Q1012=
200811181645 METAR LIRA 181645Z 22001KT 9999 SCT018 SCT200 13/06 Q1012=
200811181615 METAR LIRA 181615Z 25002KT 9999 FEW018 BKN200 14/07 Q1012=
200811181545 METAR LIRA 181545Z 20002KT 9999 FEW018 BKN200 14/06 Q1012=
200811181515 METAR LIRA 181515Z 24003KT 9999 FEW018 BKN200 15/07 Q1012=
200811181445 METAR LIRA 181445Z 23003KT 9999 SCT018 SCT200 15/06 Q1012=
200811181415 METAR LIRA 181415Z 26003KT 9999 SCT018 SCT200 15/06 Q1012=
200811181345 METAR LIRA 181345Z 24005KT 170V270 9999 SCT018 SCT200 15/07
                        Q1012=
200811181315 METAR LIRA 181315Z 26002KT 9999 SCT018 SCT200 15/04 Q1012=
200811181245 METAR LIRA 181245Z 20002KT 9999 FEW018 14/04 Q1013=
200811181215 METAR LIRA 181215Z 00000KT 9999 FEW018 14/04 Q1013=
200811181145 METAR LIRA 181145Z 03002KT 9999 FEW018 13/04 Q1013=
200811181115 METAR LIRA 181115Z 04006KT 340V080 9999 FEW018 SCT200 13/04
                        Q1014=
200811181045 METAR LIRA 181045Z 03004KT 330V070 9999 FEW018 SCT200 12/04
                        Q1014=
200811181015 METAR LIRA 181015Z 04008KT 320V080 9999 FEW018 SCT200 11/03
                        Q1014=
200811180945 METAR LIRA 180945Z 03007KT 340V100 9999 FEW018 11/03 Q1015=
200811180915 METAR LIRA 180915Z 03008KT 330V080 9999 FEW018 10/03 Q1015=
200811180845 METAR LIRA 180845Z 02008KT 330V060 9999 FEW018 09/02 Q1015=
200811180815 METAR LIRA 180815Z 03007KT 320V090 9999 FEW018 08/02 Q1014=
200811180745 METAR LIRA 180745Z 01007KT 310V060 9999 FEW018 07/01 Q1015=
200811180715 METAR LIRA 180715Z 01007KT 340V050 9999 FEW018 07/02 Q1014=
200811180645 METAR LIRA 180645Z 02006KT 330V070 9999 FEW018 06/02 Q1014=
200811180615 METAR LIRA 180615Z 02006KT 320V060 9999 FEW070 06/03 Q1014=
200811180545 METAR LIRA 180545Z 03005KT 310V090 9999 FEW070 06/03 Q1014=
200811180515 METAR LIRA 180515Z 03006KT 330V060 CAVOK 06/03 Q1014=
200811180445 METAR LIRA 180445Z 01005KT 350V060 CAVOK 06/04 Q1014=
200811180415 METAR LIRA 180415Z 04004KT CAVOK 07/04 Q1015=
200811180345 METAR LIRA 180345Z 05006KT CAVOK 07/04 Q1015=
200811180315 METAR LIRA 180315Z 06006KT CAVOK 08/04 Q1015=
200811180245 METAR LIRA 180245Z 04005KT 350V070 CAVOK 08/04 Q1016=
200811180215 METAR LIRA 180215Z 03006KT 350V070 CAVOK 08/04 Q1016=
200811180145 METAR LIRA 180145Z 03005KT 350V070 CAVOK 08/05 Q1016=
200811180115 METAR LIRA 180115Z 02004KT 360V060 CAVOK 08/05 Q1016=
200811180045 METAR LIRA 180045Z 01003KT CAVOK 09/05 Q1016=
200811180015 METAR LIRA 180015Z 03004KT CAVOK 09/05 Q1016=
200811172345 METAR LIRA 172345Z 05004KT CAVOK 09/05 Q1017=
200811172315 METAR LIRA 172315Z 04004KT CAVOK 10/05 Q1017=
200811172245 METAR LIRA 172245Z 01006KT 330V070 CAVOK 10/07 Q1017=
200811172215 METAR LIRA 172215Z 02007KT 350V060 CAVOK 10/07 Q1017=
200811172145 METAR LIRA 172145Z 04003KT 9999 FEW060 11/08 Q1017=
200811172115 METAR LIRA 172115Z 04003KT 9999 FEW060 11/09 Q1017=
200811172045 METAR LIRA 172045Z 04004KT 9999 FEW070 11/09 Q1017=
200811172015 METAR LIRA 172015Z 03003KT CAVOK 12/10 Q1017=
200811171945 METAR LIRA 171945Z 01004KT 340V040 CAVOK 12/10 Q1017=
200811171915 METAR LIRA 171915Z 04003KT 9999 FEW025 SCT060 12/09 Q1017=
200811171845 METAR LIRA 171845Z 06003KT 9999 FEW030 SCT060 13/10 Q1017=
200811171815 METAR LIRA 171815Z 01003KT 9999 FEW030 SCT060 13/10 Q1017=
200811171745 METAR LIRA 171745Z 05002KT 9999 FEW030 SCT060 13/10 Q1016=
200811171715 METAR LIRA 171715Z 08003KT 9999 FEW030 SCT060 13/10 Q1016=
200811171645 METAR LIRA 171645Z 06004KT 9999 FEW070 SCT200 13/09 Q1016=
200811171615 METAR LIRA 171615Z 09003KT 9999 SCT070 SCT200 14/09 Q1016=
200811171545 METAR LIRA 171545Z 04003KT 9999 FEW020 SCT070 14/09 Q1016=
200811171515 METAR LIRA 171515Z 03002KT 9999 FEW020 BKN070 15/09 Q1016=
200811171445 METAR LIRA 171445Z 07002KT 9999 FEW020 BKN070 15/09 Q1016=
200811171415 METAR LIRA 171415Z 02002KT 9999 FEW020 BKN070 15/09 Q1016=
200811171345 METAR LIRA 171345Z 01004KT 330V050 9999 FEW020 SCT070 15/09
                        Q1016=
200811171315 METAR LIRA 171315Z 01003KT 360V090 9999 FEW020 SCT070 15/10
                        Q1016=
200811171245 METAR LIRA 171245Z 02004KT 9999 FEW020 SCT070 15/09 Q1016=
200811171215 METAR LIRA 171215Z 05005KT 360V090 9999 FEW020 BKN070 15/09
                        Q1017=
200811171145 METAR LIRA 171145Z 03006KT 310V080 9999 FEW020 BKN070 15/09
                        Q1017=
200811171115 METAR LIRA 171115Z 02005KT 9999 FEW020 BKN070 15/09 Q1017=
200811171045 METAR LIRA 171045Z 03005KT 360V100 9999 FEW020 SCT070 15/09
                        Q1017=
200811171015 METAR LIRA 171015Z 02007KT 310V060 CAVOK 13/09 Q1018=
200811170945 METAR LIRA 170945Z 03005KT CAVOK 13/09 Q1018=
200811170915 METAR LIRA 170915Z 01004KT CAVOK 12/09 Q1018=
200811170845 METAR LIRA 170845Z 01003KT CAVOK 10/09 Q1018=
200811170815 METAR LIRA 170815Z 04004KT 010V080 CAVOK 09/08 Q1018=
200811170745 METAR LIRA 170745Z 05005KT CAVOK 08/07 Q1018=
200811170715 METAR LIRA 170715Z 03004KT 7000 NSC 08/07 Q1018=
200811170645 METAR LIRA 170645Z 36003KT CAVOK 08/06 Q1018=
200811170615 METAR LIRA 170615Z 04003KT CAVOK 08/07 Q1017=
200811170545 METAR LIRA 170545Z 05004KT CAVOK 08/07 Q1017=
200811170515 METAR LIRA 170515Z 05002KT 9000 NSC 08/07 Q1017=
200811170445 METAR LIRA 170445Z 07004KT 9000 NSC 08/07 Q1018=
200811170415 METAR LIRA 170415Z 08004KT 7000 NSC 09/08 Q1018=
200811170345 METAR LIRA 170345Z 06004KT 7000 NSC 09/08 Q1018=
200811170315 METAR LIRA 170315Z 05003KT 8000 NSC 09/08 Q1018=
200811170245 METAR LIRA 170245Z 04005KT 7000 NSC 09/09 Q1018=
200811170215 METAR LIRA 170215Z 07002KT 7000 NSC 10/09 Q1018=
200811170145 METAR LIRA 170145Z 05003KT 7000 NSC 10/09 Q1019=
200811170115 METAR LIRA 170115Z 02002KT 7000 NSC 10/09 Q1019=
200811170045 METAR LIRA 170045Z 02003KT 7000 NSC 10/09 Q1019=
200811170015 METAR LIRA 170015Z 06002KT 8000 NSC 10/09 Q1019=
200811162345 METAR LIRA 162345Z 06002KT 8000 FEW080 12/10 Q1019=
200811162315 METAR LIRA 162315Z 33004KT 9999 FEW030 SCT060 12/10 Q1019=
200811162245 METAR LIRA 162245Z 00000KT 9999 FEW030 SCT070 13/10 Q1019=
200811162215 METAR LIRA 162215Z 11002KT 9999 FEW030 SCT070 13/11 Q1019=
200811162145 METAR LIRA 162145Z 11002KT 9999 SCT030 SCT060 13/10 Q1020=
200811162115 METAR LIRA 162115Z 06002KT 9999 SCT030 SCT060 13/10 Q1020=
200811162045 METAR LIRA 162045Z 00000KT 9999 SCT030 SCT060 13/10 Q1020=
200811162015 METAR LIRA 162015Z 00000KT 9999 SCT030 SCT060 14/10 Q1020=
200811161945 METAR LIRA 161945Z 33002KT 9999 SCT030 SCT060 14/10 Q1020=
200811161915 METAR LIRA 161915Z 32002KT 9999 FEW020 SCT030 14/10 Q1020=
200811161845 METAR LIRA 161845Z 00000KT 9999 FEW020 SCT030 14/10 Q1020=
200811161815 METAR LIRA 161815Z 30002KT 9999 FEW020 SCT030 15/10 Q1019=
200811161745 METAR LIRA 161745Z 34003KT 9999 FEW020 SCT030 14/10 Q1019=
200811161715 METAR LIRA 161715Z 03001KT 9999 FEW020 SCT030 14/10 Q1019=
200811161645 METAR LIRA 161645Z 10002KT 9999 FEW020 SCT030 14/10 Q1019=
200811161615 METAR LIRA 161615Z 06002KT 9999 SCT020 SCT030 15/10 Q1019=
200811161545 METAR LIRA 161545Z 07003KT 9999 SCT020 SCT030 15/10 Q1019=
200811161515 METAR LIRA 161515Z 04003KT 9999 FEW018 SCT030 15/10 Q1019=
200811161445 METAR LIRA 161445Z 02004KT 9999 FEW018 SCT030 16/09 Q1019=
200811161415 METAR LIRA 161415Z 35003KT 9999 FEW018 SCT030 17/10 Q1019=
200811161345 METAR LIRA 161345Z 33003KT 9999 FEW018 SCT030 17/10 Q1019=
200811161315 METAR LIRA 161315Z 33003KT 9999 FEW018 SCT030 16/09 Q1019=
200811161245 METAR LIRA 161245Z 00000KT 9999 FEW018 BKN030 16/10 Q1019=
200811161215 METAR LIRA 161215Z 02002KT 9999 FEW018 BKN030 16/09 Q1019=
200811161145 METAR LIRA 161145Z 08002KT 9999 FEW018 BKN030 16/09 Q1019=
200811161115 METAR LIRA 161115Z 05005KT 9999 FEW020 SCT030 16/09 Q1019=
200811161045 METAR LIRA 161045Z 34006KT 300V050 9999 SCT030 SCT070 16/11
                        Q1019=
200811161015 METAR LIRA 161015Z 34006KT 9999 FEW015 BKN060 15/11 Q1019=
200811160945 METAR LIRA 160945Z 34002KT 9999 FEW015 BKN060 14/11 Q1019=
200811160915 METAR LIRA 160915Z 13001KT 9999 FEW030 SCT060 13/11 Q1020=
200811160845 METAR LIRA 160845Z 01002KT 9999 FEW030 SCT070 12/09 Q1019=
200811160815 METAR LIRA 160815Z 05004KT 9999 FEW030 11/09 Q1019=
200811160745 METAR LIRA 160745Z 01004KT 9999 FEW030 11/09 Q1019=
200811160715 METAR LIRA 160715Z 08003KT 9999 FEW030 11/09 Q1019=
200811160645 METAR LIRA 160645Z 09001KT 9999 FEW030 11/09 Q1018=
200811160615 METAR LIRA 160615Z 13002KT 340V080 9999 FEW030 SCT070 11/09
                        Q1018=
200811160545 METAR LIRA 160545Z 03004KT 9999 FEW030 SCT070 12/10 Q1018=
200811160515 METAR LIRA 160515Z 07004KT 9999 FEW018 BKN080 12/10 Q1018=
200811160445 METAR LIRA 160445Z 05003KT 9999 FEW018 SCT080 12/09 Q1018=
200811160415 METAR LIRA 160415Z 08002KT 9999 FEW018 SCT080 12/09 Q1018=
200811160345 METAR LIRA 160345Z 02004KT 9999 FEW018 BKN080 12/09 Q1018=
200811160315 METAR LIRA 160315Z 01004KT 9999 FEW018 BKN080 12/09 Q1018=
200811160245 METAR LIRA 160245Z 02003KT 9999 FEW018 BKN080 12/09 Q1018=
200811160215 METAR LIRA 160215Z 03004KT 9999 FEW018 BKN080 12/09 Q1018=
200811160145 METAR LIRA 160145Z 36006KT 9999 FEW018 BKN080 12/09 Q1018=
200811160115 METAR LIRA 160115Z 06003KT 9999 FEW018 BKN080 12/08 Q1018=
200811160045 METAR LIRA 160045Z 31002KT 9999 FEW018 BKN070 12/08 Q1018=
200811160015 METAR LIRA 160015Z 04004KT 010V070 9999 FEW018 SCT080 13/08
                        Q1018=
200811152345 METAR LIRA 152345Z 08003KT 9999 FEW018 SCT070 13/08 Q1018=
200811152315 METAR LIRA 152315Z 05003KT 9999 FEW018 SCT070 13/08 Q1018=
200811152245 METAR LIRA 152245Z 06005KT 9999 FEW018 BKN080 13/07 Q1018=
200811152215 METAR LIRA 152215Z 03004KT 9999 FEW018 SCT070 13/07 Q1017=
200811152145 METAR LIRA 152145Z 05004KT 9999 FEW018 SCT080 13/08 Q1017=
200811152115 METAR LIRA 152115Z 21004KT 9999 FEW018 SCT080 13/08 Q1017=
200811152045 METAR LIRA 152045Z 05007KT 360V090 9999 FEW018 SCT080 13/07
                        Q1017=
200811152015 METAR LIRA 152015Z 06002KT 9999 FEW018 SCT070 13/07 Q1017=
200811151945 METAR LIRA 151945Z 02005KT 330V050 9999 FEW018 SCT080 13/07
                        Q1017=
200811151915 METAR LIRA 151915Z 01004KT 330V040 9999 FEW018 SCT080 14/07
                        Q1017=
200811151845 METAR LIRA 151845Z 36004KT 9999 FEW018 SCT080 14/08 Q1017=
200811151815 METAR LIRA 151815Z 04004KT 9999 FEW018 SCT080 15/08 Q1017=
200811151745 METAR LIRA 151745Z 02005KT 340V080 9999 SCT080 SCT200 15/09
                        Q1016=
200811151715 METAR LIRA 151715Z 34004KT 9999 FEW080 SCT200 15/09 Q1016=
200811151645 METAR LIRA 151645Z 36007KT 9999 FEW080 BKN200 16/09 Q1016=
200811151615 METAR LIRA 151615Z 02004KT 9999 FEW025 SCT090 BKN200 16/09
                        Q1016=
200811151545 METAR LIRA 151545Z 01005KT 9999 FEW025 SCT090 BKN200 17/09
                        Q1017=
200811151515 METAR LIRA 151515Z 34006KT 340V050 9999 FEW030 BKN200 17/09
                        Q1017=
200811151445 METAR LIRA 151445Z 36007KT 320V050 9999 FEW030 BKN200 17/09
                        Q1017=
200811151415 METAR LIRA 151415Z 36007KT 320V050 9999 FEW030 BKN200 17/10
                        Q1017=
200811151345 METAR LIRA 151345Z 01006KT 330V070 9999 FEW030 BKN200 17/10
                        Q1017=
200811151315 METAR LIRA 151315Z 04006KT 330V090 9999 FEW030 SCT080 17/10
                        Q1017=
200811151245 METAR LIRA 151245Z 36007KT 320V050 9999 FEW030 SCT080 17/10
                        Q1018=
200811151215 METAR LIRA 151215Z 05005KT 320V060 9999 FEW020 SCT080 17/10
                        Q1018=
200811151145 METAR LIRA 151145Z 02006KT 330V080 9999 FEW020 SCT030 16/10
                        Q1018=
200811151115 METAR LIRA 151115Z 03003KT 9999 FEW020 SCT030 15/10 Q1019=
200811151045 METAR LIRA 151045Z 05005KT 9999 FEW018CB SCT030 14/10 Q1019=
200811151015 METAR LIRA 151015Z 01003KT 9999 FEW018CB SCT025 14/10 Q1019=
200811150945 METAR LIRA 150945Z 02005KT 340V060 9999 FEW018CB SCT025 14/10
                        Q1019=
200811150915 METAR LIRA 150915Z 02004KT 9999 FEW018CB SCT025 13/10 Q1019=
200811150900 METAR LIRA INTER CB AQ=
200811150845 METAR LIRA 150845Z 02005KT 350V050 9999 FEW018CB SCT025 13/11
                        Q1019=
200811150815 METAR LIRA 150815Z 03006KT 360V080 9999 FEW018CB SCT025 12/09
                        Q1018=
200811150745 METAR LIRA 150745Z 01002KT 9999 FEW018CB BKN025 11/09 Q1018=
200811150715 METAR LIRA 150715Z 35001KT 9999 FEW018CB BKN025 11/09 Q1018=
200811150645 METAR LIRA 150645Z 09001KT 9999 FEW017 FEW018CB BKN025 11/09
                        Q1018=
200811150615 METAR LIRA 150615Z 05004KT 9999 FEW017 FEW018CB BKN025 11/09
                        Q1018=
200811150545 METAR LIRA 150545Z 03003KT 9999 SCT017 FEW018CB BKN025 10/09
                        Q1017=
200811150515 METAR LIRA 150515Z 35004KT 9999 SCT025 SCT070 10/09 Q1017=
200811150445 METAR LIRA 150445Z 03003KT 9999 SCT025 SCT070 10/09 Q1017=
200811150415 METAR LIRA 150415Z 04004KT 9999 SCT025 SCT070 10/09 Q1017=
200811150345 METAR LIRA 150345Z 01005KT 9999 SCT025 SCT070 10/09 Q1017=
200811150315 METAR LIRA 150315Z 01004KT 9999 SCT025 SCT070 11/09 Q1017=
200811150245 METAR LIRA 150245Z 06006KT 9999 SCT025 SCT070 11/09 Q1017=
200811150215 METAR LIRA 150215Z 06006KT 9999 SCT025 SCT070 11/09 Q1017=
200811150145 METAR LIRA 150145Z 35003KT 9999 SCT025 SCT070 11/09 Q1017=
200811150115 METAR LIRA 150115Z 05003KT 9999 SCT025 SCT070 12/10 Q1017=
200811150045 METAR LIRA 150045Z 03005KT 9999 SCT025 SCT070 12/10 Q1017=
200811150015 METAR LIRA 150015Z 03004KT 010V080 9999 SCT025 SCT070 12/10
                        Q1017=
200811142345 METAR LIRA 142345Z 04004KT 9999 SCT025 SCT070 13/11 Q1017=
200811142315 METAR LIRA 142315Z 05003KT 9999 SCT002 SCT070 14/11 Q1017=
200811142245 METAR LIRA 142245Z 05004KT 9999 SCT025 SCT070 14/11 Q1017=
200811142215 METAR LIRA 142215Z 36004KT 9999 FEW020 SCT070 14/10 Q1017
                        RETS=
200811142145 METAR LIRA 142145Z 19008KT 9999 FEW020 SCT070 14/10 Q1017
                        RETS=
200811142115 METAR LIRA 142115Z 21005KT 180V260 9999 TS FEW018CB SCT025
                        14/10 Q1017=
200811142045 METAR LIRA 142045Z 20001KT 9999 TS FEW018CB SCT025 14/09
                        Q1017=
200811142015 METAR LIRA 142015Z 06005KT 9999 FEW018CB SCT025 14/08 Q1017=
200811141945 METAR LIRA 141945Z 07006KT 040V110 9999 FEW018 SCT030 15/09
                        Q1017=
200811141915 METAR LIRA 141915Z 10006KT 9999 FEW018 SCT030 14/09 Q1016=
200811141845 METAR LIRA 141845Z 10008KT 9999 FEW018 SCT030 14/10 Q1016=
200811141815 METAR LIRA 141815Z 07006KT 030V100 9999 FEW018 FEW020CB SCT070
                        14/10 Q1016 RETS=
200811141745 METAR LIRA 141745Z 08005KT 9999 FEW018 FEW020CB SCT070 15/10
                        Q1016 RETS=
200811141715 METAR LIRA 141715Z 07008KT 9999 TS FEW018 FEW020CB SCT070
                        15/10 Q1016=
200811141645 METAR LIRA 141645Z 09006KT 9999 TS FEW018 FEW020CB SCT070
                        15/08 Q1015=
200811141615 METAR LIRA 141615Z 12007KT 9999 FEW018 FEW020CB SCT070 16/09
                        Q1014=
200811141545 METAR LIRA 141545Z 11004KT 9999 FEW018 FEW020CB SCT070 17/08
                        Q1014=
200811141515 METAR LIRA 141515Z 13003KT 9999 FEW018 FEW020CB SCT070 17/08
                        Q1014=
200811141445 METAR LIRA 141445Z 16010KT 9999 SCT018 FEW020CB 17/08 Q1014=
200811141415 METAR LIRA 141415Z 08003KT 060V120 9999 FEW018 FEW020TCU
                        SCT070 18/09 Q1014=
200811141345 METAR LIRA 141345Z 09008KT 060V130 9999 FEW018 SCT070 18/09
                        Q1014=
200811141315 METAR LIRA 141315Z 09003KT 030V140 9999 FEW018 SCT070 18/09
                        Q1014=
200811141245 METAR LIRA 141245Z 08008KT 040V120 9999 FEW018 SCT070 18/09
                        Q1014=
200811141215 METAR LIRA 141215Z 09005KT 030V140 9999 FEW018 SCT070 18/09
                        Q1014=
200811141145 METAR LIRA 141145Z 08006KT 030V150 9999 FEW020 SCT035 18/09
                        Q1014=
200811141115 METAR LIRA 141115Z 10003KT 060V130 9999 FEW020 SCT035 16/09
                        Q1014=
200811141045 METAR LIRA 141045Z 11009KT 060V150 9999 FEW018 FEW020CB SCT070
                        16/10 Q1014=
200811141015 METAR LIRA 141015Z 35005KT 270V060 9999 FEW018 FEW020CB SCT070
                        16/11 Q1014=
200811140945 METAR LIRA 140945Z 01006KT 9999 FEW018 FEW020CB SCT070 15/11
                        Q1014=
200811140915 METAR LIRA 140915Z 36004KT 320V060 9999 FEW018 FEW020CB SCT070
                        14/11 Q1014=
200811140845 METAR LIRA 140845Z 05005KT 9999 FEW018 SCT080 12/09 Q1014=
200811140815 METAR LIRA 140815Z 03002KT 9999 FEW018 FEW020CB SCT035 11/09
                        Q1014=
200811140745 METAR LIRA 140745Z 04004KT 350V090 9999 FEW018 FEW020CB SCT035
                        11/09 Q1014=
200811140715 METAR LIRA 140715Z 36002KT 9999 FEW018 BKN035 10/09 Q1013=
200811140700 METAR LIRA INTER CB S-W=
200811140645 METAR LIRA 140645Z 35002KT 9999 FEW018 BKN035 10/08 Q1013=
200811140615 METAR LIRA 140615Z 36004KT 9999 FEW018 BKN035 11/08 Q1013=
200811140600 METAR LIRA INTER CB S-W=
200811140545 METAR LIRA 140545Z 04003KT 9999 FEW018 FEW020CB SCT070 10/08
                        Q1013=
200811140515 METAR LIRA 140515Z 03005KT 330V070 9999 FEW018 FEW020CB SCT070
                        10/08 Q1013=
200811140445 METAR LIRA 140445Z 02005KT 320V040 9999 FEW018 FEW020CB SCT070
                        11/08 Q1013=
200811140415 METAR LIRA 140415Z 36003KT 9999 FEW018 FEW020CB SCT070 11/07
                        Q1013=
200811140400 METAR LIRA INTER CB S=
200811140345 METAR LIRA 140345Z 33001KT 9999 FEW018 FEW020CB SCT070 11/07
                        Q1013=
200811140315 METAR LIRA 140315Z 33002KT 9999 FEW018 FEW020CB SCT070 11/07
                        Q1013=
200811140245 METAR LIRA 140245Z 04001KT 9999 FEW018 FEW020CB SCT033 11/08
                        Q1012=
200811140215 METAR LIRA 140215Z 06001KT 9999 FEW018 FEW020CB SCT033 12/08
                        Q1012=
200811140145 METAR LIRA 140145Z 05002KT 9999 FEW018 FEW020CB SCT033 12/08
                        Q1012=
200811140115 METAR LIRA 140115Z 01002KT 350V100 9999 FEW018 FEW020CB SCT033
                        12/08 Q1012=
200811140100 METAR LIRA CONTUS LOW CLDS OVHD MVNG S CB DISPTD=
200811140045 METAR LIRA 140045Z 02003KT 9999 FEW018 FEW020CB SCT030 12/08
                        Q1013=
200811140015 METAR LIRA 140015Z 02003KT 340V060 9999 FEW018 FEW020CB BKN030
                        13/08 Q1013=
200811132345 METAR LIRA 132345Z 09004KT 9999 FEW018 FEW020CB BKN030 13/08
                        Q1013=
200811132315 METAR LIRA 132315Z 10007KT 060V140 9999 FEW018 FEW020CB SCT025
                        13/08 Q1013=
200811132300 METAR LIRA INT CB N NE=
200811132245 METAR LIRA 132245Z 10010KT 9999 FEW018 FEW020CB SCT070 13/09
                        Q1013=
200811132215 METAR LIRA 132215Z 12013KT 9999 FEW018 FEW020CB 13/11 Q1013=
200811132145 METAR LIRA 132145Z 12018KT 9999 FEW018 FEW020CB 13/11 Q1013=
200811132115 METAR LIRA 132115Z 13013KT 090V160 9999 FEW018 FEW020CB 13/12
                        Q1013=
200811132045 METAR LIRA 132045Z 12015KT 9999 TS FEW018CB 13/11 Q1013=
200811132015 METAR LIRA 132015Z 12014KT 9999 TS FEW017 FEW018CB 13/12
                        Q1013=
200811131945 METAR LIRA 131945Z 12015KT 9999 TS FEW015 FEW020CB 13/12
                        Q1013=
200811131915 METAR LIRA 131915Z 11010KT 9999 -TSRA FEW015 FEW018CB SCT025
                        13/11 Q1013=
200811131845 METAR LIRA 131845Z 13016KT 8000 -TSRA FEW015 FEW020CB SCT025
                        13/11 Q1013=
200811131815 METAR LIRA 131815Z 12016KT 9999 TS FEW015 FEW018CB SCT025
                        13/10 Q1013=
200811131745 METAR LIRA 131745Z 11008KT 060V140 9999 -TSRA FEW015 FEW020CB
                        SCT025 13/11 Q1013=
200811131715 METAR LIRA 131715Z 05007KT 9999 TS FEW015 FEW020CB SCT025
                        14/11 Q1013=
200811131645 METAR LIRA 131645Z 33007KT 9000 -TSRA FEW014 FEW017CB SCT025
                        14/12 Q1012=
200811131615 METAR LIRA 131615Z 14007KT 080V140 8000 -TSRA FEW012 SCT015CB
                        14/12 Q1012=
200811131545 METAR LIRA 131545Z 12009KT 080V140 8000 -TSRA FEW012 SCT015CB
                        14/13 Q1012=
200811131515 METAR LIRA 131515Z 07004KT 8000 -TSRA FEW012 SCT015CB BKN025
                        13/12 Q1012=
200811131445 METAR LIRA 131445Z 11005KT 8000 -TSRA FEW012 SCT015CB BKN025
                        14/12 Q1012=
200811131415 METAR LIRA 131415Z 10006KT 060V130 3000 -TSRA FEW012 SCT015CB
                        BKN025 14/13 Q1012 WS RWY 15=
200811131345 METAR LIRA 131345Z 29004KT 4000 -TSRA FEW012 SCT015CB BKN025
                        16/10 Q1012=
200811131315 METAR LIRA 131315Z 13010KT 6000 -TSRA FEW012 SCT015CB BKN030
                        17/11 Q1011=
200811131245 METAR LIRA 131245Z 15012KT 120V180 6000 -TSRA FEW013 SCT015CB
                        BKN030 17/10 Q1011=
200811131215 METAR LIRA 131215Z 13017G27KT 090V180 6000 -TSRA FEW013 SCT015CB
                        BKN030 17/13 Q1011=
200811131145 METAR LIRA 131145Z 14014KT 100V180 6000 -TSRA FEW013 SCT015CB
                        BKN030 17/13 Q1011=
200811131115 METAR LIRA 131115Z 15015G28KT 100V180 7000 -TSRA FEW018 SCT020CB
                        BKN030 17/13 Q1011=
200811131045 METAR LIRA 131045Z 14011KT 100V180 9999 -TSRA FEW018 FEW020CB
                        SCT070 17/13 Q1012=
200811131015 METAR LIRA 131015Z 15015KT 120V200 9999 FEW018 FEW020CB SCT070
                        17/13 Q1012=
200811130945 METAR LIRA 130945Z 15016KT 100V180 9999 FEW018 FEW020CB SCT070
                        17/13 Q1012=
200811130915 METAR LIRA 130915Z 15014KT 090V180 9999 FEW018 FEW020CB SCT070
                        16/12 Q1012=
200811130845 METAR LIRA 130845Z 14014KT 090V140 9999 FEW018 FEW020CB SCT070
                        16/11 Q1012=
200811130815 METAR LIRA 130815Z 14014KT 090V180 9999 -RA FEW018 FEW020CB
                        SCT030 16/11 Q1012=
200811130745 METAR LIRA 130745Z 14014G24KT 100V180 9999 FEW018 FEW020CB
                        SCT030 16/11 Q1012=
200811130715 METAR LIRA 130715Z 15014KT 9999 FEW018 FEW020CB SCT030 16/11
                        Q1012=
200811130645 METAR LIRA 130645Z 15014KT 9999 FEW018 FEW020TCU SCT070 16/12
                        Q1012=
200811130615 METAR LIRA 130615Z 13009KT 100V160 9999 FEW018 FEW020TCU
                        SCT070 15/11 Q1012=
200811130545 METAR LIRA 130545Z 14015KT 9999 FEW018 FEW020TCU SCT070 15/11
                        Q1012=
200811130515 METAR LIRA 130515Z 14012KT 100V180 9999 FEW018 FEW020CB SCT070
                        15/11 Q1012=
200811130445 METAR LIRA 130445Z 14012KT 9999 FEW016 FEW020CB SCT030 15/12
                        Q1012 RETS=
200811130415 METAR LIRA 130415Z 13014KT 090V160 9999 FEW016 FEW020CB SCT070
                        15/12 Q1012=
200811130345 METAR LIRA 130345Z 13010KT 090V180 9999 FEW016 FEW020CB SCT070
                        14/12 Q1013 RETS=
200811130315 METAR LIRA 130315Z 13008KT 100V170 9999 -RA FEW016 FEW020CB
                        SCT070 14/11 Q1013 RETS=
200811130245 METAR LIRA 130245Z 11008KT 100V160 8000 -TSRA FEW016 FEW020CB
                        SCT030 15/11 Q1014=
200811130215 METAR LIRA 130215Z 15013KT 100V180 8000 -TSRA FEW016 FEW020CB
                        SCT030 15/11 Q1014=
200811130145 METAR LIRA 130145Z 14011KT 100V180 9999 -TSRA FEW016 FEW020CB
                        SCT030 15/12 Q1014=
200811130115 METAR LIRA 130115Z 15013KT 110V180 9999 FEW020TCU SCT030
                        15/12 Q1014 RETS=
200811130045 METAR LIRA 130045Z 14009KT 100V190 9999 TS FEW016 FEW020CB
                        SCT030 15/12 Q1015=
200811130015 METAR LIRA 130015Z 10005KT 9999 -TSRA FEW016 FEW020CB SCT030
                        15/12 Q1015=
200811122345 METAR LIRA 122345Z 09005KT 060V150 9999 TS FEW016 FEW020CB
                        SCT030 15/12 Q1015=
200811122315 METAR LIRA 122315Z 13010KT 100V170 9999 FEW016 FEW020TCU
                        SCT035 15/12 Q1015=
200811122245 METAR LIRA 122245Z 18007KT 110V220 9999 FEW016 FEW020TCU
                        SCT030 15/12 Q1016 RETS RERA=
200811122215 METAR LIRA 122215Z 15019KT 6000 -TSRA SCT016 FEW020CB BKN025
                        16/11 Q1016=
200811122145 METAR LIRA 122145Z 14015KT 9999 -TSRA FEW016 FEW020CB SCT070
                        16/11 Q1016=
200811122115 METAR LIRA 122115Z 15013KT 110V180 9999 FEW016 FEW020CB SCT070
                        16/11 Q1016=
200811122045 METAR LIRA 122045Z 14016KT 9999 FEW016 FEW020CB SCT070 16/11
                        Q1016=
200811122015 METAR LIRA 122015Z 15017KT 110V170 9999 FEW016 FEW020CB SCT070
                        16/11 Q1016=
200811121945 METAR LIRA 121945Z 14013KT 110V180 9999 FEW016 FEW020CB SCT070
                        16/12 Q1016=
200811121915 METAR LIRA 121915Z 14014KT 9999 FEW016 FEW020TCU SCT070 16/11
                        Q1016=
200811121845 METAR LIRA 121845Z 15015KT 9999 FEW016 FEW020TCU SCT030 16/11
                        Q1017=
200811121815 METAR LIRA 121815Z 14010KT 9999 FEW016 FEW020TCU SCT030 16/11
                        Q1017=
200811121745 METAR LIRA 121745Z 14010KT 9999 FEW016 FEW020TCU SCT030 16/11
                        Q1017=
200811121715 METAR LIRA 121715Z 14010KT 9999 SCT015 SCT025 16/11 Q1017=
200811121645 METAR LIRA 121645Z 16011KT 110V190 9999 SCT015 FEW022CB SCT025
                        15/10 Q1017=
200811121615 METAR LIRA 121615Z 15014KT 9999 SCT015 FEW022CB SCT025 16/10
                        Q1017=
200811121545 METAR LIRA 121545Z 15010KT 9999 SCT018 FEW022CB SCT070 16/10
                        Q1017=
200811121515 METAR LIRA 121515Z 15012KT 9999 SCT018 FEW022CB SCT070 16/11
                        Q1017=
200811121445 METAR LIRA 121445Z 14010KT 100V180 9999 SCT018 FEW022CB SCT070
                        16/11 Q1018=
200811121415 METAR LIRA 121415Z 16012KT 9999 SCT018 SCT070 16/12 Q1018=
200811121345 METAR LIRA 121345Z 16009KT 9999 SCT018 BKN070 17/13 Q1018=
200811121315 METAR LIRA 121315Z 15010KT 100V190 9999 SCT018 BKN070 16/12
                        Q1018=
200811121245 METAR LIRA 121245Z 15009KT 9999 FEW018 BKN070 16/12 Q1019
                        RERA=
200811121215 METAR LIRA 121215Z 15008KT 9999 FEW018 BKN060 15/12 Q1019
                        RERA=
200811121145 METAR LIRA 121145Z 15008KT 9999 -RA FEW018 BKN060 15/12 Q1019=
200811121115 METAR LIRA 121115Z 15009KT 9999 -RA FEW018 BKN060 15/11 Q1020=
200811121045 METAR LIRA 121045Z 20005KT 160V240 9999 FEW018 BKN060 16/11
                        Q1020=
200811121015 METAR LIRA 121015Z 12005KT 9999 FEW018 BKN070 15/11 Q1020=
200811120945 METAR LIRA 120945Z 02003KT 040V180 9999 SCT018 14/11 Q1020=
200811120915 METAR LIRA 120915Z 30003KT 9999 SCT018 12/10 Q1020=
200811120845 METAR LIRA 120845Z 03001KT 9999 SCT018 12/10 Q1020=
200811120815 METAR LIRA 120815Z 02001KT 9999 SCT018 10/08 Q1020=
200811120745 METAR LIRA 120745Z 04003KT 9999 SCT018 11/09 Q1020=
200811120715 METAR LIRA 120715Z 06002KT 9999 SCT018 10/08 Q1020=
200811120645 METAR LIRA 120645Z 09002KT 9999 SCT018 SCT080 09/08 Q1020=
200811120615 METAR LIRA 120615Z 14001KT 9999 FEW018 SCT200 08/07 Q1020=
200811120545 METAR LIRA 120545Z 10002KT 9999 FEW018 SCT200 07/07 Q1020=
200811120515 METAR LIRA 120515Z 05003KT CAVOK 08/07 Q1020=
200811120445 METAR LIRA 120445Z 02003KT CAVOK 08/07 Q1020=
200811120415 METAR LIRA 120415Z 05002KT CAVOK 08/07 Q1020=
200811120345 METAR LIRA 120345Z 04003KT CAVOK 08/07 Q1020=
200811120315 METAR LIRA 120315Z 04002KT CAVOK 09/07 Q1020=
200811120245 METAR LIRA 120245Z 00000KT CAVOK 10/07 Q1020=
200811120215 METAR LIRA 120215Z 11003KT CAVOK 10/09 Q1020=
200811120145 METAR LIRA 120145Z 12004KT CAVOK 09/08 Q1021=
200811120115 METAR LIRA 120115Z 09002KT CAVOK 09/08 Q1021=
200811120045 METAR LIRA 120045Z 07004KT CAVOK 09/08 Q1021=
200811120015 METAR LIRA 120015Z 00000KT CAVOK 10/08 Q1021=
200811112345 METAR LIRA 112345Z 13003KT CAVOK 09/08 Q1021=
200811112315 METAR LIRA 112315Z 00000KT CAVOK 10/09 Q1021=
200811112245 METAR LIRA 112245Z 17001KT CAVOK 11/09 Q1021=
200811112215 METAR LIRA 112215Z 17001KT CAVOK 11/10 Q1021=
200811112145 METAR LIRA 112145Z 14002KT CAVOK 12/10 Q1022=
200811112115 METAR LIRA 112115Z 11005KT CAVOK 12/10 Q1022=
200811112045 METAR LIRA 112045Z 13003KT CAVOK 12/10 Q1022=
200811112015 METAR LIRA 112015Z 12003KT CAVOK 12/10 Q1022=
200811111945 METAR LIRA 111945Z 11005KT CAVOK 11/10 Q1022=
200811111915 METAR LIRA 111915Z 13002KT CAVOK 12/10 Q1022=
200811111845 METAR LIRA 111845Z 14002KT CAVOK 12/10 Q1022=
200811111815 METAR LIRA 111815Z 16003KT CAVOK 13/10 Q1022=
200811111745 METAR LIRA 111745Z 15002KT CAVOK 13/11 Q1022=
200811111715 METAR LIRA 111715Z 17003KT CAVOK 15/12 Q1021=
200811111645 METAR LIRA 111645Z 24002KT 9999 FEW070 15/11 Q1021=
200811111615 METAR LIRA 111615Z 25002KT 9999 FEW070 16/11 Q1021=
200811111545 METAR LIRA 111545Z 27004KT 9999 FEW070 17/09 Q1021=
200811111515 METAR LIRA 111515Z 26003KT 9999 FEW070 18/08 Q1021=
200811111445 METAR LIRA 111445Z 34003KT 9999 FEW020 17/05 Q1021=
200811111415 METAR LIRA 111415Z 32002KT 9999 FEW020 17/05 Q1021=
200811111345 METAR LIRA 111345Z 32002KT 270V350 9999 FEW020 17/04 Q1022=
200811111315 METAR LIRA 111315Z 32004KT 270V360 9999 FEW020 17/05 Q1022=
200811111245 METAR LIRA 111245Z 33004KT 9999 FEW020 17/06 Q1022=
200811111215 METAR LIRA 111215Z 34003KT 9999 FEW020 17/07 Q1022=
200811111145 METAR LIRA 111145Z 34003KT 9999 FEW020 16/07 Q1023=
200811111115 METAR LIRA 111115Z 33003KT 9999 FEW020 15/07 Q1023=
200811111045 METAR LIRA 111045Z 35002KT CAVOK 14/08 Q1023=
200811111015 METAR LIRA 111015Z 03003KT CAVOK 13/07 Q1024=
200811110945 METAR LIRA 110945Z 02003KT CAVOK 12/07 Q1024=
200811110915 METAR LIRA 110915Z 03003KT CAVOK 11/07 Q1024=
200811110845 METAR LIRA 110845Z 03004KT CAVOK 10/07 Q1024=
200811110815 METAR LIRA 110815Z 04004KT CAVOK 09/06 Q1024=
200811110745 METAR LIRA 110745Z 05003KT CAVOK 07/06 Q1024=
200811110715 METAR LIRA 110715Z 05003KT CAVOK 06/05 Q1024=
200811110645 METAR LIRA 110645Z 03002KT CAVOK 06/05 Q1024=
200811110615 METAR LIRA 110615Z 06003KT CAVOK 06/05 Q1024=
200811110545 METAR LIRA 110545Z 05003KT CAVOK 06/05 Q1024=
200811110515 METAR LIRA 110515Z 04003KT CAVOK 06/05 Q1024=
200811110445 METAR LIRA 110445Z 05003KT CAVOK 06/05 Q1024=
200811110415 METAR LIRA 110415Z 04003KT CAVOK 06/05 Q1024=
200811110345 METAR LIRA 110345Z 05003KT CAVOK 06/05 Q1024=
200811110315 METAR LIRA 110315Z 05004KT CAVOK 06/05 Q1025=
200811110245 METAR LIRA 110245Z 10002KT CAVOK 07/06 Q1025=
200811110215 METAR LIRA 110215Z 05002KT CAVOK 07/06 Q1025=
200811110145 METAR LIRA 110145Z 04002KT CAVOK 07/06 Q1025=
200811110115 METAR LIRA 110115Z 03003KT CAVOK 08/07 Q1025=
200811110045 METAR LIRA 110045Z 00000KT CAVOK 08/07 Q1026=
200811110015 METAR LIRA 110015Z 06004KT CAVOK 09/07 Q1026=
200811102345 METAR LIRA 102345Z 06004KT CAVOK 09/07 Q1026=
200811102315 METAR LIRA 102315Z 06002KT CAVOK 09/07 Q1026=
200811102245 METAR LIRA 102245Z 05004KT CAVOK 10/08 Q1027=
200811102215 METAR LIRA 102215Z 07003KT CAVOK 10/07 Q1027=
200811102145 METAR LIRA 102145Z 11001KT CAVOK 10/08 Q1027=
200811102115 METAR LIRA 102115Z 09002KT CAVOK 10/08 Q1027=
200811102045 METAR LIRA 102045Z 11002KT CAVOK 10/08 Q1027=
200811102015 METAR LIRA 102015Z 12001KT CAVOK 11/08 Q1027=
200811101945 METAR LIRA 101945Z 00000KT CAVOK 11/08 Q1027=
200811101915 METAR LIRA 101915Z 00000KT CAVOK 12/08 Q1027=
200811101845 METAR LIRA 101845Z 00000KT CAVOK 12/08 Q1027=
200811101815 METAR LIRA 101815Z 12001KT CAVOK 13/09 Q1027=
200811101745 METAR LIRA 101745Z 07003KT CAVOK 14/09 Q1027=
200811101715 METAR LIRA 101715Z 09003KT CAVOK 14/08 Q1027=
200811101645 METAR LIRA 101645Z 09002KT CAVOK 16/09 Q1027=
200811101615 METAR LIRA 101615Z 00000KT CAVOK 16/09 Q1027=
200811101545 METAR LIRA 101545Z 32002KT CAVOK 17/08 Q1027=
200811101515 METAR LIRA 101515Z 01003KT 9999 FEW023 18/08 Q1027=
200811101445 METAR LIRA 101445Z 02003KT 9999 FEW025 18/07 Q1027=
200811101415 METAR LIRA 101415Z 05003KT 350V060 9999 FEW025 18/07 Q1027=
200811101345 METAR LIRA 101345Z 04005KT 9999 FEW025 18/07 Q1027=
200811101315 METAR LIRA 101315Z 02005KT 9999 FEW025 18/08 Q1027=
200811101245 METAR LIRA 101245Z 35003KT 9999 FEW022 17/07 Q1028=
200811101215 METAR LIRA 101215Z 34004KT 9999 FEW022 16/07 Q1028=
200811101145 METAR LIRA 101145Z 35004KT 9999 FEW022 16/08 Q1028=
200811101115 METAR LIRA 101115Z 33003KT 9999 FEW018 16/09 Q1028=
200811101045 METAR LIRA 101045Z 05003KT 9999 FEW018 14/08 Q1029=
200811101015 METAR LIRA 101015Z 03004KT 350V080 CAVOK 13/08 Q1029=
200811100945 METAR LIRA 100945Z 05005KT 010V080 CAVOK 12/07 Q1029=
200811100915 METAR LIRA 100915Z 02005KT 330V060 CAVOK 11/07 Q1029=
200811100845 METAR LIRA 100845Z 02004KT CAVOK 10/08 Q1029=
200811100815 METAR LIRA 100815Z 02002KT CAVOK 08/07 Q1029=
200811100745 METAR LIRA 100745Z 02003KT CAVOK 07/06 Q1029=
200811100715 METAR LIRA 100715Z 02002KT CAVOK 07/06 Q1029=
200811100645 METAR LIRA 100645Z 06004KT CAVOK 07/06 Q1029=
200811100615 METAR LIRA 100615Z 06004KT CAVOK 07/06 Q1029=
200811100545 METAR LIRA 100545Z 05003KT CAVOK 07/06 Q1028=
200811100515 METAR LIRA 100515Z 05004KT CAVOK 08/07 Q1028=
200811100445 METAR LIRA 100445Z 04003KT CAVOK 08/07 Q1028=
200811100415 METAR LIRA 100415Z 05003KT CAVOK 08/07 Q1028=
200811100345 METAR LIRA 100345Z 05003KT CAVOK 08/07 Q1028=
200811100315 METAR LIRA 100315Z 05003KT CAVOK 08/07 Q1028=
200811100245 METAR LIRA 100245Z 06004KT CAVOK 08/07 Q1028=
200811100215 METAR LIRA 100215Z 05004KT CAVOK 09/08 Q1029=
200811100145 METAR LIRA 100145Z 06004KT CAVOK 10/09 Q1029=
200811100115 METAR LIRA 100115Z 05004KT CAVOK 10/09 Q1029=
200811100045 METAR LIRA 100045Z 06004KT CAVOK 10/09 Q1029=
200811100015 METAR LIRA 100015Z 05002KT CAVOK 10/09 Q1029=
200811092350 METAR LIRA 100045Z 06004KT CAVOK 10/09 Q1029=
200811092345 METAR LIRA 092345Z 03003KT CAVOK 10/09 Q1029=
200811092315 METAR LIRA 092315Z 05003KT CAVOK 11/10 Q1029=
200811092245 METAR LIRA 092245Z 05003KT CAVOK 11/10 Q1029=
200811092215 METAR LIRA 092215Z 05004KT CAVOK 11/10 Q1029=
200811092145 METAR LIRA 092145Z 07002KT CAVOK 11/10 Q1029=
200811092115 METAR LIRA 092115Z 04003KT CAVOK 12/10 Q1029=
200811092045 METAR LIRA 092045Z 03003KT CAVOK 12/10 Q1029=
200811092015 METAR LIRA 092015Z 06002KT CAVOK 13/10 Q1029=
200811091945 METAR LIRA 091945Z 11003KT CAVOK 13/11 Q1029=
200811091915 METAR LIRA 091915Z 11003KT CAVOK 13/11 Q1029=
200811091845 METAR LIRA 091845Z 07001KT CAVOK 13/11 Q1029=
200811091815 METAR LIRA 091815Z 00000KT CAVOK 14/11 Q1029=
200811091745 METAR LIRA 091745Z 15002KT CAVOK 15/10 Q1029=
200811091715 METAR LIRA 091715Z 18001KT 9999 FEW018 16/11 Q1028=
200811091645 METAR LIRA 091645Z 25002KT 9999 FEW018 17/10 Q1028=
200811091615 METAR LIRA 091615Z 27003KT 9999 FEW018 17/09 Q1028=
200811091545 METAR LIRA 091545Z 00000KT 9999 FEW018 18/09 Q1028=
200811091515 METAR LIRA 091515Z 34002KT 9999 FEW018 18/08 Q1028=
200811091445 METAR LIRA 091445Z 35004KT 9999 FEW018 18/08 Q1028=
200811091415 METAR LIRA 091415Z 34003KT 9999 FEW018 18/08 Q1028=
200811091345 METAR LIRA 091345Z 34004KT 9999 FEW018 18/08 Q1028=
200811091315 METAR LIRA 091315Z 36003KT 9999 FEW018 17/09 Q1028=
200811091245 METAR LIRA 091245Z 34005KT 320V010 9999 FEW018 17/09 Q1029=
200811091215 METAR LIRA 091215Z 32005KT 290V010 9999 FEW018 17/10 Q1029=
200811091145 METAR LIRA 091145Z 33004KT 9999 FEW018 16/09 Q1029=
200811091115 METAR LIRA 091115Z 36003KT 9999 FEW018 15/10 Q1029=
200811091045 METAR LIRA 091045Z 02003KT 9999 FEW018 15/09 Q1029=
200811091015 METAR LIRA 091015Z 03004KT 9999 FEW018 SCT200 14/09 Q1029=
200811090945 METAR LIRA 090945Z 03004KT 9999 FEW018 SCT200 13/09 Q1029=
200811090915 METAR LIRA 090915Z 02003KT 9999 FEW018 SCT200 11/08 Q1029=
200811090845 METAR LIRA 090845Z 02003KT 9999 FEW018 10/08 Q1029=
200811090815 METAR LIRA 090815Z 03002KT 9999 FEW018 10/08 Q1029=
200811090745 METAR LIRA 090745Z 02002KT 9999 FEW018 09/08 Q1029=
200811090715 METAR LIRA 090715Z 03002KT 9999 FEW018 08/07 Q1028=
200811090645 METAR LIRA 090645Z 05002KT 9999 FEW018 08/07 Q1028=
200811090615 METAR LIRA 090615Z 05003KT 9999 FEW018 08/07 Q1027=
200811090545 METAR LIRA 090545Z 03002KT 9999 FEW018 08/08 Q1027=
200811090515 METAR LIRA 090515Z 06003KT 9999 FEW070 09/08 Q1027=
200811090445 METAR LIRA 090445Z 04003KT 9999 FEW020 09/08 Q1026=
200811090415 METAR LIRA 090415Z 01003KT 9999 FEW020 09/08 Q1026=
200811090345 METAR LIRA 090345Z 04002KT 9999 FEW020 09/08 Q1026=
200811090315 METAR LIRA 090315Z 05003KT 9999 FEW020 09/08 Q1026=
200811090245 METAR LIRA 090245Z 15001KT 9999 FEW020 09/08 Q1026=
200811090215 METAR LIRA 090215Z 09002KT 9999 FEW020 10/08 Q1026=
200811090145 METAR LIRA 090145Z 04003KT 9999 FEW020 10/08 Q1026=
200811090115 METAR LIRA 090115Z 04003KT 9999 FEW020 10/08 Q1026=
200811090045 METAR LIRA 090045Z 05004KT 9999 FEW020 10/08 Q1026=
200811090015 METAR LIRA 090015Z 03002KT 9999 FEW020 11/09 Q1026=
200811082345 METAR LIRA 082345Z 00000KT 9999 FEW020 11/09 Q1026=
200811082315 METAR LIRA 082315Z 10002KT 9999 FEW020 11/07 Q1026=
200811082245 METAR LIRA 082245Z 11004KT 9999 FEW020 11/08 Q1026=
200811082215 METAR LIRA 082215Z 09002KT 9999 FEW020 12/09 Q1026=
200811082145 METAR LIRA 082145Z 14002KT 9999 FEW020 12/09 Q1026=
200811082115 METAR LIRA 082115Z 15002KT 9999 FEW020 12/09 Q1026=
200811082045 METAR LIRA 082045Z 14003KT 9999 FEW020 12/09 Q1026=
200811082015 METAR LIRA 082015Z 14002KT 9999 FEW020 12/10 Q1026=
200811081945 METAR LIRA 081945Z 12003KT 9999 FEW020 12/10 Q1025=
200811081915 METAR LIRA 081915Z 14002KT 9999 FEW020 13/09 Q1025=
200811081845 METAR LIRA 081845Z 16004KT 9999 FEW020 13/10 Q1025=
200811081815 METAR LIRA 081815Z 15007KT 090V190 9999 FEW020 14/10 Q1025=
200811081745 METAR LIRA 081745Z 17006KT 120V200 9999 FEW020 14/11 Q1024=
200811081715 METAR LIRA 081715Z 18005KT 9999 FEW020 FEW021TCU 15/11 Q1024=
200811081645 METAR LIRA 081645Z 16004KT 9999 FEW020 FEW021TCU 16/10 Q1024=
200811081615 METAR LIRA 081615Z 18003KT 9999 FEW020 FEW021TCU 16/10 Q1023=
200811081545 METAR LIRA 081545Z 18003KT 9999 FEW020 16/10 Q1023=
200811081515 METAR LIRA 081515Z 20002KT 9999 SCT015 17/10 Q1023=
200811081445 METAR LIRA 081445Z 18004KT 9999 SCT015 17/10 Q1023=
200811081415 METAR LIRA 081415Z 18002KT 9999 SCT015 17/10 Q1023=
200811081345 METAR LIRA 081345Z 15005KT 120V190 9999 FEW015 FEW016CB 17/10
                        Q1023=
200811081315 METAR LIRA 081315Z 14008KT 110V180 9999 FEW015 FEW016CB 17/09
                        Q1023 RETS=
200811081245 METAR LIRA 081245Z 18007KT 140V200 9999 TS FEW015 FEW016CB
                        SCT025 18/09 Q1023=
200811081215 METAR LIRA 081215Z 27003KT 210V290 9999 FEW015 FEW016CB SCT025
                        17/09 Q1023=
200811081145 METAR LIRA 081145Z 21007KT 150V240 9999 FEW015 FEW016CB SCT025
                        18/09 Q1022=
200811081115 METAR LIRA 081115Z 21007KT 160V240 9999 SCT015 FEW017CB 18/09
                        Q1022=
200811081045 METAR LIRA 081045Z 17004KT 9999 SCT015 SCT070 18/10 Q1023=
200811081015 METAR LIRA 081015Z 20005KT 120V230 9999 FEW015 SCT070 18/11
                        Q1023=
200811080945 METAR LIRA 080945Z 21003KT 9999 FEW015 SCT070 18/12 Q1023=
200811080915 METAR LIRA 080915Z 28002KT 9999 FEW015 15/12 Q1022=
200811080845 METAR LIRA 080845Z 02003KT 9999 FEW015 15/12 Q1022=
200811080815 METAR LIRA 080815Z 01003KT 9999 FEW015 SCT070 14/12 Q1022=
200811080745 METAR LIRA 080745Z 05002KT 9999 FEW015 SCT030 12/10 Q1022=
200811080715 METAR LIRA 080715Z 16003KT 9999 FEW015 SCT030 12/10 Q1021=
200811080645 METAR LIRA 080645Z 16004KT 120V200 9999 FEW015 SCT030 12/10
                        Q1021=
200811080615 METAR LIRA 080615Z 20005KT 9999 FEW015 SCT030 10/09 Q1021=
200811080545 METAR LIRA 080545Z 17003KT 9999 FEW015 SCT030 10/09 Q1020=
200811080515 METAR LIRA 080515Z 13002KT 9999 FEW015 SCT030 10/08 Q1020=
200811080445 METAR LIRA 080445Z 17002KT 9999 FEW030 10/09 Q1019=
200811080415 METAR LIRA 080415Z 00000KT 9999 FEW030 10/09 Q1019=
200811080345 METAR LIRA 080345Z 15002KT 9999 FEW030 11/09 Q1019=
200811080315 METAR LIRA 080315Z 15002KT 9999 FEW030 11/09 Q1019=
200811080245 METAR LIRA 080245Z 14003KT 9999 FEW030 11/09 Q1019=
200811080215 METAR LIRA 080215Z 14002KT 9999 FEW030 11/10 Q1019=
200811080145 METAR LIRA 080145Z 16004KT 9999 FEW030 11/09 Q1019=
200811080115 METAR LIRA 080115Z 14002KT 9999 FEW030 11/09 Q1019=
200811080045 METAR LIRA 080045Z 16003KT 9999 FEW025 11/10 Q1019=
200811080015 METAR LIRA 080015Z 14003KT 9999 FEW030 11/10 Q1018=
200811072345 METAR LIRA 072345Z 12003KT 9999 FEW060 11/10 Q1018=
200811072315 METAR LIRA 072315Z 14003KT 9999 FEW030 12/10 Q1018=
200811072245 METAR LIRA 072245Z 13003KT 9999 FEW030 12/11 Q1018=
200811072215 METAR LIRA 072215Z 12003KT 9999 FEW030 12/11 Q1018=
200811072145 METAR LIRA 072145Z 17004KT 9999 SCT040 12/10 Q1018=
200811072115 METAR LIRA 072115Z 14004KT 9999 FEW020TCU SCT060 13/11 Q1018=
200811072045 METAR LIRA 072045Z 17002KT 9999 FEW020 SCT040 13/11 Q1018=
200811072015 METAR LIRA 072015Z 17003KT 9999 FEW020 SCT040 13/11 Q1017=
200811071945 METAR LIRA 071945Z 17002KT 9999 FEW020TCU SCT040 13/12 Q1017=
200811071915 METAR LIRA 071915Z 15002KT 9999 VCTS FEW020CB SCT040 13/12
                        Q1017=
200811071845 METAR LIRA 071845Z 00000KT 9999 VCTS FEW020CB SCT060 13/12
                        Q1017=
200811071815 METAR LIRA 071815Z 16003KT 9999 VCTS FEW020CB SCT070 14/12
                        Q1016=
200811071745 METAR LIRA 071745Z 17005KT 9999 FEW025TCU 14/12 Q1016=
200811071715 METAR LIRA 071715Z 16003KT 9999 FEW030 14/12 Q1016=
200811071645 METAR LIRA 071645Z 20003KT 9999 SCT015 FEW020CB 14/11 Q1015=
200811071615 METAR LIRA 071615Z 00000KT 9999 SCT015 FEW020CB SCT070 15/09
                        Q1015=
200811071545 METAR LIRA 071545Z 29007KT 9999 RA SCT015 FEW020CB SCT070
                        17/10 Q1015=
200811071515 METAR LIRA 071515Z 24002KT 9999 SCT015 FEW020CB 18/09 Q1015=
200811071445 METAR LIRA 071445Z 26002KT 9999 SCT020 FEW022CB SCT200 18/09
                        Q1015=
200811071415 METAR LIRA 071415Z 27002KT 9999 FEW020 FEW022CB BKN200 18/09
                        Q1015=
200811071345 METAR LIRA 071345Z 27002KT 9999 FEW020 FEW022CB BKN200 18/09
                        Q1015=
200811071315 METAR LIRA 071315Z 27003KT 9999 FEW020 FEW022CB BKN200 18/09
                        Q1015=
200811071245 METAR LIRA 071245Z 35001KT 9999 SCT020 BKN200 18/09 Q1015=
200811071215 METAR LIRA 071215Z 25003KT 9999 SCT020 BKN200 18/09 Q1015=
200811071145 METAR LIRA 071145Z 30002KT 9999 FEW020 SCT200 17/10 Q1015=
200811071115 METAR LIRA 071115Z 29003KT 9999 FEW020 SCT200 17/10 Q1015=
200811071045 METAR LIRA 071045Z 33003KT 9999 FEW020 SCT200 16/10 Q1015=
200811071015 METAR LIRA 071015Z 01002KT 9999 FEW020 BKN200 15/10 Q1015=
200811070945 METAR LIRA 070945Z 36003KT 9999 FEW022 BKN200 14/10 Q1015=
200811070915 METAR LIRA 070915Z 01002KT 9999 FEW070 BKN200 13/11 Q1014=
200811070845 METAR LIRA 070845Z 01002KT 9999 FEW070 BKN200 13/11 Q1014=
200811070815 METAR LIRA 070815Z 33002KT 9999 FEW018 SCT200 13/10 Q1014=
200811070745 METAR LIRA 070745Z 05002KT 9999 FEW018 SCT200 12/10 Q1014=
200811070715 METAR LIRA 070715Z 08001KT 9999 FEW016 SCT200 11/10 Q1014=
200811070645 METAR LIRA 070645Z 05003KT 9999 FEW015 FEW020CB SCT200 11/10
                        Q1014=
200811070615 METAR LIRA 070615Z 10004KT 9999 FEW015 FEW020CB 11/10 Q1014=
200811070545 METAR LIRA 070545Z 31001KT 9999 FEW015 FEW020CB 11/10 Q1014
                        RETS=
200811070515 METAR LIRA 070515Z 03003KT 9999 FEW020 FEW022CB 11/09 Q1014
                        RETS=
200811070445 METAR LIRA 070445Z 35002KT 9999 -TSRA FEW018CB SCT080 11/09
                        Q1013=
200811070415 METAR LIRA 070415Z 01002KT 9999 FEW018CB SCT025 11/09 Q1013=
200811070345 METAR LIRA 070345Z 00000KT 9999 FEW018CB SCT025 12/09 Q1013=
200811070315 METAR LIRA 070315Z 00000KT 9999 FEW018CB SCT025 11/09 Q1013=
200811070245 METAR LIRA 070245Z 12002KT 9999 FEW018CB SCT025 12/10 Q1013=
200811070215 METAR LIRA 070215Z 08003KT 9999 FEW018CB SCT080 13/10 Q1013=
200811070145 METAR LIRA 070145Z 12003KT 9999 FEW018CB SCT060 13/11 Q1014=
200811070115 METAR LIRA 070115Z 00000KT 9999 FEW018CB SCT070 13/11 Q1014=
200811070045 METAR LIRA 070045Z 35002KT 9999 FEW018CB SCT070 14/10 Q1014=
200811070015 METAR LIRA 070015Z 33003KT 9999 FEW018CB SCT025 14/09 Q1014
                        RETS=
200811062345 METAR LIRA 062345Z 02004KT 9999 -TSRA SCT018CB SCT025 15/09
                        Q1014=
200811062315 METAR LIRA 062315Z 14004KT 9999 -TSRA SCT018CB SCT025 15/08
                        Q1014=
200811062245 METAR LIRA 062245Z 18011KT 150V210 9999 SCT018CB SCT200 15/10
                        Q1014 RETS=
200811062215 METAR LIRA 062215Z 20007KT 160V230 9999 TS SCT018CB SCT200
                        15/11 Q1014=
200811062145 METAR LIRA 062145Z 17009KT 9999 TS FEW018CB SCT025 15/12
                        Q1014=
200811062115 METAR LIRA 062115Z 14004KT 9999 FEW018CB SCT080 14/12 Q1014=
200811062045 METAR LIRA 062045Z 12004KT 9999 FEW018CB SCT080 14/11 Q1014=
200811062015 METAR LIRA 062015Z 14007KT 130V200 9999 FEW020CB SCT080 14/11
                        Q1014=
200811061945 METAR LIRA 061945Z 13006KT 100V170 9999 FEW020CB SCT070 14/11
                        Q1014 RETS=
200811061915 METAR LIRA 061915Z 12003KT 9999 TS FEW016 FEW018CB SCT070
                        14/11 Q1014=
200811061845 METAR LIRA 061845Z 11005KT 9999 TS FEW016 FEW018CB SCT070
                        14/11 Q1014=
200811061815 METAR LIRA 061815Z 11004KT 9999 TS FEW016 FEW020CB SCT070
                        14/11 Q1014=
200811061745 METAR LIRA 061745Z 09005KT 050V110 9999 TS FEW016 FEW020CB
                        SCT060 14/10 Q1014=
200811061715 METAR LIRA 061715Z 13001KT 9999 TS FEW016 FEW020CB SCT060
                        15/10 Q1013=
200811061645 METAR LIRA 061645Z 14005KT 9999 FEW016CB SCT060 16/09 Q1013=
200811061615 METAR LIRA 061615Z 14004KT 9999 FEW016CB SCT060 16/09 Q1013=
200811061545 METAR LIRA 061545Z 18003KT 9999 FEW016CB SCT060 17/11 Q1013=
200811061515 METAR LIRA 061515Z 18003KT 9999 FEW016CB BKN030 17/12 Q1013
                        RETS=
200811061445 METAR LIRA 061445Z 26009KT 200V320 8000 TS SCT016CB SCT020
                        19/09 Q1013=
200811061415 METAR LIRA 061415Z 26004KT 9999 FEW016CB SCT020 19/08 Q1013=
200811061345 METAR LIRA 061345Z 24006KT 9999 FEW016CB SCT020 20/09 Q1013=
200811061315 METAR LIRA 061315Z 24005KT 160V280 9999 FEW016CB SCT020 20/09
                        Q1013=
200811061245 METAR LIRA 061245Z 26003KT 9999 SCT020 19/12 Q1013=
200811061215 METAR LIRA 061215Z 27004KT 9999 FEW018 FEW020TCU 19/12 Q1013=
200811061145 METAR LIRA 061145Z 24003KT 9999 FEW018 FEW020TCU 17/12 Q1013=
200811061115 METAR LIRA 061115Z 00000KT 9999 FEW018 FEW020TCU 17/12 Q1013=
200811061045 METAR LIRA 061045Z 01001KT 9999 FEW018 15/12 Q1014=
200811061015 METAR LIRA 061015Z 36002KT 9999 FEW020 SCT080 14/11 Q1014=
200811060945 METAR LIRA 060945Z 05004KT 9999 FEW020 SCT080 13/11 Q1014=
200811060915 METAR LIRA 060915Z 05002KT 9999 FEW020 SCT080 13/11 Q1014=
200811060845 METAR LIRA 060845Z 05004KT 9999 FEW020 SCT070 12/10 Q1014=
200811060815 METAR LIRA 060815Z 03002KT 9999 FEW020 SCT070 12/11 Q1014=
200811060745 METAR LIRA 060745Z 01002KT 9999 FEW020 SCT080 BKN200 12/11
                        Q1014=
200811060715 METAR LIRA 060715Z 00000KT 9999 FEW020 SCT200 11/10 Q1014=
200811060645 METAR LIRA 060645Z 00000KT 9999 FEW020 SCT200 10/09 Q1014=
200811060615 METAR LIRA 060615Z 00000KT 9999 FEW020 SCT200 10/09 Q1014=
200811060545 METAR LIRA 060545Z 00000KT 9999 FEW080 SCT200 10/09 Q1014=
200811060515 METAR LIRA 060515Z 00000KT CAVOK 10/09 Q1014=
200811060445 METAR LIRA 060445Z 00000KT CAVOK 10/09 Q1014=
200811060415 METAR LIRA 060415Z 00000KT CAVOK 10/09 Q1014=
200811060345 METAR LIRA 060345Z 09002KT CAVOK 10/09 Q1014=
200811060315 METAR LIRA 060315Z 04002KT CAVOK 11/10 Q1014=
200811060245 METAR LIRA 060245Z 07004KT CAVOK 11/10 Q1014=
200811060215 METAR LIRA 060215Z 09002KT 9999 FEW070 11/10 Q1015=
200811060145 METAR LIRA 060145Z 06002KT 9999 FEW070 11/10 Q1015=
200811060115 METAR LIRA 060115Z 05001KT 9999 FEW070 12/10 Q1015=
200811060045 METAR LIRA 060045Z 06003KT 9999 FEW070 12/09 Q1015=
200811060015 METAR LIRA 060015Z 03002KT 9999 FEW070 12/10 Q1015=
200811052345 METAR LIRA 052345Z 13002KT CAVOK 13/10 Q1015=
200811052315 METAR LIRA 052315Z 00000KT CAVOK 14/11 Q1016=
200811052245 METAR LIRA 052245Z 10003KT CAVOK 14/12 Q1016=
200811052215 METAR LIRA 052215Z 15001KT CAVOK 14/11 Q1016=
200811052145 METAR LIRA 052145Z 13002KT CAVOK 14/12 Q1016=
200811052115 METAR LIRA 052115Z 00000KT CAVOK 15/12 Q1016=
200811052045 METAR LIRA 052045Z 12003KT 9999 FEW080 15/12 Q1016=
200811052015 METAR LIRA 052015Z 12003KT 9999 SCT080 15/12 Q1016=
200811051945 METAR LIRA 051945Z 17002KT 9999 SCT080 15/12 Q1016=
200811051915 METAR LIRA 051915Z 12004KT 9999 SCT080 15/12 Q1016=
200811051845 METAR LIRA 051845Z 17001KT 9999 FEW070 16/13 Q1016=
200811051815 METAR LIRA 051815Z 14002KT 9999 FEW070 17/12 Q1016=
200811051745 METAR LIRA 051745Z 00000KT 9999 FEW070 SCT200 17/12 Q1016=
200811051715 METAR LIRA 051715Z 23002KT 9999 FEW070 SCT200 18/12 Q1016=
200811051645 METAR LIRA 051645Z 27002KT 9999 FEW018 18/12 Q1015=
200811051615 METAR LIRA 051615Z 27003KT 9999 FEW018 20/12 Q1015=
200811051545 METAR LIRA 051545Z 30004KT 9999 FEW018 20/11 Q1016=
200811051515 METAR LIRA 051515Z 27006KT 230V300 9999 FEW018 21/11 Q1015=
200811051445 METAR LIRA 051445Z 27004KT 240V310 9999 FEW018 21/12 Q1016=
200811051415 METAR LIRA 051415Z 26003KT 9999 FEW018 FEW020TCU 21/12 Q1016=
200811051345 METAR LIRA 051345Z 26004KT 9999 FEW018 FEW020TCU 21/12 Q1016=
200811051315 METAR LIRA 051315Z 28004KT 9999 SCT018 22/13 Q1016=
200811051245 METAR LIRA 051245Z 25004KT 9999 SCT018 21/12 Q1016=
200811051215 METAR LIRA 051215Z 22003KT 9999 SCT018 21/12 Q1016=
200811051145 METAR LIRA 051145Z 24005KT 160V280 9999 SCT018 21/13 Q1016=
200811051115 METAR LIRA 051115Z 22005KT 170V280 9999 SCT018 21/13 Q1017=
200811051045 METAR LIRA 051045Z 23006KT 190V270 9999 SCT020 21/14 Q1017=
200811051015 METAR LIRA 051015Z 24004KT 9999 FEW018 20/13 Q1017=
200811050945 METAR LIRA 050945Z 19006KT 9999 FEW018 20/12 Q1017=
200811050915 METAR LIRA 050915Z 21005KT 9999 FEW018 20/13 Q1017=
200811050845 METAR LIRA 050845Z 18006KT 9999 FEW018 19/15 Q1017=
200811050815 METAR LIRA 050815Z 18005KT 9999 FEW018 19/15 Q1017=
200811050745 METAR LIRA 050745Z 13005KT 9999 FEW018 17/15 Q1017=
200811050715 METAR LIRA 050715Z 18005KT 9999 FEW018 17/14 Q1017=
200811050645 METAR LIRA 050645Z 16005KT 100V180 9999 SCT018 15/12 Q1017=
200811050615 METAR LIRA 050615Z 16004KT 9999 FEW018 14/12 Q1017=
200811050545 METAR LIRA 050545Z 15005KT 9999 FEW018 15/13 Q1016=
200811050515 METAR LIRA 050515Z 18003KT 9999 FEW070 15/13 Q1016=
200811050445 METAR LIRA 050445Z 15005KT 9999 FEW070 14/13 Q1016=
200811050415 METAR LIRA 050415Z 15005KT CAVOK 14/13 Q1016=
200811050345 METAR LIRA 050345Z 14005KT 9999 FEW070 15/13 Q1016=
200811050315 METAR LIRA 050315Z 16005KT 9999 FEW070 15/13 Q1016=
200811050245 METAR LIRA 050245Z 16004KT 9999 FEW070 15/12 Q1016=
200811050215 METAR LIRA 050215Z 14005KT 9999 SCT070 16/13 Q1016=
200811050145 METAR LIRA 050145Z 15005KT 9999 SCT070 16/13 Q1016=
200811050115 METAR LIRA 050115Z 16008KT 9999 FEW070 16/13 Q1016=
200811050045 METAR LIRA 050045Z 16008KT 9999 FEW070 16/14 Q1016=
200811050015 METAR LIRA 050015Z 15008KT CAVOK 18/14 Q1015=
200811042345 METAR LIRA 042345Z 16006KT CAVOK 18/15 Q1015=
200811042315 METAR LIRA 042315Z 16009KT 9999 FEW070 18/15 Q1015=
200811042245 METAR LIRA 042245Z 16009KT 9999 FEW025 18/15 Q1015=
200811042215 METAR LIRA 042215Z 17009KT 9999 SCT015 FEW017CB SCT070 18/15
                        Q1015=
200811042145 METAR LIRA 042145Z 17010KT 140V220 9999 SCT015 FEW017CB SCT070
                        17/15 Q1014=
200811042115 METAR LIRA 042115Z 16011KT 130V190 9999 SCT015 FEW017CB SCT070
                        17/15 Q1014=
200811042045 METAR LIRA 042045Z 18010KT 9999 SCT015 FEW017CB SCT070 17/15
                        Q1014 RETS=
200811042015 METAR LIRA 042015Z 18012KT 9999 SCT015 FEW017CB SCT070 17/15
                        Q1014 RETS=
200811041945 METAR LIRA 041945Z 18011KT 150V220 8000 -TSRA SCT012 SCT015CB
                        BKN025 16/13 Q1014=
200811041915 METAR LIRA 041915Z 18008KT 150V230 8000 -TSRA SCT012 SCT015CB
                        BKN025 16/14 Q1013=
200811041845 METAR LIRA 041845Z 17004KT 8000 -TSRA SCT012 SCT013CB BKN025
                        16/14 Q1014=
200811041815 METAR LIRA 041815Z 09002KT 6000 -TSRA SCT012 SCT013CB BKN025
                        17/14 Q1013=
200811041745 METAR LIRA 041745Z 25004KT 8000 -TSRA SCT012 SCT013CB BKN025
                        17/14 Q1014=
200811041715 METAR LIRA 041715Z 19006KT 130V240 8000 -TSRA SCT012 SCT013CB
                        BKN025 16/14 Q1013=
200811041645 METAR LIRA 041645Z 14009KT 8000 -TSRA SCT012 SCT013CB 15/14
                        Q1013=
200811041615 METAR LIRA 041615Z 11010KT 070V210 3000 -TSRA FEW009 SCT012
                        SCT013CB 15/13 Q1012=
200811041545 METAR LIRA 041545Z 19009KT 160V270 1200 R15//// -TSRA FEW009
                        SCT010 SCT012CB BKN025 16/14 Q1013=
200811041515 METAR LIRA 041515Z 15023G33KT 9999 TS FEW017 FEW018CB BKN070
                        22/13 Q1010=
200811041445 METAR LIRA 041445Z 20005KT 090V270 9999 FEW017 FEW018CB BKN080
                        23/12 Q1010=
200811041415 METAR LIRA 041415Z 12007KT 090V180 9999 FEW017 FEW018CB BKN080
                        23/12 Q1010=
200811041345 METAR LIRA 041345Z 13018KT 090V170 9999 FEW018 BKN080 23/09
                        Q1011=
200811041315 METAR LIRA 041315Z 15017KT 9999 FEW018 BKN080 24/11 Q1012=
200811041245 METAR LIRA 041245Z 15019KT 9999 FEW018 BKN080 23/14 Q1012=
200811041215 METAR LIRA 041215Z 14020KT 9999 FEW018 BKN080 23/12 Q1012=
200811041145 METAR LIRA 041145Z 14020G30KT 9999 -RA FEW018 BKN080 23/12
                        Q1012=
200811041115 METAR LIRA 041115Z 16015KT 120V200 8000 -RA FEW018 SCT030
                        BKN070 22/13 Q1013=
200811041045 METAR LIRA 041045Z 15007G18KT 070V210 8000 FEW018 SCT030
                        BKN070 21/16 Q1013=
200811041015 METAR LIRA 041015Z 33003KT 220V340 9999 FEW018 SCT030 BKN080
                        20/16 Q1013=
200811040945 METAR LIRA 040945Z 33002KT 9999 FEW018 SCT030 BKN080 20/16
                        Q1013=
200811040915 METAR LIRA 040915Z 32004KT 9999 FEW018 SCT030 BKN070 20/15
                        Q1013=
200811040845 METAR LIRA 040845Z 06004KT 020V140 9999 FEW018 BKN080 19/15
                        Q1014=
200811040815 METAR LIRA 040815Z 04006KT 330V090 9999 FEW018 BKN080 18/15
                        Q1014=
200811040745 METAR LIRA 040745Z 05007KT 010V110 9999 FEW018 BKN070 17/16
                        Q1015=
200811040715 METAR LIRA 040715Z 05006KT 360V090 9999 FEW018 BKN080 17/16
                        Q1015=
200811040645 METAR LIRA 040645Z 04004KT 310V070 8000 FEW018 BKN080 17/16
                        Q1015=
200811040615 METAR LIRA 040615Z 36005KT 330V040 8000 FEW017 BKN030 17/15
                        Q1016=
200811040545 METAR LIRA 040545Z 33005KT 7000 -RA FEW018 BKN030 18/15 Q1016=
200811040515 METAR LIRA 040515Z 31001KT 9999 -RA FEW018 SCT033 19/15 Q1015=
200811040445 METAR LIRA 040445Z 11002KT 9999 -RA FEW018 SCT033 19/15 Q1015=
200811040415 METAR LIRA 040415Z 14006KT 9999 -RA FEW018 SCT030 20/16 Q1015=
200811040345 METAR LIRA 040345Z 13008KT 9999 FEW018 SCT025 17/14 Q1015=
200811040315 METAR LIRA 040315Z 14008KT 9999 -RA FEW018 SCT025 BKN070
                        17/14 Q1016=
200811040245 METAR LIRA 040245Z 15025KT 9999 FEW018 SCT070 17/13 Q1016=
200811040215 METAR LIRA 040215Z 14024G34KT 9999 FEW018 SCT070 17/13 Q1016=
200811040145 METAR LIRA 040145Z 14009KT 9999 FEW018 SCT070 17/13 Q1016=
200811040115 METAR LIRA 040115Z 00000KT 9999 FEW018 SCT070 18/13 Q1016=
200811040045 METAR LIRA 040045Z 00000KT 9999 FEW018 SCT070 18/12 Q1016=
200811040015 METAR LIRA 040015Z 10005KT 9999 FEW018 SCT070 19/13 Q1016=
200811032345 METAR LIRA 032345Z 11007KT 080V140 9999 FEW018 SCT070 18/16
                        Q1016=
200811032315 METAR LIRA 032315Z 11008G21KT 010V130 9999 FEW018 SCT080
                        19/17 Q1016=
200811032245 METAR LIRA 032245Z 17005KT 100V260 9999 FEW018 SCT025 19/17
                        Q1016=
200811032215 METAR LIRA 032215Z 13022G34KT 090V160 9999 FEW018 SCT025
                        18/15 Q1016=
200811032145 METAR LIRA 032145Z 17008KT 140V240 9999 SCT070 BKN200 18/16
                        Q1016=
200811032115 METAR LIRA 032115Z 26003KT 9999 SCT070 BKN200 17/14 Q1016=
200811032045 METAR LIRA 032045Z 28003KT 9999 SCT070 BKN200 17/14 Q1016=
200811032015 METAR LIRA 032015Z 15001KT 9999 SCT070 BKN200 17/15 Q1016=
200811031945 METAR LIRA 031945Z 15004KT 9999 SCT070 BKN200 17/15 Q1016=
200811031915 METAR LIRA 031915Z 16005KT 9999 SCT070 SCT200 18/16 Q1016=
200811031845 METAR LIRA 031845Z 15005KT 9999 SCT070 SCT200 19/17 Q1015=
200811031815 METAR LIRA 031815Z 20006KT 9999 SCT070 19/17 Q1015=
200811031745 METAR LIRA 031745Z 20006KT 9999 SCT070 19/16 Q1015=
200811031715 METAR LIRA 031715Z 19007KT 9999 SCT070 20/16 Q1015=
200811031645 METAR LIRA 031645Z 19008KT 9999 SCT070 SCT200 21/17 Q1015=
200811031615 METAR LIRA 031615Z 19010KT 9999 SCT070 SCT200 21/18 Q1015=
200811031545 METAR LIRA 031545Z 21009KT 170V250 9999 SCT070 22/16 Q1015=
200811031515 METAR LIRA 031515Z 22005KT 160V260 9999 SCT070 23/15 Q1015=
200811031445 METAR LIRA 031445Z 20008KT 160V230 9999 SCT070 23/15 Q1015=
200811031415 METAR LIRA 031415Z 18010KT 140V220 9999 FEW070 23/15 Q1015=
200811031345 METAR LIRA 031345Z 16011KT 130V200 9999 FEW070 23/16 Q1015=
200811031315 METAR LIRA 031315Z 16016KT 9999 FEW070 23/15 Q1015=
200811031245 METAR LIRA 031245Z 16016KT 140V220 9999 FEW070 SCT200 23/14
                        Q1016=
200811031215 METAR LIRA 031215Z 16015KT 140V200 CAVOK 23/13 Q1016=
200811031145 METAR LIRA 031145Z 18015KT 150V210 CAVOK 24/10 Q1016=
200811031115 METAR LIRA 031115Z 18014KT 150V220 CAVOK 24/11 Q1016=
200811031045 METAR LIRA 031045Z 17015KT 140V210 CAVOK 23/10 Q1016=
200811031015 METAR LIRA 031015Z 16015KT 120V210 CAVOK 23/10 Q1016=
200811030945 METAR LIRA 030945Z 16015KT 120V210 9999 FEW035 SCT200 23/08
                        Q1016=
200811030915 METAR LIRA 030915Z 16014KT 9999 FEW035 22/11 Q1016=
200811030845 METAR LIRA 030845Z 16013KT 9999 FEW070 21/13 Q1016=
200811030815 METAR LIRA 030815Z 18007KT 9999 FEW070 16/11 Q1016=
200811030745 METAR LIRA 030745Z 17007KT 9999 FEW070 15/10 Q1016=
200811030715 METAR LIRA 030715Z 16003KT 9999 FEW070 15/10 Q1016=
200811030645 METAR LIRA 030645Z 23003KT 9999 FEW070 18/08 Q1016=
200811030615 METAR LIRA 030615Z 23007KT 9999 FEW070 17/09 Q1015=
200811030545 METAR LIRA 030545Z 10009KT 080V150 9999 FEW070 17/09 Q1014=
200811030515 METAR LIRA 030515Z 09009KT 050V120 9999 FEW070 16/09 Q1014=
200811030445 METAR LIRA 030445Z 09005KT CAVOK 15/09 Q1015=
200811030415 METAR LIRA 030415Z 07005KT CAVOK 15/08 Q1015=
200811030345 METAR LIRA 030345Z 29002KT CAVOK 16/09 Q1015=
200811030315 METAR LIRA 030315Z 09006KT CAVOK 16/09 Q1015=
200811030245 METAR LIRA 030245Z 10007KT CAVOK 16/09 Q1016=
200811030215 METAR LIRA 030215Z 11007KT CAVOK 17/09 Q1016=
200811030145 METAR LIRA 030145Z 11009KT CAVOK 17/09 Q1016=
200811030115 METAR LIRA 030115Z 11011KT CAVOK 17/10 Q1016=
200811030045 METAR LIRA 030045Z 11011KT CAVOK 17/10 Q1016=
200811030015 METAR LIRA 030015Z 13010KT CAVOK 17/10 Q1017=
200811022350 METAR LIRA 030045Z 11011KT CAVOK 17/10 Q1016=
200811022345 METAR LIRA 022345Z 12011KT 9999 FEW050 17/10 Q1017=
200811022315 METAR LIRA 022315Z 11010KT 9999 BKN050 17/10 Q1017=
200811022245 METAR LIRA 022245Z 11010KT 9999 SCT045 17/09 Q1017=
200811022215 METAR LIRA 022215Z 11009KT 9999 SCT060 17/09 Q1017=
200811022145 METAR LIRA 022145Z 11009KT 9999 SCT050 17/09 Q1017=
200811022115 METAR LIRA 022115Z 12006KT 9999 FEW060 17/10 Q1017=
200811022045 METAR LIRA 022045Z 12005KT 9999 FEW060 16/12 Q1017=
200811022015 METAR LIRA 022015Z 10003KT 9999 FEW060 15/12 Q1017=
200811021945 METAR LIRA 021945Z 19002KT 9999 FEW070 15/12 Q1017=
200811021915 METAR LIRA 021915Z 15003KT CAVOK 17/13 Q1017=
200811021845 METAR LIRA 021845Z 20003KT CAVOK 17/13 Q1017=
200811021815 METAR LIRA 021815Z 13005KT CAVOK 17/14 Q1017=
200811021745 METAR LIRA 021745Z 14006KT CAVOK 17/14 Q1017=
200811021715 METAR LIRA 021715Z 16006KT CAVOK 18/14 Q1017=
200811021645 METAR LIRA 021645Z 17005KT CAVOK 19/15 Q1017=
200811021615 METAR LIRA 021615Z 16007KT 100V180 CAVOK 20/14 Q1017=
200811021545 METAR LIRA 021545Z 17009KT 9999 FEW018 20/14 Q1017=
200811021515 METAR LIRA 021515Z 16008KT 100V190 9999 FEW020 21/14 Q1017=
200811021445 METAR LIRA 021445Z 18013KT 9999 FEW020 21/14 Q1017=
200811021415 METAR LIRA 021415Z 15012KT 130V210 9999 SCT020 22/14 Q1018=
200811021345 METAR LIRA 021345Z 18008KT 140V210 9999 SCT020 22/14 Q1018=
200811021315 METAR LIRA 021315Z 16010KT 9999 SCT018 22/14 Q1018=
200811021245 METAR LIRA 021245Z 15012KT 130V230 9999 SCT018 22/14 Q1018=
200811021215 METAR LIRA 021215Z 15013KT 9999 SCT018 22/14 Q1018=
200811021145 METAR LIRA 021145Z 17012KT 9999 SCT018 SCT200 22/13 Q1018=
200811021115 METAR LIRA 021115Z 16012KT 100V180 9999 SCT018 SCT200 22/14
                        Q1018=
200811021045 METAR LIRA 021045Z 17009KT 120V210 9999 FEW018 SCT200 22/13
                        Q1019=
200811021015 METAR LIRA 021015Z 13012KT 100V180 9999 FEW018 SCT200 21/13
                        Q1019=
200811020945 METAR LIRA 020945Z 15012KT 120V200 9999 FEW018 SCT200 21/13
                        Q1018=
200811020915 METAR LIRA 020915Z 14010KT 9999 FEW018 SCT200 20/14 Q1018=
200811020845 METAR LIRA 020845Z 15010KT 100V180 9999 FEW018 SCT200 18/15
                        Q1018=
200811020815 METAR LIRA 020815Z 15005KT 9999 FEW018 SCT200 17/15 Q1018=
200811020745 METAR LIRA 020745Z 02002KT 9999 FEW018 SCT200 14/13 Q1018=
200811020715 METAR LIRA 020715Z 00000KT 9999 FEW025 14/12 Q1018=
200811020645 METAR LIRA 020645Z 00000KT 9999 FEW025 13/11 Q1018=
200811020615 METAR LIRA 020615Z 06002KT 9999 FEW025 13/12 Q1018=
200811020545 METAR LIRA 020545Z 13002KT 9999 FEW025 13/12 Q1017=
200811020515 METAR LIRA 020515Z 14002KT 9999 FEW030 12/11 Q1017=
200811020445 METAR LIRA 020445Z 00000KT 9999 FEW030 SCT080 13/12 Q1017=
200811020415 METAR LIRA 020415Z 00000KT 9999 FEW035 SCT080 12/12 Q1017=
200811020345 METAR LIRA 020345Z 00000KT 9999 FEW040 12/11 Q1017=
200811020315 METAR LIRA 020315Z 07003KT 9999 FEW040 12/12 Q1017=
200811020245 METAR LIRA 020245Z 06002KT 9999 FEW040 SCT070 12/11 Q1017=
200811020215 METAR LIRA 020215Z 01002KT 9999 FEW040 SCT070 12/11 Q1017=
200811020145 METAR LIRA 020145Z 17001KT 9999 FEW080 12/12 Q1018=
200811020115 METAR LIRA 020115Z 18002KT 9999 FEW080 13/12 Q1017=
200811020045 METAR LIRA 020045Z 19002KT CAVOK 13/12 Q1017=
200811020015 METAR LIRA 020015Z 14001KT CAVOK 13/12 Q1017=
200811012345 METAR LIRA 012345Z 05003KT CAVOK 14/12 Q1017=
200811012315 METAR LIRA 012315Z 07004KT CAVOK 14/11 Q1017=
200811012245 METAR LIRA 012245Z 15001KT CAVOK 15/12 Q1017=
200811012215 METAR LIRA 012215Z 17003KT 9999 FEW030 14/11 Q1017=
200811012145 METAR LIRA 012145Z 17003KT CAVOK 14/12 Q1017=
200811012115 METAR LIRA 012115Z 19002KT CAVOK 14/12 Q1017=
200811012045 METAR LIRA 012045Z 09002KT CAVOK 15/12 Q1017=
200811012015 METAR LIRA 012015Z 11006KT 9999 FEW080 15/12 Q1016=
200811011945 METAR LIRA 011945Z 13004KT 9999 FEW020 SCT070 15/13 Q1016=
200811011915 METAR LIRA 011915Z 12003KT 9999 FEW020 SCT060 15/12 Q1016=
200811011845 METAR LIRA 011845Z 13003KT 9999 FEW020 SCT060 15/13 Q1016=
200811011815 METAR LIRA 011815Z 15003KT CAVOK 15/14 Q1016=
200811011745 METAR LIRA 011745Z 11003KT CAVOK 16/14 Q1015=
200811011715 METAR LIRA 011715Z 15003KT 9999 FEW030 18/14 Q1015=
200811011645 METAR LIRA 011645Z 23002KT 9999 FEW030 17/13 Q1015=
200811011615 METAR LIRA 011615Z 00000KT 9999 FEW030 19/14 Q1015=
200811011545 METAR LIRA 011545Z 22003KT 180V250 9999 FEW020 19/14 Q1014=
200811011515 METAR LIRA 011515Z 23004KT 180V260 9999 FEW020 19/13 Q1014=
200811011445 METAR LIRA 011445Z 21007KT 170V270 9999 FEW020 19/14 Q1014=
200811011415 METAR LIRA 011415Z 20007KT 170V250 9999 FEW020 20/13 Q1014=
200811011345 METAR LIRA 011345Z 21009KT 160V230 9999 SCT020 20/13 Q1013=
200811011315 METAR LIRA 011315Z 23006KT 170V260 9999 SCT025 20/14 Q1013=
200811011245 METAR LIRA 011245Z 23008KT 140V260 9999 SCT025 20/14 Q1013=
200811011215 METAR LIRA 011215Z 20008KT 170V270 9999 SCT025 20/14 Q1013=
200811011145 METAR LIRA 011145Z 20007KT 150V240 9999 SCT025 20/14 Q1012=
200811011115 METAR LIRA 011115Z 20009KT 170V270 9999 SCT025 20/14 Q1012=
200811011045 METAR LIRA 011045Z 23006KT 190V270 8000 FEW018 SCT030 19/14
                        Q1012=
200811011015 METAR LIRA 011015Z 24006KT 190V330 8000 FEW018 BKN025 19/15
                        Q1012=
200811010945 METAR LIRA 010945Z 24006KT 170V270 8000 FEW018 SCT030 18/16
                        Q1011=
200811010915 METAR LIRA 010915Z 25005KT 190V290 7000 FEW018 SCT025 18/15
                        Q1011=
200811010845 METAR LIRA 010845Z 22007KT 160V300 9999 FEW018 SCT030 18/16
                        Q1010=
200811010815 METAR LIRA 010815Z 20009KT 180V250 9999 FEW018 SCT060 18/16
                        Q1010=
200811010745 METAR LIRA 010745Z 21008KT 180V240 8000 FEW016 SCT030 18/16
                        Q1010=
200811010715 METAR LIRA 010715Z 17006KT 150V210 7000 FEW016 SCT035 17/16
                        Q1009=
200811010645 METAR LIRA 010645Z 19006KT 160V220 7000 FEW016 SCT030 17/15
                        Q1009=
200811010615 METAR LIRA 010615Z 20006KT 160V230 7000 FEW016 SCT025 17/15
                        Q1008=
200811010545 METAR LIRA 010545Z 19007KT 7000 SCT016 SCT030 17/15 Q1008=
200811010515 METAR LIRA 010515Z 20007KT 160V230 8000 SCT016 SCT025 17/15
                        Q1007=
200811010445 METAR LIRA 010445Z 22010G23KT 180V280 7000 -RA SCT016 FEW017TCU
                        SCT025 17/15 Q1007=
200811010415 METAR LIRA 010415Z 19012KT 160V240 9999 SCT016 FEW017TCU
                        SCT025 18/15 Q1006=
200811010345 METAR LIRA 010345Z 18013G23KT 150V220 9999 -RA SCT016 FEW017TCU
                        SCT025 18/16 Q1005=
200811010315 METAR LIRA 010315Z 18017KT 120V210 9999 -RA SCT016 FEW017TCU
                        SCT025 18/16 Q1005=
200811010245 METAR LIRA 010245Z 18014KT 150V210 9999 -RA SCT016 SCT025
                        18/16 Q1005=
200811010215 METAR LIRA 010215Z 18011KT 150V220 9999 FEW016 SCT030 18/16
                        Q1004=
200811010145 METAR LIRA 010145Z 18015KT 140V210 9999 FEW016 SCT030 18/17
                        Q1004=
200811010115 METAR LIRA 010115Z 19014KT 140V230 9999 FEW016 SCT070 19/17
                        Q1004=
200811010045 METAR LIRA 010045Z 19015KT 160V230 9999 FEW016 SCT070 20/16
                        Q1004=
200811010015 METAR LIRA 010015Z 19022G33KT 140V240 8000 -RA SCT012 FEW017CB
                        SCT070 20/16 Q1003 RERA=

</pre>

</body>
</html>
