##########################################################
# Query made at 11/10/2014 15:53:36 UTC
# Time interval: from 11/01/2010 00:00  to 12/01/2010 23:59  UTC
##########################################################

##########################################################
# LIRA, Roma / Ciampino (Italy)
# WMO index: 16239
# Latitude 41-47N. Longitude 012-35E. Altitude 129 m.
##########################################################

###################################
#  METAR/SPECI from LIRA
###################################
201012012350 METAR LIRA 020045Z 16005KT 9999 -RA FEW020 SCT030 12/10 Q1005=
201012012345 METAR LIRA 012345Z 17005KT 9999 FEW014 FEW020TCU SCT030 12/09
                        Q1005=
201012012315 METAR LIRA 012315Z 17004KT 9999 FEW020 SCT030 12/10 Q1005=
201012012245 METAR LIRA 012245Z 17004KT 9999 FEW020 SCT030 12/10 Q1005=
201012012215 METAR LIRA 012215Z 15005KT 9999 FEW020TCU SCT030 12/10 Q1005=
201012012145 METAR LIRA 012145Z 17004KT 9999 FEW020TCU SCT035 12/10 Q1005=
201012012115 METAR LIRA 012115Z 16005KT 9999 FEW020TCU SCT060 12/10 Q1005=
201012012045 METAR LIRA 012045Z 18005KT 150V230 9999 FEW018TCU SCT070
                        13/10 Q1005=
201012012015 METAR LIRA 012015Z 18007KT 140V220 9999 FEW018CB FEW020TCU
                        13/09 Q1004=
201012011945 METAR LIRA 011945Z 18006KT 9999 SCT018 SCT060 13/10 Q1004=
201012011915 METAR LIRA 011915Z 18007KT 9999 FEW020 12/10 Q1004=
201012011845 METAR LIRA 011845Z 18005KT 9999 FEW020 12/10 Q1003=
201012011815 METAR LIRA 011815Z 17005KT 9999 FEW020 12/10 Q1003=
201012011745 METAR LIRA 011745Z 16005KT 9999 FEW018 SCT070 12/10 Q1003=
201012011715 METAR LIRA 011715Z 15006KT 9999 FEW020 SCT070 12/10 Q1003=
201012011645 METAR LIRA 011645Z 17005KT 9999 FEW018 12/10 Q1003=
201012011615 METAR LIRA 011615Z 20005KT 150V240 9999 FEW018 13/09 Q1002=
201012011545 METAR LIRA 011545Z 23007KT 180V270 9999 FEW018 14/10 Q1002=
201012011515 METAR LIRA 011515Z 23011KT 180V280 9999 FEW018 SCT030 15/11
                        Q1002=
201012011445 METAR LIRA 011445Z 24008KT 190V300 9999 FEW016 BKN030 15/11
                        Q1001=
201012011415 METAR LIRA 011415Z 21006KT 130V250 9999 FEW015 BKN025 15/12
                        Q1001=
201012011345 METAR LIRA 011345Z 21006KT 150V260 9999 FEW015 SCT030 BKN070
                        15/12 Q1000=
201012011315 METAR LIRA 011315Z 23006KT 9999 FEW012 SCT025 15/13 Q1000=
201012011245 METAR LIRA 011245Z 23007KT 150V270 9000 -RA FEW012 SCT025
                        BKN060 15/12 Q1000=
201012011215 METAR LIRA 011215Z 18008KT 9000 -RA FEW012 SCT025 BKN060
                        16/14 Q0999=
201012011145 METAR LIRA 011145Z 21010KT 160V260 8000 -RA FEW012 SCT025
                        BKN060 17/15 Q0998=
201012011115 METAR LIRA 011115Z 21009KT 170V240 8000 FEW010 SCT025 17/15
                        Q0998=
201012011015 METAR LIRA 011015Z 18012KT 150V240 6000 FEW009 SCT025 17/15
                        Q0997=
201012010915 METAR LIRA 010915Z 18013KT 5000 -RA BR FEW009 SCT025 BKN080
                        17/15 Q0997=
201012010715 METAR LIRA 010715Z 16016KT 100V190 4000 -RA BR FEW009 BKN025
                        16/15 Q0994=
201012010655 METAR LIRA 010655Z 16017 4000 -RA BR SCT009 BKN025 16/15
                        Q0994=
201012010645 METAR LIRA 010645Z 16017KT 4000 -RA BR SCT009 BKN025 16/15
                        Q0994=
201012010515 METAR LIRA 010515Z 15018KT 090V190 5000 -RA BR SCT015 BKN025
                        16/15 Q0995=
201012010445 METAR LIRA 010445Z 15011KT 110V200 5000 -RA BR FEW015 BKN025
                        16/15 Q0995=
201012010415 METAR LIRA 010415Z 14015KT 5000 -RA BR FEW015 BKN025 16/16
                        Q0996=
201012010345 METAR LIRA 010345Z 14016KT 110V180 5000 -RA BR FEW015 BKN025
                        16/15 Q0996=
201012010315 METAR LIRA 010315Z 15016KT 6000 -RA FEW015 BKN025 17/15 Q0996=
201012010245 METAR LIRA 010245Z 15022KT 6000 -RA FEW015 BKN025 16/15 Q0996=
201012010215 METAR LIRA 010215Z 14020KT 6000 FEW015 BKN025 17/15 Q0997=
201011302115 METAR LIRA 302115Z 15012KT 8000 -RA SCT007 SCT022 BKN070
                        16/15 Q1000=
201011302045 METAR LIRA 302045Z 15015KT 6000 -RA SCT005 SCT022 BKN070
                        16/15 Q1000 RMK WS RWY15=
201011302015 METAR LIRA 302015Z 15013KT 6000 -RA SCT005 SCT022 BKN070
                        15/15 Q1001 WS RWY15=
201011301945 METAR LIRA 301945Z 16010KT 6000 SCT007 SCT027 15/15 Q1001=
201011301815 METAR LIRA 301815Z 36003KT 4000 -RA BR SCT002 SCT014 12/11
                        Q1001=
201011301715 METAR LIRA 301715Z 17007KT 130V230 3000 -RA BR FEW005 SCT014
                        BKN050 15/14 Q1001=
201011301615 METAR LIRA 301615Z 17007KT 130V210 3000 -RA BR FEW005 SCT014
                        FEW015TCU BKN020 15/14 Q1001=
201011301215 METAR LIRA 301215Z 16010KT 120V190 6000 RA SCT015 FEW016CB
                        BKN022 16/14 Q1002=
201011300945 METAR LIRA 300945Z VRB06KT 6000 -RA FEW013 SCT015 15/14 Q1002=
201011300915 METAR LIRA 300915Z 28001KT 6000 -RA FEW013 SCT015 11/10 Q1002=
201011300845 METAR LIRA 300845Z 31009KT 270V350 4000 -RA BR FEW007 FEW013TCU
                        SCT015 BKN020 10/09 Q1002 WS RWY
                        33=
201011300815 METAR LIRA 300815Z 33007KT 290V010 4000 -RA BR FEW010 FEW013TCU
                        SCT015 BKN020 10/09 Q1002=
201011300745 METAR LIRA 300745Z 34005KT 300V030 3500 -RA BR FEW010 FEW013TCU
                        SCT015 BKN020 09/08 Q1002=
201011300715 METAR LIRA 300715Z 36009KT 320V090 4000 -RA BR FEW006 SCT015
                        BKN020 09/08 Q1002=
201011300645 METAR LIRA 300645Z 04008KT 350V080 4000 -RA BR FEW006 SCT015
                        BKN020 09/08 Q1002=
201011300615 METAR LIRA 300615Z 02008KT 310V090 5000 -RA BR FEW007 SCT015
                        BKN020 09/08 Q1003=
201011300545 METAR LIRA 300545Z 02009KT 320V060 5000 -RA BR FEW007 SCT015
                        BKN020 08/07 Q1003=
201011300515 METAR LIRA 300515Z 36006KT 320V060 6000 -RA FEW007 SCT015
                        BKN020 07/07 Q1003=
201011300445 METAR LIRA 300445Z 01008KT 300V080 6000 -RA SCT003 SCT012
                        BKN018 07/06 Q1004=
201011300415 METAR LIRA 300415Z 01007KT 310V060 4000 -RA BR SCT003 SCT012
                        BKN018 07/06 Q1004=
201011300345 METAR LIRA 300345Z 02010KT 340V080 4000 -RA BR SCT003 BKN018
                        07/06 Q1005=
201011300315 METAR LIRA 300315Z 01011KT 310V060 4000 -RA BR SCT003 BKN018
                        07/07 Q1005=
201011300245 METAR LIRA 300245Z 35011KT 320V060 6000 -RA SCT004 SCT015
                        BKN022 08/07 Q1005=
201011300215 METAR LIRA 300215Z 02009KT 330V070 8000 -RA SCT015 SCT022
                        BKN060 08/07 Q1006=
201011300145 METAR LIRA 300145Z 01010KT 330V060 8000 -RA FEW015 SCT025
                        BKN060 07/06 Q1007=
201011300115 METAR LIRA 300115Z 02006KT 330V080 8000 -RA FEW015 SCT025
                        BKN060 07/06 Q1007=
201011300045 METAR LIRA 300045Z 04007KT 360V090 8000 -RA FEW015 SCT025
                        BKN060 08/06 Q1007=
201011300015 METAR LIRA 300015Z 04007KT 350V090 8000 -RA FEW015 SCT025
                        BKN060 07/06 Q1007=
201011292350 METAR LIRA 300045Z 04007KT 360V090 8000 -RA FEW015 SCT025
                        BKN060 08/06 Q1007=
201011292345 METAR LIRA 292345Z 04010KT 8000 -RA FEW015 SCT025 BKN060
                        07/06 Q1008=
201011292315 METAR LIRA 292315Z 03009KT 340V080 8000 -RA FEW015 SCT025
                        BKN060 08/07 Q1009=
201011292245 METAR LIRA 292245Z 35010KT 350V080 8000 -RA FEW015 SCT025
                        BKN060 08/07 Q1010=
201011292215 METAR LIRA 292215Z 04005KT 350V090 8000 -RA FEW015 SCT025
                        BKN060 08/07 Q1011=
201011292145 METAR LIRA 292145Z 03004KT 8000 -RA FEW015 SCT025 BKN060
                        09/07 Q1010=
201011292115 METAR LIRA 292115Z 13002KT 8000 -RA FEW015 SCT025 BKN060
                        10/08 Q1010=
201011292045 METAR LIRA 292045Z 17005KT 8000 -RA FEW017 SCT030 BKN070
                        10/06 Q1010=
201011292015 METAR LIRA 292015Z 17005KT 9999 FEW017 SCT030 BKN070 11/04
                        Q1010=
201011291945 METAR LIRA 291945Z 18004KT 130V250 9999 FEW017 SCT030 BKN070
                        10/02 Q1010=
201011291915 METAR LIRA 291915Z 14005KT 9999 FEW017 SCT030 BKN070 10/07
                        Q1010=
201011291845 METAR LIRA 291845Z 14005KT 9999 FEW017 SCT030 BKN070 10/06
                        Q1010=
201011291815 METAR LIRA 291815Z 16004KT 9999 FEW017 SCT030 BKN070 10/06
                        Q1010=
201011291745 METAR LIRA 291745Z 14005KT 9999 FEW017 SCT030 BKN070 10/06
                        Q1010=
201011291715 METAR LIRA 291715Z 15004KT 9999 FEW017 BKN070 10/07 Q1010=
201011291645 METAR LIRA 291645Z 13006KT 9999 FEW017 BKN080 10/07 Q1010=
201011291615 METAR LIRA 291615Z 16004KT 9999 FEW017 BKN080 11/06 Q1010=
201011291545 METAR LIRA 291545Z 18004KT 9999 FEW017 BKN080 11/05 Q1010=
201011291515 METAR LIRA 291515Z 19002KT 9999 FEW017 BKN080 11/05 Q1010=
201011291445 METAR LIRA 291445Z 20003KT 9999 FEW017 BKN080 12/05 Q1010=
201011291415 METAR LIRA 291415Z 23005KT 200V260 9999 FEW017 BKN080 12/06
                        Q1010=
201011291345 METAR LIRA 291345Z 23005KT 200V300 9999 FEW017 BKN080 12/05
                        Q1010=
201011291315 METAR LIRA 291315Z 24006KT 200V300 9999 FEW017 BKN080 12/04
                        Q1010=
201011291215 METAR LIRA 291215Z 26007KT 200V360 9999 FEW017 BKN080 12/05
                        Q1010=
201011291145 METAR LIRA 291145Z 24006KT 9999 FEW017 BKN080 12/05 Q1009=
201011291115 METAR LIRA 291115Z 23005KT 9999 FEW017 BKN080 12/05 Q1009=
201011291045 METAR LIRA 291045Z 23008KT 200V300 9999 FEW017 BKN080 12/04
                        Q1009=
201011291015 METAR LIRA 291015Z 19007KT 160V250 9999 FEW017 SCT080 12/03
                        Q1009=
201011290945 METAR LIRA 290945Z 23006KT 180V270 9999 FEW017 SCT080 11/05
                        Q1008=
201011290915 METAR LIRA 290915Z 20008KT 140V250 9999 FEW017 SCT080 11/05
                        Q1007=
201011290845 METAR LIRA 290845Z 22009KT 170V250 9999 FEW017 11/05 Q1007=
201011290815 METAR LIRA 290815Z 23012KT 180V280 9999 FEW017 12/06 Q1007=
201011290745 METAR LIRA 290745Z 23009KT 180V320 9999 FEW017 11/05 Q1005=
201011290715 METAR LIRA 290715Z 22006KT 170V260 9999 FEW017 10/05 Q1004=
201011290645 METAR LIRA 290645Z 21005KT 150V250 9999 FEW017 10/06 Q1004=
201011290615 METAR LIRA 290615Z 23007KT 180V280 9999 FEW017 11/07 Q1004=
201011290545 METAR LIRA 290545Z 20011KT 160V250 9999 FEW017 11/06 Q1003=
201011290515 METAR LIRA 290515Z 21007KT 170V260 9999 FEW017 10/06 Q1003=
201011290445 METAR LIRA 290445Z 18006KT 150V220 9999 FEW017 SCT025 10/07
                        Q1003=
201011290415 METAR LIRA 290415Z 18010KT 140V210 9999 FEW017 SCT025 10/08
                        Q1003=
201011290345 METAR LIRA 290345Z 17007KT 9999 FEW017 SCT025 09/08 Q1003=
201011290315 METAR LIRA 290315Z 14006KT 9999 FEW017 SCT025 09/07 Q1003=
201011290245 METAR LIRA 290245Z 09005KT 060V120 9999 FEW017 SCT025 09/07
                        Q1004=
201011290215 METAR LIRA 290215Z 10003KT 9999 FEW017 SCT025 09/08 Q1003=
201011290145 METAR LIRA 290145Z 08001KT 9999 SCT015 SCT020 10/08 Q1003=
201011290115 METAR LIRA 290115Z 19001KT 9999 SCT013 SCT020 10/08 Q1003=
201011290045 METAR LIRA 290045Z 30003KT 9999 SCT013 SCT020 11/08 Q1002=
201011290015 METAR LIRA 290015Z 31004KT 300V010 9999 SCT013 SCT020 11/08
                        Q1001=
201011282350 METAR LIRA 290045Z 30003KT 9999 SCT013 SCT020 11/08 Q1002=
201011282345 METAR LIRA 282345Z 32006KT 280V350 9999 SCT013 SCT020 11/08
                        Q1001=
201011282315 METAR LIRA 282315Z 30007KT 250V330 8000 SCT013 SCT020 11/09
                        Q1000=
201011282245 METAR LIRA 282245Z 30009KT 250V340 8000 SCT013 SCT020 11/10
                        Q0999=
201011282215 METAR LIRA 282215Z 26008KT 210V310 6000 -RA SCT013 BKN020
                        13/12 Q0998=
201011282145 METAR LIRA 282145Z 26006KT 200V320 6000 -RA SCT013 BKN020
                        13/12 Q0996=
201011282115 METAR LIRA 282115Z 23008KT 180V300 8000 -RA SCT013 SCT020
                        14/13 Q0995=
201011282045 METAR LIRA 282045Z 19007KT 150V240 8000 SCT013 SCT030 14/12
                        Q0995=
201011282015 METAR LIRA 282015Z 19009KT 160V230 8000 BR SCT013 SCT020
                        14/13 Q0994=
201011281945 METAR LIRA 281945Z 19009KT 120V270 8000 -RA SCT013 BKN020
                        14/13 Q0994=
201011281915 METAR LIRA 281915Z 19013KT 160V230 6000 RA SCT013 BKN020
                        14/13 Q0994 RERA=
201011281845 METAR LIRA 281845Z 14015KT 110V170 6000 RA SCT013 BKN020
                        15/13 Q0993=
201011281815 METAR LIRA 281815Z 14013KT 7000 -RA SCT013 BKN020 15/12 Q0993=
201011281745 METAR LIRA 281745Z 15012KT 6000 -RA SCT014 BKN020 15/12 Q0992=
201011281715 METAR LIRA 281715Z 15015KT 6000 -RA SCT013 BKN020 15/13 Q0993=
201011281645 METAR LIRA 281645Z 15013KT 120V180 6000 -RA SCT013 BKN023
                        16/14 Q0993=
201011281615 METAR LIRA 281615Z 16013KT 110V180 5000 -RA BR FEW004 SCT013
                        BKN025 15/14 Q0993=
201011281545 METAR LIRA 281545Z 15010KT 5000 -RA BR FEW004 SCT013 BKN025
                        15/14 Q0993=
201011281515 METAR LIRA 281515Z 14011KT 5000 -RA BR FEW004 SCT013 BKN025
                        16/14 Q0993=
201011281445 METAR LIRA 281445Z 16009KT 5000 -RA BR FEW004 SCT013 BKN025
                        16/14 Q0993=
201011281415 METAR LIRA 281415Z 16012KT 5000 -RA BR SCT013 BKN023 16/14
                        Q0993=
201011281345 METAR LIRA 281345Z 15014KT 120V180 5000 -RA BR SCT013 BKN023
                        16/14 Q0993=
201011281315 METAR LIRA 281315Z 16012KT 130V190 5000 -RA BR SCT013 BKN023
                        16/14 Q0993=
201011281245 METAR LIRA 281245Z 15015KT 110V170 5000 -RA BR SCT013 BKN023
                        16/14 Q0993=
201011281215 METAR LIRA 281215Z 14016KT 6000 -RA SCT013 BKN023 16/14 Q0993=
201011281145 METAR LIRA 281145Z 14019KT 6000 -RA SCT013 BKN023 16/15 Q0993=
201011281115 METAR LIRA 281115Z 14019KT 8000 SCT015 BKN023 17/14 Q0994=
201011281045 METAR LIRA 281045Z 14022KT 8000 SCT015 SCT025 17/13 Q0994=
201011281015 METAR LIRA 281015Z 14024KT 8000 SCT015 SCT025 17/13 Q0994=
201011280945 METAR LIRA 280945Z 14023KT 090V170 7000 SCT015 SCT025 16/12
                        Q0994=
201011280915 METAR LIRA 280915Z 13026KT 7000 SCT015 SCT025 16/12 Q0994=
201011280845 METAR LIRA 280845Z 13026KT 6000 -RA SCT015 SCT025 16/12 Q0994=
201011280815 METAR LIRA 280815Z 13024KT 6000 -RA SCT017 SCT025 15/12 Q0994=
201011280745 METAR LIRA 280745Z 14026KT 4000 -RA BR SCT017 SCT025 15/12
                        Q0995=
201011280715 METAR LIRA 280715Z 13024G34KT 8000 -RA SCT017 SCT030 15/10
                        Q0995=
201011280645 METAR LIRA 280645Z 12024G34KT 8000 -RA SCT017 SCT030 15/10
                        Q0995=
201011280615 METAR LIRA 280615Z 13019KT 090V180 8000 SCT017 SCT030 15/10
                        Q0996=
201011280545 METAR LIRA 280545Z 14014G24KT 080V190 8000 -RA SCT017 BKN030
                        14/09 Q0997=
201011280515 METAR LIRA 280515Z 36007KT 290V050 8000 -RA SCT020 BKN030
                        08/07 Q0997=
201011280445 METAR LIRA 280445Z 03009KT 320V090 8000 -RA SCT020 BKN040
                        08/06 Q0998=
201011280415 METAR LIRA 280415Z 05015KT 020V080 8000 RA SCT014 BKN030
                        07/06 Q0998=
201011280345 METAR LIRA 280345Z 04014KT 360V090 8000 RA SCT014 BKN030
                        08/07 Q1000=
201011280315 METAR LIRA 280315Z 05010KT 010V090 8000 RA SCT014 BKN030
                        08/07 Q1000=
201011280245 METAR LIRA 280245Z 07010KT 030V100 8000 RA SCT014 BKN030
                        08/07 Q1001=
201011280215 METAR LIRA 280215Z 08011KT 050V110 8000 RA SCT014 BKN020
                        08/07 Q1002=
201011280145 METAR LIRA 280145Z 07011KT 040V110 8000 -RA BKN020 SCT070
                        08/07 Q1003=
201011280115 METAR LIRA 280115Z VRB05KT 340V180 8000 -RA BKN020 SCT070
                        08/06 Q1003=
201011280045 METAR LIRA 280045Z 07013KT 030V100 8000 -RA BKN020 SCT070
                        09/06 Q1004=
201011280015 METAR LIRA 280015Z 11014KT 070V130 9999 -RA BKN020 SCT070
                        09/06 Q1004=
201011272350 METAR LIRA 280045Z 07013KT 030V100 8000 -RA BKN020 SCT070
                        09/06 Q1004=
201011272345 METAR LIRA 272345Z 09006KT 9999 -RA SCT020 BKN070 09/05 Q1005=
201011272315 METAR LIRA 272315Z 08006KT 9999 -RA SCT020 FEW022CB BKN080
                        09/05 Q1005=
201011272245 METAR LIRA 272245Z 08008KT 9999 -RA SCT020 FEW022CB BKN080
                        09/05 Q1006=
201011272215 METAR LIRA 272215Z 07006KT 030V120 9999 -RA SCT020 FEW022CB
                        09/05 Q1007=
201011272145 METAR LIRA 272145Z 08006KT 9999 -RA SCT020 FEW022CB 09/05
                        Q1007=
201011272115 METAR LIRA 272115Z 06005KT 030V100 9999 -RA SCT020 FEW022CB
                        09/05 Q1007=
201011272045 METAR LIRA 272045Z 08006KT 9999 -RA FEW020 FEW022CB SCT090
                        09/04 Q1007=
201011272015 METAR LIRA 272015Z 09009KT 070V130 9999 -RA FEW020 10/03
                        Q1007=
201011271945 METAR LIRA 271945Z 11010KT 9999 FEW020 10/03 Q1007=
201011271915 METAR LIRA 271915Z 11010KT 9999 FEW020 10/03 Q1008=
201011271845 METAR LIRA 271845Z 10008KT 9999 FEW020 08/04 Q1008=
201011271815 METAR LIRA 271815Z 05003KT 9999 FEW020 08/04 Q1008=
201011271745 METAR LIRA 271745Z 06004KT 9999 FEW020 08/04 Q1008=
201011271715 METAR LIRA 271715Z 04001KT 9999 FEW020 08/04 Q1008=
201011271645 METAR LIRA 271645Z 06004KT 9999 FEW018 08/05 Q1008=
201011271615 METAR LIRA 271615Z 08003KT 9999 FEW020 SCT070 09/05 Q1008=
201011271545 METAR LIRA 271545Z 11002KT 9999 FEW018 SCT070 10/05 Q1008=
201011271515 METAR LIRA 271515Z 12004KT 9999 FEW018 SCT070 10/05 Q1008=
201011271445 METAR LIRA 271445Z 13006KT 9999 FEW018 SCT025 BKN080 11/04
                        Q1008=
201011271415 METAR LIRA 271415Z 17006KT 120V220 9999 FEW018 SCT025 BKN080
                        11/04 Q1008=
201011271345 METAR LIRA 271345Z 17006KT 140V230 9999 FEW018 SCT080 11/04
                        Q1008=
201011271315 METAR LIRA 271315Z 16006KT 130V210 9999 SCT018 11/03 Q1008=
201011271245 METAR LIRA 271245Z 17007KT 130V210 9999 SCT018 12/02 Q1008=
201011271215 METAR LIRA 271215Z 19006KT 120V230 9999 SCT018 12/03 Q1008=
201011271145 METAR LIRA 271145Z 17008KT 120V220 9999 SCT018 12/03 Q1008=
201011271115 METAR LIRA 271115Z 18007KT 090V230 9999 SCT018 12/03 Q1008=
201011271045 METAR LIRA 271045Z 16008KT 120V230 9999 FEW018 12/02 Q1008=
201011271015 METAR LIRA 271015Z 16007KT 130V210 9999 FEW018 12/03 Q1008=
201011270945 METAR LIRA 270945Z 16008KT 120V210 9999 FEW020 11/02 Q1008=
201011270915 METAR LIRA 270915Z 16006KT 090V200 9999 FEW020 11/02 Q1008=
201011270845 METAR LIRA 270845Z 16004KT CAVOK 11/03 Q1008=
201011270815 METAR LIRA 270815Z 14005KT CAVOK 11/03 Q1007=
201011270745 METAR LIRA 270745Z 14005KT 090V180 CAVOK 09/04 Q1007=
201011270715 METAR LIRA 270715Z 14006KT CAVOK 07/03 Q1007=
201011270645 METAR LIRA 270645Z 15005KT 9999 FEW018 BKN025 07/02 Q1007=
201011270615 METAR LIRA 270615Z 16005KT 9999 FEW025 BKN030 07/02 Q1007=
201011270545 METAR LIRA 270545Z 15006KT 9999 FEW025 BKN027 07/02 Q1006=
201011270515 METAR LIRA 270515Z 16007KT 9999 SCT025 07/02 Q1006=
201011270445 METAR LIRA 270445Z 15007KT 9999 SCT025 SCT070 06/02 Q1006=
201011270415 METAR LIRA 270415Z 14006KT 9999 SCT025 05/01 Q1005=
201011270345 METAR LIRA 270345Z 15007KT 9999 FEW025 05/02 Q1005=
201011270315 METAR LIRA 270315Z 16005KT 9999 FEW025 05/01 Q1005=
201011270245 METAR LIRA 270245Z 16006KT 9999 FEW030 05/01 Q1005=
201011270215 METAR LIRA 270215Z 14008KT 9999 FEW070 06/02 Q1005=
201011270145 METAR LIRA 270145Z 16005KT 140V210 9999 FEW070 06/01 Q1005=
201011270115 METAR LIRA 270115Z 16005KT 130V210 9999 FEW030 07/02 Q1005=
201011270045 METAR LIRA 270045Z 16005KT 9999 FEW030 06/01 Q1005=
201011270015 METAR LIRA 270015Z 18005KT 9999 FEW025 07/01 Q1004=
201011262350 METAR LIRA 270045Z 16005KT 9999 FEW030 06/01 Q1005=
201011262345 METAR LIRA 262345Z 18005KT 9999 SCT025 07/01 Q1004=
201011262315 METAR LIRA 262315Z 19006KT 150V240 9999 SCT025 08/01 Q1004=
201011262245 METAR LIRA 262245Z 19006KT 160V220 9999 FEW030 08/01 Q1004=
201011262215 METAR LIRA 262215Z 19005KT 140V250 9999 FEW020TCU 08/01 Q1004=
201011262145 METAR LIRA 262145Z 20005KT 130V260 9999 FEW020TCU 08/01 Q1004=
201011262115 METAR LIRA 262115Z 20006KT 150V240 9999 FEW020TCU 08/01 Q1003=
201011262045 METAR LIRA 262045Z 18004KT 9999 FEW020TCU 08/01 Q1003=
201011262015 METAR LIRA 262015Z 19005KT 160V260 9999 FEW020TCU SCT070
                        08/00 Q1003=
201011261945 METAR LIRA 261945Z 19006KT 150V230 9999 FEW020TCU SCT070
                        08/M00 Q1002=
201011261915 METAR LIRA 261915Z 21006KT 170V270 9999 FEW020TCU SCT060
                        08/M00 Q1002=
201011261845 METAR LIRA 261845Z 20005KT 140V260 9999 FEW020TCU SCT022
                        08/M01 Q1002=
201011261815 METAR LIRA 261815Z 17005KT 160V220 9999 FEW020TCU SCT022
                        07/M01 Q1001=
201011261745 METAR LIRA 261745Z 22004KT 9999 FEW020TCU SCT022 08/M01 Q1001=
201011261715 METAR LIRA 261715Z 22005KT 180V250 9999 SCT018 SCT025 08/M01
                        Q1001=
201011261645 METAR LIRA 261645Z 22006KT 180V270 9999 FEW018 SCT025 08/M02
                        Q1001=
201011261615 METAR LIRA 261615Z 23007KT 180V270 9999 SCT015 08/M02 Q1000=
201011261545 METAR LIRA 261545Z 23009KT 200V270 9999 SCT015 09/M01 Q1000=
201011261515 METAR LIRA 261515Z 23010KT 180V280 9999 FEW015 09/M00 Q1000=
201011261445 METAR LIRA 261445Z 23013KT 180V270 9999 FEW015 10/M00 Q1000=
201011261415 METAR LIRA 261415Z 24012KT 190V300 9999 SCT013 10/M00 Q0999=
201011261345 METAR LIRA 261345Z 24013KT 180V280 9999 SCT013 10/M00 Q0999=
201011261315 METAR LIRA 261315Z 24016G29KT 200V310 9999 SCT018 11/00 Q0999=
201011261245 METAR LIRA 261245Z 23018KT 9999 FEW020 13/01 Q0999=
201011261215 METAR LIRA 261215Z 24016KT 200V300 9999 FEW020 13/02 Q0999=
201011261145 METAR LIRA 261145Z 24015G25KT 180V300 9999 FEW020 13/03 Q0999=
201011261115 METAR LIRA 261115Z 24016KT 180V290 9999 SCT018 12/04 Q0999=
201011261045 METAR LIRA 261045Z 23008KT 180V270 9999 SCT015 12/07 Q0999=
201011261015 METAR LIRA 261015Z 23012KT 9999 SCT013 SCT023 11/07 Q0999=
201011260945 METAR LIRA 260945Z 18008KT 130V230 9999 SCT013 SCT023 11/07
                        Q0999=
201011260915 METAR LIRA 260915Z 19010KT 9999 SCT013 BKN023 10/07 Q0999=
201011260845 METAR LIRA 260845Z 20008KT 9999 -RA SCT013 BKN023 10/07 Q0999=
201011260815 METAR LIRA 260815Z 15012KT 9999 -RA SCT013 BKN023 10/07 Q0999=
201011260745 METAR LIRA 260745Z 17008KT 9999 FEW016 SCT030 10/07 Q0999=
201011260715 METAR LIRA 260715Z 15008KT 9999 FEW016 SCT030 09/07 Q1000=
201011260645 METAR LIRA 260645Z 13011KT 100V180 9000 -RA FEW013 BKN025
                        09/07 Q1000=
201011260615 METAR LIRA 260615Z 15012KT 9000 -RA SCT013 BKN025 09/07 Q1000=
201011260545 METAR LIRA 260545Z 16009KT 120V210 9000 -RA SCT013 FEW018CB
                        BKN025 09/07 Q1001=
201011260515 METAR LIRA 260515Z 15008KT 8000 -RA FEW017 FEW018CB BKN030
                        08/06 Q1001=
201011260445 METAR LIRA 260445Z 22008KT 150V260 8000 -RA FEW017 FEW018CB
                        BKN027 08/06 Q1002=
201011260415 METAR LIRA 260415Z 20004KT 130V230 8000 -RA FEW017 FEW018CB
                        BKN027 08/06 Q1002=
201011260345 METAR LIRA 260345Z 15013KT 120V180 9999 -RA FEW017 FEW018CB
                        BKN027 08/05 Q1002=
201011260315 METAR LIRA 260315Z 14007KT 9999 -RA FEW017 FEW018CB BKN027
                        08/05 Q1003=
201011260245 METAR LIRA 260245Z 16005KT 9999 -RA FEW017 SCT027 07/06 Q1004=
201011260215 METAR LIRA 260215Z 10003KT 9999 -RA FEW017 BKN070 07/06 Q1004=
201011260145 METAR LIRA 260145Z 10006KT 9999 -RA FEW017 BKN070 07/06 Q1005=
201011260115 METAR LIRA 260115Z 10003KT 8000 -RA FEW017 SCT025 BKN070
                        08/07 Q1006=
201011260045 METAR LIRA 260045Z 23003KT 150V260 8000 -RA FEW017 SCT025
                        BKN070 08/06 Q1006=
201011260015 METAR LIRA 260015Z 19009KT 130V220 8000 -RA FEW017 SCT025
                        BKN070 09/05 Q1005=
201011252350 METAR LIRA 260045Z 23003KT 150V260 8000 -RA FEW017 SCT025
                        BKN070 08/06 Q1006=
201011252345 METAR LIRA 252345Z 12005KT 9999 FEW017 SCT070 07/06 Q1006=
201011252315 METAR LIRA 252315Z 12003KT 9999 FEW030 SCT070 07/06 Q1006=
201011252245 METAR LIRA 252245Z 12005KT 9999 FEW030 SCT070 07/06 Q1006=
201011252215 METAR LIRA 252215Z 10004KT 9999 FEW030 SCT070 07/05 Q1006=
201011252145 METAR LIRA 252145Z 14006KT 9999 FEW030 SCT070 06/05 Q1006=
201011252115 METAR LIRA 252115Z 14004KT 9999 FEW030 SCT070 07/05 Q1006=
201011252045 METAR LIRA 252045Z 10008KT 9999 FEW030 SCT070 07/05 Q1006=
201011252015 METAR LIRA 252015Z 11006KT 9999 FEW015 SCT070 08/05 Q1006=
201011251945 METAR LIRA 251945Z 11007KT 9999 FEW015 SCT070 08/06 Q1007=
201011251915 METAR LIRA 251915Z 10006KT 9999 FEW015 SCT070 07/06 Q1007=
201011251845 METAR LIRA 251845Z 11005KT 9999 FEW015 SCT030 08/07 Q1006=
201011251815 METAR LIRA 251815Z 33008KT 6000 -RA SCT009 SCT025 BKN070
                        07/06 Q1006=
201011251745 METAR LIRA 251745Z 15004KT 8000 FEW012 SCT030 07/05 Q1006=
201011251715 METAR LIRA 251715Z 15005KT 9999 FEW020 SCT030 07/05 Q1006=
201011251645 METAR LIRA 251645Z 14006KT 9999 FEW020 07/06 Q1006=
201011251615 METAR LIRA 251615Z 15004KT 9999 FEW020 08/07 Q1006=
201011251545 METAR LIRA 251545Z 16005KT 9999 FEW020 SCT030 09/07 Q1006=
201011251515 METAR LIRA 251515Z 13004KT 9999 FEW018TCU SCT030 09/07 Q1006=
201011251445 METAR LIRA 251445Z 13004KT 9999 FEW015 FEW018CB 09/07 Q1006=
201011251415 METAR LIRA 251415Z 00000KT 9999 FEW015 FEW018CB SCT020 09/07
                        Q1006=
201011251345 METAR LIRA 251345Z 23002KT 9000 -RA FEW015 FEW018CB SCT020
                        09/07 Q1006=
201011251315 METAR LIRA 251315Z 24004KT 8000 -RA FEW013 FEW018CB SCT020
                        09/08 Q1006=
201011251245 METAR LIRA 251245Z 22006KT 8000 -SHRA FEW013 FEW018CB SCT020
                        10/08 Q1006=
201011251215 METAR LIRA 251215Z 20003KT 9999 FEW015 FEW018CB SCT020 11/06
                        Q1006=
201011251145 METAR LIRA 251145Z 21003KT 9999 FEW015 FEW018CB SCT020 11/06
                        Q1006=
201011251115 METAR LIRA 251115Z 20004KT 9999 FEW016 FEW018CB SCT020 12/06
                        Q1006=
201011251045 METAR LIRA 251045Z 22003KT 9999 FEW018TCU SCT070 12/07 Q1006=
201011251015 METAR LIRA 251015Z 20003KT 9999 FEW020 11/07 Q1006=
201011250945 METAR LIRA 250945Z 23004KT 9999 FEW022 11/07 Q1006=
201011250915 METAR LIRA 250915Z 21003KT 9999 FEW025 09/07 Q1006=
201011250845 METAR LIRA 250845Z 22002KT 9000 FEW030 08/07 Q1006=
201011250815 METAR LIRA 250815Z 23002KT 8000 FEW030 08/07 Q1006=
201011250800 LIRA CONTUS=
201011250745 METAR LIRA 250745Z 17003KT 8000 FEW030 07/06 Q1006=
201011250715 METAR LIRA 250715Z 14004KT 8000 FEW020 06/06 Q1006=
201011250645 METAR LIRA 250645Z 13002KT 6000 MIFG FEW002 05/05 Q1006=
201011250615 METAR LIRA 250615Z 00000KT 6000 MIFG FEW002 05/04 Q1006=
201011250545 METAR LIRA 250545Z 00000KT 6000 MIFG FEW001 05/04 Q1005=
201011250515 METAR LIRA 250515Z 00000KT 7000 MIFG FEW020 05/04 Q1005=
201011250445 METAR LIRA 250445Z 19003KT 9999 FEW018 06/05 Q1004=
201011250415 METAR LIRA 250415Z 23002KT 9999 FEW018 06/05 Q1004=
201011250345 METAR LIRA 250345Z 25004KT 9999 FEW018 SCT030 07/05 Q1004=
201011250315 METAR LIRA 250315Z 21005KT 9999 FEW015 FEW020CB 07/05 Q1004=
201011250245 METAR LIRA 250245Z 01001KT 8000 -RA SCT013 FEW020CB SCT023
                        07/05 Q1004=
201011250215 METAR LIRA 250215Z 07005KT 7000 -RA SCT013 FEW020CB SCT023
                        07/06 Q1004=
201011250145 METAR LIRA 250145Z 12012KT 5000 -RA BR SCT013 FEW020CB SCT023
                        07/06 Q1005=
201011250115 METAR LIRA 250115Z 20006KT 150V300 4000 -RA BR SCT013 FEW020CB
                        SCT023 08/06 Q1005=
201011250045 METAR LIRA 250045Z 15006KT 100V300 7000 -RA SCT015 FEW020CB
                        SCT025 08/06 Q1005=
201011250015 METAR LIRA 250015Z 15010KT 8000 -RA SCT015 FEW020CB SCT025
                        07/05 Q1006=
201011242350 METAR LIRA 250045Z 15006KT 100V300 7000 -RA SCT015 FEW020CB
                        SCT025 08/06 Q1005=
201011242345 METAR LIRA 242345Z 11004KT 9999 FEW015 FEW020CB SCT025 07/05
                        Q1006 RERA=
201011242315 METAR LIRA 242315Z 07006KT 9999 FEW017 FEW018CB 07/06 Q1006=
201011242245 METAR LIRA 242245Z 35002KT 9999 -RA FEW017 FEW018CB 08/06
                        Q1006=
201011242215 METAR LIRA 242215Z 04003KT 9999 -RA FEW017 FEW018CB SCT030
                        08/06 Q1006=
201011242145 METAR LIRA 242145Z 13007KT 9999 -RA FEW017 FEW018CB SCT030
                        08/05 Q1006=
201011242115 METAR LIRA 242115Z 13004KT 9999 FEW017 FEW018CB SCT030 08/07
                        Q1006=
201011242045 METAR LIRA 242045Z 12005KT 9999 FEW017 FEW018CB SCT030 07/06
                        Q1006=
201011242015 METAR LIRA 242015Z 13004KT 9999 FEW018 FEW020CB 07/05 Q1006=
201011241945 METAR LIRA 241945Z 10003KT 9999 FEW020 SCT030 07/05 Q1006=
201011241915 METAR LIRA 241915Z 00000KT 9999 FEW018 SCT030 07/06 Q1006=
201011241845 METAR LIRA 241845Z 07002KT 9999 FEW030 07/05 Q1005=
201011241815 METAR LIRA 241815Z 13002KT 9999 FEW020 08/07 Q1005=
201011241745 METAR LIRA 241745Z 15004KT 9999 FEW020 08/07 Q1005=
201011241715 METAR LIRA 241715Z 16003KT 9999 FEW020 08/07 Q1005=
201011241645 METAR LIRA 241645Z VRB02KT 9999 SCT017 FEW020TCU 09/07 Q1005=
201011241615 METAR LIRA 241615Z 00000KT 9999 SCT017 FEW020TCU 10/08 Q1005=
201011241545 METAR LIRA 241545Z 00000KT 9999 SCT017 FEW018TCU 11/08 Q1004=
201011241515 METAR LIRA 241515Z 27003KT 9999 SCT017 FEW018TCU 12/08 Q1004=
201011241445 METAR LIRA 241445Z 29005KT 260V340 9999 SCT017 FEW018CB 12/08
                        Q1004 RERA=
201011241415 METAR LIRA 241415Z 32008KT 9999 SCT017 FEW018CB 11/08 Q1004
                        RERA=
201011241345 METAR LIRA 241345Z 23005KT 160V280 9999 SCT017 FEW018CB 13/06
                        Q1004=
201011241315 METAR LIRA 241315Z 22004KT 9999 SCT017 FEW018CB 13/06 Q1004=
201011241245 METAR LIRA 241245Z 27003KT 9999 SCT017 FEW018CB 13/06 Q1004=
201011241215 METAR LIRA 241215Z 26003KT 9999 SCT017 FEW018CB 12/07 Q1004=
201011241145 METAR LIRA 241145Z 28003KT 9999 SCT017 FEW018CB 13/06 Q1004=
201011241115 METAR LIRA 241115Z 28005KT 250V310 9999 SCT017 FEW018TCU
                        13/06 Q1004=
201011241045 METAR LIRA 241045Z 23005KT 200V270 9999 FEW017 FEW018TCU
                        13/06 Q1004=
201011241015 METAR LIRA 241015Z 22003KT 9999 FEW017 FEW018TCU 13/06 Q1004=
201011240945 METAR LIRA 240945Z 18002KT 9999 FEW017 FEW018TCU 12/08 Q1004=
201011240915 METAR LIRA 240915Z 31002KT 9999 FEW017 FEW018TCU 10/08 Q1003=
201011240845 METAR LIRA 240845Z 04002KT 9999 FEW015 SCT070 08/07 Q1003=
201011240815 METAR LIRA 240815Z 00000KT 9999 FEW015 SCT030 08/07 Q1003=
201011240745 METAR LIRA 240745Z 36002KT 9999 FEW015 SCT030 08/06 Q1003=
201011240715 METAR LIRA 240715Z 03002KT 9999 FEW015 SCT030 08/07 Q1002=
201011240645 METAR LIRA 240645Z 36003KT 9999 FEW015 FEW018CB SCT070 08/07
                        Q1002=
201011240615 METAR LIRA 240615Z 34003KT 9999 FEW015 FEW018CB SCT070 08/07
                        Q1002=
201011240545 METAR LIRA 240545Z 11006KT 060V130 9999 FEW014 FEW017CB SCT070
                        07/06 Q1002 RETS=
201011240515 METAR LIRA 240515Z 07007KT 010V110 9999 FEW014 FEW017CB SCT027
                        07/06 Q1003 RETS=
201011240445 METAR LIRA 240445Z 25003KT 7000 -TSRA FEW014 FEW017CB BKN020
                        07/06 Q1002 RETS=
201011240415 METAR LIRA 240415Z 20002KT 8000 -RA FEW017CB BKN025 06/06
                        Q1002 RETS=
201011240345 METAR LIRA 240345Z 35003KT 8000 -TSRA FEW017CB SCT025 06/05
                        Q1001 RETS=
201011240315 METAR LIRA 240315Z 10003KT 8000 -TSRA FEW017CB SCT025 06/05
                        Q1001 RETS=
201011240245 METAR LIRA 240245Z 05002KT 8000 -TSRA FEW017CB SCT025 06/05
                        Q1001 RETS=
201011240215 METAR LIRA 240215Z 02003KT 9999 TS FEW017CB SCT025 06/05
                        Q1001=
201011240145 METAR LIRA 240145Z 36002KT 9999 FEW018 06/05 Q1001=
201011240115 METAR LIRA 240115Z 09001KT 9999 FEW018 06/05 Q1001=
201011240045 METAR LIRA 240045Z 12002KT 9999 FEW015 SCT070 06/06 Q1001=
201011240015 METAR LIRA 240015Z 09003KT 9999 FEW015 SCT070 06/06 Q1001=
201011232350 METAR LIRA 240045Z 12002KT 9999 FEW015 SCT070 06/06 Q1001=
201011232345 METAR LIRA 232345Z 35002KT 9999 FEW015TCU 07/06 Q1001 RETS=
201011232315 METAR LIRA 232315Z 14004KT 9999 FEW015CB 07/07 Q1001 RETS=
201011232245 METAR LIRA 232245Z 15007KT 9999 -TSRA FEW015CB SCT070 08/07
                        Q1001=
201011232215 METAR LIRA 232215Z 31002KT 9999 -RA FEW015 BKN060 07/06 Q1001=
201011231845 METAR LIRA 231845Z 09004KT 9999 FEW015 FEW020CB 08/05 Q1000=
201011231815 METAR LIRA 231815Z 09005KT 050V130 9999 FEW015 FEW020CB SCT030
                        08/06 Q1000=
201011231745 METAR LIRA 231745Z 08004KT 9999 FEW015 FEW020CB 09/06 Q1000=
201011231715 METAR LIRA 231715Z 08004KT 9999 FEW015 FEW020CB 09/06 Q1000=
201011231645 METAR LIRA 231645Z 08004KT 9999 FEW015 FEW020CB SCT025 10/07
                        Q1000=
201011231615 METAR LIRA 231615Z 04003KT 9999 SCT015 FEW017CB SCT030 10/07
                        Q0999=
201011231545 METAR LIRA 231545Z 27004KT 9999 SCT015 FEW020CB SCT025 11/08
                        Q0999=
201011231515 METAR LIRA 231515Z 21004KT 9999 FEW015 FEW020CB 12/08 Q0999=
201011231445 METAR LIRA 231445Z 22004KT 180V240 9999 FEW015 FEW017CB SCT030
                        13/08 Q0999=
201011231415 METAR LIRA 231415Z 24002KT 9999 FEW015 FEW020CB SCT025 13/07
                        Q0999=
201011231345 METAR LIRA 231345Z 31003KT 9999 FEW015 FEW017CB SCT025 14/07
                        Q0999=
201011231315 METAR LIRA 231315Z 03002KT 9999 FEW017 FEW020CB 14/06 Q0999=
201011231245 METAR LIRA 231245Z 02003KT 9999 FEW018 FEW020TCU 14/06 Q0999=
201011231215 METAR LIRA 231215Z 34003KT 9999 SCT018 14/06 Q0999=
201011231145 METAR LIRA 231145Z 03004KT 9999 FEW018 FEW020TCU 13/06 Q0999=
201011231115 METAR LIRA 231115Z 04006KT 350V100 9999 FEW017 FEW018TCU
                        12/07 Q0999=
201011231045 METAR LIRA 231045Z 04006KT 350V100 9999 SCT018 12/08 Q0999=
201011231015 METAR LIRA 231015Z 04007KT 330V090 9999 FEW017 FEW018TCU
                        11/08 Q0999=
201011230945 METAR LIRA 230945Z 05011KT 360V080 9999 FEW017 FEW018CB SCT070
                        11/09 Q0999=
201011230915 METAR LIRA 230915Z 04009KT 330V100 9999 FEW013 FEW015CB SCT025
                        10/08 Q0999 RETS=
201011230845 METAR LIRA 230845Z 35006KT 280V050 9999 FEW013 FEW018CB SCT025
                        10/08 Q0999 RETS=
201011230815 METAR LIRA 230815Z 02006KT 330V090 9999 TS FEW013 FEW018CB
                        BKN025 10/08 Q0998=
201011230745 METAR LIRA 230745Z 03007KT 330V090 9999 TS FEW015 FEW018CB
                        BKN025 10/08 Q0998=
201011230715 METAR LIRA 230715Z 11007KT 080V160 9999 -TSRA FEW013 FEW015CB
                        BKN027 10/08 Q0997=
201011230645 METAR LIRA 230645Z 16009KT 110V190 7000 -TSRA FEW015 FEW018CB
                        BKN025 10/07 Q0997=
201011230615 METAR LIRA 230615Z 13005KT 9999 -TSRA FEW015 FEW018CB BKN025
                        10/08 Q0997=
201011230545 METAR LIRA 230545Z 19003KT 9999 -TSRA SCT015 FEW018CB 10/08
                        Q0997=
201011230515 METAR LIRA 230515Z 16004KT 9999 FEW015 SCT030 10/09 Q0997=
201011230445 METAR LIRA 230445Z 16004KT 9999 FEW015 BKN070 09/08 Q0997=
201011230415 METAR LIRA 230415Z 16004KT 9999 FEW015 SCT070 09/07 Q0997=
201011230345 METAR LIRA 230345Z 16004KT 9999 FEW015 SCT070 09/08 Q0997=
201011230315 METAR LIRA 230315Z 18005KT 9999 FEW015 SCT070 10/08 Q0997=
201011230245 METAR LIRA 230245Z 17007KT 9999 FEW014 10/08 Q0997=
201011230215 METAR LIRA 230215Z 17006KT 9999 FEW014 11/09 Q0997=
201011230145 METAR LIRA 230145Z 18005KT 9999 FEW014 11/09 Q0997=
201011230115 METAR LIRA 230115Z 17006KT 9999 FEW014 SCT025 11/09 Q0997=
201011230045 METAR LIRA 230045Z 21004KT 9999 FEW014 SCT025 11/09 Q0997=
201011230015 METAR LIRA 230015Z 15006KT 8000 -RA FEW014 SCT025 11/10 Q0997=
201011222350 METAR LIRA 230045Z 21004KT 9999 FEW014 SCT025 11/09 Q0997=
201011222345 METAR LIRA 222345Z 12004KT 8000 -RA FEW014 BKN025 11/10 Q0997=
201011222315 METAR LIRA 222315Z 13005KT 8000 -RA FEW014 BKN025 11/10 Q0998=
201011222245 METAR LIRA 222245Z 15004KT 8000 -RA FEW014 BKN025 11/10 Q0998=
201011222215 METAR LIRA 222215Z 11004KT 8000 -RA FEW014 BKN025 11/10 Q0998=
201011222145 METAR LIRA 222145Z 18004KT 8000 -RA FEW014 BKN025 11/10 Q0998=
201011222115 METAR LIRA 222115Z 13004KT 9999 -RA FEW014 FEW018TCU SCT025
                        11/10 Q0998=
201011222045 METAR LIRA 222045Z 13005KT 9999 FEW015 FEW018TCU 11/10 Q0998=
201011222015 METAR LIRA 222015Z 15004KT 9999 FEW014 FEW018TCU 11/10 Q0998=
201011221945 METAR LIRA 221945Z 15002KT 9999 FEW014 FEW018CB 11/10 Q0998=
201011221915 METAR LIRA 221915Z 15002KT 9999 TS FEW014 FEW018CB 11/10
                        Q0998=
201011221845 METAR LIRA 221845Z 14003KT 9999 TS FEW014 FEW018CB 11/10
                        Q0998=
201011221815 METAR LIRA 221815Z 15003KT 9999 TS FEW014 FEW018CB SCT025
                        11/11 Q0998=
201011221745 METAR LIRA 221745Z 15002KT 9999 FEW014 FEW018CB SCT025 12/11
                        Q0998=
201011221715 METAR LIRA 221715Z 14002KT 9999 FEW014 FEW018CB SCT025 12/11
                        Q0998=
201011221645 METAR LIRA 221645Z 15003KT 9999 FEW014 FEW018CB SCT025 12/11
                        Q0998=
201011221615 METAR LIRA 221615Z 15004KT 9999 FEW013 FEW018CB SCT023 13/11
                        Q0998=
201011221545 METAR LIRA 221545Z 16004KT 9999 FEW013 FEW018CB SCT023 13/12
                        Q0997 RETS=
201011221515 METAR LIRA 221515Z 13002KT 9000 -RA SCT013 FEW018CB SCT023
                        13/11 Q0997 RETS=
201011221445 METAR LIRA 221445Z 32002KT 9000 -TSRA SCT013 FEW018CB BKN023
                        13/11 Q0997=
201011221415 METAR LIRA 221415Z 18008KT 140V240 6000 -TSRA SCT015 FEW018CB
                        SCT023 15/10 Q0997=
201011221345 METAR LIRA 221345Z 22007KT 160V250 9999 SCT015 FEW018CB SCT025
                        16/10 Q0997=
201011221315 METAR LIRA 221315Z 22008KT 9999 FEW016 FEW018CB SCT025 16/10
                        Q0998=
201011221245 METAR LIRA 221245Z 25008KT 200V280 9999 FEW016 FEW018CB SCT025
                        16/11 Q0998=
201011221215 METAR LIRA 221215Z 26004KT 210V310 9999 FEW016 FEW018CB SCT025
                        15/12 Q0998=
201011221145 METAR LIRA 221145Z 11002KT 9999 FEW016 FEW018CB SCT025 14/12
                        Q0998 RERA=
201011221115 METAR LIRA 221115Z 07009KT 9999 FEW015 FEW018CB SCT025 13/12
                        Q0999 RERA=
201011221045 METAR LIRA 221045Z 06005KT 8000 RA FEW015 FEW018CB BKN023
                        13/12 Q0999=
201011221015 METAR LIRA 221015Z 35003KT 8000 RA SCT015 FEW018CB BKN023
                        12/11 Q0999=
201011220945 METAR LIRA 220945Z 32005KT 260V010 8000 -RA SCT015 FEW018CB
                        SCT025 12/11 Q1000=
201011220915 METAR LIRA 220915Z 32007KT 280V020 8000 -RA SCT015 FEW018CB
                        SCT025 13/12 Q1000=
201011220845 METAR LIRA 220845Z 20006KT 150V250 8000 -RA SCT015 FEW018CB
                        SCT025 15/11 Q1000=
201011220815 METAR LIRA 220815Z 16005KT 8000 -RA SCT015 FEW018CB SCT025
                        14/12 Q1000=
201011220745 METAR LIRA 220745Z 11007KT 9999 FEW015 BKN025CB 11/09 Q1000=
201011220715 METAR LIRA 220715Z 11008KT 9999 FEW015 FEW018CB 11/09 Q1000=
201011220645 METAR LIRA 220645Z 11007KT 9999 FEW013 FEW018CB SCT025 11/10
                        Q1000=
201011220615 METAR LIRA 220615Z 10005KT 9999 FEW013 SCT025CB 11/10 Q1000=
201011220545 METAR LIRA 220545Z 12002KT 9999 -RA FEW013 FEW018CB SCT025
                        11/10 Q1001=
201011220515 METAR LIRA 220515Z 14002KT 9999 -RA FEW015 FEW020CB SCT030
                        11/10 Q1001=
201011220445 METAR LIRA 220445Z 10003KT 9999 FEW015 FEW020CB 11/10 Q1001
                        RETS=
201011220415 METAR LIRA 220415Z 11004KT 9999 FEW015 FEW020CB 11/10 Q1002
                        RETS=
201011220345 METAR LIRA 220345Z 13005KT 8000 -TSRA FEW015 FEW020CB SCT025
                        12/11 Q1002=
201011220315 METAR LIRA 220315Z 25004KT 200V300 8000 -TSRA FEW015 FEW020CB
                        BKN025 12/11 Q1002=
201011220245 METAR LIRA 220245Z 15004KT 8000 -TSRA FEW015 FEW020CB SCT025
                        12/11 Q1002=
201011220215 METAR LIRA 220215Z 16006KT 9000 -TSRA FEW016 FEW020CB SCT025
                        13/11 Q1002=
201011220145 METAR LIRA 220145Z 16006KT 8000 -TSRA FEW016 FEW020CB SCT025
                        13/11 Q1002=
201011220115 METAR LIRA 220115Z 15005KT 8000 -TSRA FEW009 SCT016 FEW018CB
                        13/12 Q1002=
201011220045 METAR LIRA 220045Z 17008KT 140V210 8000 -TSRA FEW009 SCT016
                        FEW018CB 13/12 Q1002=
201011220015 METAR LIRA 220015Z 16009KT 130V190 5000 -TSRA BR FEW007 SCT015CB
                        13/12 Q1002=
201011212350 METAR LIRA 220045Z 17008KT 140V210 8000 -TSRA FEW009 SCT016
                        FEW018CB 13/12 Q1002=
201011212345 METAR LIRA 212345Z 18009KT 140V230 3000 -TSRA BR FEW007 SCT015CB
                        13/12 Q1002 RETS=
201011212315 METAR LIRA 212315Z 19015G32KT 150V240 3000 -TSRA BR FEW007
                        SCT015CB 13/11 Q1003 RETS=
201011212245 METAR LIRA 212245Z 19007KT 150V230 2500 -TSRA BR FEW008 FEW016CB
                        SCT017 13/12 Q1003 RETS=
201011212215 METAR LIRA 212215Z 16012KT 140V210 5000 -TSRA BR FEW008 FEW016CB
                        SCT017 14/12 Q1002=
201011212145 METAR LIRA 212145Z 16012KT 9999 FEW017CB SCT018 14/12 Q1003=
201011212115 METAR LIRA 212115Z 16012KT 130V200 9999 -RA SCT018 FEW020CB
                        SCT070 14/12 Q1003=
201011212045 METAR LIRA 212045Z 16013KT 120V190 9999 -RA FEW016 FEW020CB
                        SCT023 14/12 Q1003=
201011212015 METAR LIRA 212015Z 16013KT 130V190 9999 FEW018 FEW020CB SCT023
                        14/11 Q1003=
201011211945 METAR LIRA 211945Z 16011KT 130V200 9000 -RA FEW018 FEW020CB
                        SCT025 13/11 Q1002=
201011211915 METAR LIRA 211915Z 15012KT 8000 -RA FEW008 FEW018CB BKN025
                        14/13 Q1003=
201011211845 METAR LIRA 211845Z 16010KT 7000 -RA FEW008 SCT015 FEW017CB
                        BKN025 14/13 Q1003 RETS=
201011211815 METAR LIRA 211815Z 17009KT 150V220 7000 -TSRA FEW007 SCT015
                        FEW017CB BKN022 13/12 Q1003 RETS=
201011211745 METAR LIRA 211745Z 22012KT 140V330 2000 TSRA BR SCT007 SCT016CB
                        BKN020 14/12 Q1003 RETS=
201011211715 METAR LIRA 211715Z 15020KT 120V190 5000 -TSRA BR SCT007 FEW018CB
                        BKN025 15/14 Q1001=
201011211645 METAR LIRA 211645Z 16016KT 5000 -RA BR SCT007 FEW018CB BKN027
                        15/14 Q1002 RERA=
201011211615 METAR LIRA 211615Z 16018KT 120V190 5000 -RA BR SCT003 BKN023CB
                        16/15 Q1003 RERA=
201011211545 METAR LIRA 211545Z 15018KT 4000 RA BR SCT003 FEW018CB BKN025
                        15/15 Q1003=
201011211515 METAR LIRA 211515Z 15021KT 120V200 7000 -RA SCT003 FEW018CB
                        BKN025 16/15 Q1003=
201011211445 METAR LIRA 211445Z 15022KT 8000 -RA SCT009 FEW018CB BKN025
                        17/14 Q1003=
201011211415 METAR LIRA 211415Z 15022G33KT 8000 -RA SCT009 BKN018CB 17/14
                        Q1003=
201011211345 METAR LIRA 211345Z 16019KT 110V190 8000 -RA SCT009 FEW018CB
                        BKN025 17/14 Q1003=
201011211315 METAR LIRA 211315Z 14021G32KT 090V180 9999 -RA SCT009 FEW018CB
                        BKN025 17/14 Q1004=
201011211245 METAR LIRA 211245Z 15021KT 9999 -RA SCT009 FEW018CB BKN025
                        17/14 Q1004=
201011211215 METAR LIRA 211215Z 15022KT 9999 -RA SCT009 FEW018CB BKN025
                        18/13 Q1004=
201011211145 METAR LIRA 211145Z 15022KT 9999 FEW013 FEW018CB BKN025 18/12
                        Q1005=
201011211115 METAR LIRA 211115Z 15021KT 110V180 9999 FEW013 FEW018TCU
                        SCT025 18/12 Q1006=
201011211045 METAR LIRA 211045Z 14022KT 110V180 9999 FEW013 FEW018TCU
                        SCT025 18/12 Q1006=
201011211015 METAR LIRA 211015Z 15020KT 9999 FEW013 FEW018CB SCT025 18/13
                        Q1006=
201011210945 METAR LIRA 210945Z 15017KT 9999 SCT013 FEW018CB SCT025 17/13
                        Q1007=
201011210915 METAR LIRA 210915Z 14019KT 9999 SCT013 FEW018CB SCT025 17/14
                        Q1007=
201011210845 METAR LIRA 210845Z 14019KT 110V210 9999 FEW013 SCT070 17/13
                        Q1008=
201011210815 METAR LIRA 210815Z 14015KT 9999 FEW013 SCT070 17/13 Q1008=
201011210745 METAR LIRA 210745Z 14015KT 9999 SCT013 BKN030 16/12 Q1008=
201011210715 METAR LIRA 210715Z 14013KT 9999 SCT015 SCT040 15/12 Q1008=
201011210645 METAR LIRA 210645Z 15012KT 110V180 9999 FEW015 BKN040 15/11
                        Q1008=
201011210615 METAR LIRA 210615Z 14012KT 9999 FEW015 BKN040 15/11 Q1008=
201011210545 METAR LIRA 210545Z 15013KT 120V210 9999 FEW015 BKN040 14/11
                        Q1009=
201011210515 METAR LIRA 210515Z 16013KT 9999 FEW015 SCT035 14/11 Q1009=
201011210445 METAR LIRA 210445Z 15011KT 9999 SCT012 FEW017TCU 14/12 Q1009=
201011210415 METAR LIRA 210415Z 15011KT 9999 SCT012 FEW017TCU 14/12 Q1009=
201011210345 METAR LIRA 210345Z 15011KT 9999 SCT012 FEW017TCU 14/12 Q1009=
201011210315 METAR LIRA 210315Z 16007KT 9999 SCT012 FEW017TCU 13/12 Q1009=
201011210245 METAR LIRA 210245Z 15007KT 9999 SCT012 FEW017TCU 13/12 Q1010=
201011210215 METAR LIRA 210215Z 15007KT 9999 FEW008 FEW016TCU SCT070 13/11
                        Q1011=
201011210145 METAR LIRA 210145Z 14007KT 110V170 9999 FEW008 FEW016TCU
                        SCT070 14/12 Q1011=
201011210115 METAR LIRA 210115Z 15008KT 9999 FEW018 SCT070 13/11 Q1011=
201011210045 METAR LIRA 210045Z 16007KT 120V190 9999 FEW018 SCT070 13/12
                        Q1011=
201011210015 METAR LIRA 210015Z 16008KT 130V200 9999 FEW017 13/11 Q1011=
201011202350 METAR LIRA 210045Z 16007KT 120V190 9999 FEW018 SCT070 13/12
                        Q1011=
201011202345 METAR LIRA 202345Z 16009KT 120V180 9999 FEW017 FEW018TCU
                        14/12 Q1011=
201011202315 METAR LIRA 202315Z 15009KT 9999 FEW017 FEW018TCU 13/11 Q1012=
201011202245 METAR LIRA 202245Z 15008KT 9999 FEW018 13/11 Q1012=
201011202215 METAR LIRA 202215Z 14009KT 9999 FEW018 12/11 Q1012=
201011202145 METAR LIRA 202145Z 00000KT 9999 FEW018 09/08 Q1012=
201011202115 METAR LIRA 202115Z 33001KT 9999 FEW080 10/09 Q1012=
201011202045 METAR LIRA 202045Z 03001KT 9999 FEW080 10/08 Q1012=
201011202015 METAR LIRA 202015Z 00000KT 9999 FEW080 11/09 Q1012=
201011201945 METAR LIRA 201945Z 28001KT 9999 FEW080 11/10 Q1012=
201011201915 METAR LIRA 201915Z 09006KT 050V140 9999 FEW080 12/10 Q1012=
201011201845 METAR LIRA 201845Z 10007KT 060V130 9999 FEW080 12/10 Q1012=
201011201815 METAR LIRA 201815Z 10012KT 9999 FEW018 11/09 Q1012=
201011201745 METAR LIRA 201745Z 10010KT 9999 FEW018 11/09 Q1012=
201011201715 METAR LIRA 201715Z 10009KT 9999 FEW017 11/09 Q1013=
201011201645 METAR LIRA 201645Z 05006KT 010V140 9999 FEW017 11/09 Q1013=
201011201615 METAR LIRA 201615Z 03004KT 360V090 9999 FEW016 12/10 Q1013=
201011201545 METAR LIRA 201545Z 09005KT 030V120 9999 FEW016 SCT030 12/10
                        Q1013=
201011201515 METAR LIRA 201515Z 08007KT 050V120 9999 FEW016 SCT030 13/10
                        Q1013=
201011201445 METAR LIRA 201445Z 06007KT 010V110 9999 FEW016 SCT030 13/10
                        Q1014=
201011201415 METAR LIRA 201415Z 04006KT 340V090 9000 FEW016 SCT025 12/11
                        Q1014=
201011201345 METAR LIRA 201345Z 36003KT 9000 -RA FEW016 FEW020CB SCT025
                        11/10 Q1014 RETS=
201011201315 METAR LIRA 201315Z 35002KT 6000 -RA FEW002 FEW018CB SCT025
                        11/10 Q1015 RETS=
201011201245 METAR LIRA 201245Z 24006KT 210V300 6000 -TSRA FEW018CB SCT023
                        11/10 Q1015=
201011201215 METAR LIRA 201215Z 06006KT 020V100 7000 -TSRA FEW018CB SCT025
                        11/09 Q1015=
201011201145 METAR LIRA 201145Z 02006KT 330V070 7000 -TSRA FEW017CB SCT025
                        11/10 Q1016=
201011201115 METAR LIRA 201115Z 33005KT 9999 -TSRA FEW003 FEW018CB BKN022
                        11/10 Q1016=
201011201045 METAR LIRA 201045Z 34005KT 300V010 6000 -TSRA FEW005 FEW018CB
                        BKN022 11/10 Q1017=
201011201015 METAR LIRA 201015Z 30008KT 260V340 7000 -TSRA FEW003 FEW018CB
                        SCT025 11/10 Q1017=
201011200945 METAR LIRA 200945Z 29006KT 280V360 9999 -TSRA SCT018CB SCT025
                        12/10 Q1017=
201011200915 METAR LIRA 200915Z 31003KT 9999 -TSRA SCT018CB SCT022 14/10
                        Q1017=
201011200845 METAR LIRA 200845Z 03003KT 030V150 9999 -TSRA SCT018CB SCT025
                        14/09 Q1017=
201011200815 METAR LIRA 200815Z 36002KT 9999 TS FEW020CB SCT030 11/08
                        Q1017=
201011200745 METAR LIRA 200745Z 35003KT 9999 TS FEW020CB SCT030 11/08
                        Q1017=
201011200715 METAR LIRA 200715Z 05004KT 9999 FEW022TCU SCT060 10/08 Q1017=
201011200645 METAR LIRA 200645Z 31002KT 9999 FEW020 FEW022CB SCT070 10/07
                        Q1017=
201011200615 METAR LIRA 200615Z 04005KT 010V110 9999 FEW022CB SCT070 10/07
                        Q1018=
201011200545 METAR LIRA 200545Z 05005KT 360V090 9999 FEW020 FEW022CB SCT025
                        10/08 Q1018=
201011200515 METAR LIRA 200515Z 07006KT 9999 FEW020 SCT025 10/08 Q1019=
201011200445 METAR LIRA 200445Z 08003KT 9999 FEW020 SCT070 10/08 Q1019=
201011200415 METAR LIRA 200415Z 07004KT 9999 FEW020 SCT070 10/08 Q1019=
201011200345 METAR LIRA 200345Z 04002KT 9999 FEW020 SCT070 10/08 Q1019=
201011200315 METAR LIRA 200315Z 05003KT 9999 FEW020 SCT070 10/08 Q1019=
201011200245 METAR LIRA 200245Z 04002KT 9999 FEW020 SCT070 10/08 Q1019=
201011200215 METAR LIRA 200215Z 07002KT 9999 FEW025 SCT070 10/09 Q1019=
201011200145 METAR LIRA 200145Z 09003KT 9999 FEW030 SCT070 10/09 Q1020=
201011200115 METAR LIRA 200115Z 06002KT 9999 FEW018 BKN030 11/10 Q1020=
201011200045 METAR LIRA 200045Z 11002KT 9999 FEW018 SCT025 11/09 Q1020=
201011200015 METAR LIRA 200015Z 02003KT 9999 FEW030 SCT070 11/09 Q1020=
201011192350 METAR LIRA 200045Z 11002KT 9999 FEW018 SCT025 11/09 Q1020=
201011192345 METAR LIRA 192345Z 10002KT 9999 FEW030 SCT070 11/10 Q1020=
201011192315 METAR LIRA 192315Z 09005KT 9000 FEW018 SCT030 10/09 Q1020=
201011192245 METAR LIRA 192245Z 10006KT 9000 FEW018 SCT025 10/09 Q1021=
201011192215 METAR LIRA 192215Z 12004KT 9000 -RA FEW018 BKN025 11/10 Q1021=
201011192145 METAR LIRA 192145Z 17003KT 8000 -RA FEW018 BKN030 11/10 Q1021=
201011192115 METAR LIRA 192115Z 11007KT 9999 FEW020 SCT030 10/09 Q1021=
201011192045 METAR LIRA 192045Z 14005KT 9999 FEW018 SCT030 11/09 Q1021=
201011192015 METAR LIRA 192015Z 12004KT 9999 FEW030 10/08 Q1020=
201011191945 METAR LIRA 191945Z 14002KT 9999 FEW030 10/08 Q1020=
201011191915 METAR LIRA 191915Z 13006KT 9999 FEW030 10/08 Q1020=
201011191845 METAR LIRA 191845Z 14005KT 9999 FEW030 11/08 Q1020=
201011191815 METAR LIRA 191815Z 15006KT 9999 FEW030 11/09 Q1020=
201011191745 METAR LIRA 191745Z 16003KT 9999 FEW020 11/08 Q1020=
201011191715 METAR LIRA 191715Z 16003KT 9999 FEW020 11/09 Q1020=
201011191645 METAR LIRA 191645Z 17004KT 9999 FEW030 12/09 Q1019=
201011191615 METAR LIRA 191615Z 17005KT 9999 FEW017 12/09 Q1019=
201011191545 METAR LIRA 191545Z 17004KT 9999 FEW017 FEW018TCU 13/09 Q1019=
201011191515 METAR LIRA 191515Z 21005KT 160V260 9999 FEW017 FEW018TCU
                        14/08 Q1019=
201011191445 METAR LIRA 191445Z 21006KT 150V250 9999 SCT017 15/09 Q1019=
201011191415 METAR LIRA 191415Z 20005KT 170V250 9999 SCT017 FEW018TCU
                        15/09 Q1019=
201011191345 METAR LIRA 191345Z 22009KT 160V270 9999 SCT017 FEW018TCU
                        15/09 Q1018=
201011191315 METAR LIRA 191315Z 23010KT 150V270 9999 SCT017 FEW018TCU
                        15/10 Q1018=
201011191245 METAR LIRA 191245Z 22008KT 170V260 9999 SCT017 FEW018TCU
                        15/09 Q1018=
201011191215 METAR LIRA 191215Z 23008KT 170V290 9999 SCT017 FEW018TCU
                        16/09 Q1018=
201011191145 METAR LIRA 191145Z 20007KT 140V250 9999 SCT017 FEW018TCU
                        16/08 Q1019=
201011191115 METAR LIRA 191115Z 18007KT 150V220 9999 SCT017 FEW018TCU
                        15/10 Q1019=
201011191045 METAR LIRA 191045Z 21008KT 150V260 9999 -RA SCT017 FEW018TCU
                        SCT030 15/10 Q1019=
201011191015 METAR LIRA 191015Z 22008KT 150V250 9999 FEW018 SCT030 16/09
                        Q1019=
201011190945 METAR LIRA 190945Z 24004KT 140V290 9999 FEW018 SCT030 15/10
                        Q1019=
201011190915 METAR LIRA 190915Z 16004KT 9999 FEW018 SCT030 14/10 Q1018=
201011190845 METAR LIRA 190845Z 17005KT 9999 FEW018 SCT070 15/10 Q1018=
201011190815 METAR LIRA 190815Z 17005KT 9999 SCT018 14/09 Q1018=
201011190745 METAR LIRA 190745Z 19005KT 150V210 9999 FEW018 SCT030 13/10
                        Q1017=
201011190715 METAR LIRA 190715Z 17005KT 9999 FEW018 SCT030 12/10 Q1017=
201011190645 METAR LIRA 190645Z 17007KT 9999 FEW018 SCT070 12/10 Q1016=
201011190615 METAR LIRA 190615Z 17006KT 9999 FEW015 SCT070 11/10 Q1016=
201011190545 METAR LIRA 190545Z 15004KT 9999 FEW018 SCT070 10/09 Q1015=
201011190515 METAR LIRA 190515Z 15006KT 9999 FEW015 10/09 Q1015=
201011190445 METAR LIRA 190445Z 17005KT 9999 FEW015 11/10 Q1015=
201011190415 METAR LIRA 190415Z 16005KT 9999 FEW015 SCT080 11/10 Q1015=
201011190345 METAR LIRA 190345Z 15004KT 9999 FEW015 SCT070 12/10 Q1015=
201011190315 METAR LIRA 190315Z 18007KT 9999 SCT015 SCT025 12/10 Q1015=
201011190245 METAR LIRA 190245Z 18007KT 9999 SCT015 FEW020TCU 13/10 Q1014=
201011190215 METAR LIRA 190215Z 17009KT 140V210 9999 SCT015 FEW020TCU
                        13/10 Q1014=
201011190145 METAR LIRA 190145Z 15009KT 9999 -DZ SCT015 FEW020TCU SCT025
                        12/10 Q1014=
201011190115 METAR LIRA 190115Z 16006KT 9999 SCT015 FEW022TCU SCT025 12/09
                        Q1014=
201011190045 METAR LIRA 190045Z 14009KT 8000 SCT015 FEW020CB 12/10 Q1014=
201011190015 METAR LIRA 190015Z 15007KT 8000 SCT015 FEW020CB 12/10 Q1014=
201011182350 METAR LIRA 190045Z 14009KT 8000 SCT015 FEW020CB 12/10 Q1014=
201011182345 METAR LIRA 182345Z 16007KT 8000 SCT015 FEW020CB 12/10 Q1014=
201011182315 METAR LIRA 182315Z 16007KT 8000 SCT015 FEW020CB 12/10 Q1014=
201011182245 METAR LIRA 182245Z 17004KT 8000 SCT015 FEW020CB SCT070 12/11
                        Q1014=
201011182215 METAR LIRA 182215Z 17004KT 8000 SCT015 FEW020CB SCT070 13/11
                        Q1014=
201011182145 METAR LIRA 182145Z 18005KT 8000 SCT015 FEW020CB SCT070 13/11
                        Q1013=
201011182115 METAR LIRA 182115Z 21004KT 8000 SCT015 FEW020CB SCT070 13/12
                        Q1012=
201011182045 METAR LIRA 182045Z 18005KT 160V220 8000 SCT015 FEW020CB SCT070
                        14/12 Q1012=
201011182015 METAR LIRA 182015Z 21006KT 140V260 8000 SCT015 FEW020CB SCT070
                        14/13 Q1012=
201011181945 METAR LIRA 181945Z 17008KT 8000 -DZ SCT015 FEW020CB SCT070
                        13/12 Q1011=
201011181915 METAR LIRA 181915Z 14003KT 8000 -DZ SCT015 FEW020CB SCT070
                        13/11 Q1010=
201011181845 METAR LIRA 181845Z 11005KT 8000 -DZ SCT015 FEW020CB SCT070
                        13/11 Q1010=
201011181815 METAR LIRA 181815Z 11005KT 8000 -DZ SCT015 FEW020CB SCT060
                        13/12 Q1010=
201011181745 METAR LIRA 181745Z 10009KT 9999 -DZ SCT015 FEW020CB SCT060
                        13/11 Q1010=
201011181715 METAR LIRA 181715Z 10008KT 060V120 9999 FEW015 FEW020CB SCT025
                        12/11 Q1010=
201011181645 METAR LIRA 181645Z 10005KT 7000 SCT015 FEW020CB SCT025 12/10
                        Q1010 RETS=
201011181615 METAR LIRA 181615Z 08007KT 050V170 7000 SCT015 FEW020CB SCT025
                        12/11 Q1010 RETS=
201011181545 METAR LIRA 181545Z 01003KT 3000 -TSRA BR SCT015 FEW020CB
                        SCT025 12/11 Q1010=
201011181515 METAR LIRA 181515Z 06003KT 2500 -TSRA BR SCT015 FEW020CB
                        SCT025 12/11 Q1010=
201011181445 METAR LIRA 181445Z 06006KT 4000 -TSRA BR SCT015 FEW020CB
                        SCT025 12/11 Q1010=
201011181415 METAR LIRA 181415Z 12004KT 4000 -TSRA BR SCT015 FEW020CB
                        SCT025 13/11 Q1010=
201011181345 METAR LIRA 181345Z 12006KT 8000 -RA FEW018 FEW020CB SCT025
                        13/11 Q1010=
201011181315 METAR LIRA 181315Z 12009KT 090V170 8000 -RA FEW018 FEW020CB
                        BKN030 14/12 Q1010=
201011181245 METAR LIRA 181245Z 15008KT 110V190 8000 -RA FEW018 FEW020CB
                        BKN030 14/12 Q1010=
201011181215 METAR LIRA 181215Z 15010KT 8000 -RA BR SCT018 FEW020CB BKN030
                        14/12 Q1010=
201011181145 METAR LIRA 181145Z 13010KT 9999 FEW018 SCT030 14/10 Q1010=
201011181115 METAR LIRA 181115Z 13008KT 9999 FEW018 SCT030 15/11 Q1010=
201011181045 METAR LIRA 181045Z 13012KT 100V170 9000 -RA FEW018 SCT030
                        13/11 Q1010=
201011181015 METAR LIRA 181015Z 14014KT 090V170 9999 FEW018 SCT030 15/10
                        Q1010=
201011180945 METAR LIRA 180945Z 14013KT 9999 FEW018 SCT030 15/09 Q1010=
201011180915 METAR LIRA 180915Z 14007KT 9999 FEW018 SCT030 15/09 Q1010=
201011180845 METAR LIRA 180845Z 14010KT 090V170 9999 FEW018 SCT030 14/10
                        Q1010=
201011180815 METAR LIRA 180815Z 15005KT 9999 FEW018 SCT030 14/11 Q1010=
201011180745 METAR LIRA 180745Z 15002KT 9999 FEW018 SCT030 10/09 Q1010=
201011180715 METAR LIRA 180715Z 07001KT 9999 FEW018 SCT030 09/08 Q1010=
201011180645 METAR LIRA 180645Z 09004KT 9999 FEW018 SCT070 08/08 Q1009=
201011180615 METAR LIRA 180615Z 34002KT 9999 FEW018 SCT070 08/07 Q1009=
201011180545 METAR LIRA 180545Z 00000KT 9999 FEW030 SCT070 08/07 Q1009=
201011180515 METAR LIRA 180515Z 05001KT 9999 FEW030 SCT070 08/07 Q1009=
201011180445 METAR LIRA 180445Z 00000KT 9999 SCT080 08/07 Q1009=
201011180415 METAR LIRA 180415Z 34001KT 9999 SCT080 08/07 Q1009=
201011180345 METAR LIRA 180345Z 01002KT 9999 FEW030 SCT080 08/07 Q1009=
201011180315 METAR LIRA 180315Z 08001KT 9999 FEW030 BKN080 08/07 Q1009=
201011180245 METAR LIRA 180245Z 05001KT 9999 FEW030 BKN080 09/08 Q1009=
201011180215 METAR LIRA 180215Z 36003KT 9999 FEW030 BKN070 09/08 Q1008=
201011180145 METAR LIRA 180145Z 05003KT 9999 FEW030 BKN080 09/08 Q1008=
201011180115 METAR LIRA 180115Z 34001KT 9999 FEW030 BKN080 08/07 Q1008=
201011180045 METAR LIRA 180045Z 13001KT 9999 FEW030 BKN080 08/07 Q1008=
201011180015 METAR LIRA 180015Z 08002KT 9999 FEW030 SCT080 07/06 Q1008=
201011172350 METAR LIRA 180045Z 13001KT 9999 FEW030 BKN080 08/07 Q1008=
201011172345 METAR LIRA 172345Z 02002KT 9999 FEW030 08/07 Q1008=
201011172315 METAR LIRA 172315Z 36002KT 9999 FEW030 08/07 Q1007=
201011172245 METAR LIRA 172245Z 36002KT 9999 FEW080 09/07 Q1007=
201011172215 METAR LIRA 172215Z 09005KT 9999 FEW080 09/08 Q1007=
201011172145 METAR LIRA 172145Z 04003KT 9999 FEW060 08/07 Q1007=
201011172115 METAR LIRA 172115Z 11003KT 9999 FEW060 10/08 Q1007=
201011172045 METAR LIRA 172045Z 11003KT CAVOK 09/07 Q1007=
201011172015 METAR LIRA 172015Z 14005KT CAVOK 09/07 Q1007=
201011171945 METAR LIRA 171945Z 17003KT 9999 FEW070 10/08 Q1007=
201011171915 METAR LIRA 171915Z 14006KT 100V160 9999 FEW020 10/08 Q1006=
201011171845 METAR LIRA 171845Z 17003KT 9999 FEW020 SCT040 11/09 Q1006=
201011171815 METAR LIRA 171815Z 00000KT 9999 FEW020 SCT040 11/09 Q1006=
201011171745 METAR LIRA 171745Z 00000KT 9999 FEW020 SCT040 12/08 Q1006=
201011171715 METAR LIRA 171715Z 00000KT 9999 SCT040 SCT070 12/08 Q1005=
201011171645 METAR LIRA 171645Z 11006KT 9999 FEW016 SCT040 13/09 Q1005=
201011171615 METAR LIRA 171615Z 11006KT 9999 FEW016 SCT040 13/09 Q1005=
201011171545 METAR LIRA 171545Z 11007KT 9999 FEW016 FEW020TCU SCT040 13/09
                        Q1005=
201011171515 METAR LIRA 171515Z 09006KT 030V130 9999 FEW016 FEW020CB SCT035
                        14/08 Q1004=
201011171445 METAR LIRA 171445Z 06006KT 010V090 9999 FEW016 SCT035 13/08
                        Q1004=
201011171415 METAR LIRA 171415Z 08006KT 9999 FEW016 SCT035 13/08 Q1004=
201011171345 METAR LIRA 171345Z 10006KT 9999 FEW016 SCT035 14/08 Q1004=
201011171315 METAR LIRA 171315Z 12008KT 9999 FEW016 SCT035 14/08 Q1004=
201011171245 METAR LIRA 171245Z 33009KT 9999 FEW016 SCT035 15/08 Q1004=
201011171215 METAR LIRA 171215Z 33003KT 9999 FEW016 SCT035 17/08 Q1004=
201011171145 METAR LIRA 171145Z 12005KT 080V170 9999 FEW016 SCT035 16/09
                        Q1004=
201011171115 METAR LIRA 171115Z 10007KT 060V160 9999 FEW016 SCT030 14/10
                        Q1005=
201011171045 METAR LIRA 171045Z 06007KT 020V110 9999 FEW016 SCT030 14/09
                        Q1005=
201011171015 METAR LIRA 171015Z 08004KT 030V120 9999 FEW016 SCT030 14/08
                        Q1005=
201011170945 METAR LIRA 170945Z 09009KT 020V120 9999 FEW016 SCT030 14/11
                        Q1005=
201011170915 METAR LIRA 170915Z 02004KT 9999 FEW016 SCT030 12/09 Q1005=
201011170845 METAR LIRA 170845Z 08007KT 030V120 9999 FEW017 SCT030 12/09
                        Q1005=
201011170815 METAR LIRA 170815Z 05005KT 350V090 9999 FEW017 FEW020CB 12/09
                        Q1005=
201011170745 METAR LIRA 170745Z 10004KT 9999 FEW018 FEW020CB 11/08 Q1005=
201011170715 METAR LIRA 170715Z 01008KT 040V140 9999 FEW018 FEW020CB SCT035
                        11/08 Q1005=
201011170645 METAR LIRA 170645Z 09006KT 050V120 9999 FEW018 FEW020CB SCT035
                        10/07 Q1005=
201011170615 METAR LIRA 170615Z 10007KT 060V160 9999 FEW018 FEW020CB SCT025
                        10/08 Q1005=
201011170545 METAR LIRA 170545Z 08006KT 020V120 9999 FEW018 FEW020CB SCT025
                        11/08 Q1005 RERA=
201011170515 METAR LIRA 170515Z 08008KT 030V130 9999 FEW018 FEW020CB 11/08
                        Q1005 RERA=
201011170445 METAR LIRA 170445Z 08006KT 050V120 8000 RA FEW016 FEW018CB
                        SCT025 11/09 Q1005=
201011170415 METAR LIRA 170415Z 06001KT 9999 -RA FEW016 FEW018CB SCT025
                        11/09 Q1006=
201011170345 METAR LIRA 170345Z 10004KT 080V150 9999 -RA FEW016 SCT018CB
                        11/09 Q1006=
201011170315 METAR LIRA 170315Z 09010KT 060V120 9999 FEW016 FEW018CB SCT025
                        11/09 Q1006=
201011170245 METAR LIRA 170245Z 10010KT 070V130 9999 FEW016 FEW018CB 11/09
                        Q1006=
201011170215 METAR LIRA 170215Z 09009KT 9999 FEW016 FEW018CB SCT025 10/09
                        Q1006=
201011170145 METAR LIRA 170145Z 11012KT 070V140 9999 -RA FEW017 SCT018CB
                        11/08 Q1006=
201011170115 METAR LIRA 170115Z 11010KT 080V160 9999 -RA FEW017 SCT018CB
                        11/07 Q1007=
201011170045 METAR LIRA 170045Z 04005KT 9999 FEW017 FEW018CB SCT070 11/08
                        Q1007=
201011170015 METAR LIRA 170015Z 02003KT 9999 FEW020CB SCT030 11/08 Q1007=
201011162350 METAR LIRA 170045Z 04005KT 9999 FEW017 FEW018CB SCT070 11/08
                        Q1007=
201011162345 METAR LIRA 162345Z 12002KT 9999 FEW020CB SCT030 11/08 Q1007=
201011162315 METAR LIRA 162315Z 10002KT 9999 FEW018CB SCT080 11/08 Q1008=
201011162245 METAR LIRA 162245Z 10003KT 9999 FEW017CB SCT080 11/09 Q1008=
201011162215 METAR LIRA 162215Z 10008KT 9999 FEW018CB SCT080 11/09 Q1008=
201011162145 METAR LIRA 162145Z 01002KT 9999 FEW018CB SCT070 11/09 Q1008=
201011162115 METAR LIRA 162115Z 36002KT 9999 FEW018CB SCT025 12/09 Q1009=
201011162045 METAR LIRA 162045Z 13004KT 090V150 9999 FEW018CB SCT200 12/10
                        Q1009=
201011162015 METAR LIRA 162015Z 10001KT 9999 FEW018 FEW020CB SCT030 11/08
                        Q1009=
201011161945 METAR LIRA 161945Z 09007KT 050V130 9999 FEW020CB SCT070 12/08
                        Q1008=
201011161915 METAR LIRA 161915Z 14005KT 9999 FEW018 FEW020CB SCT070 11/09
                        Q1009=
201011161845 METAR LIRA 161845Z 22005KT 150V270 9999 FEW018 FEW020CB SCT070
                        12/09 Q1009=
201011161815 METAR LIRA 161815Z 17009KT 130V190 9999 FEW018 FEW020CB SCT070
                        12/09 Q1009=
201011161745 METAR LIRA 161745Z 13009KT 9999 FEW020CB SCT070 12/08 Q1009=
201011161715 METAR LIRA 161715Z 14008KT 9999 FEW018 FEW020TCU 11/09 Q1009=
201011161645 METAR LIRA 161645Z 15006KT 090V180 9999 FEW018 12/10 Q1009=
201011161615 METAR LIRA 161615Z 15007KT 9999 FEW017 FEW018TCU 12/09 Q1009=
201011161545 METAR LIRA 161545Z 18005KT 9999 FEW017 FEW018TCU 14/09 Q1010=
201011161515 METAR LIRA 161515Z 18003KT 9999 SCT017 FEW018TCU 15/10 Q1010=
201011161445 METAR LIRA 161445Z 21004KT 160V250 9999 SCT017 FEW018TCU
                        15/09 Q1010=
201011161415 METAR LIRA 161415Z 20005KT 150V250 9999 SCT017 FEW018TCU
                        16/10 Q1010=
201011161345 METAR LIRA 161345Z 20007KT 150V250 9999 SCT018 SCT025 16/10
                        Q1010=
201011161315 METAR LIRA 161315Z 21005KT 180V250 9999 SCT018 SCT025 15/10
                        Q1010=
201011161245 METAR LIRA 161245Z 21005KT 150V250 9999 SCT018 SCT025 15/11
                        Q1010=
201011161215 METAR LIRA 161215Z 23007KT 160V270 9999 FEW018 SCT030 16/11
                        Q1010=
201011161145 METAR LIRA 161145Z 22005KT 170V250 9999 SCT015 SCT025 15/12
                        Q1010=
201011161115 METAR LIRA 161115Z 21004KT 150V250 9999 SCT015 BKN025 15/11
                        Q1010=
201011161045 METAR LIRA 161045Z 22003KT 180V270 9999 SCT015 BKN025 15/12
                        Q1011=
201011161015 METAR LIRA 161015Z 18004KT 150V240 9000 -RA SCT015 BKN025
                        15/12 Q1011=
201011160945 METAR LIRA 160945Z 18005KT 120V220 9000 -RA SCT020 BKN030
                        15/13 Q1011=
201011160915 METAR LIRA 160915Z 12008KT 7000 -RA SCT020 BKN030 15/13 Q1010=
201011160845 METAR LIRA 160845Z 17004KT 9000 -RA SCT020 BKN030 14/13 Q1010=
201011160815 METAR LIRA 160815Z 14004KT 9000 -RA SCT020 BKN030 14/13 Q1010=
201011160745 METAR LIRA 160745Z 09006KT 050V140 9000 -RA SCT016 FEW017CB
                        BKN025 14/13 Q1010=
201011160715 METAR LIRA 160715Z 13005KT 9000 -RA SCT016 FEW017CB BKN025
                        14/12 Q1010=
201011160645 METAR LIRA 160645Z 16005KT 8000 -RA SCT016 FEW017CB BKN025
                        14/12 Q1010 RETS=
201011160615 METAR LIRA 160615Z 25007KT 190V300 9000 -RA SCT015 FEW017CB
                        BKN025 15/13 Q1009 RETS=
201011160545 METAR LIRA 160545Z 18010KT 140V220 8000 -TSRA SCT015 FEW017CB
                        BKN025 17/16 Q1008=
201011160515 METAR LIRA 160515Z 16012KT 120V210 6000 -TSRA SCT015 SCT017CB
                        BKN025 16/15 Q1009=
201011160445 METAR LIRA 160445Z 14013KT 9999 FEW016 FEW017CB BKN027 16/15
                        Q1009=
201011160415 METAR LIRA 160415Z 14011KT 9999 FEW016 BKN027 16/14 Q1010=
201011160345 METAR LIRA 160345Z 14013KT 9999 FEW016 BKN027 16/14 Q1010=
201011160315 METAR LIRA 160315Z 16013KT 130V190 8000 -RA FEW016 BKN027
                        16/15 Q1010=
201011160245 METAR LIRA 160245Z 14019KT 7000 -RA FEW016 FEW017CB BKN027
                        16/15 Q1010=
201011160215 METAR LIRA 160215Z 13018KT 110V170 9999 FEW016 FEW020CB SCT030
                        17/13 Q1010=
201011160145 METAR LIRA 160145Z 14018KT 9999 FEW016 FEW020CB SCT030 17/13
                        Q1011=
201011160115 METAR LIRA 160115Z 15019KT 9999 FEW016 FEW020CB BKN070 18/13
                        Q1012=
201011160045 METAR LIRA 160045Z 14013KT 9999 FEW018 FEW022CB BKN070 18/13
                        Q1012=
201011160015 METAR LIRA 160015Z 14014KT 9999 FEW018 FEW022CB BKN070 17/13
                        Q1012=
201011152350 METAR LIRA 160045Z 14013KT 9999 FEW018 FEW022CB BKN070 18/13
                        Q1012=
201011152345 METAR LIRA 152345Z 13014KT 100V160 9999 FEW018 FEW022CB BKN070
                        17/14 Q1013=
201011152315 METAR LIRA 152315Z 13012KT 9999 FEW018 FEW022TCU BKN070 17/14
                        Q1013=
201011152245 METAR LIRA 152245Z 14011KT 9999 FEW018 FEW022TCU SCT070 17/14
                        Q1013=
201011152215 METAR LIRA 152215Z 14010KT 9999 FEW018 FEW022TCU SCT070 17/14
                        Q1013=
201011152145 METAR LIRA 152145Z 13011KT 9999 FEW018 SCT070 17/15 Q1014=
201011152115 METAR LIRA 152115Z 14012KT 120V180 9999 FEW018 SCT070 17/15
                        Q1014=
201011152045 METAR LIRA 152045Z 15011KT 9999 FEW018 BKN070 17/15 Q1014=
201011152015 METAR LIRA 152015Z 15013KT 110V190 9999 FEW018 BKN070 17/14
                        Q1014=
201011151945 METAR LIRA 151945Z 13011KT 9999 FEW018 BKN070 17/15 Q1014=
201011151915 METAR LIRA 151915Z 13011KT 100V160 9999 FEW018 BKN070 17/14
                        Q1014=
201011151845 METAR LIRA 151845Z 14009KT 9999 FEW018 SCT070 17/14 Q1014=
201011151815 METAR LIRA 151815Z 14008KT 9999 FEW018 SCT022 17/15 Q1014=
201011151745 METAR LIRA 151745Z 14005KT 9999 FEW018 SCT022 17/15 Q1014=
201011151715 METAR LIRA 151715Z 13008KT 9999 FEW018TCU SCT022 17/15 Q1014=
201011151645 METAR LIRA 151645Z 15007KT 120V180 9999 FEW018TCU SCT022
                        17/15 Q1014=
201011151615 METAR LIRA 151615Z 15008KT 120V190 9999 FEW018TCU SCT022
                        18/15 Q1014=
201011151545 METAR LIRA 151545Z 15010KT 9999 FEW018TCU SCT022 18/15 Q1014=
201011151515 METAR LIRA 151515Z 15010KT 9999 -RA FEW017CB SCT022 18/15
                        Q1015=
201011151445 METAR LIRA 151445Z 14010KT 110V170 9999 -RA FEW017CB SCT018
                        18/15 Q1015=
201011151415 METAR LIRA 151415Z 15009KT 120V180 9999 -RA FEW017CB SCT018
                        18/15 Q1015=
201011151345 METAR LIRA 151345Z 15010KT 9999 SCT018 18/14 Q1015=
201011151315 METAR LIRA 151315Z 14011KT 110V190 9999 SCT018 18/14 Q1015=
201011151245 METAR LIRA 151245Z 14011KT 110V180 9999 SCT018 SCT060 19/14
                        Q1015=
201011151215 METAR LIRA 151215Z 14010KT 110V180 9999 FEW018 BKN025 18/14
                        Q1015=
201011151145 METAR LIRA 151145Z 13009KT 100V160 9000 FEW018 BKN025 18/15
                        Q1015=
201011151115 METAR LIRA 151115Z 14010KT 110V180 9000 SCT018 BKN025 17/15
                        Q1016=
201011151045 METAR LIRA 151045Z 15010KT 9000 SCT018 BKN020 17/13 Q1016=
201011151015 METAR LIRA 151015Z 16009KT 130V210 9000 FEW020 BKN035 17/12
                        Q1017=
201011150945 METAR LIRA 150945Z 18009KT 140V210 8000 FEW020 SCT030 17/12
                        Q1017=
201011150915 METAR LIRA 150915Z 14009KT 100V170 8000 FEW020 SCT030 17/11
                        Q1016=
201011150845 METAR LIRA 150845Z 33002KT 8000 FEW020 SCT030 16/12 Q1016=
201011150815 METAR LIRA 150815Z 36002KT 8000 FEW025 14/13 Q1016=
201011150745 METAR LIRA 150745Z 04001KT 7000 FEW020 12/11 Q1016=
201011150715 METAR LIRA 150715Z 31002KT 7000 FEW004 11/10 Q1016=
201011150645 METAR LIRA 150645Z 34003KT 7000 FEW004 11/10 Q1016=
201011150615 METAR LIRA 150615Z 02002KT 7000 FEW020 10/09 Q1016=
201011150545 METAR LIRA 150545Z 02002KT 7000 FEW025 10/09 Q1016=
201011150515 METAR LIRA 150515Z 03002KT 8000 FEW025 10/09 Q1016=
201011150445 METAR LIRA 150445Z 06003KT 8000 FEW010 SCT070 10/09 Q1016=
201011150415 METAR LIRA 150415Z 35002KT 8000 FEW010 SCT070 11/10 Q1016=
201011150345 METAR LIRA 150345Z 15001KT 8000 FEW010 SCT070 11/10 Q1016=
201011150315 METAR LIRA 150315Z 00000KT 8000 FEW010 SCT070 11/10 Q1017=
201011150245 METAR LIRA 150245Z 14001KT 7000 FEW010 11/10 Q1017=
201011150215 METAR LIRA 150215Z 10003KT 7000 FEW010 11/10 Q1017=
201011150145 METAR LIRA 150145Z 11003KT 7000 FEW010 SCT070 11/10 Q1017=
201011150115 METAR LIRA 150115Z 06003KT 7000 FEW010 11/10 Q1017=
201011150045 METAR LIRA 150045Z 04003KT 8000 FEW010 SCT070 11/10 Q1017=
201011150015 METAR LIRA 150015Z 00000KT 8000 FEW010 12/11 Q1017=
201011142350 METAR LIRA 150045Z 04003KT 8000 FEW010 SCT070 11/10 Q1017=
201011142345 METAR LIRA 142345Z 22002KT 8000 FEW010 12/11 Q1017=
201011142315 METAR LIRA 142315Z 00000KT 8000 FEW010 SCT030 13/11 Q1017=
201011142245 METAR LIRA 142245Z 00000KT 8000 FEW013 SCT030 13/11 Q1016=
201011142215 METAR LIRA 142215Z 36002KT 8000 FEW010 13/12 Q1017=
201011142145 METAR LIRA 142145Z 08003KT 8000 FEW010 SCT030 13/12 Q1017=
201011142115 METAR LIRA 142115Z 08002KT 8000 FEW010 SCT070 14/12 Q1017=
201011142045 METAR LIRA 142045Z 10002KT 8000 FEW013 SCT070 15/13 Q1016=
201011142015 METAR LIRA 142015Z 09005KT 8000 FEW013 SCT030 14/13 Q1016=
201011141945 METAR LIRA 141945Z 08004KT 8000 SCT010 15/13 Q1016=
201011141915 METAR LIRA 141915Z 17004KT 9999 FEW013 16/14 Q1016=
201011141845 METAR LIRA 141845Z 16005KT 120V190 9999 FEW013 16/15 Q1016=
201011141815 METAR LIRA 141815Z 17006KT 9999 FEW018 SCT070 16/15 Q1016=
201011141745 METAR LIRA 141745Z 17006KT 9999 FEW018 SCT070 16/15 Q1016=
201011141715 METAR LIRA 141715Z 19005KT 160V220 9999 FEW020 SCT070 16/14
                        Q1015=
201011141645 METAR LIRA 141645Z 20003KT 9999 FEW020 SCT080 17/14 Q1015=
201011141615 METAR LIRA 141615Z 22003KT 9999 FEW020 SCT080 18/15 Q1015=
201011141545 METAR LIRA 141545Z 21003KT 9999 FEW020 SCT070 18/15 Q1015=
201011141515 METAR LIRA 141515Z 22005KT 9999 FEW020 SCT080 19/14 Q1015=
201011141445 METAR LIRA 141445Z 22004KT 180V240 9999 FEW020 SCT080 19/14
                        Q1015=
201011141415 METAR LIRA 141415Z 23005KT 9999 FEW020 SCT080 19/14 Q1015=
201011141345 METAR LIRA 141345Z 21005KT 190V280 9999 FEW020 SCT080 20/14
                        Q1015=
201011141315 METAR LIRA 141315Z 27003KT 9999 FEW020 SCT080 20/12 Q1016=
201011141245 METAR LIRA 141245Z 15004KT 9999 SCT020 20/12 Q1016=
201011141215 METAR LIRA 141215Z 20003KT 9999 FEW020 SCT080 20/12 Q1016=
201011141145 METAR LIRA 141145Z 22003KT 9999 FEW020 SCT080 20/12 Q1016=
201011141115 METAR LIRA 141115Z 16002KT 9999 FEW020 SCT080 20/12 Q1016=
201011141045 METAR LIRA 141045Z 22003KT 9999 FEW020 BKN080 19/14 Q1017=
201011141015 METAR LIRA 141015Z 19003KT 9999 FEW020 BKN080 18/13 Q1017=
201011140945 METAR LIRA 140945Z 05003KT 9999 FEW040 BKN080 18/13 Q1017=
201011140915 METAR LIRA 140915Z 04002KT 9999 FEW040 BKN080 17/13 Q1017=
201011140845 METAR LIRA 140845Z 02003KT 9999 SCT035 BKN080 16/13 Q1017=
201011140815 METAR LIRA 140815Z 02002KT 9999 SCT035 BKN080 16/13 Q1017=
201011140745 METAR LIRA 140745Z 00000KT 9999 FEW035 BKN080 15/13 Q1017=
201011140715 METAR LIRA 140715Z 22001KT 9999 FEW030 BKN080 14/13 Q1016=
201011140645 METAR LIRA 140645Z 15002KT 9999 FEW030 BKN080 14/12 Q1016=
201011140615 METAR LIRA 140615Z 21003KT 9999 FEW030 BKN080 14/12 Q1016=
201011140545 METAR LIRA 140545Z 05001KT 9999 FEW030 BKN070 14/12 Q1016=
201011140515 METAR LIRA 140515Z 00000KT 9999 FEW022 BKN070 15/12 Q1016=
201011140445 METAR LIRA 140445Z 13003KT 9999 FEW013 BKN025 15/12 Q1015=
201011140415 METAR LIRA 140415Z 15004KT 9999 SCT015 BKN025 15/12 Q1015=
201011140345 METAR LIRA 140345Z 17002KT 9999 SCT013 BKN025 15/12 Q1015=
201011140315 METAR LIRA 140315Z 00000KT 9999 FEW015 BKN025 15/12 Q1015=
201011140245 METAR LIRA 140245Z 10002KT 9999 FEW008 SCT015 15/13 Q1015=
201011140215 METAR LIRA 140215Z 08003KT 9999 FEW008 SCT020 15/13 Q1015=
201011140145 METAR LIRA 140145Z 05002KT 9999 FEW008 SCT020 15/13 Q1015=
201011140115 METAR LIRA 140115Z 10002KT 9999 FEW015 SCT020 15/13 Q1015=
201011140045 METAR LIRA 140045Z 17003KT 9999 FEW013 SCT020 15/13 Q1015=
201011140015 METAR LIRA 140015Z 16003KT 9999 FEW013 SCT020 15/13 Q1015=
201011132350 METAR LIRA 140045Z 17003KT 9999 FEW013 SCT020 15/13 Q1015=
201011132345 METAR LIRA 132345Z 15003KT 9999 FEW013 SCT020 15/13 Q1015=
201011132315 METAR LIRA 132315Z 14004KT 9999 FEW013 SCT020 15/13 Q1015=
201011132245 METAR LIRA 132245Z 14005KT 9999 FEW013 SCT020 15/13 Q1015=
201011132215 METAR LIRA 132215Z 15004KT 9999 SCT013 SCT020 15/13 Q1015=
201011132145 METAR LIRA 132145Z 16003KT 9999 FEW013 SCT020 15/13 Q1015=
201011132115 METAR LIRA 132115Z 10004KT 9999 FEW013 SCT020 15/13 Q1015=
201011132045 METAR LIRA 132045Z 09003KT 9999 SCT013 SCT020 15/13 Q1015=
201011132015 METAR LIRA 132015Z 14004KT 9999 SCT013 SCT020 15/13 Q1015=
201011131945 METAR LIRA 131945Z 12004KT 9999 FEW023 SCT025 15/14 Q1014=
201011131915 METAR LIRA 131915Z 14003KT 9999 SCT013 SCT023 15/14 Q1014=
201011131845 METAR LIRA 131845Z 15003KT 9999 SCT013 SCT023 15/14 Q1014=
201011131815 METAR LIRA 131815Z 15003KT 9999 FEW013 SCT023 15/14 Q1014=
201011131745 METAR LIRA 131745Z 17002KT 9999 FEW013 SCT023 16/14 Q1014=
201011131715 METAR LIRA 131715Z 18004KT 9999 FEW013 SCT023 16/14 Q1014=
201011131645 METAR LIRA 131645Z 17004KT 9999 FEW013 SCT023 16/14 Q1013=
201011131615 METAR LIRA 131615Z 18004KT 9999 FEW013 SCT023 16/14 Q1013=
201011131545 METAR LIRA 131545Z 20003KT 9999 FEW013 SCT023 16/14 Q1013=
201011131515 METAR LIRA 131515Z 20005KT 150V250 9999 SCT013 SCT023 18/16
                        Q1013=
201011131445 METAR LIRA 131445Z 21004KT 9999 FEW015 SCT023 18/16 Q1013=
201011131415 METAR LIRA 131415Z 22005KT 170V260 9999 FEW018 SCT030 19/16
                        Q1013=
201011131345 METAR LIRA 131345Z 20004KT 160V240 9999 FEW018 SCT030 19/15
                        Q1013=
201011131315 METAR LIRA 131315Z 21005KT 160V250 9999 FEW018 SCT030 19/15
                        Q1013=
201011131245 METAR LIRA 131245Z 20005KT 160V270 9999 SCT030 19/15 Q1014=
201011131215 METAR LIRA 131215Z 20007KT 130V240 9999 SCT030 19/15 Q1014=
201011131145 METAR LIRA 131145Z 19005KT 140V230 9999 SCT030 19/15 Q1014=
201011131115 METAR LIRA 131115Z 18006KT 140V230 9999 SCT030 19/14 Q1014=
201011131045 METAR LIRA 131045Z 18007KT 130V230 9999 SCT030 18/13 Q1014=
201011131015 METAR LIRA 131015Z 18006KT 130V220 9999 SCT030 18/13 Q1014=
201011130945 METAR LIRA 130945Z 19004KT 9999 SCT030 18/13 Q1014=
201011130915 METAR LIRA 130915Z 02003KT 9999 FEW030 16/12 Q1014=
201011130845 METAR LIRA 130845Z 02003KT 9999 FEW030 13/10 Q1014=
201011130815 METAR LIRA 130815Z 01002KT 9999 FEW030 12/10 Q1014=
201011130745 METAR LIRA 130745Z 01002KT 9999 SCT070 11/09 Q1014=
201011130715 METAR LIRA 130715Z 36003KT 9999 FEW070 10/09 Q1014=
201011130645 METAR LIRA 130645Z 08003KT CAVOK 09/08 Q1014=
201011130615 METAR LIRA 130615Z 02002KT 9999 FEW030 08/07 Q1013=
201011130545 METAR LIRA 130545Z 04002KT 9999 FEW030 08/07 Q1013=
201011130515 METAR LIRA 130515Z 04003KT 9999 FEW070 08/07 Q1013=
201011130445 METAR LIRA 130445Z 01003KT 9999 FEW010 09/08 Q1013=
201011130415 METAR LIRA 130415Z 05004KT CAVOK 09/08 Q1013=
201011130345 METAR LIRA 130345Z 04002KT 9999 FEW016 09/08 Q1012=
201011130315 METAR LIRA 130315Z 07002KT CAVOK 10/09 Q1012=
201011130245 METAR LIRA 130245Z 06003KT CAVOK 10/09 Q1012=
201011130215 METAR LIRA 130215Z 06003KT CAVOK 10/09 Q1012=
201011130145 METAR LIRA 130145Z 06003KT CAVOK 09/08 Q1013=
201011130115 METAR LIRA 130115Z 03004KT CAVOK 09/08 Q1013=
201011130045 METAR LIRA 130045Z 00000KT CAVOK 09/08 Q1013=
201011130015 METAR LIRA 130015Z 04002KT CAVOK 09/08 Q1013=
201011122350 METAR LIRA 130045Z 00000KT CAVOK 09/08 Q1013=
201011122345 METAR LIRA 122345Z 36002KT CAVOK 10/09 Q1013=
201011122315 METAR LIRA 122315Z 00000KT 9999 FEW007 10/09 Q1013=
201011122245 METAR LIRA 122245Z 06003KT CAVOK 10/09 Q1013=
201011122215 METAR LIRA 122215Z 05003KT CAVOK 11/09 Q1013=
201011122145 METAR LIRA 122145Z 10003KT CAVOK 11/09 Q1013=
201011122115 METAR LIRA 122115Z 11003KT CAVOK 11/09 Q1013=
201011122045 METAR LIRA 122045Z 09002KT CAVOK 11/09 Q1013=
201011122015 METAR LIRA 122015Z 08004KT CAVOK 11/09 Q1013=
201011121945 METAR LIRA 121945Z 09004KT 9999 FEW080 11/09 Q1013=
201011121915 METAR LIRA 121915Z 10002KT 9999 FEW010 12/10 Q1013=
201011121845 METAR LIRA 121845Z 17003KT 9999 FEW080 13/10 Q1013=
201011121745 METAR LIRA 121745Z 14002KT 9999 FEW080 13/10 Q1013=
201011121715 METAR LIRA 121715Z 13003KT 9999 FEW080 13/10 Q1013=
201011121645 METAR LIRA 121645Z 09002KT 9999 FEW022 14/10 Q1013=
201011121615 METAR LIRA 121615Z 18003KT 9999 FEW022 15/11 Q1013=
201011121545 METAR LIRA 121545Z 17003KT 9999 FEW022 16/11 Q1013=
201011121515 METAR LIRA 121515Z 18003KT 9999 FEW022 17/09 Q1013=
201011121445 METAR LIRA 121445Z 14002KT 9999 FEW018 17/08 Q1013=
201011121415 METAR LIRA 121415Z 14004KT 9999 FEW018 18/08 Q1013=
201011121345 METAR LIRA 121345Z 18004KT 9999 FEW018 17/08 Q1013=
201011121315 METAR LIRA 121315Z 20004KT 9999 SCT018 18/09 Q1013=
201011121245 METAR LIRA 121245Z 21003KT 9999 SCT018 18/11 Q1014=
201011121215 METAR LIRA 121215Z 18007KT 140V230 9999 SCT018 17/11 Q1014=
201011121145 METAR LIRA 121145Z 36001KT 9999 BKN018 15/11 Q1014=
201011121115 METAR LIRA 121115Z 27001KT 9999 SCT018 SCT070 15/11 Q1014=
201011121045 METAR LIRA 121045Z 32001KT 9999 FEW018 SCT030 BKN070 15/11
                        Q1014=
201011121015 METAR LIRA 121015Z 35003KT 9999 FEW018 SCT035 BKN070 14/11
                        Q1014=
201011120945 METAR LIRA 120945Z 33003KT 9999 FEW018 BKN070 13/11 Q1014=
201011120915 METAR LIRA 120915Z 36001KT 9999 FEW018 BKN070 13/11 Q1014=
201011120845 METAR LIRA 120845Z 35003KT 9999 FEW018 SCT035 10/09 Q1015=
201011120815 METAR LIRA 120815Z 14002KT 9999 FEW018 SCT035 10/08 Q1015=
201011120745 METAR LIRA 120745Z 03003KT 9999 FEW070 09/08 Q1015=
201011120715 METAR LIRA 120715Z 02003KT 9999 FEW080 08/07 Q1015=
201011120645 METAR LIRA 120645Z 05003KT 9999 FEW080 07/06 Q1014=
201011120615 METAR LIRA 120615Z 07003KT 9999 FEW080 06/05 Q1014=
201011120545 METAR LIRA 120545Z 04003KT 9999 FEW080 06/05 Q1014=
201011120515 METAR LIRA 120515Z 01003KT CAVOK 06/05 Q1014=
201011120445 METAR LIRA 120445Z 07003KT CAVOK 06/05 Q1014=
201011120415 METAR LIRA 120415Z 05003KT CAVOK 06/05 Q1014=
201011120345 METAR LIRA 120345Z 01003KT CAVOK 06/05 Q1014=
201011120315 METAR LIRA 120315Z 04002KT CAVOK 06/05 Q1014=
201011120245 METAR LIRA 120245Z 05001KT CAVOK 06/06 Q1014=
201011120215 METAR LIRA 120215Z 05003KT CAVOK 07/06 Q1014=
201011120145 METAR LIRA 120145Z 03004KT CAVOK 07/06 Q1014=
201011120115 METAR LIRA 120115Z 04004KT CAVOK 07/07 Q1014=
201011120045 METAR LIRA 120045Z 02003KT CAVOK 08/07 Q1014=
201011120015 METAR LIRA 120015Z 06002KT CAVOK 08/07 Q1014=
201011112350 METAR LIRA 120045Z 02003KT CAVOK 08/07 Q1014=
201011112345 METAR LIRA 112345Z 02002KT CAVOK 08/08 Q1014=
201011112315 METAR LIRA 112315Z 07002KT CAVOK 09/08 Q1014=
201011112245 METAR LIRA 112245Z 02002KT CAVOK 09/08 Q1014=
201011112215 METAR LIRA 112215Z 03002KT CAVOK 09/09 Q1014=
201011112145 METAR LIRA 112145Z 09002KT CAVOK 09/08 Q1014=
201011112115 METAR LIRA 112115Z 10002KT CAVOK 10/09 Q1014=
201011112045 METAR LIRA 112045Z 09003KT CAVOK 10/08 Q1014=
201011112015 METAR LIRA 112015Z 07003KT CAVOK 10/08 Q1014=
201011111945 METAR LIRA 111945Z 00000KT CAVOK 11/09 Q1013=
201011111915 METAR LIRA 111915Z 15003KT CAVOK 11/09 Q1013=
201011111845 METAR LIRA 111845Z 14003KT CAVOK 11/10 Q1013=
201011111815 METAR LIRA 111815Z 15003KT CAVOK 11/10 Q1014=
201011111745 METAR LIRA 111745Z 12003KT CAVOK 11/10 Q1014=
201011111715 METAR LIRA 111715Z 13003KT 9999 FEW018 12/11 Q1014=
201011111645 METAR LIRA 111645Z 21002KT 9999 FEW018 14/11 Q1013=
201011111615 METAR LIRA 111615Z 19001KT 9999 FEW018 FEW020CB 15/11 Q1013=
201011111545 METAR LIRA 111545Z 24002KT 9999 FEW020CB 16/11 Q1013=
201011111515 METAR LIRA 111515Z 00000KT 9999 FEW020CB 16/10 Q1013=
201011111445 METAR LIRA 111445Z 36001KT 9999 FEW017 FEW020CB 16/09 Q1013=
201011111415 METAR LIRA 111415Z 14001KT 9999 FEW020 16/10 Q1013=
201011111345 METAR LIRA 111345Z 05004KT 9999 FEW016 FEW020TCU 16/11 Q1013=
201011111315 METAR LIRA 111315Z 04004KT 330V090 9999 FEW016 FEW020TCU
                        16/12 Q1013=
201011111245 METAR LIRA 111245Z 05003KT 9999 FEW016 FEW020CB 16/12 Q1013=
201011111215 METAR LIRA 111215Z 03005KT 350V060 9999 FEW016 FEW020CB 16/12
                        Q1013=
201011111145 METAR LIRA 111145Z 10005KT 060V150 9999 FEW016 FEW020CB 15/12
                        Q1013 RETS=
201011111115 METAR LIRA 111115Z 09005KT 060V130 9999 FEW016 FEW020CB BKN025
                        13/11 Q1013 RETS=
201011111045 METAR LIRA 111045Z 09009KT 040V120 8000 -TSRA FEW016 SCT020CB
                        BKN025 13/12 Q1013=
201011111015 METAR LIRA 111015Z 06010KT 360V090 8000 -TSRA FEW016 FEW020CB
                        BKN025 13/11 Q1013=
201011110945 METAR LIRA 110945Z 03010KT 330V080 9000 -RA FEW016 FEW020CB
                        BKN025 13/12 Q1013 RETS=
201011110915 METAR LIRA 110915Z 08010KT 010V090 9000 -TSRA SCT016 FEW020CB
                        BKN025 13/11 Q1013=
201011110845 METAR LIRA 110845Z 35007KT 340V060 8000 -TSRA SCT016 FEW020CB
                        BKN025 13/11 Q1013 RETS=
201011110815 METAR LIRA 110815Z 35006KT 310V060 8000 FEW016 FEW020CB BKN025
                        13/12 Q1012 RETS=
201011110745 METAR LIRA 110745Z 36002KT 8000 -TSRA FEW016 FEW020CB SCT025
                        14/13 Q1012=
201011110715 METAR LIRA 110715Z 32002KT 8000 -TSRA FEW016 FEW020CB SCT025
                        14/11 Q1011=
201011110645 METAR LIRA 110645Z 14007KT 8000 -TSRA FEW016 FEW020CB SCT025
                        13/10 Q1011=
201011110615 METAR LIRA 110615Z 13008KT 9999 FEW016 FEW018TCU SCT025 11/09
                        Q1011=
201011110545 METAR LIRA 110545Z 14006KT 9999 FEW016 FEW018TCU 11/09 Q1011=
201011110515 METAR LIRA 110515Z 11006KT 100V180 9999 FEW016 11/09 Q1010=
201011110445 METAR LIRA 110445Z 13005KT 9999 FEW018 SCT030 11/09 Q1010=
201011110415 METAR LIRA 110415Z 16005KT 9999 FEW018 SCT030 11/09 Q1010=
201011110345 METAR LIRA 110345Z 15005KT 9999 FEW018 11/09 Q1010=
201011110315 METAR LIRA 110315Z 15004KT 9999 FEW018 11/09 Q1010=
201011110245 METAR LIRA 110245Z 15005KT 9999 FEW018 11/09 Q1011=
201011110215 METAR LIRA 110215Z 16003KT 9999 FEW018 11/08 Q1011=
201011110145 METAR LIRA 110145Z 13003KT 9999 SCT018 FEW022TCU 10/09 Q1010=
201011110115 METAR LIRA 110115Z 13005KT 9999 SCT018 FEW022TCU 11/09 Q1010=
201011110045 METAR LIRA 110045Z 11004KT 9999 SCT018 FEW022TCU 11/09 Q1010=
201011110015 METAR LIRA 110015Z 16003KT 9999 SCT018 FEW022TCU 11/09 Q1010=
201011102350 METAR LIRA 110045Z 11004KT 9999 SCT018 FEW022TCU 11/09 Q1010=
201011102345 METAR LIRA 102345Z 16004KT 9999 FEW018 11/09 Q1010=
201011102315 METAR LIRA 102315Z 15006KT 9999 FEW018 11/10 Q1009=
201011102245 METAR LIRA 102245Z 16005KT 9999 FEW018 12/11 Q1009=
201011102215 METAR LIRA 102215Z 17005KT 9999 SCT018 FEW022CB 13/10 Q1009=
201011102145 METAR LIRA 102145Z 16005KT 9999 FEW020 FEW022CB 12/10 Q1009=
201011102115 METAR LIRA 102115Z 18005KT 9999 FEW020 FEW022CB 14/10 Q1009=
201011102045 METAR LIRA 102045Z 16006KT 9999 FEW020 13/10 Q1009=
201011102015 METAR LIRA 102015Z 16007KT 9999 FEW020 13/10 Q1008=
201011101945 METAR LIRA 101945Z 16006KT 9999 FEW020 13/10 Q1007=
201011101915 METAR LIRA 101915Z 16005KT 9999 FEW020 SCT080 13/11 Q1007=
201011101845 METAR LIRA 101845Z 18005KT 9999 FEW020 14/11 Q1007=
201011101815 METAR LIRA 101815Z 17005KT 9999 FEW020 14/11 Q1006=
201011101745 METAR LIRA 101745Z 17005KT 9999 FEW020 14/12 Q1006=
201011101715 METAR LIRA 101715Z 17005KT 9999 FEW020 14/12 Q1005=
201011101645 METAR LIRA 101645Z 18006KT 9999 FEW020 14/12 Q1005=
201011101615 METAR LIRA 101615Z 16006KT 9999 FEW020 14/12 Q1004=
201011101545 METAR LIRA 101545Z 17006KT 9999 FEW020 SCT070 15/12 Q1004=
201011101515 METAR LIRA 101515Z 17006KT 150V210 9999 FEW020 SCT070 15/12
                        Q1004=
201011101445 METAR LIRA 101445Z 19007KT 160V230 9999 FEW020 15/12 Q1003
                        RETS=
201011101415 METAR LIRA 101415Z 20008KT 130V250 9999 FEW015 FEW016CB SCT020
                        14/12 Q1003 RETS=
201011101345 METAR LIRA 101345Z 27013G24KT 220V330 2000 BR -TSRA SCT013
                        SCT015CB SCT016TCU 14/11 Q1003 RETS=
201011101315 METAR LIRA 101315Z 20012KT 140V250 9999 SCT015 FEW016TCU
                        SCT018CB 18/11 Q1001=
201011101245 METAR LIRA 101245Z 21013G23KT 140V260 9999 FEW015 FEW017TCU
                        FEW018CB 18/12 Q1001=
201011101215 METAR LIRA 101215Z 20013KT 160V250 9999 SCT017 FEW018CB SCT020
                        17/12 Q1000=
201011101145 METAR LIRA 101145Z 18006G18KT 160V250 9999 FEW017 SCT018CB
                        16/12 Q1000 RETS=
201011101115 METAR LIRA 101115Z 31006KT 240V010 9999 FEW015 FEW017CB SCT020
                        13/11 Q1000 RETS=
201011101045 METAR LIRA 101045Z 20008KT 130V270 8000 TSRA FEW015 SCT016CB
                        19/09 Q1000=
201011101015 METAR LIRA 101015Z 19007KT 160V260 9999 FEW017 FEW020TCU
                        19/08 Q1000=
201011100945 METAR LIRA 100945Z 22008KT 180V270 9999 FEW018 FEW020TCU
                        SCT070 18/09 Q1000=
201011100915 METAR LIRA 100915Z 21007KT 170V250 9999 FEW018 FEW020TCU
                        SCT070 17/08 Q0999=
201011100845 METAR LIRA 100845Z 17006KT 120V200 9999 FEW018 FEW020TCU
                        16/11 Q0999=
201011100815 METAR LIRA 100815Z 16006KT 9999 FEW018 15/11 Q0998=
201011100745 METAR LIRA 100745Z 17006KT 9999 FEW018 15/11 Q0998=
201011100715 METAR LIRA 100715Z 18006KT 150V220 9999 FEW020 14/10 Q0997=
201011100645 METAR LIRA 100645Z 16006KT 9999 FEW017 FEW018TCU 13/11 Q0997=
201011100615 METAR LIRA 100615Z 19003KT 9999 SCT016 FEW017TCU 14/11 Q0996=
201011100545 METAR LIRA 100545Z 22004KT 9999 FEW017 SCT025 14/12 Q0996=
201011100515 METAR LIRA 100515Z 19007KT 160V240 9999 SCT015 SCT030 14/12
                        Q0995=
201011100445 METAR LIRA 100445Z 21006KT 170V260 9999 SCT015 SCT030 14/13
                        Q0994=
201011100415 METAR LIRA 100415Z 19008KT 9999 SCT015 FEW020CB SCT025 14/13
                        Q0993 RETS=
201011100345 METAR LIRA 100345Z 18007KT 9999 SCT015 FEW020CB SCT025 14/13
                        Q0992 RETS=
201011100315 METAR LIRA 100315Z 19007KT 6000 -TSRA SCT015 FEW020CB SCT025
                        14/13 Q0992=
201011100245 METAR LIRA 100245Z 20014KT 160V310 4000 -TSRA BR SCT015 FEW020CB
                        SCT025 16/14 Q0991=
201011100215 METAR LIRA 100215Z 20014KT 8000 SCT013 FEW015CB SCT025 15/14
                        Q0991=
201011100145 METAR LIRA 100145Z 18019G29KT 150V230 9999 SCT013 FEW015CB
                        SCT025 17/14 Q0991=
201011100115 METAR LIRA 100115Z 16013KT 9999 BKN015 FEW020CB SCT030 16/13
                        Q0991=
201011100045 METAR LIRA 100045Z 16013KT 9999 SCT013 BKN023 15/14 Q0991=
201011100015 METAR LIRA 100015Z 16010KT 130V200 7000 -RA SCT013 BKN023
                        15/14 Q0992=
201011092350 METAR LIRA 100045Z 16013KT 9999 SCT013 BKN023 15/14 Q0991=
201011092345 METAR LIRA 092345Z 16009KT 9999 SCT013 BKN025 15/13 Q0992=
201011092315 METAR LIRA 092315Z 17012KT 9999 -DZ SCT015 BKN030 15/13 Q0992=
201011092245 METAR LIRA 092245Z 17008KT 9999 -DZ SCT014 BKN025 15/12 Q0992=
201011092215 METAR LIRA 092215Z 16008KT 9999 SCT015 BKN030 15/12 Q0992=
201011092145 METAR LIRA 092145Z 16009KT 9999 SCT015 BKN030 15/11 Q0992=
201011092115 METAR LIRA 092115Z 18008KT 9999 SCT015 BKN030 15/11 Q0992=
201011092045 METAR LIRA 092045Z 17009KT 9999 SCT015 FEW020CB BKN027 15/11
                        Q0992=
201011092015 METAR LIRA 092015Z 17007KT 9999 SCT015 FEW020CB BKN027 15/12
                        Q0992=
201011091945 METAR LIRA 091945Z 16008KT 9999 SCT015 FEW020CB BKN027 15/13
                        Q0992=
201011091915 METAR LIRA 091915Z 16006KT 9999 SCT015 FEW020CB BKN028 15/12
                        Q0992=
201011091845 METAR LIRA 091845Z 18007KT 150V220 9999 SCT015 FEW018CB BKN027
                        16/12 Q0992=
201011091815 METAR LIRA 091815Z 19008KT 160V230 9999 SCT014 FEW017CB BKN027
                        16/11 Q0991=
201011091745 METAR LIRA 091745Z 18007KT 150V220 9999 SCT014 FEW017CB BKN027
                        16/11 Q0991=
201011091715 METAR LIRA 091715Z 19007KT 140V260 9999 SCT015 FEW017CB SCT025
                        16/10 Q0990=
201011091645 METAR LIRA 091645Z 19007KT 150V220 9999 SCT015 FEW017CB 16/11
                        Q0989=
201011091615 METAR LIRA 091615Z 19008KT 150V240 9999 SCT015 FEW017CB SCT028
                        16/10 Q0989=
201011091545 METAR LIRA 091545Z 20007KT 160V240 9999 SCT015 FEW017CB SCT030
                        16/10 Q0989=
201011091515 METAR LIRA 091515Z 22007KT 180V270 9999 SCT015 FEW017CB SCT025
                        16/10 Q0988=
201011091445 METAR LIRA 091445Z 21005KT 170V250 9999 SCT015 FEW017CB SCT025
                        16/11 Q0988=
201011091415 METAR LIRA 091415Z 22008KT 180V260 9999 SCT015 FEW017CB SCT025
                        16/11 Q0988=
201011091345 METAR LIRA 091345Z 23012KT 180V290 9999 SCT015 FEW017CB SCT025
                        17/11 Q0987=
201011091315 METAR LIRA 091315Z 23013KT 180V300 9999 SCT012 FEW017CB SCT022
                        17/11 Q0987 WS RWY 15=
201011091245 METAR LIRA 091245Z 22010KT 150V260 9999 SCT012 FEW017CB SCT022
                        17/12 Q0987 WS RWY 15=
201011091215 METAR LIRA 091215Z 22010KT 160V260 9999 SCT012 FEW017CB SCT022
                        17/12 Q0987 WS RWY 15=
201011091145 METAR LIRA 091145Z 21012KT 170V250 9999 SCT010 FEW017CB SCT022
                        17/12 Q0986=
201011091115 METAR LIRA 091115Z 21014KT 160V270 8000 SCT010 FEW017CB SCT022
                        16/11 Q0986 WS RWY 15=
201011091045 METAR LIRA 091045Z 19014KT 140V250 8000 -RA SCT012 FEW017CB
                        SCT022 17/14 Q0986 RERA WS RWY 15=
201011091015 METAR LIRA 091015Z 18012KT 150V210 8000 -RA SCT012 FEW017CB
                        SCT022 15/14 Q0986 RERA=
201011090945 METAR LIRA 090945Z 16015KT 8000 SCT014 FEW017CB SCT025 15/13
                        Q0986=
201011090915 METAR LIRA 090915Z 16015KT 6000 -RA SCT014 FEW017TCU SCT080
                        15/13 Q0986=
201011090845 METAR LIRA 090845Z 15012KT 120V190 7000 -RA SCT014 FEW018TCU
                        SCT025 14/12 Q0986=
201011090815 METAR LIRA 090815Z 15013KT 9999 SCT014 FEW018TCU SCT025 14/12
                        Q0986=
201011090745 METAR LIRA 090745Z 15012KT 9999 SCT014 FEW018TCU SCT025 14/11
                        Q0986=
201011090715 METAR LIRA 090715Z 16011KT 9999 SCT014 FEW018TCU SCT025 14/11
                        Q0987=
201011090645 METAR LIRA 090645Z 15010KT 8000 -RA SCT014 FEW018TCU SCT025
                        14/11 Q0987=
201011090615 METAR LIRA 090615Z 15009KT 130V190 9999 SCT014 FEW018TCU
                        SCT025 14/11 Q0986=
201011090545 METAR LIRA 090545Z 15008KT 9999 SCT014 FEW018TCU SCT025 13/11
                        Q0986=
201011090515 METAR LIRA 090515Z 15007KT 9999 SCT014 FEW018TCU 13/10 Q0986=
201011090445 METAR LIRA 090445Z 14008KT 9999 FEW018 SCT020 11/10 Q0987=
201011090415 METAR LIRA 090415Z 13006KT 9999 FEW018 SCT020 11/10 Q0987=
201011090345 METAR LIRA 090345Z 15005KT 9999 -RA FEW018 SCT020 BKN060
                        11/09 Q0987=
201011090315 METAR LIRA 090315Z 13005KT 9999 FEW018 SCT025 BKN060 10/09
                        Q0987=
201011090245 METAR LIRA 090245Z 13006KT 9999 FEW018 SCT025 11/09 Q0987=
201011090215 METAR LIRA 090215Z 16006KT 120V190 9999 FEW018 SCT025 11/09
                        Q0987=
201011090145 METAR LIRA 090145Z 16005KT 9999 FEW018 SCT025 11/09 Q0988=
201011090115 METAR LIRA 090115Z 14005KT 9999 FEW018 SCT080 11/09 Q0988=
201011090015 METAR LIRA 090015Z 12008KT 8000 FEW015 SCT020 BKN060 11/09
                        Q0990=
201011082345 METAR LIRA 082345Z 15009KT 8000 -RA FEW015 SCT020 BKN060
                        11/10 Q0991=
201011082315 METAR LIRA 082315Z 17008KT 8000 -RA FEW015 SCT020 BKN060
                        11/10 Q0991=
201011082245 METAR LIRA 082245Z 16008KT 8000 -RA FEW015 SCT020 BKN060
                        11/10 Q0991=
201011082215 METAR LIRA 082215Z 17003KT 8000 -RA FEW015 SCT020 BKN060
                        11/09 Q0992=
201011082145 METAR LIRA 082145Z 20003KT 8000 -RA FEW015 SCT020 BKN060
                        11/09 Q0992=
201011082115 METAR LIRA 082115Z 16005KT 120V230 8000 -RA FEW015 SCT020
                        BKN060 11/10 Q0992=
201011082045 METAR LIRA 082045Z 26002KT 8000 -RA FEW015 SCT020 BKN060
                        12/10 Q0992=
201011082015 METAR LIRA 082015Z 18006KT 140V210 8000 -RA FEW015 SCT020
                        BKN070 12/09 Q0992=
201011081945 METAR LIRA 081945Z 15003KT 9999 -RA FEW015 SCT025 BKN060
                        12/09 Q0992=
201011081915 METAR LIRA 081915Z 15004KT 9999 -RA FEW015 SCT025 BKN070
                        13/10 Q0992=
201011081845 METAR LIRA 081845Z 19005KT 150V270 9999 -RA FEW016 SCT025
                        BKN070 13/08 Q0992=
201011081815 METAR LIRA 081815Z 18005KT 150V210 9999 -RA SCT016 SCT030
                        BKN070 13/07 Q0993=
201011081745 METAR LIRA 081745Z 21005KT 180V250 9999 SCT018 SCT030 BKN070
                        13/07 Q0993=
201011081715 METAR LIRA 081715Z 19005KT 160V240 9999 FEW018 SCT030 BKN070
                        13/07 Q0993=
201011081645 METAR LIRA 081645Z 20007KT 120V240 9999 FEW018 SCT030 BKN070
                        13/07 Q0993=
201011081615 METAR LIRA 081615Z 21007KT 180V270 9999 FEW018 SCT030 BKN070
                        13/07 Q0992=
201011081545 METAR LIRA 081545Z 22005KT 180V270 9999 FEW018 SCT030 BKN070
                        13/08 Q0992=
201011081515 METAR LIRA 081515Z 22006KT 160V270 9999 FEW018 BKN030 13/08
                        Q0992=
201011081445 METAR LIRA 081445Z 21005KT 170V260 9999 FEW018 BKN030 13/07
                        Q0992=
201011081415 METAR LIRA 081415Z 22006KT 180V250 9999 FEW018 BKN030 13/09
                        Q0992=
201011081345 METAR LIRA 081345Z 18005KT 160V220 9999 FEW015 FEW018CB BKN025
                        13/10 Q0992=
201011081315 METAR LIRA 081315Z 20005KT 170V250 9999 FEW015 FEW018CB BKN025
                        13/10 Q0992=
201011081245 METAR LIRA 081245Z 19004KT 9999 -RA FEW015 FEW018CB BKN025
                        13/11 Q0992=
201011081215 METAR LIRA 081215Z 20005KT 160V230 9000 -RA FEW012 BKN025CB
                        13/11 Q0992=
201011081145 METAR LIRA 081145Z 25006KT 200V300 5000 -RA BR FEW012 FEW016CB
                        BKN025 13/12 Q0992 RERA=
201011081115 METAR LIRA 081115Z 24006KT 180V300 3000 RA BR SCT012 FEW013CB
                        SCT020 14/13 Q0992=
201011081045 METAR LIRA 081045Z 23005KT 200V280 4000 -RA BR SCT012 FEW013CB
                        SCT020 14/13 Q0992=
201011081015 METAR LIRA 081015Z 27003KT 3000 -RA BR SCT012 FEW013CB SCT020
                        15/14 Q0992=
201011080945 METAR LIRA 080945Z 17005KT 7000 -RA SCT012 FEW015CB SCT023
                        15/13 Q0993=
201011080915 METAR LIRA 080915Z 16007KT 6000 -RA SCT012 FEW015CB SCT023
                        15/13 Q0992=
201011080900 METAR LIRA INTER=
201011080845 METAR LIRA 080845Z 19007KT 150V240 8000 -RA SCT012 FEW015CB
                        SCT023 15/13 Q0992=
201011080815 METAR LIRA 080815Z 21007KT 160V260 9999 -RA SCT012 FEW015CB
                        SCT023 15/13 Q0993=
201011080745 METAR LIRA 080745Z 22008KT 170V280 9999 SCT012 FEW015CB SCT023
                        15/13 Q0993 RETS=
201011080715 METAR LIRA 080715Z 21006KT 160V250 9999 SCT012 FEW015CB SCT023
                        15/14 Q0992 RETS=
201011080645 METAR LIRA 080645Z 18005KT 7000 -TSRA SCT012 FEW015CB SCT023
                        15/13 Q0992=
201011080615 METAR LIRA 080615Z 17007KT 140V210 9999 SCT012 FEW015CB SCT023
                        15/13 Q0993=
201011080545 METAR LIRA 080545Z 15007KT 9999 SCT012 FEW015CB SCT023 15/14
                        Q0993=
201011080515 METAR LIRA 080515Z 16006KT 9999 SCT015 FEW018CB SCT025 15/14
                        Q0993=
201011080445 METAR LIRA 080445Z 17006KT 140V200 9999 SCT012 FEW020CB SCT025
                        15/13 Q0994=
201011080415 METAR LIRA 080415Z 16007KT 130V200 9999 SCT012 FEW020CB SCT025
                        15/13 Q0994=
201011080345 METAR LIRA 080345Z 16008KT 130V190 9999 FEW012 FEW020CB SCT030
                        15/13 Q0994=
201011080315 METAR LIRA 080315Z 16008KT 9999 FEW016 FEW020CB SCT030 15/13
                        Q0995=
201011080245 METAR LIRA 080245Z 16007KT 9999 FEW016 FEW020CB SCT025 15/13
                        Q0995=
201011080215 METAR LIRA 080215Z 17006KT 140V190 9999 FEW016 FEW020CB SCT025
                        15/13 Q0996 RETS=
201011080145 METAR LIRA 080145Z 17005KT 150V210 9999 FEW016 FEW018CB SCT025
                        15/14 Q0996 RETS=
201011080115 METAR LIRA 080115Z 14009KT 7000 -TSRA FEW016 FEW017CB BKN025
                        15/13 Q0997=
201011080045 METAR LIRA 080045Z 16006KT 130V200 7000 -TSRA FEW017 FEW018CB
                        BKN025 BKN070 15/13 Q0998 RETS=
201011080015 METAR LIRA 080015Z 16008KT 130V190 8000 -TSRA FEW017 FEW018CB
                        SCT025 BKN070 15/13 Q0998=
201011072350 METAR LIRA 080045Z 16006KT 130V200 7000 -TSRA FEW017 FEW018CB
                        BKN025 BKN070 15/13 Q0998 RETS=
201011072345 METAR LIRA 072345Z 12007KT 9999 FEW017 SCT025 BKN070 15/13
                        Q0998=
201011072315 METAR LIRA 072315Z 15007KT 9999 FEW017 SCT025 BKN070 16/14
                        Q0999=
201011072245 METAR LIRA 072245Z 13006KT 9999 FEW017 SCT025 BKN070 15/13
                        Q0999=
201011072215 METAR LIRA 072215Z 13003KT 9999 FEW016 SCT070 15/14 Q0999=
201011072145 METAR LIRA 072145Z 17005KT 9999 -RA FEW014 SCT025 16/14 Q1000=
201011072115 METAR LIRA 072115Z 16005KT 100V190 9999 -RA FEW012 SCT025
                        16/15 Q1000=
201011072045 METAR LIRA 072045Z 20003KT 9999 FEW012 SCT025 16/15 Q1000=
201011072015 METAR LIRA 072015Z 13004KT 9999 -RA FEW012 FEW020TCU SCT030
                        15/14 Q1001 RETS=
201011071945 METAR LIRA 071945Z 13007KT 9999 FEW012 FEW020TCU SCT030 15/13
                        Q1001 RETS=
201011071915 METAR LIRA 071915Z 13009KT 8000 -TSRA FEW015 FEW020CB SCT030
                        16/14 Q1002=
201011071845 METAR LIRA 071845Z 16007KT 120V190 9999 FEW015 SCT030 17/15
                        Q1002=
201011071815 METAR LIRA 071815Z 15007KT 110V200 9999 FEW015 SCT030 17/15
                        Q1002=
201011071745 METAR LIRA 071745Z 16008KT 080V190 9999 FEW015 FEW020TCU
                        SCT030 17/15 Q1002=
201011071715 METAR LIRA 071715Z 16008KT 130V190 9999 FEW015 FEW020TCU
                        BKN030 17/15 Q1003=
201011071645 METAR LIRA 071645Z 18007KT 9999 FEW015 FEW020TCU BKN030 17/15
                        Q1003=
201011071615 METAR LIRA 071615Z 16007KT 120V190 9999 SCT015 FEW020TCU
                        BKN030 17/15 Q1003=
201011071545 METAR LIRA 071545Z 16008KT 9999 SCT015 FEW020TCU SCT030 18/15
                        Q1004=
201011071515 METAR LIRA 071515Z 17008KT 130V210 9999 SCT015 FEW020TCU
                        SCT070 18/15 Q1004=
201011071445 METAR LIRA 071445Z 17009KT 150V240 9999 SCT016 FEW020TCU
                        SCT025 18/13 Q1004=
201011071415 METAR LIRA 071415Z 17009KT 120V210 9999 SCT018 FEW020TCU
                        SCT025 19/14 Q1004=
201011071345 METAR LIRA 071345Z 18009KT 150V220 9999 SCT018 FEW020TCU
                        20/14 Q1005=
201011071315 METAR LIRA 071315Z 17009KT 130V220 9999 SCT018 FEW020TCU
                        20/14 Q1006=
201011071245 METAR LIRA 071245Z 17007KT 130V210 9999 SCT018 FEW020TCU
                        19/15 Q1006=
201011071215 METAR LIRA 071215Z 17010KT 130V220 9999 SCT018 FEW020TCU
                        20/14 Q1007=
201011071145 METAR LIRA 071145Z 14010KT 120V200 9999 SCT018 FEW020TCU
                        19/15 Q1007=
201011071115 METAR LIRA 071115Z 16009KT 120V200 9999 SCT018 FEW020TCU
                        19/15 Q1008=
201011071045 METAR LIRA 071045Z 16008KT 130V210 9999 SCT018 FEW020TCU
                        19/14 Q1009=
201011071015 METAR LIRA 071015Z 17010KT 130V220 9999 SCT018 FEW020 TCU
                        20/14 Q1009=
201011070815 METAR LIRA 070815Z 14006KT 9999 FEW018 18/13 Q1010=
201011070745 METAR LIRA 070745Z 13008KT 9999 FEW018 SCT025 17/13 Q1010=
201011070715 METAR LIRA 070715Z 13007KT 9999 FEW018 SCT023 15/12 Q1010=
201011070645 METAR LIRA 070645Z 12009KT 9999 FEW018 SCT023 14/12 Q1010=
201011070615 METAR LIRA 070615Z 130005KT 9999 FEW023 13/10 Q1011=
201011070445 METAR LIRA 070445Z 14003KT CAVOK 12/11 Q1011=
201011070415 METAR LIRA 070415Z 13003KT CAVOK 12/10 Q1012=
201011070345 METAR LIRA 070345Z 00000KT 9999 FEW070 12/10 Q1012=
201011070315 METAR LIRA 070315Z 12003KT 9999 FEW070 12/10 Q1012=
201011070245 METAR LIRA 070245Z 10005KT 9999 FEW070 12/11 Q1013=
201011070215 METAR LIRA 070215Z 09007KT 9999 SCT070 13/10 Q1013=
201011070015 METAR LIRA 070015Z 14006KT 9999 SCT020 SCT070 14/13 Q1014=
201011062215 METAR LIRA 062215Z 15004KT CAVOK 12/11 Q1016=
201011062145 METAR LIRA 062145Z 15003KT CAVOK 13/12 Q1016=
201011062115 METAR LIRA 062115Z 15005KT CAVOK 13/12 Q1016=
201011062045 METAR LIRA 062045Z 15005KT CAVOK 13/12 Q1016=
201011062015 METAR LIRA 062015Z 16004KT CAVOK 14/13 Q1016=
201011061945 METAR LIRA 061945Z 15003KT CAVOK 14/12 Q1016=
201011061915 METAR LIRA 061915Z 15003KT CAVOK 14/12 Q1016=
201011061845 METAR LIRA 061845Z 16003KT CAVOK 15/13 Q1016=
201011061815 METAR LIRA 061815Z 16003KT CAVOK 15/13 Q1017=
201011061745 METAR LIRA 061745Z 16002KT CAVOK 16/14 Q1017=
201011061715 METAR LIRA 061715Z 17002KT CAVOK 16/14 Q1017=
201011061645 METAR LIRA 061645Z 24002KT CAVOK 18/13 Q1017=
201011061615 METAR LIRA 061615Z 25002KT CAVOK 19/13 Q1017=
201011061545 METAR LIRA 061545Z 26003KT CAVOK 20/11 Q1018=
201011061515 METAR LIRA 061515Z 21001KT CAVOK 21/12 Q1018=
201011061445 METAR LIRA 061445Z 21002KT CAVOK 22/10 Q1018=
201011061415 METAR LIRA 061415Z 32002KT CAVOK 21/09 Q1018=
201011061345 METAR LIRA 061345Z 33003KT CAVOK 21/10 Q1018=
201011061315 METAR LIRA 061315Z 35002KT CAVOK 21/10 Q1019=
201011061245 METAR LIRA 061245Z 33004KT CAVOK 21/10 Q1019=
201011061215 METAR LIRA 061215Z 32004KT CAVOK 20/10 Q1020=
201011061145 METAR LIRA 061145Z 32003KT CAVOK 20/10 Q1021=
201011061115 METAR LIRA 061115Z 32003KT CAVOK 18/09 Q1021=
201011061045 METAR LIRA 061045Z 36002KT CAVOK 18/10 Q1022=
201011061015 METAR LIRA 061015Z 36002KT CAVOK 18/11 Q1022=
201011060945 METAR LIRA 060945Z 01003KT 9999 FEW030 16/10 Q1022=
201011060915 METAR LIRA 060915Z 01002KT 9999 FEW030 16/11 Q1022=
201011060845 METAR LIRA 060845Z 01003KT 9999 FEW030 15/10 Q1022=
201011060815 METAR LIRA 060815Z 36004KT 9999 FEW030 13/09 Q1022=
201011060745 METAR LIRA 060745Z 03002KT CAVOK 12/10 Q1022=
201011060715 METAR LIRA 060715Z 03002KT CAVOK 11/09 Q1022=
201011060645 METAR LIRA 060645Z 06002KT CAVOK 10/09 Q1022=
201011060615 METAR LIRA 060615Z 04003KT CAVOK 09/08 Q1022=
201011060545 METAR LIRA 060545Z 03002KT CAVOK 09/08 Q1023=
201011060515 METAR LIRA 060515Z 03002KT CAVOK 09/08 Q1023=
201011060445 METAR LIRA 060445Z 02003KT CAVOK 10/08 Q1023=
201011060415 METAR LIRA 060415Z 00000KT CAVOK 10/09 Q1023=
201011060345 METAR LIRA 060345Z 00000KT CAVOK 11/09 Q1023=
201011060315 METAR LIRA 060315Z 03002KT CAVOK 11/09 Q1023=
201011060245 METAR LIRA 060245Z 04004KT CAVOK 11/10 Q1024=
201011060215 METAR LIRA 060215Z 05005KT CAVOK 11/10 Q1024=
201011060145 METAR LIRA 060145Z 04003KT CAVOK 11/10 Q1024=
201011060115 METAR LIRA 060115Z 03003KT CAVOK 11/10 Q1024=
201011060045 METAR LIRA 060045Z 04004KT CAVOK 11/10 Q1025=
201011060015 METAR LIRA 060015Z 02004KT CAVOK 12/10 Q1025=
201011052350 METAR LIRA 060045Z 04004KT CAVOK 11/10 Q1025=
201011052345 METAR LIRA 052345Z 04004KT CAVOK 12/10 Q1025=
201011052315 METAR LIRA 052315Z 04004KT CAVOK 12/10 Q1025=
201011052245 METAR LIRA 052245Z 02004KT CAVOK 13/11 Q1025=
201011052215 METAR LIRA 052215Z 03003KT CAVOK 13/12 Q1026=
201011052145 METAR LIRA 052145Z 03003KT CAVOK 13/12 Q1026=
201011052115 METAR LIRA 052115Z 08002KT CAVOK 14/12 Q1026=
201011052045 METAR LIRA 052045Z 02002KT CAVOK 15/11 Q1026=
201011052015 METAR LIRA 052015Z 02002KT CAVOK 15/11 Q1026=
201011051945 METAR LIRA 051945Z 03003KT CAVOK 15/11 Q1026=
201011051915 METAR LIRA 051915Z 05004KT CAVOK 16/12 Q1026=
201011051845 METAR LIRA 051845Z 07003KT CAVOK 15/11 Q1027=
201011051815 METAR LIRA 051815Z 10003KT CAVOK 15/12 Q1027=
201011051745 METAR LIRA 051745Z 14002KT CAVOK 15/12 Q1027=
201011051715 METAR LIRA 051715Z 00000KT CAVOK 17/12 Q1027=
201011051645 METAR LIRA 051645Z 00000KT CAVOK 18/12 Q1027=
201011051615 METAR LIRA 051615Z 02002KT CAVOK 19/12 Q1027=
201011051545 METAR LIRA 051545Z 01002KT CAVOK 20/11 Q1027=
201011051515 METAR LIRA 051515Z 02001KT CAVOK 21/13 Q1027=
201011051445 METAR LIRA 051445Z 03003KT CAVOK 21/11 Q1027=
201011051415 METAR LIRA 051415Z 34004KT CAVOK 21/12 Q1027=
201011051345 METAR LIRA 051345Z 34004KT CAVOK 21/10 Q1028=
201011051315 METAR LIRA 051315Z 01005KT 320V070 CAVOK 21/10 Q1028=
201011051245 METAR LIRA 051245Z 33005KT 310V020 CAVOK 22/10 Q1029=
201011051215 METAR LIRA 051215Z 31003KT 9999 FEW025 21/10 Q1029=
201011051145 METAR LIRA 051145Z 32004KT 9999 FEW025 20/10 Q1029=
201011051115 METAR LIRA 051115Z 33003KT CAVOK 20/11 Q1029=
201011051045 METAR LIRA 051045Z 02002KT CAVOK 19/12 Q1029=
201011051015 METAR LIRA 051015Z 36003KT CAVOK 18/12 Q1029=
201011050945 METAR LIRA 050945Z 36003KT CAVOK 17/12 Q1029=
201011050915 METAR LIRA 050915Z 01004KT CAVOK 16/12 Q1029=
201011050845 METAR LIRA 050845Z 02006KT 330V090 CAVOK 14/10 Q1029=
201011050815 METAR LIRA 050815Z 02003KT 330V070 CAVOK 13/10 Q1029=
201011050745 METAR LIRA 050745Z 03004KT CAVOK 12/10 Q1029=
201011050715 METAR LIRA 050715Z 03003KT CAVOK 11/10 Q1029=
201011050645 METAR LIRA 050645Z 03004KT 320V060 CAVOK 10/09 Q1028=
201011050615 METAR LIRA 050615Z 02003KT CAVOK 10/09 Q1028=
201011050545 METAR LIRA 050545Z 03003KT CAVOK 10/09 Q1028=
201011050515 METAR LIRA 050515Z 05004KT CAVOK 10/09 Q1028=
201011050445 METAR LIRA 050445Z 05004KT CAVOK 10/09 Q1028=
201011050415 METAR LIRA 050415Z 04004KT CAVOK 10/09 Q1028=
201011050345 METAR LIRA 050345Z 04003KT CAVOK 10/09 Q1028=
201011050315 METAR LIRA 050315Z 04003KT CAVOK 10/09 Q1028=
201011050245 METAR LIRA 050245Z 05003KT CAVOK 10/09 Q1028=
201011050215 METAR LIRA 050215Z 06003KT CAVOK 10/09 Q1028=
201011050145 METAR LIRA 050145Z 06004KT CAVOK 10/09 Q1029=
201011050115 METAR LIRA 050115Z 04004KT CAVOK 11/10 Q1029=
201011050045 METAR LIRA 050045Z 02003KT CAVOK 11/10 Q1029=
201011050015 METAR LIRA 050015Z 03004KT CAVOK 11/10 Q1029=
201011042350 METAR LIRA 050045Z 02003KT CAVOK 11/10 Q1029=
201011042345 METAR LIRA 042345Z 03003KT CAVOK 12/11 Q1029=
201011042315 METAR LIRA 042315Z 01004KT 8000 SKC 12/11 Q1029=
201011042245 METAR LIRA 042245Z 01002KT CAVOK 12/11 Q1029=
201011042215 METAR LIRA 042215Z 03004KT CAVOK 13/11 Q1029=
201011042145 METAR LIRA 042145Z 07003KT CAVOK 13/11 Q1029=
201011042115 METAR LIRA 042115Z 08003KT CAVOK 13/11 Q1029=
201011042045 METAR LIRA 042045Z 11003KT 9999 FEW080 14/11 Q1028=
201011042015 METAR LIRA 042015Z 09003KT 9999 FEW080 14/11 Q1028=
201011041945 METAR LIRA 041945Z 13003KT 9999 FEW080 14/11 Q1028=
201011041915 METAR LIRA 041915Z 12002KT CAVOK 15/11 Q1028=
201011041845 METAR LIRA 041845Z 09003KT CAVOK 15/12 Q1027=
201011041815 METAR LIRA 041815Z 09002KT CAVOK 15/12 Q1027=
201011041745 METAR LIRA 041745Z 16003KT CAVOK 16/12 Q1027=
201011041715 METAR LIRA 041715Z 17004KT CAVOK 17/11 Q1027=
201011041645 METAR LIRA 041645Z 17004KT CAVOK 17/12 Q1026=
201011041615 METAR LIRA 041615Z 20003KT CAVOK 19/11 Q1026=
201011041545 METAR LIRA 041545Z 27002KT CAVOK 20/10 Q1026=
201011041515 METAR LIRA 041515Z 30003KT 9999 FEW018 21/09 Q1026=
201011041445 METAR LIRA 041445Z 30003KT 9999 FEW018 21/09 Q1025=
201011041415 METAR LIRA 041415Z 35002KT 9999 FEW018 22/09 Q1025=
201011041345 METAR LIRA 041345Z 29003KT 9999 FEW018 21/09 Q1025=
201011041315 METAR LIRA 041315Z 00000KT 9999 FEW018 21/09 Q1025=
201011041245 METAR LIRA 041245Z 27002KT 9999 FEW018 21/10 Q1026=
201011041215 METAR LIRA 041215Z 25002KT CAVOK 21/11 Q1026=
201011041145 METAR LIRA 041145Z 17002KT CAVOK 21/11 Q1026=
201011041115 METAR LIRA 041115Z 33001KT CAVOK 20/11 Q1026=
201011041045 METAR LIRA 041045Z 35002KT CAVOK 19/11 Q1026=
201011041015 METAR LIRA 041015Z 32003KT CAVOK 18/12 Q1026=
201011040945 METAR LIRA 040945Z 36002KT CAVOK 16/11 Q1026=
201011040915 METAR LIRA 040915Z 02003KT CAVOK 15/11 Q1026=
201011040845 METAR LIRA 040845Z 01004KT 320V080 CAVOK 15/11 Q1026=
201011040815 METAR LIRA 040815Z 02005KT 300V090 CAVOK 14/10 Q1025=
201011040745 METAR LIRA 040745Z 04004KT CAVOK 13/10 Q1025=
201011040715 METAR LIRA 040715Z 07007KT CAVOK 11/10 Q1024=
201011040700 METAR LIRA CONTUS CB NW/SE=
201011040645 METAR LIRA 040645Z 04004KT CAVOK 10/09 Q1024=
201011040615 METAR LIRA 040615Z 01003KT CAVOK 10/09 Q1023=
201011040545 METAR LIRA 040545Z 34002KT CAVOK 10/09 Q1023=
201011040515 METAR LIRA 040515Z 06002KT CAVOK 10/09 Q1022=
201011040445 METAR LIRA 040445Z 02004KT CAVOK 10/09 Q1022=
201011040415 METAR LIRA 040415Z 07006KT CAVOK 10/09 Q1022=
201011040345 METAR LIRA 040345Z 05005KT CAVOK 10/09 Q1022=
201011040315 METAR LIRA 040315Z 04004KT CAVOK 11/09 Q1022=
201011040245 METAR LIRA 040245Z 05005KT 9999 FEW080 11/09 Q1021=
201011040215 METAR LIRA 040215Z 02004KT 350V060 9999 FEW080 11/09 Q1021=
201011040145 METAR LIRA 040145Z 04005KT 350V060 9999 FEW080 11/10 Q1021=
201011040115 METAR LIRA 040115Z 05006KT 9999 FEW080 11/10 Q1021=
201011040045 METAR LIRA 040045Z 04005KT 9999 FEW080 11/10 Q1021=
201011040015 METAR LIRA 040015Z 01004KT CAVOK 11/10 Q1021=
201011040000 METAR LIRA INTER CB NW=
201011032350 METAR LIRA 040045Z 04005KT 9999 FEW080 11/10 Q1021=
201011032345 METAR LIRA 032345Z 03004KT CAVOK 12/10 Q1021=
201011032315 METAR LIRA 032315Z 03004KT CAVOK 12/10 Q1021=
201011032245 METAR LIRA 032245Z 03005KT 350V090 CAVOK 12/10 Q1021=
201011032215 METAR LIRA 032215Z 02005KT CAVOK 12/11 Q1021=
201011032145 METAR LIRA 032145Z 04005KT CAVOK 12/11 Q1021=
201011032115 METAR LIRA 032115Z 35005KT 320V020 CAVOK 13/12 Q1020=
201011032045 METAR LIRA 032045Z 04003KT 8000 FEW005 13/11 Q1020=
201011032015 METAR LIRA 032015Z 04003KT 9000 SKC 13/11 Q1020=
201011031945 METAR LIRA 031945Z 05003KT 9999 FEW070 13/11 Q1019=
201011031915 METAR LIRA 031915Z 02001KT 9999 SCT070 13/11 Q1019=
201011031845 METAR LIRA 031845Z 00000KT 9999 FEW070 13/11 Q1019=
201011031815 METAR LIRA 031815Z 15004KT 9999 FEW070 13/12 Q1018=
201011031745 METAR LIRA 031745Z 13002KT 9999 FEW070 14/12 Q1019=
201011031715 METAR LIRA 031715Z 25002KT CAVOK 15/13 Q1018=
201011031645 METAR LIRA 031645Z 09002KT 9999 FEW070 16/13 Q1018=
201011031615 METAR LIRA 031615Z 06002KT 9999 FEW020 17/13 Q1017=
201011031545 METAR LIRA 031545Z 00000KT 9999 FEW020 18/13 Q1017=
201011031515 METAR LIRA 031515Z 06002KT 9999 FEW020 SCT070 18/13 Q1017=
201011031445 METAR LIRA 031445Z 05003KT 9999 FEW018 FEW022TCU SCT080 18/12
                        Q1017=
201011031415 METAR LIRA 031415Z 34002KT 9999 SCT020 SCT070 19/12 Q1017=
201011031345 METAR LIRA 031345Z 30001KT 9999 FEW018 SCT060 19/11 Q1017=
201011031315 METAR LIRA 031315Z 32001KT 9999 FEW020 SCT070 19/11 Q1017=
201011031245 METAR LIRA 031245Z 08002KT 9999 FEW030 SCT080 18/12 Q1017=
201011031215 METAR LIRA 031215Z 01003KT 9999 FEW030 SCT080 17/13 Q1017=
201011031145 METAR LIRA 031145Z 36004KT 9999 FEW030 BKN080 17/13 Q1017=
201011031115 METAR LIRA 031115Z 36002KT 9999 SCT035 SCT080 17/13 Q1017=
201011031045 METAR LIRA 031045Z 35003KT 9999 SCT035 SCT080 16/13 Q1016=
201011031015 METAR LIRA 031015Z 03001KT 9999 SCT030 SCT080 15/12 Q1017=
201011030945 METAR LIRA 030945Z 32003KT 9999 FEW022TCU BKN080 15/13 Q1017=
201011030915 METAR LIRA 030915Z 34003KT 9999 FEW022TCU SCT025 14/12 Q1016=
201011030845 METAR LIRA 030845Z 36001KT 9999 FEW022TCU SCT025 14/12 Q1016=
201011030815 METAR LIRA 030815Z 05003KT 9999 FEW022TCU SCT030 13/12 Q1016=
201011030745 METAR LIRA 030745Z 01003KT 9999 FEW020 FEW022TCU SCT070 13/11
                        Q1016=
201011030715 METAR LIRA 030715Z 04004KT 9999 FEW020 FEW022CB SCT070 12/11
                        Q1016=
201011030645 METAR LIRA 030645Z 06004KT 9999 FEW020 FEW022CB SCT070 12/11
                        Q1015=
201011030615 METAR LIRA 030615Z 33002KT 9999 FEW020 FEW022TCU SCT070 11/10
                        Q1015=
201011030545 METAR LIRA 030545Z 09003KT 9999 FEW020 FEW022CB SCT070 10/09
                        Q1014=
201011030515 METAR LIRA 030515Z 00000KT 9999 FEW020TCU SCT070 10/09 Q1014=
201011030445 METAR LIRA 030445Z 00000KT 9999 FEW030 10/10 Q1013=
201011030415 METAR LIRA 030415Z 09001KT 9999 FEW030 10/10 Q1013=
201011030345 METAR LIRA 030345Z 32003KT 9999 FEW030 SCT060 11/10 Q1013=
201011030315 METAR LIRA 030315Z 12004KT 9999 FEW030 SCT070 11/10 Q1012=
201011030245 METAR LIRA 030245Z 06002KT 9999 FEW030 SCT070 12/11 Q1012=
201011030215 METAR LIRA 030215Z 10001KT 9999 FEW025 SCT070 12/11 Q1012=
201011030145 METAR LIRA 030145Z 35003KT 8000 FEW025 13/12 Q1012=
201011030115 METAR LIRA 030115Z 03003KT 8000 FEW070 13/12 Q1012=
201011030045 METAR LIRA 030045Z 29001KT 8000 FEW025 SCT070 13/13 Q1012=
201011030015 METAR LIRA 030015Z 19002KT 8000 FEW025 SCT070 13/13 Q1012=
201011022350 METAR LIRA 030045Z 29001KT 8000 FEW025 SCT070 13/13 Q1012=
201011022345 METAR LIRA 022345Z 05005KT 8000 -RA SCT025 SCT070 14/13 Q1012=
201011022315 METAR LIRA 022315Z 00000KT 8000 -RA SCT025 SCT070 14/13 Q1012=
201011022245 METAR LIRA 022245Z 29002KT 7000 -RA SCT025 BKN070 14/13 Q1012=
201011022215 METAR LIRA 022215Z 01004KT 7000 -RA FEW018 SCT025 14/13 Q1012=
201011022145 METAR LIRA 022145Z 00000KT 7000 -RA FEW017CB SCT018 14/14
                        Q1012=
201011022115 METAR LIRA 022115Z 00000KT 8000 -RA FEW017CB SCT018 15/14
                        Q1012=
201011022045 METAR LIRA 022045Z 27002KT 9999 -RA SCT018 SCT025 15/14 Q1012=
201011022015 METAR LIRA 022015Z 13004KT 9999 -RA SCT018 SCT025 15/13 Q1011=
201011021945 METAR LIRA 021945Z 10003KT 9999 FEW018CB SCT030 15/13 Q1011=
201011021915 METAR LIRA 021915Z 10004KT 9999 FEW018CB SCT030 15/13 Q1011=
201011021845 METAR LIRA 021845Z 00000KT 9999 FEW018CB SCT030 15/14 Q1011=
201011021815 METAR LIRA 021815Z 12002KT 9999 FEW018CB SCT030 15/14 Q1011=
201011021745 METAR LIRA 021745Z 08002KT 9999 FEW018CB SCT030 16/14 Q1011=
201011021715 METAR LIRA 021715Z 00000KT 9999 SCT030 SCT070 16/13 Q1011=
201011021645 METAR LIRA 021645Z 13002KT 9999 FEW018 SCT030 BKN080 16/13
                        Q1010=
201011021615 METAR LIRA 021615Z 21003KT 9999 FEW018 FEW020CB BKN080 17/13
                        Q1010=
201011021545 METAR LIRA 021545Z 22003KT 9999 FEW018 FEW020CB BKN080 18/14
                        Q1009=
201011021515 METAR LIRA 021515Z 19004KT 9999 FEW018 FEW020CB BKN080 18/13
                        Q1009=
201011021445 METAR LIRA 021445Z 18004KT 9999 FEW018 FEW020CB BKN070 18/12
                        Q1009=
201011021415 METAR LIRA 021415Z 17005KT 9999 FEW018 FEW020CB BKN070 19/13
                        Q1009=
201011021345 METAR LIRA 021345Z 14008KT 9999 FEW018 SCT070 19/13 Q1009=
201011021315 METAR LIRA 021315Z 09006KT 9999 SCT015 SCT025 19/13 Q1009=
201011021245 METAR LIRA 021245Z 15006KT 110V210 9999 SCT015 SCT025 19/13
                        Q1009=
201011021215 METAR LIRA 021215Z 15003KT 9999 SCT015 SCT025 19/13 Q1009=
201011021145 METAR LIRA 021145Z 14003KT 9999 SCT015 SCT025 19/13 Q1009=
201011021115 METAR LIRA 021115Z 12007KT 080V180 9999 FEW015 SCT025 19/13
                        Q1010=
201011021045 METAR LIRA 021045Z 09006KT 050V130 9999 FEW018 SCT030 19/13
                        Q1010=
201011021015 METAR LIRA 021015Z 13008KT 090V190 9999 FEW018 SCT030 19/13
                        Q1010=
201011020945 METAR LIRA 020945Z 14008KT 090V190 9999 FEW018 SCT030 19/13
                        Q1010=
201011020915 METAR LIRA 020915Z 16004KT 100V200 9999 FEW018 SCT030 18/13
                        Q1010=
201011020845 METAR LIRA 020845Z 04003KT 9999 FEW018 SCT035 16/13 Q1010=
201011020815 METAR LIRA 020815Z 08003KT 9999 FEW016 SCT030 15/12 Q1010=
201011020745 METAR LIRA 020745Z 09008KT 040V140 9999 FEW016 FEW020CB SCT025
                        14/11 Q1010=
201011020715 METAR LIRA 020715Z 07004KT 030V120 9999 FEW016 FEW020CB SCT025
                        14/12 Q1010=
201011020645 METAR LIRA 020645Z 09006KT 9999 FEW015 FEW018CB SCT025 14/12
                        Q1009=
201011020615 METAR LIRA 020615Z 06005KT 010V100 9999 FEW015 FEW018CB SCT025
                        12/11 Q1009=
201011020545 METAR LIRA 020545Z 03004KT 9999 FEW015 FEW018CB SCT025 13/11
                        Q1008=
201011020515 METAR LIRA 020515Z 10005KT 9999 FEW015 FEW018CB 13/11 Q1008=
201011020445 METAR LIRA 020445Z 12005KT 070V170 9999 FEW018CB 13/11 Q1008=
201011020415 METAR LIRA 020415Z 13007KT 9999 FEW018CB 13/11 Q1008 RETS=
201011020345 METAR LIRA 020345Z 11005KT 9999 FEW018CB 13/12 Q1008 RETS=
201011020315 METAR LIRA 020315Z 13011KT 9000 -TSRA FEW017CB SCT020 13/12
                        Q1008=
201011020245 METAR LIRA 020245Z 12012KT 8000 -TSRA FEW015 FEW016CB SCT020
                        14/12 Q1008=
201011020215 METAR LIRA 020215Z 14012KT 7000 -TSRA FEW016CB SCT020 14/12
                        Q1008=
201011020145 METAR LIRA 020145Z 13007KT 090V190 9999 -TSRA FEW017CB SCT020
                        14/13 Q1007=
201011020115 METAR LIRA 020115Z 13009KT 070V150 9999 -RA FEW018TCU SCT020
                        15/12 Q1007=
201011020045 METAR LIRA 020045Z 15008KT 120V200 9999 -RA FEW018TCU SCT020
                        15/12 Q1007=
201011020015 METAR LIRA 020015Z 09005KT 9999 -RA FEW018TCU SCT020 15/12
                        Q1007=
201011012350 METAR LIRA 020045Z 15008KT 120V200 9999 -RA FEW018TCU SCT020
                        15/12 Q1007=
201011012345 METAR LIRA 012345Z 09009KT 9999 FEW020 SCT080 15/12 Q1007=
201011012315 METAR LIRA 012315Z 10011KT 9999 FEW015 SCT080 16/11 Q1007=
201011012245 METAR LIRA 012245Z 10010KT 060V130 9999 -RA FEW020 SCT030
                        16/12 Q1007=
201011012215 METAR LIRA 012215Z 10010KT 9999 -RA FEW016 SCT030 16/12 Q1007=
201011012145 METAR LIRA 012145Z 10014KT 9999 -RA FEW016 SCT030 16/13 Q1008=
201011012115 METAR LIRA 012115Z 10014KT 080V140 9999 -RA FEW016 FEW018TCU
                        SCT030 16/13 Q1008=
201011012045 METAR LIRA 012045Z 11015KT 9999 -RA FEW016 FEW018TCU SCT030
                        16/12 Q1007=
201011012015 METAR LIRA 012015Z 10014KT 9999 -RA FEW016 SCT030 16/13 Q1007=
201011011945 METAR LIRA 011945Z 10012KT 060V130 9999 -RA FEW016 FEW018TCU
                        SCT025 16/13 Q1007=
201011011915 METAR LIRA 011915Z 10013KT 9999 -RA FEW016 FEW018TCU SCT025
                        16/13 Q1007=
201011011845 METAR LIRA 011845Z 10014KT 9999 -RA FEW016 FEW018TCU SCT025
                        16/13 Q1007=
201011011815 METAR LIRA 011815Z 07007KT 040V120 9999 -RA FEW015 FEW018TCU
                        SCT022 16/14 Q1007=
201011011745 METAR LIRA 011745Z 07008KT 040V110 9999 -RA FEW015 FEW018TCU
                        SCT022 15/13 Q1007=
201011011715 METAR LIRA 011715Z 07006KT 030V100 9999 -RA FEW015 FEW018TCU
                        SCT022 15/14 Q1007=
201011011645 METAR LIRA 011645Z 05006KT 360V090 9999 -RA FEW015 FEW018CB
                        BKN025 16/14 Q1007=
201011011615 METAR LIRA 011615Z 06007KT 340V120 9999 -RA FEW015 FEW018CB
                        BKN025 17/13 Q1007=
201011011545 METAR LIRA 011545Z 12009KT 080V170 9999 -RA FEW015 FEW018CB
                        BKN025 17/14 Q1006=
201011011515 METAR LIRA 011515Z 15012KT 090V180 9999 FEW015 FEW018CB BKN025
                        17/14 Q1006=
201011011445 METAR LIRA 011445Z 14011KT 070V180 9999 FEW015 FEW018CB BKN025
                        17/14 Q1006=
201011011415 METAR LIRA 011415Z 13012KT 080V180 9999 FEW015 FEW018CB SCT025
                        17/14 Q1006 RETS=
201011011345 METAR LIRA 011345Z 12015KT 9000 -RA FEW010 FEW018CB SCT025
                        17/14 Q1006 RETS=
201011011315 METAR LIRA 011315Z 12017KT 2000 -TSRA BR SCT005 FEW018CB
                        BKN023 16/14 Q1008 WS RWY 15=
201011011245 METAR LIRA 011245Z 16012KT 090V180 2000 TSRA BR SCT005 SCT018CB
                        BKN023 15/14 Q1008 WS RWY 15=
201011011215 METAR LIRA 011215Z 17012KT 150V240 0800 R15//// TSRA BR SCT005
                        SCT018CB BKN023 17/16 Q1008=
201011011145 METAR LIRA 011145Z 14018KT 3000 -TSRA SCT006 FEW018CB BKN023
                        18/17 Q1008=
201011011115 METAR LIRA 011115Z 13018KT 100V180 3000 -RA FEW013 FEW018CB
                        BKN025 19/18 Q1008=
201011011045 METAR LIRA 011045Z 13016KT 080V180 6000 -RA FEW013 FEW018CB
                        SCT025 20/18 Q1008=
201011011015 METAR LIRA 011015Z 12019KT 080V180 9000 -RA FEW020 FEW022CB
                        SCT025 20/16 Q1008=
201011010945 METAR LIRA 010945Z 12016KT 080V170 9000 -RA SCT020 FEW022CB
                        SCT025 21/17 Q1008=
201011010915 METAR LIRA 010915Z 13023G34KT 090V180 9999 SCT020 FEW022CB
                        SCT025 21/16 Q1008=
201011010845 METAR LIRA 010845Z 12016KT 080V170 9999 SCT020 FEW022CB SCT025
                        21/15 Q1008=
201011010815 METAR LIRA 010815Z 13020KT 090V170 9999 FEW023 SCT030 BKN080
                        20/15 Q1008=
201011010745 METAR LIRA 010745Z 13023G34KT 9999 SCT023 SCT080 20/15 Q1008=
201011010715 METAR LIRA 010715Z 13022KT 090V180 9999 FEW025 SCT080 20/16
                        Q1008=
201011010645 METAR LIRA 010645Z 13023KT 090V170 9999 FEW025 SCT080 20/15
                        Q1007=
201011010615 METAR LIRA 010615Z 13019KT 090V180 9999 FEW025 SCT080 20/15
                        Q1007=
201011010545 METAR LIRA 010545Z 13022KT 090V180 9999 FEW025 SCT080 20/15
                        Q1007=
201011010515 METAR LIRA 010515Z 13024KT 080V170 9999 FEW035 BKN080 20/15
                        Q1008=
201011010445 METAR LIRA 010445Z 13022KT 100V160 9999 FEW035 SCT080 20/15
                        Q1008=
201011010415 METAR LIRA 010415Z 13025KT 9999 FEW035 SCT080 20/15 Q1008=
201011010345 METAR LIRA 010345Z 16024KT 090V160 9999 FEW035 SCT080 20/15
                        Q1008=
201011010315 METAR LIRA 010315Z 13019KT 100V170 9999 FEW035 SCT080 20/14
                        Q1008=
201011010245 METAR LIRA 010245Z 14020KT 9999 FEW035 SCT080 20/14 Q1008=
201011010215 METAR LIRA 010215Z 13023KT 090V160 9999 FEW035 SCT080 20/14
                        Q1008=
201011010145 METAR COR LIRA 010145Z 13020KT 090V160 9999 FEW035 SCT080
                        20/14 Q1009=
201011010115 METAR LIRA 010115Z 13019KT 100V160 9999 FEW035 SCT080 19/14
                        Q1009=
201011010045 METAR LIRA 010045Z 13021KT 9999 FEW035 SCT080 19/14 Q1009=
201011010015 METAR LIRA 010015Z 12021KT 090V150 9999 FEW035 SCT080 19/14
                        Q1009=

</pre>

</body>
</html>
