##########################################################
# Query made at 11/10/2014 15:12:11 UTC
# Time interval: from 10/01/2009 00:00  to 10/31/2009 23:59  UTC
##########################################################

##########################################################
# LIRA, Roma / Ciampino (Italy)
# WMO index: 16239
# Latitude 41-47N. Longitude 012-35E. Altitude 129 m.
##########################################################

###################################
#  METAR/SPECI from LIRA
###################################
200910312350 METAR LIRA 010045Z 04006KT 360V090 CAVOK 06/03 Q1021=
200910312345 METAR LIRA 312345Z 05005KT CAVOK 07/05 Q1021=
200910312315 METAR LIRA 312315Z 03005KT CAVOK 07/03 Q1021=
200910312245 METAR LIRA 312245Z 01004KT CAVOK 07/03 Q1021=
200910312215 METAR LIRA 312215Z 04005KT CAVOK 08/04 Q1021=
200910312145 METAR LIRA 312145Z 04004KT CAVOK 08/04 Q1021=
200910312115 METAR LIRA 312115Z 03003KT CAVOK 09/04 Q1021=
200910312045 METAR LIRA 312045Z 05003KT CAVOK 09/04 Q1021=
200910312015 METAR LIRA 312015Z 01003KT CAVOK 09/03 Q1021=
200910311945 METAR LIRA 311945Z 36002KT CAVOK 10/04 Q1021=
200910311915 METAR LIRA 311915Z 02003KT CAVOK 10/04 Q1021=
200910311845 METAR LIRA 311845Z 35002KT CAVOK 10/08 Q1021=
200910311815 METAR LIRA 311815Z 00000KT CAVOK 11/09 Q1021=
200910311745 METAR LIRA 311745Z 15002KT 9999 FEW030 SCT200 11/09 Q1021=
200910311715 METAR LIRA 311715Z 00000KT 9999 FEW030 SCT200 12/09 Q1020=
200910311645 METAR LIRA 311645Z 18002KT 9999 FEW035 13/09 Q1020=
200910311615 METAR LIRA 311615Z 22003KT 9999 FEW020 13/10 Q1020=
200910311545 METAR LIRA 311545Z 23002KT 9999 FEW030 14/09 Q1020=
200910311515 METAR LIRA 311515Z 22003KT 9999 FEW020 14/09 Q1020=
200910311445 METAR LIRA 311445Z 20003KT 9999 FEW020 SCT030 15/08 Q1020=
200910311415 METAR LIRA 311415Z 19005KT 9999 SCT020 16/08 Q1020=
200910311345 METAR LIRA 311345Z 29003KT 9999 SCT020 17/08 Q1020=
200910311315 METAR LIRA 311315Z 24003KT 9999 FEW020 17/08 Q1020=
200910311245 METAR LIRA 311245Z 36003KT 9999 FEW020 SCT030 16/07 Q1020=
200910311215 METAR LIRA 311215Z 34004KT 320V040 9999 FEW020 SCT030 16/07
                        Q1020=
200910311145 METAR LIRA 311145Z 33002KT 9999 FEW020 15/05 Q1021=
200910311115 METAR LIRA 311115Z 01005KT 300V060 9999 FEW020 15/06 Q1021=
200910311045 METAR LIRA 311045Z 02005KT 330V060 9999 FEW020 14/06 Q1021=
200910311015 METAR LIRA 311015Z 03006KT 330V070 9999 FEW020 13/05 Q1022=
200910310945 METAR LIRA 310945Z 02006KT 330V070 9999 FEW018 13/05 Q1022=
200910310915 METAR LIRA 310915Z 02006KT 330V080 9999 FEW018 SCT030 11/04
                        Q1022=
200910310845 METAR LIRA 310845Z 02006KT 320V080 9999 FEW017 SCT030 10/04
                        Q1022=
200910310815 METAR LIRA 310815Z 01006KT 320V060 9999 FEW017 BKN030 09/04
                        Q1021=
200910310745 METAR LIRA 310745Z 02005KT 330V070 9999 FEW017 SCT030 09/04
                        Q1021=
200910310715 METAR LIRA 310715Z 03006KT 320V080 9999 FEW017 SCT030 08/03
                        Q1021=
200910310645 METAR LIRA 310645Z 03006KT 350V080 9999 FEW017 SCT030 07/03
                        Q1021=
200910310615 METAR LIRA 310615Z 05005KT 9999 FEW018 SCT030 06/04 Q1021=
200910310545 METAR LIRA 310545Z 05006KT 360V080 9999 FEW018 SCT030 06/04
                        Q1021=
200910310515 METAR LIRA 310515Z 04005KT 9999 FEW040 07/04 Q1020=
200910310445 METAR LIRA 310445Z 04003KT 9999 FEW040 07/04 Q1020=
200910310415 METAR LIRA 310415Z 05004KT 9999 FEW040 07/04 Q1020=
200910310345 METAR LIRA 310345Z 04005KT CAVOK 07/05 Q1020=
200910310315 METAR LIRA 310315Z 05004KT CAVOK 07/05 Q1020=
200910310245 METAR LIRA 310245Z 05004KT CAVOK 08/06 Q1020=
200910310215 METAR LIRA 310215Z 03004KT 9000 NSC 08/06 Q1020=
200910310145 METAR LIRA 310145Z 03003KT 8000 SKC 08/05 Q1020=
200910310115 METAR LIRA 310115Z 04004KT 8000 SKC 08/06 Q1020=
200910310045 METAR LIRA 310045Z 03005KT 8000 SKC 09/07 Q1020=
200910310015 METAR LIRA 310015Z 04004KT 8000 SKC 09/08 Q1020=
200910302350 METAR LIRA 310045Z 03005KT 8000 SKC 09/07 Q1020=
200910302345 METAR LIRA 302345Z 07003KT 7000 SKC 09/08 Q1020=
200910302315 METAR LIRA 302315Z 05004KT 7000 SKC 10/09 Q1020=
200910302245 METAR LIRA 302245Z 04003KT 7000 SKC 10/09 Q1020=
200910302215 METAR LIRA 302215Z 03004KT 7000 SKC 10/09 Q1020=
200910302145 METAR LIRA 302145Z 01003KT 7000 NSC 10/09 Q1020=
200910302115 METAR LIRA 302115Z 00000KT 7000 NSC 11/10 Q1020=
200910302045 METAR LIRA 302045Z 10002KT 7000 SKC 12/11 Q1020=
200910302015 METAR LIRA 302015Z 06001KT 7000 NSC 12/11 Q1020=
200910301945 METAR LIRA 301945Z 16002KT 7000 NSC 13/11 Q1019=
200910301915 METAR LIRA 301915Z 15003KT 7000 NSC 13/11 Q1019=
200910301845 METAR LIRA 301845Z 14003KT 6000 SKC 13/11 Q1019=
200910301815 METAR LIRA 301815Z 18001KT 6000 NSC 13/12 Q1019=
200910301745 METAR LIRA 301745Z 16003KT 6000 NSC 14/12 Q1019=
200910301715 METAR LIRA 301715Z 21002KT 6000 NSC 14/12 Q1019=
200910301645 METAR LIRA 301645Z 23003KT CAVOK 15/12 Q1019=
200910301615 METAR LIRA 301615Z 20003KT CAVOK 16/12 Q1018=
200910301545 METAR LIRA 301545Z 22004KT CAVOK 17/13 Q1018=
200910301515 METAR LIRA 301515Z 23005KT CAVOK 18/13 Q1018=
200910301445 METAR LIRA 301445Z 30003KT CAVOK 19/06 Q1018=
200910301415 METAR LIRA 301415Z 26004KT CAVOK 19/06 Q1018=
200910301345 METAR LIRA 301345Z 26002KT CAVOK 19/07 Q1018=
200910301315 METAR LIRA 301315Z 28005KT 9999 FEW070 19/07 Q1018=
200910301245 METAR LIRA 301245Z 23002KT 9999 FEW070 19/08 Q1018=
200910301215 METAR LIRA 301215Z 00000KT 9999 SCT070 19/09 Q1018=
200910301145 METAR LIRA 301145Z 35002KT 9999 SCT070 18/07 Q1019=
200910301115 METAR COR LIRA 301115Z 35003KT 9999 SCT070 17/07 Q1019=
200910301045 METAR LIRA 301045Z 36003KT 9999 SCT070 16/08 Q1019=
200910301015 METAR LIRA 301015Z 03002KT 9999 SCT070 15/07 Q1019=
200910300945 METAR LIRA 300945Z 01003KT 9999 SCT070 15/08 Q1018=
200910300915 METAR LIRA 300915Z 36002KT 9999 FEW080 14/09 Q1018=
200910300845 METAR LIRA 300845Z 03003KT 9999 FEW080 13/08 Q1018=
200910300815 METAR LIRA 300815Z 02003KT 350V070 9999 FEW080 12/10 Q1018=
200910300745 METAR LIRA 300745Z 04004KT 9999 FEW080 10/07 Q1018=
200910300715 METAR LIRA 300715Z 03003KT 9999 FEW080 09/07 Q1017=
200910300515 METAR LIRA 300515Z 02003KT CAVOK 08/07 Q1016=
200910300445 METAR LIRA 300445Z 05004KT 7000 NSC 07/06 Q1016=
200910300415 METAR LIRA 300415Z 03002KT 7000 NSC 07/06 Q1016=
200910300345 METAR LIRA 300345Z 05003KT 7000 NSC 08/07 Q1016=
200910300315 METAR LIRA 300315Z 02002KT 7000 NSC 08/07 Q1016=
200910300245 METAR LIRA 300245Z 04003KT 8000 NSC 09/08 Q1016=
200910300215 METAR LIRA 300215Z 03003KT 8000 NSC 08/07 Q1016=
200910300145 METAR LIRA 300145Z 05003KT 8000 SKC 08/07 Q1016=
200910300115 METAR LIRA 300115Z 05004KT 8000 SKC 08/07 Q1016=
200910300045 METAR LIRA 300045Z 06003KT 8000 SKC 09/08 Q1016=
200910300015 METAR LIRA 300015Z 03002KT 9000 NSC 09/09 Q1016=
200910292350 METAR LIRA 300045Z 06003KT 8000 SKC 09/08 Q1016=
200910292345 METAR LIRA 292345Z 03004KT 9000 NSC 09/08 Q1016=
200910292315 METAR LIRA 292315Z 00000KT 9000 NSC 10/09 Q1016=
200910292245 METAR LIRA 292245Z 09001KT 9000 NSC 11/09 Q1016=
200910292215 METAR LIRA 292215Z 00000KT 9000 NSC 11/09 Q1016=
200910292145 METAR LIRA 292145Z 00000KT 9000 NSC 11/09 Q1016=
200910292115 METAR LIRA 292115Z 00000KT 9000 NSC 12/10 Q1016=
200910292015 METAR LIRA 292015Z 12002KT 9000 NSC 12/10 Q1016=
200910291945 METAR LIRA 291945Z 00000KT 9000 NSC 12/10 Q1016=
200910291915 METAR LIRA 291915Z 00000KT 9000 NSC 13/10 Q1017=
200910291845 METAR LIRA 291845Z 12002KT 9000 NSC 13/11 Q1016=
200910291815 METAR LIRA 291815Z 12003KT 9000 NSC 13/11 Q1016=
200910291745 METAR LIRA 291745Z 18002KT 9000 NSC 13/11 Q1016=
200910291715 METAR LIRA 291715Z 15002KT CAVOK 14/11 Q1016=
200910291645 METAR LIRA 291645Z 23004KT CAVOK 15/12 Q1016=
200910291615 METAR LIRA 291615Z 22002KT CAVOK 15/11 Q1016=
200910291545 METAR LIRA 291545Z 27004KT CAVOK 16/11 Q1016=
200910291515 METAR LIRA 291515Z 27005KT 240V330 CAVOK 18/12 Q1016=
200910291445 METAR LIRA 291445Z 33003KT 9999 FEW080 SCT200 18/09 Q1016=
200910291415 METAR LIRA 291415Z 34003KT 9999 FEW080 SCT200 18/09 Q1016=
200910291345 METAR LIRA 291345Z 02003KT 9999 FEW018 SCT200 18/08 Q1016=
200910291315 METAR LIRA 291315Z 33003KT 290V360 9999 FEW018 SCT200 18/06
                        Q1016=
200910291245 METAR LIRA 291245Z 36004KT 9999 FEW018 SCT200 18/07 Q1016=
200910291215 METAR LIRA 291215Z 33004KT 9999 FEW018 SCT200 18/07 Q1016=
200910291145 METAR LIRA 291145Z 31003KT 9999 FEW018 SCT200 17/08 Q1016=
200910291115 METAR LIRA 291115Z 31003KT 9999 FEW018 SCT200 17/09 Q1017=
200910291045 METAR LIRA 291045Z 32003KT 9999 FEW018 SCT200 16/09 Q1017=
200910291015 METAR LIRA 291015Z 35004KT CAVOK 16/09 Q1017=
200910290945 METAR LIRA 290945Z 36002KT CAVOK 15/09 Q1017=
200910290915 METAR LIRA 290915Z 01003KT CAVOK 15/09 Q1017=
200910290845 METAR LIRA 290845Z 30004KT CAVOK 12/08 Q1017=
200910290815 METAR LIRA 290815Z 03005KT CAVOK 11/08 Q1017=
200910290745 METAR LIRA 290745Z 03004KT 9000 NSC 10/08 Q1017=
200910290715 METAR LIRA 290715Z 03004KT 9000 NSC 09/07 Q1017=
200910290645 METAR LIRA 290645Z 03004KT 8000 NSC 08/07 Q1017=
200910290615 METAR LIRA 290615Z 02003KT 8000 NSC 07/07 Q1017=
200910290545 METAR LIRA 290545Z 10002KT 8000 NSC 07/07 Q1016=
200910290515 METAR LIRA 290515Z 03002KT 8000 NSC 08/07 Q1017=
200910290445 METAR LIRA 290445Z 02003KT 8000 NSC 08/07 Q1017=
200910290415 METAR LIRA 290415Z 05003KT 8000 NSC 08/07 Q1017=
200910290345 METAR LIRA 290345Z 02002KT 8000 NSC 08/07 Q1017=
200910290315 METAR LIRA 290315Z 00000KT 8000 NSC 08/07 Q1017=
200910290245 METAR LIRA 290245Z 05002KT 8000 NSC 08/08 Q1017=
200910290215 METAR LIRA 290215Z 03002KT 8000 NSC 09/08 Q1017=
200910290145 METAR LIRA 290145Z 05002KT 8000 NSC 09/09 Q1017=
200910290115 METAR LIRA 290115Z 03003KT 8000 NSC 09/09 Q1017=
200910290045 METAR LIRA 290045Z 05002KT 8000 NSC 10/09 Q1017=
200910290015 METAR LIRA 290015Z 03002KT 8000 NSC 10/09 Q1017=
200910282345 METAR LIRA 282345Z 02002KT CAVOK 10/08 Q1017=
200910282315 METAR LIRA 282315Z 14001KT CAVOK 10/09 Q1017=
200910282245 METAR LIRA 282245Z 12002KT CAVOK 11/09 Q1017=
200910282215 METAR LIRA 282215Z 08003KT CAVOK 11/10 Q1018=
200910282145 METAR LIRA 282145Z 16001KT CAVOK 11/09 Q1018=
200910282115 METAR LIRA 282115Z 16001KT CAVOK 12/10 Q1018=
200910282045 METAR LIRA 282045Z 13003KT CAVOK 12/10 Q1017=
200910282015 METAR LIRA 282015Z 14003KT CAVOK 12/10 Q1017=
200910281945 METAR LIRA 281945Z 15003KT CAVOK 13/10 Q1017=
200910281915 METAR LIRA 281915Z 15003KT CAVOK 13/10 Q1017=
200910281845 METAR LIRA 281845Z 15002KT CAVOK 13/11 Q1018=
200910281815 METAR LIRA 281815Z 15003KT CAVOK 13/11 Q1018=
200910281745 METAR LIRA 281745Z 18003KT 8000 NSC 15/11 Q1018=
200910281715 METAR LIRA 281715Z 19003KT 8000 NSC 15/12 Q1018=
200910281645 METAR LIRA 281645Z 23002KT 8000 FEW018 15/13 Q1018=
200910281615 METAR LIRA 281615Z 21003KT 9000 FEW018 16/13 Q1018=
200910281545 METAR LIRA 281545Z 23004KT 9999 FEW018 17/13 Q1018=
200910281515 METAR LIRA 281515Z 22004KT 9999 FEW018 18/13 Q1018=
200910281445 METAR LIRA 281445Z 25003KT 9999 SCT018 19/13 Q1018=
200910281415 METAR LIRA 281415Z 22004KT 9000 SCT018 19/13 Q1018=
200910281345 METAR LIRA 281345Z 27003KT 9000 SCT018 19/13 Q1018=
200910281315 METAR LIRA 281315Z 23004KT 190V270 9000 SCT018 19/12 Q1018=
200910281245 METAR LIRA 281245Z 27004KT 250V320 9000 SCT018 24/18 Q1018=
200910281215 METAR LIRA 281215Z 23004KT 9000 SCT018 24/18 Q1018=
200910281145 METAR LIRA 281145Z 23004KT 200V300 8000 FEW018 23/17 Q1018=
200910281115 METAR LIRA 281115Z 34002KT 8000 FEW018 22/17 Q1019=
200910281045 METAR LIRA 281045Z 33002KT 8000 FEW015 17/10 Q1018=
200910281015 METAR LIRA 281015Z 33003KT 8000 FEW015 SCT030 16/10 Q1018=
200910280945 METAR LIRA 280945Z 03004KT 8000 FEW015 SCT030 15/09 Q1018=
200910280915 METAR LIRA 280915Z 01005KT 9000 FEW015 14/09 Q1018=
200910280845 METAR LIRA 280845Z 03004KT 9000 FEW015 SCT030 13/09 Q1018=
200910280815 METAR LIRA 280815Z 02006KT 340V070 9999 FEW015 SCT030 12/09
                        Q1018=
200910280745 METAR LIRA 280745Z 01005KT 340V050 9999 SCT015 11/08 Q1018=
200910280715 METAR LIRA 280715Z 02003KT 9999 SCT015 11/09 Q1018=
200910280645 METAR LIRA 280645Z 02004KT 9999 SCT015 10/08 Q1018=
200910280615 METAR LIRA 280615Z 03003KT 9999 SCT015 10/08 Q1018=
200910280545 METAR LIRA 280545Z 05005KT 020V080 9999 SCT015 10/07 Q1018=
200910280515 METAR LIRA 280515Z 04005KT 9999 BKN013 10/07 Q1018=
200910280445 METAR LIRA 280445Z 05005KT 9999 SCT018 10/08 Q1018=
200910280415 METAR LIRA 280415Z 06004KT 9999 SCT018 10/08 Q1018=
200910280345 METAR LIRA 280345Z 05005KT 9999 SCT018 10/09 Q1018=
200910280315 METAR LIRA 280315Z 04004KT 9999 SCT030 10/09 Q1018=
200910280245 METAR LIRA 280245Z 02003KT 9999 SCT070 11/08 Q1018=
200910280215 METAR LIRA 280215Z 04004KT 360V080 9999 SCT025 10/09 Q1018=
200910280145 METAR LIRA 280145Z 06005KT 9999 FEW080 10/09 Q1018=
200910280115 METAR LIRA 280115Z 05004KT CAVOK 11/09 Q1018=
200910280045 METAR LIRA 280045Z 02004KT 9999 FEW080 11/09 Q1018=
200910280015 METAR LIRA 280015Z 05005KT 010V090 9999 FEW080 11/09 Q1018=
200910272350 METAR LIRA 280045Z 02004KT 9999 FEW080 11/09 Q1018=
200910272345 METAR LIRA 272345Z 05004KT CAVOK 11/10 Q1018=
200910272315 METAR LIRA 272315Z 04005KT CAVOK 12/10 Q1018=
200910272245 METAR LIRA 272245Z 02003KT CAVOK 12/09 Q1017=
200910272215 METAR LIRA 272215Z 03002KT CAVOK 13/11 Q1017=
200910272145 METAR LIRA 272145Z 04004KT CAVOK 13/11 Q1017=
200910272115 METAR LIRA 272115Z 02003KT CAVOK 13/11 Q1017=
200910272045 METAR LIRA 272045Z 03004KT CAVOK 14/11 Q1017=
200910272015 METAR LIRA 272015Z 04004KT 9000 NSC 14/10 Q1017=
200910271945 METAR LIRA 271945Z 01003KT 8000 NSC 15/11 Q1017=
200910271915 METAR LIRA 271915Z VRB01KT 8000 NSC 15/12 Q1016=
200910271845 METAR LIRA 271845Z 13001KT 8000 NSC 15/13 Q1016=
200910271815 METAR LIRA 271815Z 15003KT CAVOK 15/12 Q1016=
200910271745 METAR LIRA 271745Z 16003KT CAVOK 15/13 Q1016=
200910271715 METAR LIRA 271715Z 16003KT CAVOK 16/14 Q1016=
200910271645 METAR LIRA 271645Z 23002KT CAVOK 18/14 Q1016=
200910271615 METAR LIRA 271615Z 28003KT CAVOK 19/11 Q1015=
200910271545 METAR LIRA 271545Z 35002KT CAVOK 20/10 Q1015=
200910271515 METAR LIRA 271515Z 33005KT CAVOK 20/10 Q1015=
200910271445 METAR LIRA 271445Z 32005KT CAVOK 21/09 Q1015=
200910271415 METAR LIRA 271415Z 32005KT 9999 FEW020 21/10 Q1015=
200910271345 METAR LIRA 271345Z 33005KT 9999 FEW020 21/10 Q1015=
200910271315 METAR LIRA 271315Z 31005KT 9999 FEW020 20/10 Q1015=
200910271245 METAR LIRA 271245Z 34003KT 9999 FEW020 20/11 Q1015=
200910271215 METAR LIRA 271215Z 34005KT 9999 FEW020 20/11 Q1016=
200910271145 METAR LIRA 271145Z 33004KT 9999 FEW020 19/11 Q1016=
200910271115 METAR LIRA 271115Z 35004KT CAVOK 19/12 Q1016=
200910271045 METAR LIRA 271045Z 04004KT CAVOK 18/12 Q1016=
200910271015 METAR LIRA 271015Z 05004KT 340V080 CAVOK 17/11 Q1016=
200910270945 METAR LIRA 270945Z 34003KT 310V080 CAVOK 16/11 Q1016=
200910270915 METAR LIRA 270915Z 03003KT 350V080 CAVOK 15/11 Q1016=
200910270845 METAR LIRA 270845Z 03005KT 320V080 CAVOK 15/11 Q1015=
200910270815 METAR LIRA 270815Z 03003KT 340V080 CAVOK 14/10 Q1015=
200910270745 METAR LIRA 270745Z 04006KT 360V090 CAVOK 13/10 Q1015=
200910270715 METAR LIRA 270715Z 03005KT 320V090 CAVOK 12/11 Q1015=
200910270645 METAR LIRA 270645Z 04003KT CAVOK 11/09 Q1015=
200910270615 METAR LIRA 270615Z 03002KT CAVOK 10/09 Q1015=
200910270545 METAR LIRA 270545Z 05003KT CAVOK 10/09 Q1014=
200910270515 METAR LIRA 270515Z 04004KT CAVOK 10/09 Q1014=
200910270445 METAR LIRA 270445Z 03004KT CAVOK 10/09 Q1014=
200910270415 METAR LIRA 270415Z 03003KT CAVOK 10/09 Q1014=
200910270345 METAR LIRA 270345Z 02003KT CAVOK 10/09 Q1014=
200910270315 METAR LIRA 270315Z 02004KT CAVOK 10/09 Q1014=
200910270245 METAR LIRA 270245Z 02003KT CAVOK 10/09 Q1014=
200910270215 METAR LIRA 270215Z 03003KT CAVOK 10/09 Q1014=
200910270145 METAR LIRA 270145Z 04005KT CAVOK 10/10 Q1014=
200910270115 METAR LIRA 270115Z 05003KT CAVOK 11/10 Q1015=
200910270045 METAR LIRA 270045Z 01003KT CAVOK 11/10 Q1015=
200910270015 METAR LIRA 270015Z 04003KT CAVOK 11/10 Q1015=
200910262350 METAR LIRA 270045Z 01003KT CAVOK 11/10 Q1015=
200910262345 METAR LIRA 262345Z 07003KT CAVOK 12/11 Q1015=
200910262315 METAR LIRA 262315Z 04004KT CAVOK 13/11 Q1015=
200910262245 METAR LIRA 262245Z 04002KT CAVOK 13/11 Q1015=
200910262215 METAR LIRA 262215Z 05001KT CAVOK 13/11 Q1015=
200910262145 METAR LIRA 262145Z 06002KT CAVOK 13/11 Q1015=
200910262115 METAR LIRA 262115Z 00000KT CAVOK 14/11 Q1015=
200910262045 METAR LIRA 262045Z 12001KT CAVOK 14/11 Q1015=
200910262015 METAR LIRA 262015Z 12001KT CAVOK 15/12 Q1014=
200910261945 METAR LIRA 261945Z 14003KT CAVOK 14/12 Q1014=
200910261915 METAR LIRA 261915Z 12003KT CAVOK 14/12 Q1014=
200910261845 METAR LIRA 261845Z 00000KT CAVOK 15/13 Q1014=
200910261815 METAR LIRA 261815Z 15003KT CAVOK 15/13 Q1014=
200910261745 METAR LIRA 261745Z 17001KT CAVOK 16/14 Q1014=
200910261715 METAR LIRA 261715Z 19002KT CAVOK 16/14 Q1014=
200910261645 METAR LIRA 261645Z 19001KT 9999 FEW080 17/13 Q1013=
200910261615 METAR LIRA 261615Z 26004KT 9999 FEW080 18/13 Q1013=
200910261545 METAR LIRA 261545Z 25004KT 9999 FEW080 19/13 Q1013=
200910261515 METAR LIRA 261515Z 25005KT 9999 FEW025 20/14 Q1013=
200910261445 METAR LIRA 261445Z 33002KT 9999 FEW020 21/11 Q1013=
200910261415 METAR LIRA 261415Z 27003KT 9999 FEW020 21/11 Q1013=
200910261345 METAR LIRA 261345Z 30003KT 9999 FEW020 21/11 Q1013=
200910261315 METAR LIRA 261315Z 32004KT 9999 FEW020 21/11 Q1013=
200910261245 METAR LIRA 261245Z 31003KT 9999 FEW020 21/11 Q1013=
200910261215 METAR LIRA 261215Z 34003KT 9999 FEW020 20/12 Q1013=
200910261145 METAR LIRA 261145Z 01002KT 9999 FEW020 20/12 Q1014=
200910261115 METAR LIRA 261115Z 01003KT 9999 FEW025 19/11 Q1014=
200910261045 METAR LIRA 261045Z 36003KT 9999 FEW025 18/11 Q1014=
200910261015 METAR LIRA 261015Z 36003KT 330V070 9999 FEW080 17/11 Q1014=
200910260945 METAR LIRA 260945Z 36004KT 9999 FEW080 16/12 Q1014=
200910260915 METAR LIRA 260915Z 03005KT 9999 FEW080 16/11 Q1014=
200910260845 METAR LIRA 260845Z 36006KT 310V060 9999 FEW080 14/10 Q1014=
200910260815 METAR LIRA 260815Z 02004KT 330V060 9999 FEW080 13/10 Q1014=
200910260745 METAR LIRA 260745Z 02003KT 9999 FEW070 12/10 Q1014=
200910260715 METAR LIRA 260715Z 04004KT 9999 FEW070 12/10 Q1014=
200910260645 METAR LIRA 260645Z 05003KT 9999 FEW070 11/10 Q1014=
200910260615 METAR LIRA 260615Z 03002KT 9999 FEW070 10/09 Q1013=
200910260545 METAR LIRA 260545Z 06003KT 9999 FEW070 10/09 Q1013=
200910260515 METAR LIRA 260515Z 05003KT 9999 FEW070 10/09 Q1013=
200910260445 METAR LIRA 260445Z 02002KT 9999 FEW070 10/09 Q1013=
200910260415 METAR LIRA 260415Z 00000KT CAVOK 11/09 Q1013=
200910260345 METAR LIRA 260345Z 36003KT CAVOK 11/09 Q1013=
200910260315 METAR LIRA 260315Z 07006KT CAVOK 11/10 Q1013=
200910260245 METAR LIRA 260245Z 06005KT CAVOK 11/10 Q1013=
200910260215 METAR LIRA 260215Z 04003KT CAVOK 11/10 Q1013=
200910260145 METAR LIRA 260145Z 04002KT CAVOK 11/10 Q1013=
200910260115 METAR LIRA 260115Z 06003KT CAVOK 11/10 Q1013=
200910260045 METAR LIRA 260045Z 36002KT CAVOK 11/10 Q1013=
200910260015 METAR LIRA 260015Z 36002KT CAVOK 12/11 Q1013=
200910252350 METAR LIRA 260045Z 36002KT CAVOK 11/10 Q1013=
200910252345 METAR LIRA 252345Z 03003KT CAVOK 12/11 Q1013=
200910252315 METAR LIRA 252315Z 04004KT CAVOK 13/11 Q1013=
200910252245 METAR LIRA 252245Z 01003KT CAVOK 13/11 Q1013=
200910252215 METAR LIRA 252215Z 04003KT CAVOK 13/11 Q1013=
200910252145 METAR LIRA 252145Z 05005KT CAVOK 13/11 Q1013=
200910252115 METAR LIRA 252115Z 05004KT 350V080 CAVOK 13/11 Q1013=
200910252045 METAR LIRA 252045Z 06003KT CAVOK 14/11 Q1013=
200910252015 METAR LIRA 252015Z 07003KT CAVOK 14/11 Q1013=
200910251945 METAR LIRA 251945Z 36003KT CAVOK 15/11 Q1013=
200910251915 METAR LIRA 251915Z 01004KT 9999 FEW080 15/11 Q1013=
200910251845 METAR LIRA 251845Z 02002KT 9999 FEW080 15/11 Q1013=
200910251815 METAR LIRA 251815Z 04002KT 9999 FEW080 16/11 Q1013=
200910251745 METAR LIRA 251745Z 03003KT 9999 FEW080 16/11 Q1013=
200910251715 METAR LIRA 251715Z 01004KT 9999 FEW080 17/11 Q1013=
200910251645 METAR LIRA 251645Z 02004KT CAVOK 17/10 Q1012=
200910251615 METAR LIRA 251615Z 36005KT CAVOK 18/10 Q1012=
200910251545 METAR LIRA 251545Z 36004KT CAVOK 19/10 Q1012=
200910251515 METAR LIRA 251515Z 35006KT 300V030 9999 FEW040 SCT080 20/11
                        Q1012=
200910251445 METAR LIRA 251445Z 35005KT 310V030 9999 FEW020 SCT080 20/10
                        Q1012=
200910251415 METAR LIRA 251415Z 35005KT 330V030 9999 FEW020 SCT200 21/10
                        Q1012=
200910251345 METAR LIRA 251345Z 34005KT 300V030 9999 FEW020 SCT200 21/10
                        Q1012=
200910251315 METAR LIRA 251315Z 34005KT 9999 FEW020 SCT200 20/11 Q1012=
200910251245 METAR LIRA 251245Z 35004KT 9999 FEW020 SCT080 20/11 Q1012=
200910251215 METAR LIRA 251215Z 04004KT 9999 FEW020 SCT080 20/11 Q1012=
200910251145 METAR LIRA 251145Z 07004KT 9999 FEW020 SCT080 20/11 Q1012=
200910251115 METAR LIRA 251115Z 02004KT 9999 FEW020 SCT200 20/11 Q1012=
200910251045 METAR LIRA 251045Z 02004KT 330V050 9999 FEW022 SCT200 19/11
                        Q1013=
200910251015 METAR LIRA 251015Z 35004KT 310V050 9999 FEW040 18/11 Q1013=
200910250945 METAR LIRA 250945Z 33006KT 290V010 9999 FEW040 16/10 Q1012=
200910250915 METAR LIRA 250915Z 36004KT 9999 FEW040 SCT080 16/10 Q1012=
200910250845 METAR LIRA 250845Z 36005KT 320V050 9999 FEW035 SCT080 15/10
                        Q1012=
200910250815 METAR LIRA 250815Z 01004KT 330V050 9999 FEW035 SCT080 15/10
                        Q1012=
200910250745 METAR LIRA 250745Z 02005KT 330V050 9999 FEW040 SCT080 14/09
                        Q1011=
200910250715 METAR LIRA 250715Z 04005KT 350V070 9999 FEW022 13/09 Q1011=
200910250645 METAR LIRA 250645Z 03005KT 360V070 9999 FEW020 12/09 Q1011=
200910250615 METAR LIRA 250615Z 04005KT 360V080 9999 FEW020 11/08 Q1010=
200910250545 METAR LIRA 250545Z 04006KT 360V080 9999 FEW020 11/08 Q1010=
200910250515 METAR LIRA 250515Z 05006KT 360V080 9999 FEW020 12/08 Q1010=
200910250445 METAR LIRA 250445Z 02005KT 320V070 CAVOK 11/08 Q1009=
200910250415 METAR LIRA 250415Z 03005KT 350V080 CAVOK 11/08 Q1009=
200910250345 METAR LIRA 250345Z 03005KT CAVOK 11/08 Q1009=
200910250315 METAR LIRA 250315Z 04006KT CAVOK 10/08 Q1009=
200910250245 METAR LIRA 250245Z 04005KT CAVOK 10/08 Q1008=
200910250215 METAR LIRA 250215Z 05004KT CAVOK 10/08 Q1008=
200910250145 METAR LIRA 250145Z 03003KT CAVOK 11/08 Q1008=
200910250115 METAR LIRA 250115Z 02005KT CAVOK 11/08 Q1008=
200910250045 METAR LIRA 250045Z 03005KT CAVOK 11/08 Q1008=
200910250015 METAR LIRA 250015Z 02005KT 340V070 CAVOK 11/08 Q1008=
200910242350 METAR LIRA 250045Z 03005KT CAVOK 11/08 Q1008=
200910242345 METAR LIRA 242345Z 03005KT 350V080 CAVOK 11/08 Q1008=
200910242315 METAR LIRA 242315Z 05006KT CAVOK 11/08 Q1008=
200910242245 METAR LIRA 242245Z 04006KT 340V080 9999 FEW070 12/08 Q1008=
200910242215 METAR LIRA 242215Z 36005KT 9999 FEW070 12/09 Q1008=
200910242145 METAR LIRA 242145Z 03006KT 340V090 9999 FEW070 12/09 Q1008=
200910242115 METAR LIRA 242115Z 05007KT 9999 FEW070 12/09 Q1008=
200910242045 METAR LIRA 242045Z 03007KT 340V070 9999 FEW070 13/09 Q1008=
200910242015 METAR LIRA 242015Z 02008KT 330V070 9999 FEW070 13/08 Q1008=
200910241945 METAR LIRA 241945Z 02009G19KT 310V080 9999 FEW070 13/08 Q1008=
200910241915 METAR LIRA 241915Z 02008KT 320V090 9999 FEW070 14/08 Q1008=
200910241845 METAR LIRA 241845Z 02007KT 310V100 9999 FEW070 14/08 Q1007=
200910241815 METAR LIRA 241815Z 02006KT 330V060 9999 FEW070 14/09 Q1007=
200910241745 METAR LIRA 241745Z 01006KT 320V080 9999 FEW070 15/08 Q1007=
200910241715 METAR LIRA 241715Z 35008KT 290V050 9999 FEW020 15/09 Q1007=
200910241645 METAR LIRA 241645Z 34008KT 9999 FEW020 15/09 Q1006=
200910241615 METAR LIRA 241615Z 30012KT 280V020 9999 FEW020 16/09 Q1006=
200910241545 METAR LIRA 241545Z 33011KT 290V030 9999 FEW018 17/09 Q1005=
200910241515 METAR LIRA 241515Z 33013KT 290V020 9999 FEW018 17/10 Q1005=
200910241445 METAR LIRA 241445Z 33014KT 300V020 9999 FEW018 17/10 Q1004=
200910241415 METAR LIRA 241415Z 33014KT 300V010 9999 FEW018 SCT080 17/09
                        Q1004=
200910241345 METAR LIRA 241345Z 34012KT 290V010 9999 FEW018 SCT080 18/10
                        Q1003=
200910241315 METAR LIRA 241315Z 33014G24KT 290V030 9999 FEW018 SCT080
                        18/10 Q1003=
200910241245 METAR LIRA 241245Z 34011KT 300V040 9999 FEW018 SCT080 19/10
                        Q1003=
200910241215 METAR LIRA 241215Z 34012KT 280V030 9999 FEW018 SCT080 19/10
                        Q1004=
200910241145 METAR LIRA 241145Z 34012KT 330V030 9999 FEW018 SCT070 19/11
                        Q1004=
200910241115 METAR LIRA 241115Z 33011KT 270V020 9999 FEW018 SCT080 18/11
                        Q1004=
200910241045 METAR LIRA 241045Z 35008KT 300V040 9999 FEW018 SCT080 18/11
                        Q1004=
200910241015 METAR LIRA 241015Z 35007KT 310V060 9999 FEW018 SCT080 15/11
                        Q1004=
200910240945 METAR LIRA 240945Z 01004KT 9999 FEW018 SCT080 15/12 Q1004=
200910240915 METAR LIRA 240915Z 04005KT 360V070 9999 FEW018 SCT080 13/11
                        Q1004=
200910240845 METAR LIRA 240845Z 03005KT 350V080 9999 FEW015 SCT080 13/11
                        Q1004=
200910240815 METAR LIRA 240815Z 03005KT 350V060 9999 FEW015 SCT070 12/11
                        Q1003=
200910240745 METAR LIRA 240745Z 08006KT 010V090 9999 FEW015 SCT080 11/10
                        Q1004=
200910240715 METAR LIRA 240715Z 03004KT 9999 FEW015 SCT080 11/10 Q1003=
200910240645 METAR LIRA 240645Z 04005KT 010V070 9999 FEW015 11/10 Q1002=
200910240615 METAR LIRA 240615Z 03004KT 9999 FEW015 11/10 Q1002=
200910240545 METAR LIRA 240545Z 04004KT 9999 FEW015 SCT080 10/09 Q1001=
200910240515 METAR LIRA 240515Z 02003KT 9999 FEW015 SCT080 11/10 Q1001=
200910240445 METAR LIRA 240445Z 03004KT 9999 FEW015 11/10 Q1001=
200910240415 METAR LIRA 240415Z 02004KT 9999 FEW015 11/11 Q1001=
200910240345 METAR LIRA 240345Z 02003KT 9999 FEW015 SCT040 12/11 Q1001=
200910240315 METAR LIRA 240315Z 01004KT 9999 -DZ FEW014 BKN035 12/11 Q1001=
200910240245 METAR LIRA 240245Z 01004KT 9999 -DZ FEW018 BKN035 12/11 Q1001=
200910240215 METAR LIRA 240215Z 36004KT 9999 -DZ FEW018 BKN035 12/11 Q1001=
200910240145 METAR LIRA 240145Z 35005KT 300V040 9999 -DZ FEW018 BKN035
                        13/12 Q1001=
200910240115 METAR LIRA 240115Z 32005KT 9999 -DZ FEW018 BKN035 12/10 Q1001=
200910240045 METAR LIRA 240045Z 33005KT 300V010 9999 -DZ FEW018 BKN035
                        12/10 Q1001=
200910240015 METAR LIRA 240015Z 30006KT 300V010 9999 FEW016 BKN035 13/11
                        Q1001=
200910232350 METAR LIRA 240045Z 33005KT 300V010 9999 -DZ FEW018 BKN035
                        12/10 Q1001=
200910232345 METAR LIRA 232345Z 32004KT 290V010 9999 FEW016 BKN035 13/10
                        Q1000=
200910232315 METAR LIRA 232315Z 35005KT 9999 FEW016 BKN035 13/10 Q1000=
200910232245 METAR LIRA 232245Z 35005KT 310V020 9999 FEW016 BKN035 13/11
                        Q1000=
200910232215 METAR LIRA 232215Z 36004KT 9999 FEW016 BKN035 13/11 Q1000=
200910232145 METAR LIRA 232145Z 33005KT 300V020 9999 FEW016 BKN035 14/11
                        Q1000=
200910232045 METAR LIRA 232045Z 32004KT 9999 FEW016 SCT035 14/11 Q1000=
200910232015 METAR LIRA 232015Z 33004KT 300V020 9999 FEW016 BKN030 13/11
                        Q1000=
200910231945 METAR LIRA 231945Z 34005KT 280V360 9999 FEW016 BKN035 13/11
                        Q1000=
200910231915 METAR LIRA 231915Z 33004KT 7000 FEW015 BKN035 14/12 Q1000=
200910231845 METAR LIRA 231845Z 33004KT 9999 FEW015 SCT035 14/12 Q1000=
200910231815 METAR LIRA 231815Z 36005KT 310V060 9999 7000S FEW014 SCT040
                        14/12 Q1000=
200910231745 METAR LIRA 231745Z 36006KT 310V040 9999 7000S FEW013 FEW020TCU
                        SCT040 15/12 Q1000=
200910231715 METAR LIRA 231715Z 01008KT 330V060 9999 7000S FEW012 FEW017TCU
                        SCT040 14/12 Q1000=
200910231645 METAR LIRA 231645Z 01004KT 9999 6000S FEW011 FEW016TCU SCT035
                        15/13 Q1000=
200910231615 METAR LIRA 231615Z 33007KT 300V010 9999 6000 FEW011 FEW015CB
                        SCT030 15/13 Q0999 RETS=
200910231545 METAR LIRA 231545Z 01002KT 2200 -RA SCT011 FEW013CB BKN030
                        16/13 Q0998=
200910230915 METAR LIRA 230915Z 12011KT 100V160 5000 BR FEW015 SCT023
                        17/13 Q0998=
200910230845 METAR LIRA 230845Z 14012KT 100V180 5000 BR FEW014 SCT022
                        17/13 Q0998 RERA=
200910230815 METAR LIRA 230815Z 13011KT 070V160 2500 -RA BR FEW014 SCT200
                        17/15 Q0997=
200910230745 METAR LIRA 230745Z 14015KT 100V170 2500 -RA BR FEW014 SCT200
                        16/13 Q0997=
200910230715 METAR COR LIRA 230715Z 15016KT 2500 -RA SCT014 BKN070 16/13
                        Q0997=
200910230645 METAR LIRA 230645Z 15012KT 130V190 2500 -RA BR SCT014 BKN022
                        15/13 Q0997 RETS=
200910230615 METAR LIRA 230615Z 15013KT 2500 -RA BR SCT014 BKN022 15/13
                        Q0997 RETS=
200910230545 METAR LIRA 230545Z 15015KT 120V180 1200 -TSRA BR SCT014 FEW019CB
                        BKN022 15/14 Q0996 RETS=
200910230515 METAR COR LIRA 230515Z 13016KT 3000 -TSRA BR SCT016 FEW019CB
                        BKN026 15/13 Q0996 RETS=
200910230445 METAR LIRA 230445Z 13016KT 090V160 2200 -TSRA BR FEW016 SCT018CB
                        15/13 Q0996 RETS=
200910230415 METAR LIRA 230415Z 14019G32KT 110V170 2000 -TSRA FEW017 SCT018CB
                        17/15 Q0996 RETS=
200910230345 METAR LIRA 230345Z 08010KT 050V120 5000 -TSRA BR FEW017 SCT018CB
                        BKN025 15/14 Q0996 RETS=
200910230315 METAR LIRA 230315Z 09015G25KT 030V120 8000 -TSRA FEW017 FEW020CB
                        BKN025 17/13 Q0996=
200910230245 METAR LIRA 230245Z 09014KT 050V130 9000 -RA FEW020CB SCT025
                        15/13 Q0997=
200910230215 METAR LIRA 230215Z 08009G22KT 040V110 9000 -RA FEW020CB SCT025
                        15/13 Q0998 RERA=
200910230145 METAR LIRA 230145Z 06010KT 020V100 9000 -RA FEW020CB SCT025
                        15/13 Q1000 RERA=
200910230115 METAR LIRA 230115Z 11012KT 6000 RA FEW020CB BKN025 15/13
                        Q1001=
200910230045 METAR LIRA 230045Z 08007G17KT 030V130 9999 -RA FEW020CB SCT030
                        16/13 Q1001=
200910230015 METAR LIRA 230015Z 10015KT 060V130 9999 -RA FEW020CB SCT030
                        16/12 Q1001=
200910222350 METAR LIRA 230045Z 08007G17KT 030V130 9999 -RA FEW020CB SCT030
                        16/13 Q1001=
200910222345 METAR LIRA 222345Z 10011KT 070V160 9999 FEW020TCU SCT030
                        16/12 Q1003=
200910222315 METAR LIRA 222315Z 13005KT 050V200 9999 FEW020TCU SCT035
                        15/11 Q1004=
200910222245 METAR LIRA 222245Z 09005KT 040V130 9999 FEW020TCU SCT060
                        15/11 Q1004=
200910222215 METAR LIRA 222215Z 09006KT 050V130 9999 SCT035 SCT060 14/12
                        Q1005=
200910222145 METAR LIRA 222145Z 05002KT 9999 FEW030 SCT060 14/12 Q1006=
200910222115 METAR LIRA 222115Z 04004KT 9999 FEW030 SCT070 14/12 Q1006=
200910222045 METAR LIRA 222045Z 07004KT 9999 FEW030 SCT060 14/12 Q1006=
200910222015 METAR LIRA 222015Z 12002KT 9999 FEW020TCU SCT070 14/12 Q1006=
200910221945 METAR LIRA 221945Z 07003KT 9999 FEW030 SCT060 14/12 Q1006=
200910221915 METAR LIRA 221915Z 11003KT 9999 FEW030 15/12 Q1007=
200910221845 METAR LIRA 221845Z 12005KT 090V150 9999 FEW030 15/12 Q1007=
200910221815 METAR LIRA 221815Z 07004KT 9999 FEW030 SCT060 14/12 Q1007=
200910221745 METAR LIRA 221745Z 05003KT 8000 FEW020 SCT035 14/13 Q1007=
200910221715 METAR LIRA 221715Z 15005KT 8000 -RA FEW018TCU BKN025 15/12
                        Q1007=
200910221645 METAR LIRA 221645Z 11009KT 9000 -RA FEW018TCU BKN025 15/12
                        Q1007=
200910221615 METAR LIRA 221615Z 13012KT 100V170 9999 4000S -RA FEW018
                        SCT030 15/12 Q1007=
200910221545 METAR LIRA 221545Z 13010KT 100V170 8000 -RA FEW018 SCT030
                        15/12 Q1007=
200910221515 METAR LIRA 221515Z 15009KT 9999 FEW018 SCT030 15/13 Q1007=
200910221445 METAR LIRA 221445Z 13009KT 9999 -RA FEW018 SCT030 16/13 Q1007=
200910221415 METAR LIRA 221415Z 14010KT 100V180 9999 -RA FEW018 SCT030
                        16/13 Q1007=
200910221345 METAR LIRA 221345Z 14007KT 100V180 9999 FEW018 SCT030 16/13
                        Q1007=
200910221315 METAR LIRA 221315Z 15007KT 110V180 9999 FEW018 SCT030 15/12
                        Q1008=
200910221245 METAR LIRA 221245Z 14008KT 090V160 9999 -RA SCT016 BKN027
                        15/13 Q1008=
200910221215 METAR LIRA 221215Z 16005KT 130V220 4000 -RA BR SCT013 BKN023
                        15/13 Q1008=
200910221145 METAR LIRA 221145Z 19006KT 140V240 5000 -RA BR SCT013 BKN023
                        15/14 Q1008=
200910221115 METAR LIRA 221115Z 15011KT 120V210 4000 -RA BR SCT013 FEW015CB
                        BKN023 15/14 Q1008=
200910221045 METAR LIRA 221045Z 16010KT 140V200 4000 -RA BR SCT013 FEW015CB
                        BKN023 15/14 Q1009=
200910221015 METAR LIRA 221015Z 17007KT 3000 RA BR SCT013 FEW015CB BKN023
                        16/15 Q1009=
200910220945 METAR LIRA 220945Z 25004KT 180V280 4000 -RA BR SCT013 FEW015CB
                        BKN023 18/17 Q1009=
200910220915 METAR LIRA 220915Z 21006KT 180V270 5000 -RA BR FEW014 FEW017CB
                        BKN025 18/16 Q1008=
200910220845 METAR LIRA 220845Z 17010KT 8000 -RA FEW014 FEW017CB BKN025
                        18/16 Q1008=
200910220815 METAR LIRA 220815Z 18007KT 140V220 7000 -RA FEW014 FEW017CB
                        BKN025 18/16 Q1008=
200910220745 METAR LIRA 220745Z 20008KT 140V230 7000 -RA FEW015 FEW017CB
                        BKN025 18/16 Q1008=
200910220715 METAR LIRA 220715Z 19011KT 150V240 7000 -RA FEW015 FEW018CB
                        BKN025 18/16 Q1007=
200910220645 METAR LIRA 220645Z 19009KT 160V240 8000 -RA FEW014 FEW018CB
                        SCT025 17/16 Q1007=
200910220615 METAR LIRA 220615Z 20010KT 150V240 5000 -RA BR FEW014 FEW017CB
                        BKN023 17/16 Q1007=
200910220545 METAR LIRA 220545Z 17013KT 120V210 5000 -RA BR FEW014 FEW017CB
                        BKN023 17/16 Q1006=
200910220515 METAR LIRA 220515Z 15013KT 8000 -DZ SCT025 BKN070 19/18 Q1006=
200910220445 METAR LIRA 220445Z 15015KT 9999 -DZ SCT025 BKN070 19/17 Q1007=
200910220415 METAR LIRA 220415Z 15012KT 110V180 9999 FEW018 BKN070 19/17
                        Q1007=
200910220345 METAR LIRA 220345Z 16015KT 9999 FEW018 BKN070 19/17 Q1008=
200910220315 METAR LIRA 220315Z 16011KT 9999 FEW018 BKN070 19/17 Q1008=
200910220245 METAR LIRA 220245Z 14015KT 9999 FEW018 BKN070 19/16 Q1008=
200910220215 METAR LIRA 220215Z 14016KT 9999 FEW018 BKN070 19/16 Q1008=
200910220145 METAR LIRA 220145Z 14015KT 9999 FEW018 BKN070 19/16 Q1009=
200910220115 METAR LIRA 220115Z 15014KT 120V210 9999 FEW018 BKN070 19/16
                        Q1009=
200910220045 METAR LIRA 220045Z 14017KT 9999 FEW018 BKN070 19/16 Q1009=
200910220015 METAR LIRA 220015Z 15022KT 9999 FEW018 BKN070 20/14 Q1009=
200910212350 METAR LIRA 220045Z 14017KT 9999 FEW018 BKN070 19/16 Q1009=
200910212345 METAR LIRA 212345Z 14022KT 9999 FEW018 BKN070 20/13 Q1010=
200910212315 METAR LIRA 212315Z 14020KT 9999 FEW018 SCT070 20/13 Q1010=
200910212245 METAR LIRA 212245Z 14018KT 9999 FEW018 SCT070 20/12 Q1010=
200910212215 METAR LIRA 212215Z 15015KT 9999 FEW018 SCT070 20/11 Q1010=
200910212145 METAR LIRA 212145Z 14017KT 9999 FEW018 SCT070 20/10 Q1010=
200910212115 METAR LIRA 212115Z 14020KT 9999 FEW018 SCT070 20/10 Q1010=
200910212045 METAR LIRA 212045Z 14016KT 100V180 9999 FEW018 SCT070 20/10
                        Q1011=
200910212015 METAR LIRA 212015Z 12014G28KT 100V170 9999 FEW018 SCT070
                        20/10 Q1011=
200910211945 METAR LIRA 211945Z 13011G22KT 070V170 9999 FEW018 SCT070
                        19/10 Q1011=
200910211915 METAR LIRA 211915Z 08004KT 010V120 9999 FEW018 SCT070 17/09
                        Q1011=
200910211845 METAR LIRA 211845Z 09007KT 050V120 9999 FEW018 SCT070 17/09
                        Q1012=
200910211815 METAR LIRA 211815Z 08006KT 9999 FEW018 SCT070 18/08 Q1012=
200910211745 METAR LIRA 211745Z 12011KT 090V160 9999 FEW018 SCT070 18/08
                        Q1012=
200910211715 METAR LIRA 211715Z 12007KT 100V160 9999 FEW018 SCT030 17/08
                        Q1012=
200910211645 METAR LIRA 211645Z 10009KT 060V150 9999 SCT033 17/08 Q1012=
200910211615 METAR LIRA 211615Z 14007KT 090V180 9999 SCT033 18/07 Q1012=
200910211545 METAR LIRA 211545Z 15010KT 9999 SCT033 19/08 Q1012=
200910211515 METAR LIRA 211515Z 14013KT 9999 FEW080 20/09 Q1012=
200910211445 METAR LIRA 211445Z 14010KT 100V180 9999 FEW080 20/09 Q1012=
200910211415 METAR LIRA 211415Z 12011KT 090V170 9999 SCT080 20/09 Q1012=
200910211345 METAR LIRA 211345Z 13012KT 080V180 9999 FEW035 20/09 Q1012=
200910211315 METAR LIRA 211315Z 13017KT 090V180 9999 FEW025 20/09 Q1013=
200910211245 METAR LIRA 211245Z 13017G28KT 090V180 9999 FEW025 20/09 Q1013=
200910211215 METAR LIRA 211215Z 15015KT 100V200 9999 FEW025 20/09 Q1014=
200910211145 METAR LIRA 211145Z 15017KT 100V180 9999 FEW025 20/09 Q1014=
200910211115 METAR LIRA 211115Z 15019KT 100V180 9999 FEW020 20/09 Q1014=
200910211045 METAR LIRA 211045Z 13013KT 100V180 9999 FEW020 20/12 Q1015=
200910211015 METAR LIRA 211015Z 14014KT 100V180 9999 FEW018 19/11 Q1015=
200910210945 METAR LIRA 210945Z 15015KT 110V190 9999 FEW018 19/11 Q1015=
200910210915 METAR LIRA 210915Z 13015KT 100V170 9999 FEW018 19/12 Q1015=
200910210845 METAR LIRA 210845Z 14013KT 080V180 9999 FEW018 18/11 Q1015=
200910210815 METAR LIRA 210815Z 13015KT 090V180 9999 FEW018 18/12 Q1015=
200910210745 METAR LIRA 210745Z 13013G24KT 090V180 9999 FEW023 SCT080
                        17/11 Q1014=
200910210715 METAR LIRA 210715Z 13016KT 080V170 9999 FEW023 SCT080 16/11
                        Q1014=
200910210645 METAR LIRA 210645Z 14019KT 9999 FEW023 SCT070 15/10 Q1014=
200910210615 METAR LIRA 210615Z 14020KT 9999 SCT023 SCT070 15/10 Q1014=
200910210545 METAR LIRA 210545Z 14016KT 090V180 9999 SCT023 SCT070 15/10
                        Q1014=
200910210515 METAR LIRA 210515Z 14018G28KT 080V180 9999 SCT023 SCT070
                        15/10 Q1014=
200910210445 METAR LIRA 210445Z 14015KT 090V180 9999 FEW030 SCT070 15/10
                        Q1014=
200910210415 METAR LIRA 210415Z 13013G23KT 090V180 9999 FEW030 SCT070
                        15/10 Q1014=
200910210345 METAR LIRA 210345Z 02002KT 9999 FEW030 SCT070 13/08 Q1015=
200910210315 METAR LIRA 210315Z 03004KT 330V060 9999 FEW030 SCT070 13/07
                        Q1015=
200910210245 METAR LIRA 210245Z 30002KT 9999 FEW040 SCT060 12/06 Q1015=
200910210215 METAR LIRA 210215Z 06004KT 9999 FEW040 SCT060 12/07 Q1015=
200910210145 METAR LIRA 210145Z 02001KT 9999 FEW040 SCT070 11/06 Q1016=
200910210115 METAR LIRA 210115Z 35004KT 9999 FEW040 SCT070 10/06 Q1016=
200910210045 METAR LIRA 210045Z 02002KT 9999 FEW040 SCT060 10/06 Q1016=
200910210015 METAR LIRA 210015Z 09001KT 9999 FEW018 BKN070 10/06 Q1016=
200910202350 METAR LIRA 210045Z 02002KT 9999 FEW040 SCT060 10/06 Q1016=
200910202345 METAR LIRA 202345Z 14001KT 9999 FEW018 BKN070 08/04 Q1017=
200910202315 METAR LIRA 202315Z 15001KT 9999 FEW018 SCT070 08/04 Q1017=
200910202245 METAR LIRA 202245Z 16001KT 9999 FEW018 SCT070 09/05 Q1017=
200910202215 METAR LIRA 202215Z 31009KT 9999 FEW070 10/05 Q1017=
200910202145 METAR LIRA 202145Z 35002KT 9999 FEW070 11/04 Q1017=
200910202115 METAR LIRA 202115Z 10003KT 9999 FEW040 SCT070 11/04 Q1017=
200910202045 METAR LIRA 202045Z 11001KT 9999 FEW040 SCT070 11/04 Q1017=
200910202015 METAR LIRA 202015Z 12003KT 9999 FEW040 SCT070 11/04 Q1017=
200910201945 METAR LIRA 201945Z 11004KT 9999 FEW040 SCT060 10/03 Q1017=
200910201915 METAR LIRA 201915Z 10003KT 9999 SCT070 10/04 Q1017=
200910201845 METAR LIRA 201845Z 12004KT 9999 SCT070 10/04 Q1017=
200910201815 METAR LIRA 201815Z 13004KT 9999 SCT060 10/04 Q1017=
200910201745 METAR LIRA 201745Z 14005KT 9999 SCT060 11/03 Q1016=
200910201715 METAR LIRA 201715Z 14004KT 9999 SCT060 12/05 Q1016=
200910201645 METAR LIRA 201645Z 20003KT 9999 FEW060 13/02 Q1016=
200910201615 METAR LIRA 201615Z 21003KT 9999 FEW060 14/03 Q1016=
200910201545 METAR LIRA 201545Z 23003KT 9999 FEW080 13/01 Q1016=
200910201515 METAR LIRA 201515Z 23004KT 9999 FEW080 14/01 Q1016=
200910201445 METAR LIRA 201445Z 22003KT 9999 FEW080 15/00 Q1016=
200910201415 METAR LIRA 201415Z 19005KT 9999 FEW080 15/M01 Q1016=
200910201345 METAR LIRA 201345Z 23004KT CAVOK 15/M02 Q1016=
200910201315 METAR LIRA 201315Z 24004KT 200V280 CAVOK 15/M02 Q1016=
200910201300 LIRA CONTUS DIST LIGHTNING SE=
200910201245 METAR LIRA 201245Z 28006KT 280V330 9999 FEW080 15/M03 Q1017=
200910201215 METAR LIRA 201215Z 21004KT 9999 FEW070 15/M01 Q1017=
200910201200 LIRA CONTUS DISTANT LIGHTNING SE/W=
200910201145 METAR LIRA 201145Z 28003KT 9999 FEW020 14/M01 Q1017=
200910201115 METAR LIRA 201115Z 22002KT 9999 FEW020 14/M01 Q1017=
200910201100 LIRA DIST LIGHTNING E/SW/W=
200910201045 METAR LIRA 201045Z 19003KT 9999 FEW020 13/M01 Q1017=
200910201015 METAR LIRA 201015Z 30002KT 9999 FEW020 13/01 Q1017=
200910200945 METAR LIRA 200945Z 28002KT 9999 FEW020 12/03 Q1017=
200910200915 METAR LIRA 200915Z 00000KT 9999 FEW020 11/04 Q1017=
200910200845 METAR LIRA 200845Z 35002KT CAVOK 09/05 Q1017=
200910200815 METAR LIRA 200815Z 34001KT CAVOK 08/04 Q1017=
200910200745 METAR LIRA 200745Z 34003KT CAVOK 07/05 Q1016=
200910200715 METAR LIRA 200715Z 03002KT CAVOK 05/03 Q1016=
200910200645 METAR LIRA 200645Z 03003KT CAVOK 05/02 Q1016=
200910200615 METAR LIRA 200615Z 04003KT CAVOK 03/02 Q1016=
200910200545 METAR LIRA 200545Z 04004KT CAVOK 03/02 Q1015=
200910200515 METAR LIRA 200515Z 05003KT CAVOK 03/02 Q1015=
200910200445 METAR LIRA 200445Z 05003KT CAVOK 03/02 Q1014=
200910200415 METAR LIRA 200415Z 05003KT CAVOK 03/02 Q1014=
200910200345 METAR LIRA 200345Z 05004KT CAVOK 04/03 Q1014=
200910200315 METAR LIRA 200315Z 05002KT CAVOK 04/03 Q1014=
200910200245 METAR LIRA 200245Z 05003KT CAVOK 05/03 Q1014=
200910200215 METAR LIRA 200215Z 03003KT CAVOK 05/04 Q1014=
200910200145 METAR LIRA 200145Z 03003KT CAVOK 05/04 Q1014=
200910200115 METAR LIRA 200115Z 04002KT CAVOK 06/04 Q1014=
200910200045 METAR LIRA 200045Z 36002KT CAVOK 06/04 Q1014=
200910200015 METAR LIRA 200015Z 35003KT 9999 FEW070 07/04 Q1014=
200910192350 METAR LIRA 200045Z 36002KT CAVOK 06/04 Q1014=
200910192345 METAR LIRA 192345Z 05003KT 9999 FEW070 06/03 Q1014=
200910192315 METAR LIRA 192315Z 03003KT 9999 FEW040 07/03 Q1014=
200910192245 METAR LIRA 192245Z 03002KT 9999 FEW020 SCT030 07/03 Q1014=
200910192215 METAR LIRA 192215Z 35004KT 9999 FEW020 SCT030 08/03 Q1014=
200910192145 METAR LIRA 192145Z 35003KT 9999 FEW020 SCT030 09/04 Q1014=
200910192115 METAR LIRA 192115Z 04005KT 9999 FEW020 SCT040 09/05 Q1014=
200910192045 METAR LIRA 192045Z 04003KT 9999 FEW020 SCT040 09/06 Q1014=
200910192015 METAR LIRA 192015Z 08004KT 9999 FEW020 SCT040 10/06 Q1014=
200910191945 METAR LIRA 191945Z 08004KT 9999 -RA FEW020 SCT040 10/06 Q1014=
200910191915 METAR LIRA 191915Z 00000KT 9999 -RA SCT020 BKN040 12/05 Q1014=
200910191845 METAR LIRA 191845Z 29003KT 9999 FEW020 SCT040 12/03 Q1013=
200910191815 METAR LIRA 191815Z 35007KT 310V020 9999 FEW020 SCT040 12/04
                        Q1013=
200910191745 METAR LIRA 191745Z 33005KT 310V020 9999 FEW020 SCT040 12/06
                        Q1013=
200910191715 METAR LIRA 191715Z 35002KT 9999 FEW020 SCT040 12/08 Q1012=
200910191645 METAR LIRA 191645Z 15004KT 9999 FEW020 SCT030 12/07 Q1013=
200910191615 METAR LIRA 191615Z 17004KT 9999 FEW020 SCT040 13/08 Q1013=
200910191545 METAR LIRA 191545Z 19006KT 160V230 9999 FEW020 SCT040 13/07
                        Q1013=
200910191515 METAR LIRA 191515Z 18008KT 160V220 9999 FEW020 SCT040 13/07
                        Q1012=
200910191445 METAR LIRA 191445Z 21001KT 9999 FEW020 SCT070 15/03 Q1012=
200910191415 METAR LIRA 191415Z 33001KT 9999 FEW020 SCT035 15/03 Q1012=
200910191345 METAR LIRA 191345Z 33002KT 9999 FEW020 SCT035 15/03 Q1012=
200910191315 METAR LIRA 191315Z 30002KT 9999 FEW020 SCT070 15/03 Q1012=
200910191245 METAR LIRA 191245Z 02003KT 9999 FEW020 SCT070 15/03 Q1012=
200910191215 METAR LIRA 191215Z 34004KT 300V010 9999 FEW020 SCT070 15/03
                        Q1012=
200910191145 METAR LIRA 191145Z 01005KT 310V070 9999 FEW020 SCT070 15/03
                        Q1013=
200910191115 METAR LIRA 191115Z 02005KT 310V080 9999 FEW020 SCT070 15/04
                        Q1013=
200910191045 METAR LIRA 191045Z 35006KT 300V060 9999 FEW020 SCT070 14/05
                        Q1013=
200910191015 METAR LIRA 191015Z 33004KT 9999 FEW020 13/05 Q1013=
200910190945 METAR LIRA 190945Z 03006KT 300V060 9999 FEW020 12/05 Q1012=
200910190915 METAR LIRA 190915Z 03007KT 330V080 9999 FEW022 11/05 Q1012=
200910190845 METAR LIRA 190845Z 03006KT 330V080 9999 FEW022 09/03 Q1012=
200910190815 METAR LIRA 190815Z 03006KT 330V060 9999 FEW022 08/03 Q1012=
200910190745 METAR LIRA 190745Z 02005KT 9999 FEW035 08/03 Q1012=
200910190715 METAR LIRA 190715Z 04005KT 360V080 9999 FEW035 07/03 Q1011=
200910190645 METAR LIRA 190645Z 04005KT 360V070 9999 FEW070 05/02 Q1011=
200910190615 METAR LIRA 190615Z 04004KT 9999 FEW070 05/02 Q1011=
200910190545 METAR LIRA 190545Z 04005KT 9999 FEW070 05/02 Q1011=
200910190515 METAR LIRA 190515Z 04005KT 360V080 9999 FEW070 05/02 Q1010=
200910190445 METAR LIRA 190445Z 04003KT 9999 FEW070 05/02 Q1010=
200910190415 METAR LIRA 190415Z 04007KT 9999 FEW070 05/02 Q1010=
200910190345 METAR LIRA 190345Z 05006KT 9999 FEW070 05/02 Q1010=
200910190315 METAR LIRA 190315Z 03006KT 360V080 CAVOK 05/02 Q1009=
200910190245 METAR LIRA 190245Z 04006KT CAVOK 05/02 Q1009=
200910190215 METAR LIRA 190215Z 04004KT CAVOK 05/02 Q1009=
200910190145 METAR LIRA 190145Z 03005KT 350V070 9999 FEW070 05/02 Q1009=
200910190115 METAR LIRA 190115Z 03005KT 9999 FEW070 05/02 Q1009=
200910190045 METAR LIRA 190045Z 03006KT 340V080 9999 FEW070 06/02 Q1009=
200910190015 METAR LIRA 190015Z 03006KT 9999 FEW070 05/02 Q1009=
200910182350 METAR LIRA 190045Z 03006KT 340V080 9999 FEW070 06/02 Q1009=
200910182345 METAR LIRA 182345Z 05005KT 9999 FEW070 06/03 Q1009=
200910182315 METAR LIRA 182315Z 05005KT CAVOK 06/02 Q1010=
200910182245 METAR LIRA 182245Z 03005KT 360V060 CAVOK 06/02 Q1010=
200910182215 METAR LIRA 182215Z 02004KT CAVOK 06/02 Q1010=
200910182145 METAR LIRA 182145Z 36004KT CAVOK 07/02 Q1009=
200910182115 METAR LIRA 182115Z 01002KT CAVOK 07/02 Q1009=
200910182045 METAR LIRA 182045Z 07004KT CAVOK 07/02 Q1009=
200910182015 METAR LIRA 182015Z 01004KT CAVOK 08/02 Q1009=
200910181945 METAR LIRA 181945Z 02007KT 310V060 CAVOK 08/01 Q1009=
200910181915 METAR LIRA 181915Z 36005KT 300V070 9999 FEW030 SCT060 09/01
                        Q1009=
200910181845 METAR LIRA 181845Z 36005KT 310V070 9999 FEW030 SCT060 09/02
                        Q1009=
200910181815 METAR LIRA 181815Z 01004KT 320V050 9999 FEW030 SCT060 10/01
                        Q1009=
200910181745 METAR LIRA 181745Z 02006KT 330V070 9999 FEW020 SCT032 10/01
                        Q1008=
200910181715 METAR LIRA 181715Z 02005KT 330V080 9999 FEW020 SCT032 10/01
                        Q1008=
200910181645 METAR LIRA 181645Z 04007KT 360V070 9999 FEW020 SCT032 11/02
                        Q1008=
200910181615 METAR LIRA 181615Z 04005KT 320V100 9999 FEW020 SCT030 12/02
                        Q1008=
200910181545 METAR LIRA 181545Z 05007KT 020V100 9999 FEW020 SCT032 13/03
                        Q1008=
200910181515 METAR LIRA 181515Z 04005KT 350V080 9999 FEW020 SCT040 12/03
                        Q1008=
200910181445 METAR LIRA 181445Z 04006KT 360V090 9999 FEW020 SCT040 12/02
                        Q1008=
200910181415 METAR LIRA 181415Z 03005KT 330V080 9999 FEW020 BKN040 12/02
                        Q1008=
200910181345 METAR LIRA 181345Z 02008KT 300V090 9999 FEW020 BKN040 13/02
                        Q1008=
200910181315 METAR LIRA 181315Z 02010KT 300V060 9999 FEW020 BKN033 13/03
                        Q1008=
200910181245 METAR LIRA 181245Z 01007KT 330V070 9999 FEW020 BKN033 14/04
                        Q1008=
200910181215 METAR LIRA 181215Z 03007KT 300V060 9999 FEW020 SCT033 13/03
                        Q1007=
200910181145 METAR LIRA 181145Z 03009KT 330V070 9999 FEW020 SCT033 13/04
                        Q1007=
200910181115 METAR LIRA 181115Z 02007KT 310V070 9999 FEW018 SCT033 13/03
                        Q1007=
200910181045 METAR LIRA 181045Z 04009KT 330V070 9999 SCT030 BKN080 12/03
                        Q1008=
200910181015 METAR LIRA 181015Z 05012KT 360V110 9999 SCT030 BKN080 12/03
                        Q1008=
200910180945 METAR LIRA 180945Z 05011KT 020V100 9999 SCT030 BKN080 12/04
                        Q1008=
200910180915 METAR LIRA 180915Z 03009KT 320V070 9999 FEW030 SCT080 12/05
                        Q1008=
200910180845 METAR LIRA 180845Z 01010KT 320V090 9999 FEW030 SCT080 10/06
                        Q1008=
200910180815 METAR LIRA 180815Z 01005KT 300V070 9999 SCT030 BKN080 09/07
                        Q1008=
200910180745 METAR LIRA 180745Z 04007KT 360V090 9999 SCT030 BKN080 09/07
                        Q1008=
200910180715 METAR LIRA 180715Z 05008KT 360V090 9999 -RA SCT030 BKN080
                        08/07 Q1007=
200910180645 METAR LIRA 180645Z 03006KT 310V080 9999 -RA SCT030 BKN080
                        08/07 Q1007=
200910180615 METAR LIRA 180615Z 03007KT 340V070 9999 -RA SCT030 BKN080
                        08/07 Q1007=
200910180545 METAR LIRA 180545Z 02005KT 330V070 9999 -RA FEW020 SCT030
                        BKN080 08/07 Q1007=
200910180515 METAR LIRA 180515Z 02005KT 320V050 9999 -RA SCT020 SCT030
                        BKN080 08/07 Q1007=
200910180445 METAR LIRA 180445Z 03004KT 9999 -RA SCT020 SCT030 BKN080
                        09/07 Q1007=
200910180415 METAR LIRA 180415Z 03006KT 350V070 9999 -RA SCT020 SCT030
                        BKN080 09/06 Q1007=
200910180345 METAR LIRA 180345Z 02005KT 340V080 9999 -RA SCT020 BKN030
                        09/06 Q1007=
200910180315 METAR LIRA 180315Z 03005KT 350V070 9999 -RA BKN030 SCT060
                        09/05 Q1007=
200910180245 METAR LIRA 180245Z 01005KT 310V040 9999 SCT025 SCT060 09/04
                        Q1007=
200910180215 METAR LIRA 180215Z 36006KT 300V050 9999 SCT025 SCT070 09/04
                        Q1007=
200910180145 METAR LIRA 180145Z 35007KT 310V010 9999 SCT025 SCT060 09/04
                        Q1007=
200910180115 METAR LIRA 180115Z 35004KT 9999 SCT025 SCT060 09/04 Q1007=
200910180045 METAR LIRA 180045Z 01003KT 9999 SCT025 SCT060 09/04 Q1007=
200910180015 METAR LIRA 180015Z 03004KT 9999 SCT025 SCT060 09/05 Q1007=
200910172350 METAR LIRA 180045Z 01003KT 9999 SCT025 SCT060 09/04 Q1007=
200910172345 METAR LIRA 172345Z 05006KT 9999 SCT025 SCT060 09/05 Q1008=
200910172315 METAR LIRA 172315Z 04002KT 9999 SCT025 SCT060 09/04 Q1008=
200910172245 METAR LIRA 172245Z 35004KT 9999 SCT030 SCT060 09/03 Q1008=
200910172215 METAR LIRA 172215Z 34004KT 9999 FEW030 SCT060 09/03 Q1008=
200910172145 METAR LIRA 172145Z 03003KT 9999 FEW030 SCT060 09/04 Q1008=
200910172115 METAR LIRA 172115Z 04005KT 9999 SCT030 SCT060 10/04 Q1008=
200910172045 METAR LIRA 172045Z 01005KT 9999 SCT030 SCT060 10/04 Q1008=
200910172015 METAR LIRA 172015Z 36006KT 9999 SCT025 SCT070 10/04 Q1008=
200910171945 METAR LIRA 171945Z 36005KT 320V060 9999 SCT030 SCT070 10/04
                        Q1008=
200910171915 METAR LIRA 171915Z 02006KT 330V070 9999 SCT035 SCT060 10/04
                        Q1008=
200910171845 METAR LIRA 171845Z 04006KT 9999 SCT030 SCT060 10/04 Q1008=
200910171815 METAR LIRA 171815Z 01004KT 9999 SCT035 SCT070 10/04 Q1008=
200910171745 METAR LIRA 171745Z 02004KT 9999 SCT030 SCT060 10/03 Q1007=
200910171715 METAR LIRA 171715Z 04006KT 010V080 9999 FEW030 SCT060 10/04
                        Q1007=
200910171645 METAR LIRA 171645Z 04006KT 020V080 9999 FEW030 SCT060 11/04
                        Q1007=
200910171615 METAR LIRA 171615Z 04004KT 360V090 9999 SCT035 BKN060 12/05
                        Q1007=
200910171545 METAR LIRA 171545Z 03005KT 360V100 9999 SCT030 BKN070 12/04
                        Q1007=
200910171515 METAR LIRA 171515Z 03006KT 320V090 9999 SCT030 BKN070 12/04
                        Q1007=
200910171445 METAR LIRA 171445Z 02006KT 320V060 9999 SCT030 BKN070 12/04
                        Q1008=
200910171415 METAR LIRA 171415Z 02008KT 320V080 9999 SCT030 BKN070 12/04
                        Q1008=
200910171345 METAR LIRA 171345Z 05009KT 010V090 9999 SCT030 BKN070 12/03
                        Q1008=
200910171315 METAR LIRA 171315Z 05009KT 350V090 9999 SCT030 BKN070 12/03
                        Q1008=
200910171245 METAR LIRA 171245Z 04011KT 350V080 9999 SCT030 BKN080 12/03
                        Q1009=
200910171215 METAR LIRA 171215Z 05004KT 9999 BKN025 SCT080 13/04 Q1009=
200910171145 METAR LIRA 171145Z 07004KT 020V110 9999 BKN025 SCT070 12/02
                        Q1009=
200910171115 METAR LIRA 171115Z 05008KT 010V090 9999 BKN025 SCT080 12/03
                        Q1009=
200910171045 METAR LIRA 171045Z 05008KT 010V080 9999 BKN025 SCT080 13/03
                        Q1010=
200910171015 METAR LIRA 171015Z 07004KT 9999 BKN025 SCT080 12/03 Q1010=
200910170945 METAR LIRA 170945Z 36006KT 320V070 9999 BKN025 SCT080 12/04
                        Q1010=
200910170915 METAR LIRA 170915Z 14002KT 9999 BKN025 SCT080 12/04 Q1010=
200910170845 METAR LIRA 170845Z 07006KT 020V090 9999 BKN025 SCT080 11/03
                        Q1010=
200910170815 METAR LIRA 170815Z 05007KT 350V090 9999 BKN025 SCT080 10/05
                        Q1010=
200910170745 METAR LIRA 170745Z 02005KT 9999 BKN025 SCT080 08/04 Q1010=
200910170715 METAR LIRA 170715Z 04005KT 9999 BKN022 SCT080 06/03 Q1010=
200910170645 METAR LIRA 170645Z 02003KT 9999 BKN022 SCT080 05/03 Q1010=
200910170615 METAR LIRA 170615Z 03002KT 9999 SCT022 BKN080 05/02 Q1011=
200910170545 METAR LIRA 170545Z 32001KT 9999 FEW024 SCT080 04/03 Q1011=
200910170515 METAR LIRA 170515Z 03003KT 9999 FEW024 SCT080 04/02 Q1011=
200910170445 METAR LIRA 170445Z 06001KT 9999 FEW080 03/02 Q1011=
200910170415 METAR LIRA 170415Z 04004KT 9999 FEW080 03/02 Q1011=
200910170345 METAR LIRA 170345Z 11001KT 9999 FEW080 04/02 Q1011=
200910170315 METAR LIRA 170315Z 03002KT 9999 FEW080 04/02 Q1012=
200910170245 METAR LIRA 170245Z 05002KT CAVOK 04/02 Q1012=
200910170215 METAR LIRA 170215Z 03003KT CAVOK 04/02 Q1012=
200910170145 METAR LIRA 170145Z 03005KT CAVOK 04/02 Q1012=
200910170115 METAR LIRA 170115Z 01002KT CAVOK 05/02 Q1013=
200910170045 METAR LIRA 170045Z 35001KT CAVOK 05/02 Q1013=
200910170015 METAR LIRA 170015Z 03002KT CAVOK 05/02 Q1013=
200910162350 METAR LIRA 170045Z 35001KT CAVOK 05/02 Q1013=
200910162345 METAR LIRA 162345Z 09001KT CAVOK 06/02 Q1013=
200910162315 METAR LIRA 162315Z 06002KT CAVOK 06/02 Q1013=
200910162245 METAR LIRA 162245Z 07001KT CAVOK 06/02 Q1013=
200910162215 METAR LIRA 162215Z 35002KT CAVOK 07/03 Q1013=
200910162145 METAR LIRA 162145Z 10004KT CAVOK 07/02 Q1013=
200910162115 METAR LIRA 162115Z 00000KT CAVOK 08/01 Q1013=
200910162045 METAR LIRA 162045Z 05001KT CAVOK 09/00 Q1014=
200910162015 METAR LIRA 162015Z 03003KT CAVOK 09/M00 Q1014=
200910161945 METAR LIRA 161945Z 08002KT CAVOK 09/M00 Q1014=
200910161915 METAR LIRA 161915Z 05004KT CAVOK 10/00 Q1014=
200910161845 METAR LIRA 161845Z 35005KT 9999 FEW035 11/00 Q1014=
200910161815 METAR LIRA 161815Z 01003KT 9999 FEW035 11/00 Q1013=
200910161745 METAR LIRA 161745Z 01004KT 9999 FEW035 12/00 Q1013=
200910161715 METAR LIRA 161715Z 31007KT 300V020 9999 FEW025 SCT070 13/00
                        Q1013=
200910161645 METAR LIRA 161645Z 34007KT 290V020 9999 FEW025 SCT070 14/M00
                        Q1013=
200910161615 METAR LIRA 161615Z 24003KT 9999 FEW025 SCT070 14/M00 Q1013=
200910161545 METAR LIRA 161545Z 24003KT 9999 FEW025 SCT030 15/M00 Q1013=
200910161515 METAR LIRA 161515Z 30004KT 9999 FEW025 16/M00 Q1013=
200910161445 METAR LIRA 161445Z 32005KT 9999 FEW020 16/M00 Q1013=
200910161415 METAR LIRA 161415Z 30002KT 270V360 9999 FEW020 16/M01 Q1013=
200910161345 METAR LIRA 161345Z 35003KT 9999 FEW020 16/M01 Q1014=
200910161315 METAR LIRA 161315Z 25003KT 9999 FEW020 16/M03 Q1014=
200910161245 METAR LIRA 161245Z 28005KT 9999 FEW020 15/M03 Q1014=
200910161215 METAR LIRA 161215Z 28005KT 260V010 9999 FEW018 15/M02 Q1014=
200910161145 METAR LIRA 161145Z 32002KT 270V020 9999 FEW018 15/M01 Q1014=
200910161115 METAR LIRA 161115Z 02004KT 310V070 9999 FEW018 14/00 Q1014=
200910161045 METAR LIRA 161045Z 35006KT 290V040 9999 FEW025 14/01 Q1014=
200910161015 METAR LIRA 161015Z 35005KT 300V030 9999 FEW025 14/02 Q1014=
200910160945 METAR LIRA 160945Z 03006KT 310V080 9999 FEW025 13/03 Q1014=
200910160915 METAR LIRA 160915Z 36007KT 300V060 CAVOK 12/03 Q1014=
200910160845 METAR LIRA 160845Z 01007KT 310V070 CAVOK 11/04 Q1014=
200910160815 METAR LIRA 160815Z 36007KT 310V040 CAVOK 10/03 Q1014=
200910160745 METAR LIRA 160745Z 02005KT 320V070 CAVOK 09/03 Q1014=
200910160715 METAR LIRA 160715Z 02004KT CAVOK 07/03 Q1014=
200910160645 METAR LIRA 160645Z 02004KT CAVOK 06/03 Q1014=
200910160615 METAR LIRA 160615Z 02005KT 360V090 CAVOK 05/02 Q1013=
200910160545 METAR LIRA 160545Z 03005KT 340V080 CAVOK 04/02 Q1013=
200910160515 METAR LIRA 160515Z 04004KT CAVOK 04/02 Q1013=
200910160445 METAR LIRA 160445Z 03003KT CAVOK 05/02 Q1013=
200910160415 METAR LIRA 160415Z 02003KT CAVOK 05/02 Q1013=
200910160345 METAR LIRA 160345Z 04004KT CAVOK 05/02 Q1013=
200910160315 METAR LIRA 160315Z 36005KT CAVOK 05/02 Q1013=
200910160245 METAR LIRA 160245Z 02004KT 320V070 CAVOK 05/02 Q1013=
200910160215 METAR LIRA 160215Z 01005KT 320V040 CAVOK 05/02 Q1013=
200910160145 METAR LIRA 160145Z 05006KT CAVOK 06/02 Q1013=
200910160115 METAR LIRA 160115Z 04007KT CAVOK 06/02 Q1013=
200910160045 METAR LIRA 160045Z 04004KT CAVOK 06/02 Q1013=
200910160015 METAR LIRA 160015Z 36004KT 300V050 CAVOK 07/02 Q1013=
200910152350 METAR LIRA 160045Z 04004KT CAVOK 06/02 Q1013=
200910152345 METAR LIRA 152345Z 01005KT 330V060 CAVOK 06/01 Q1013=
200910152315 METAR LIRA 152315Z 01005KT 290V080 CAVOK 06/01 Q1013=
200910152245 METAR LIRA 152245Z 03005KT 290V080 CAVOK 06/00 Q1013=
200910152215 METAR LIRA 152215Z 03006KT CAVOK 05/M00 Q1013=
200910152145 METAR LIRA 152145Z 04005KT CAVOK 07/02 Q1013=
200910152115 METAR LIRA 152115Z 02003KT CAVOK 07/02 Q1013=
200910152045 METAR LIRA 152045Z 05002KT CAVOK 07/02 Q1013=
200910152015 METAR LIRA 152015Z 02004KT 020V110 9999 FEW080 08/01 Q1012=
200910151945 METAR LIRA 151945Z 10006KT 9999 FEW080 08/01 Q1012=
200910151915 METAR LIRA 151915Z 11002KT 9999 FEW080 09/00 Q1012=
200910151845 METAR LIRA 151845Z 17002KT 9999 FEW080 10/00 Q1012=
200910151815 METAR LIRA 151815Z 14003KT 9999 FEW080 10/M00 Q1012=
200910151745 METAR LIRA 151745Z 13002KT 9999 FEW080 11/M01 Q1012=
200910151715 METAR LIRA 151715Z 00000KT 9999 FEW080 12/M04 Q1012=
200910151645 METAR LIRA 151645Z 35001KT 9999 FEW080 12/M03 Q1012=
200910151615 METAR LIRA 151615Z 29003KT 9999 FEW080 14/M03 Q1012=
200910151545 METAR LIRA 151545Z 29006KT 250V320 9999 FEW080 15/M03 Q1012=
200910151515 METAR LIRA 151515Z 29006KT 250V320 9999 FEW080 15/M04 Q1012=
200910151445 METAR LIRA 151445Z 30006KT 280V340 9999 FEW018 15/M04 Q1012=
200910151415 METAR LIRA 151415Z 29004KT 290V360 9999 FEW018 15/M04 Q1012=
200910151345 METAR LIRA 151345Z 32007KT 260V360 9999 FEW018 SCT080 15/M04
                        Q1012=
200910151315 METAR LIRA 151315Z 32007KT 260V350 9999 FEW018 SCT080 15/M05
                        Q1012=
200910151245 METAR LIRA 151245Z 32007KT 280V010 9999 FEW018 SCT080 16/M04
                        Q1013=
200910151215 METAR LIRA 151215Z 02003KT 9999 FEW018 16/M03 Q1014=
200910151145 METAR LIRA 151145Z 33003KT 9999 FEW018 15/M03 Q1014=
200910151115 METAR LIRA 151115Z 36002KT 310V050 9999 FEW018 15/M01 Q1014=
200910151045 METAR LIRA 151045Z 06005KT 340V100 9999 FEW018 14/00 Q1014=
200910151015 METAR LIRA 151015Z 33003KT 310V030 9999 FEW018 14/01 Q1014=
200910150945 METAR LIRA 150945Z 36003KT 9999 FEW018 SCT070 14/01 Q1014=
200910150915 METAR LIRA 150915Z 34005KT 300V040 9999 FEW018 14/02 Q1014=
200910150845 METAR LIRA 150845Z 01004KT 330V080 9999 FEW020 12/01 Q1014=
200910150815 METAR LIRA 150815Z 01005KT 290V080 9999 FEW020 11/01 Q1014=
200910150745 METAR LIRA 150745Z 36005KT 330V040 9999 FEW020 10/01 Q1014=
200910150715 METAR LIRA 150715Z 01004KT 9999 FEW020 08/02 Q1014=
200910150645 METAR LIRA 150645Z 03003KT 9999 FEW020 07/01 Q1014=
200910150615 METAR LIRA 150615Z 01003KT 9999 FEW020 06/01 Q1014=
200910150545 METAR LIRA 150545Z 34003KT 9999 FEW018 05/00 Q1013=
200910150515 METAR LIRA 150515Z 01003KT 9999 FEW018 05/01 Q1013=
200910150445 METAR LIRA 150445Z 04002KT 9999 FEW018 05/01 Q1013=
200910150415 METAR LIRA 150415Z 01003KT 9999 FEW018 05/01 Q1013=
200910150345 METAR LIRA 150345Z 01003KT 9999 FEW018 05/01 Q1014=
200910150315 METAR LIRA 150315Z 02003KT 9999 FEW018 06/01 Q1014=
200910150245 METAR LIRA 150245Z 02004KT 9999 FEW018 06/01 Q1014=
200910150215 METAR LIRA 150215Z 00000KT CAVOK 06/01 Q1014=
200910150145 METAR LIRA 150145Z 03005KT CAVOK 06/01 Q1014=
200910150115 METAR LIRA 150115Z 03004KT CAVOK 06/02 Q1014=
200910150045 METAR LIRA 150045Z 01004KT 9999 FEW018 06/02 Q1014=
200910150015 METAR LIRA 150015Z 03006KT 9999 FEW018 07/02 Q1015=
200910142350 METAR LIRA 150045Z 01004KT 9999 FEW018 06/02 Q1014=
200910142345 METAR LIRA 142345Z 04004KT 9999 FEW018 07/03 Q1015=
200910142315 METAR LIRA 142315Z 03005KT 340V060 9999 FEW018 08/04 Q1015=
200910142245 METAR LIRA 142245Z 03006KT 350V090 9999 FEW018 08/04 Q1015=
200910142215 METAR LIRA 142215Z 04007KT 9999 FEW018 08/04 Q1015=
200910142145 METAR LIRA 142145Z 02005KT 330V050 9999 FEW018 09/04 Q1015=
200910142115 METAR LIRA 142115Z 03005KT 9999 FEW018 09/04 Q1015=
200910142045 METAR LIRA 142045Z 04004KT 9999 FEW018 09/04 Q1015=
200910142015 METAR LIRA 142015Z 04004KT 9999 FEW018 09/03 Q1015=
200910141945 METAR LIRA 141945Z 06006KT 020V100 9999 FEW018 10/03 Q1015=
200910141915 METAR LIRA 141915Z 10012KT 9999 FEW018 10/03 Q1014=
200910141845 METAR LIRA 141845Z 10011KT 9999 FEW018 10/03 Q1014=
200910141815 METAR LIRA 141815Z 10009KT 9999 FEW018 10/04 Q1014=
200910141745 METAR LIRA 141745Z 15005KT 120V180 9999 FEW018 12/06 Q1014=
200910141715 METAR LIRA 141715Z 15003KT 9999 FEW018 12/06 Q1014=
200910141645 METAR LIRA 141645Z 17004KT 9999 FEW018 13/06 Q1014=
200910141615 METAR LIRA 141615Z 16006KT 9999 FEW018 13/06 Q1014=
200910141545 METAR LIRA 141545Z 17009KT 130V210 9999 FEW018 14/03 Q1013=
200910141515 METAR LIRA 141515Z 18008KT 9999 FEW018 15/01 Q1013=
200910141445 METAR LIRA 141445Z 30006KT 9999 FEW018 16/M03 Q1013=
200910141415 METAR LIRA 141415Z 32005KT 9999 FEW018 SCT040 16/M03 Q1013=
200910141345 METAR LIRA 141345Z 29004KT 9999 FEW018 SCT080 16/M01 Q1013=
200910141315 METAR LIRA 141315Z 29004KT 9999 FEW018 SCT080 16/M00 Q1013=
200910141245 METAR LIRA 141245Z 32005KT 290V030 9999 FEW018 SCT080 17/00
                        Q1013=
200910141215 METAR LIRA 141215Z 33004KT 310V030 9999 FEW018 SCT080 17/01
                        Q1014=
200910141145 METAR LIRA 141145Z 33005KT 9999 FEW018 SCT080 17/02 Q1014=
200910141115 METAR LIRA 141115Z 05002KT 9999 FEW018 SCT080 16/02 Q1014=
200910141045 METAR LIRA 141045Z 06003KT 9999 FEW018 SCT070 16/03 Q1014=
200910141015 METAR LIRA 141015Z 06004KT 010V080 9999 FEW018 SCT070 16/02
                        Q1014=
200910140945 METAR LIRA 140945Z 04005KT 300V080 9999 FEW018 SCT070 15/05
                        Q1014=
200910140915 METAR LIRA 140915Z 36007KT 310V060 9999 FEW018 14/06 Q1014=
200910140845 METAR LIRA 140845Z 04006KT 340V080 9999 FEW018 15/07 Q1014=
200910140815 METAR LIRA 140815Z 36007KT 290V080 9999 FEW018 15/06 Q1014=
200910140745 METAR LIRA 140745Z 09002KT 9999 FEW018 14/06 Q1014=
200910140715 METAR LIRA 140715Z 09006KT 9999 FEW018 14/05 Q1014=
200910140645 METAR LIRA 140645Z 08008KT 9999 FEW018 09/07 Q1014=
200910140615 METAR LIRA 140615Z 06008KT 010V090 9999 FEW018 07/05 Q1014=
200910140545 METAR LIRA 140545Z 35009KT 300V040 9999 FEW018 07/05 Q1013=
200910140515 METAR LIRA 140515Z 04004KT 320V090 9999 FEW018 07/04 Q1013=
200910140445 METAR LIRA 140445Z 15006KT 9999 FEW080 08/05 Q1013=
200910140415 METAR LIRA 140415Z 17002KT CAVOK 07/05 Q1014=
200910140345 METAR LIRA 140345Z 05004KT CAVOK 07/05 Q1014=
200910140315 METAR LIRA 140315Z 04005KT 010V080 CAVOK 08/05 Q1014=
200910140245 METAR LIRA 140245Z 36003KT CAVOK 08/05 Q1014=
200910140215 METAR LIRA 140215Z 03003KT 350V060 CAVOK 08/06 Q1014=
200910140145 METAR LIRA 140145Z 02004KT CAVOK 08/05 Q1014=
200910140115 METAR LIRA 140115Z 04004KT CAVOK 08/05 Q1014=
200910140045 METAR LIRA 140045Z 05003KT CAVOK 08/05 Q1014=
200910140015 METAR LIRA 140015Z 07003KT CAVOK 08/05 Q1014=
200910132350 METAR LIRA 140045Z 05003KT CAVOK 08/05 Q1014=
200910132345 METAR LIRA 132345Z 01002KT CAVOK 08/05 Q1014=
200910132315 METAR LIRA 132315Z 05004KT CAVOK 08/04 Q1014=
200910132245 METAR LIRA 132245Z 30002KT CAVOK 09/04 Q1014=
200910132215 METAR LIRA 132215Z 14007KT CAVOK 10/04 Q1014=
200910132145 METAR LIRA 132145Z 12004KT CAVOK 09/04 Q1014=
200910132115 METAR LIRA 132115Z 10002KT CAVOK 10/04 Q1015=
200910132045 METAR LIRA 132045Z 10004KT 9999 FEW070 10/04 Q1015=
200910132015 METAR LIRA 132015Z 11002KT 9999 FEW060 11/04 Q1015=
200910131945 METAR LIRA 131945Z 11003KT 9999 FEW060 11/05 Q1014=
200910131915 METAR LIRA 131915Z 08002KT 9999 FEW060 12/05 Q1014=
200910131845 METAR LIRA 131845Z 16004KT 9999 FEW060 13/05 Q1014=
200910131815 METAR LIRA 131815Z 16004KT 9999 FEW020 13/05 Q1014=
200910131745 METAR LIRA 131745Z 00000KT 9999 FEW020 13/03 Q1014=
200910131715 METAR LIRA 131715Z 31001KT 9999 FEW020 15/02 Q1013=
200910131645 METAR LIRA 131645Z 34002KT 9999 FEW020 16/02 Q1013=
200910131615 METAR LIRA 131615Z 32003KT 9999 FEW020 17/01 Q1013=
200910131545 METAR LIRA 131545Z 33003KT 9999 FEW020 17/01 Q1013=
200910131515 METAR LIRA 131515Z 33003KT 9999 FEW018 17/00 Q1013=
200910131445 METAR LIRA 131445Z 13002KT 9999 FEW018 17/00 Q1013=
200910131415 METAR LIRA 131415Z 07001KT 9999 FEW018 18/01 Q1013=
200910131345 METAR LIRA 131345Z 02004KT 320V070 9999 FEW018 18/01 Q1013=
200910131315 METAR LIRA 131315Z 28005KT 220V350 9999 FEW018 18/01 Q1014=
200910131245 METAR LIRA 131245Z 36004KT 330V040 9999 FEW018 18/01 Q1014=
200910131215 METAR LIRA 131215Z 01004KT 290V040 9999 FEW018 18/02 Q1014=
200910131145 METAR LIRA 131145Z 36005KT 310V030 9999 FEW018 17/02 Q1014=
200910131115 METAR LIRA 131115Z 34005KT 260V010 9999 FEW018 17/02 Q1014=
200910131045 METAR LIRA 131045Z 36006KT 330V040 9999 FEW020 17/03 Q1014=
200910131015 METAR LIRA 131015Z 02004KT 350V060 9999 FEW020 16/04 Q1014=
200910130945 METAR LIRA 130945Z 05006KT 010V070 CAVOK 15/04 Q1014=
200910130915 METAR LIRA 130915Z 02004KT 300V040 CAVOK 14/04 Q1014=
200910130900 METAR LIRA INTER CB NW/E=
200910130845 METAR LIRA 130845Z 01007KT 300V060 CAVOK 14/04 Q1014=
200910130815 METAR LIRA 130815Z 02008KT 320V060 CAVOK 13/05 Q1013=
200910130800 LIRA INTER CB NW/NE/SW=
200910130745 METAR LIRA 130745Z 01005KT 320V080 CAVOK 12/05 Q1013=
200910130715 METAR LIRA 130715Z 06008KT 020V090 CAVOK 10/06 Q1013=
200910130645 METAR LIRA 130645Z 05003KT 010V090 CAVOK 09/06 Q1013=
200910130615 METAR LIRA 130615Z 06004KT CAVOK 08/06 Q1012=
200910130545 METAR LIRA 130545Z 04004KT CAVOK 07/05 Q1012=
200910130515 METAR LIRA 130515Z 00000KT CAVOK 07/05 Q1011=
200910130445 METAR LIRA 130445Z 22001KT CAVOK 08/06 Q1011=
200910130415 METAR LIRA 130415Z 32002KT CAVOK 08/06 Q1010=
200910130345 METAR LIRA 130345Z 03005KT 360V080 CAVOK 08/05 Q1010=
200910130315 METAR LIRA 130315Z 07007KT 040V100 CAVOK 08/06 Q1009=
200910130245 METAR LIRA 130245Z 05005KT CAVOK 08/05 Q1010=
200910130215 METAR LIRA 130215Z 04004KT CAVOK 09/05 Q1010=
200910130145 METAR LIRA 130145Z 05002KT CAVOK 10/05 Q1010=
200910130115 METAR LIRA 130115Z 35007KT 290V050 CAVOK 10/05 Q1009=
200910130045 METAR LIRA 130045Z 33010KT 300V360 CAVOK 10/05 Q1009=
200910130015 METAR LIRA 130015Z 34013KT CAVOK 10/05 Q1009=
200910122350 METAR LIRA 130045Z 33010KT 300V360 CAVOK 10/05 Q1009=
200910122345 METAR LIRA 122345Z 34009KT 300V020 CAVOK 10/05 Q1009=
200910122315 METAR LIRA 122315Z 34012KT 300V010 CAVOK 11/04 Q1008=
200910122245 METAR LIRA 122245Z 34012KT 300V020 CAVOK 11/04 Q1008=
200910122215 METAR LIRA 122215Z 34013KT 300V020 CAVOK 11/04 Q1007=
200910122145 METAR LIRA 122145Z 33011KT 300V360 CAVOK 11/04 Q1007=
200910122115 METAR LIRA 122115Z 34011KT 300V010 CAVOK 11/04 Q1007=
200910122045 METAR LIRA 122045Z 36010KT 300V070 CAVOK 11/04 Q1006=
200910122015 METAR LIRA 122015Z 36010G23KT 310V040 CAVOK 11/04 Q1005=
200910121945 METAR LIRA 121945Z 34013KT 300V010 CAVOK 11/04 Q1005=
200910121915 METAR LIRA 121915Z 34016KT 300V010 CAVOK 11/04 Q1004=
200910121845 METAR LIRA 121845Z 35017KT 300V030 CAVOK 11/05 Q1003=
200910121815 METAR LIRA 121815Z 35020G31KT 300V030 9999 FEW017 11/06 Q1003=
200910121745 METAR LIRA 121745Z 34018KT 300V010 8000 FEW017 11/07 Q1002=
200910121715 METAR LIRA 121715Z 33014KT 290V020 8000 FEW017 11/09 Q1001=
200910121645 METAR LIRA 121645Z 35008KT 310V040 9999 FEW017 FEW020TCU
                        11/09 Q1001=
200910121615 METAR LIRA 121615Z 03007KT 320V090 6000 -RA FEW017 FEW018CB
                        SCT025 11/10 Q1001 WS RWY 33=
200910121545 METAR LIRA 121545Z 34013G32KT 300V040 6000 -RA FEW017 FEW018CB
                        BKN024 13/10 Q1000 WS RWY 33=
200910121515 METAR COR LIRA 121515Z 32020G36KT 220V320 7000 SCT017 FEW019CB
                        BKN023 20/16 Q0997=
200910121445 METAR LIRA 121445Z 23009KT 190V300 7000 FEW017 FEW020TCU
                        SCT023 20/16 Q0997=
200910121415 METAR LIRA 121415Z 22011KT 160V260 6000 FEW017 FEW020TCU
                        SCT022 20/17 Q0998 RERA=
200910121345 METAR LIRA 121345Z 21007KT 140V260 5000 BR FEW018 FEW020CB
                        SCT022 19/17 Q0999 RERA=
200910121315 METAR LIRA 121315Z 18009KT 150V240 3000 SHRA BR FEW018 FEW020CB
                        SCT022 18/15 Q1000=
200910121245 METAR LIRA 121245Z 19011KT 150V240 5000 -RA FEW018 FEW020CB
                        SCT022 19/15 Q1000=
200910121215 METAR LIRA 121215Z 20010KT 150V250 9999 FEW018 FEW020CB SCT024
                        20/13 Q1001=
200910121145 METAR LIRA 121145Z 20013G24KT 160V250 9999 SCT018 FEW020CB
                        SCT024 20/15 Q1001=
200910121115 METAR LIRA 121115Z 20011KT 150V250 9999 SCT018 FEW020CB SCT024
                        20/17 Q1002=
200910121045 METAR LIRA 121045Z 20007KT 160V270 8000 -RA FEW018 FEW020CB
                        SCT024 19/17 Q1003=
200910121015 METAR LIRA 121015Z 16010KT 120V210 6000 -RA FEW018 FEW020CB
                        BKN024 20/17 Q1004=
200910120945 METAR LIRA 120945Z 16012KT 120V210 9999 FEW018 FEW020CB BKN023
                        20/17 Q1004=
200910120915 METAR LIRA 120915Z 16014KT 120V210 9999 FEW018 FEW020TCU
                        SCT023 20/16 Q1005=
200910120845 METAR LIRA 120845Z 17013KT 120V210 9999 FEW018 FEW020TCU
                        SCT023 21/17 Q1006=
200910120815 METAR LIRA 120815Z 18011KT 120V210 9999 FEW018 SCT023 20/17
                        Q1006=
200910120745 METAR LIRA 120745Z 16009KT 130V200 9999 FEW018 20/16 Q1007=
200910120715 METAR LIRA 120715Z 17008KT 120V210 9999 FEW018 19/16 Q1007=
200910120645 METAR LIRA 120645Z 15006KT 9999 FEW018 18/15 Q1007=
200910120615 METAR LIRA 120615Z 14005KT 9999 FEW018 16/15 Q1007=
200910120545 METAR LIRA 120545Z 14003KT 9999 FEW020 15/13 Q1008=
200910120515 METAR LIRA 120515Z 11002KT 9999 FEW018 15/13 Q1008=
200910120445 METAR LIRA 120445Z 13003KT 9999 FEW018 15/13 Q1008=
200910120415 METAR LIRA 120415Z 08002KT 9999 FEW018 15/14 Q1009=
200910120345 METAR LIRA 120345Z 00000KT 9999 FEW018 SCT080 15/14 Q1010=
200910120315 METAR LIRA 120315Z 00000KT 9999 FEW030 SCT080 15/14 Q1010=
200910120245 METAR LIRA 120245Z 12002KT 9999 FEW080 15/14 Q1010=
200910120215 METAR LIRA 120215Z 11002KT 9999 FEW080 15/14 Q1010=
200910120145 METAR LIRA 120145Z 16003KT 9999 FEW018 16/15 Q1010=
200910120115 METAR LIRA 120115Z 12001KT 9999 FEW018 16/15 Q1011=
200910120045 METAR LIRA 120045Z 15002KT 9999 FEW018 16/15 Q1012=
200910120015 METAR LIRA 120015Z 00000KT 9999 FEW018 16/15 Q1012=
200910112350 METAR LIRA 120045Z 15002KT 9999 FEW018 16/15 Q1012=
200910112345 METAR LIRA 112345Z 15002KT 9999 FEW018 17/16 Q1012=
200910112315 METAR LIRA 112315Z 00000KT 9999 FEW018 17/15 Q1013=
200910112245 METAR LIRA 112245Z 00000KT 9999 FEW018 SCT080 17/16 Q1013=
200910112215 METAR LIRA 112215Z 00000KT 9999 FEW018 SCT080 17/16 Q1013=
200910112145 METAR LIRA 112145Z 13001KT 9999 FEW018 18/16 Q1013=
200910112115 METAR LIRA 112115Z 14003KT 9999 FEW018 18/16 Q1013=
200910112045 METAR LIRA 112045Z 14005KT 9999 FEW018 18/16 Q1013=
200910112015 METAR LIRA 112015Z 17004KT 9999 FEW018 18/16 Q1013=
200910111945 METAR LIRA 111945Z 14006KT 9999 FEW018 18/16 Q1013=
200910111915 METAR LIRA 111915Z 16002KT 9999 FEW018 18/16 Q1012=
200910111845 METAR LIRA 111845Z 17004KT 9999 FEW018 18/16 Q1012=
200910111815 METAR LIRA 111815Z 17004KT 9999 FEW018 18/16 Q1012=
200910111745 METAR LIRA 111745Z 19004KT 9999 FEW018 19/17 Q1012=
200910111715 METAR LIRA 111715Z 18003KT 9999 FEW017 FEW018TCU 19/17 Q1012=
200910111645 METAR LIRA 111645Z 20003KT 9999 FEW017 FEW018TCU 20/17 Q1012=
200910111615 METAR LIRA 111615Z 23004KT 9999 FEW017 FEW018TCU 21/17 Q1011=
200910111545 METAR LIRA 111545Z 23006KT 180V260 9999 FEW017 SCT018TCU
                        22/17 Q1011=
200910111515 METAR LIRA 111515Z 21004KT 160V260 9999 FEW017 SCT018TCU
                        22/17 Q1011=
200910111445 METAR LIRA 111445Z 21007KT 160V280 9999 SCT017 FEW018TCU
                        22/16 Q1011=
200910111415 METAR LIRA 111415Z 23006KT 180V270 9999 SCT017 FEW018TCU
                        23/16 Q1011=
200910111345 METAR LIRA 111345Z 22005KT 160V280 9999 SCT017 FEW018TCU
                        23/16 Q1012=
200910111315 METAR LIRA 111315Z 23005KT 160V270 9999 SCT017 FEW018TCU
                        23/17 Q1012=
200910111245 METAR LIRA 111245Z 25002KT 210V310 9999 SCT017 FEW018TCU
                        23/15 Q1012=
200910111215 METAR LIRA 111215Z 26005KT 200V300 9999 SCT017 FEW018TCU
                        23/14 Q1012=
200910111145 METAR LIRA 111145Z 24005KT 9999 SCT017 SCT018TCU 23/14 Q1013=
200910111115 METAR LIRA 111115Z 25003KT 9999 SCT017 SCT018TCU 22/15 Q1013=
200910111045 METAR LIRA 111045Z 22003KT 9999 FEW017 SCT018TCU 22/14 Q1013=
200910111015 METAR LIRA 111015Z 18001KT 9999 FEW018 22/13 Q1013=
200910110945 METAR LIRA 110945Z 20004KT 9999 FEW018 21/14 Q1013=
200910110915 METAR LIRA 110915Z 14003KT 9999 FEW018 21/14 Q1013=
200910110845 METAR LIRA 110845Z 02003KT 9999 FEW018 19/16 Q1013=
200910110815 METAR LIRA 110815Z 04002KT 9999 FEW018 18/15 Q1013=
200910110745 METAR LIRA 110745Z 01002KT 9999 FEW018 18/15 Q1012=
200910110715 METAR LIRA 110715Z 05004KT 9999 FEW018 17/16 Q1012=
200910110645 METAR LIRA 110645Z 07004KT 9999 FEW018 SCT070 17/15 Q1012=
200910110615 METAR LIRA 110615Z 10003KT 9999 FEW018 SCT060 15/14 Q1012=
200910110545 METAR LIRA 110545Z 09005KT 9999 FEW016 SCT060 15/14 Q1011=
200910110515 METAR LIRA 110515Z 10005KT 080V160 9999 -RA FEW016 FEW017CB
                        SCT030 16/14 Q1011 RETS=
200910110445 METAR LIRA 110445Z 07002KT 9999 -RA FEW016 FEW017CB BKN030
                        16/15 Q1012 RETS=
200910110415 METAR LIRA 110415Z 00000KT 9999 -TSRA FEW016 FEW017CB BKN030
                        16/15 Q1012=
200910110345 METAR LIRA 110345Z 12005KT 9000 -TSRA FEW016 FEW017CB BKN025
                        16/15 Q1012=
200910110315 METAR LIRA 110315Z 15007KT 130V200 8000 -TSRA FEW016 SCT017CB
                        17/16 Q1012=
200910110245 METAR LIRA 110245Z 18010KT 150V220 8000 -TSRA FEW016 SCT017CB
                        17/16 Q1012=
200910110215 METAR LIRA 110215Z 17011KT 8000 -TSRA SCT016 SCT017CB 16/15
                        Q1012 RETS=
200910110145 METAR LIRA 110145Z 13006KT 120V200 6000 -TSRA SCT016 SCT017CB
                        16/15 Q1013 RETS=
200910110115 METAR LIRA 110115Z 18007KT 160V220 4000 TSRA BR SCT016 SCT017CB
                        17/15 Q1013=
200910110045 METAR LIRA 110045Z 10004KT 9000 -TSRA FEW016 SCT017CB 17/16
                        Q1012=
200910110015 METAR LIRA 110015Z 15008KT 8000 -TSRA FEW016 SCT017CB 18/16
                        Q1012=
200910102350 METAR LIRA 110045Z 10004KT 9000 -TSRA FEW016 SCT017CB 17/16
                        Q1012=
200910102345 METAR LIRA 102345Z 16011KT 6000 -TSRA FEW016 SCT017CB 18/17
                        Q1012=
200910102315 METAR LIRA 102315Z 12003KT 9000 -TSRA SCT017CB SCT025 18/17
                        Q1012=
200910102245 METAR LIRA 102245Z 14004KT 9000 TS SCT017CB SCT025 18/17
                        Q1013=
200910102215 METAR LIRA 102215Z 17007KT 140V200 9000 TS SCT017CB SCT025
                        18/17 Q1013=
200910102145 METAR LIRA 102145Z 14005KT 100V170 9000 -TSRA FEW016 SCT017CB
                        19/16 Q1013 RETS=
200910102115 METAR LIRA 102115Z VRB08KT 6000 -TSRA FEW016 SCT017CB 18/14
                        Q1013 RETS=
200910102045 METAR LIRA 102045Z 33010KT 290V360 4000 +TSRA FEW016 BKN017CB
                        BKN020 17/15 Q1013=
200910102015 METAR LIRA 102015Z 01007KT 310V050 8000 -TSRA FEW016 SCT017CB
                        BKN025 19/17 Q1013 RETS=
200910101945 METAR LIRA 101945Z 26003KT 280V310 7000 TSRA FEW017 SCT018CB
                        19/18 Q1013=
200910101915 METAR LIRA 101915Z 15005KT 120V190 9999 TS FEW017 FEW018CB
                        SCT030 19/17 Q1013=
200910101845 METAR LIRA 101845Z 15007KT 120V180 9999 FEW020CB SCT025 20/18
                        Q1013=
200910101815 METAR LIRA 101815Z 16006KT 9999 FEW020CB SCT025 20/18 Q1013=
200910101745 METAR LIRA 101745Z 16007KT 9999 FEW020CB SCT070 20/18 Q1013=
200910101715 METAR LIRA 101715Z 18006KT 9999 FEW018 FEW020CB SCT070 20/18
                        Q1013=
200910101645 METAR LIRA 101645Z 19006KT 150V220 9999 FEW017 FEW020CB SCT070
                        20/18 Q1013=
200910101615 METAR COR LIRA 101615Z 19007KT 160V230 9999 FEW017 FEW020CB
                        SCT080 20/18 Q1013=
200910101545 METAR LIRA 101545Z 20008KT 160V240 9999 FEW018 FEW020TCU
                        21/17 Q1013=
200910101515 METAR LIRA 101515Z 20006KT 150V240 9999 FEW018 FEW020TCU
                        21/17 Q1013=
200910101445 METAR LIRA 101445Z 21008KT 160V260 9999 SCT018 FEW020TCU
                        22/17 Q1013=
200910101415 METAR LIRA 101415Z 20008KT 150V260 9999 BKN018 FEW020TCU
                        22/16 Q1013=
200910101345 METAR LIRA 101345Z 18007KT 150V220 9999 BKN018 FEW020TCU
                        23/15 Q1013=
200910101315 METAR LIRA 101315Z 17006KT 130V230 9999 BKN018 23/15 Q1013=
200910101245 METAR LIRA 101245Z 19006KT 120V240 9999 BKN018 23/15 Q1014=
200910101215 METAR LIRA 101215Z 20006KT 150V270 9999 BKN018 23/14 Q1013=
200910101145 METAR LIRA 101145Z 19007KT 150V250 9999 SCT018 23/15 Q1014=
200910101115 METAR LIRA 101115Z 19004KT 180V230 9999 SCT018 23/15 Q1015=
200910101045 METAR LIRA 101045Z 20005KT 160V220 9999 FEW018 23/16 Q1015=
200910101015 METAR LIRA 101015Z 19004KT 140V230 9999 FEW018 22/16 Q1015=
200910100945 METAR LIRA 100945Z 33003KT 9999 FEW018 SCT040 20/16 Q1015=
200910100915 METAR LIRA 100915Z 08002KT 9999 FEW018 SCT040 20/15 Q1015=
200910100845 METAR LIRA 100845Z 07002KT 9999 FEW018 18/15 Q1015=
200910100815 METAR LIRA 100815Z 06002KT 9999 FEW018 FEW020CB 16/15 Q1016=
200910100745 METAR LIRA 100745Z 09005KT 050V130 9999 -RA FEW018 FEW020CB
                        SCT040 15/13 Q1016 RETS=
200910100715 METAR LIRA 100715Z 08007KT 040V120 9999 -RA SCT018 FEW020CB
                        SCT030 15/13 Q1016 RETS=
200910100645 METAR LIRA 100645Z 06005KT 340V120 3000 TSRA SCT013 SCT016CB
                        BKN023 15/14 Q1016=
200910100615 METAR LIRA 100615Z 04008KT 330V080 6000 TSRA SCT013 SCT016CB
                        BKN023 16/13 Q1015=
200910100545 METAR LIRA 100545Z 32010G20KT 260V360 8000 -TSRA SCT015 SCT018CB
                        BKN025 17/13 Q1015=
200910100515 METAR LIRA 100515Z 15007KT 110V180 9999 TS FEW018 FEW020CB
                        SCT030 19/17 Q1015=
200910100445 METAR LIRA 100445Z 16008KT 9999 TS FEW018 FEW020CB SCT070
                        19/16 Q1015=
200910100415 METAR LIRA 100415Z 18005KT 150V220 9999 FEW018 FEW020CB SCT070
                        17/16 Q1015=
200910100345 METAR LIRA 100345Z 19004KT 9999 FEW018 FEW020CB SCT070 17/15
                        Q1015=
200910100315 METAR LIRA 100315Z 00000KT 9999 FEW020 SCT070 16/14 Q1015=
200910100245 METAR LIRA 100245Z 36002KT 9999 FEW020 SCT030 16/14 Q1015=
200910100215 METAR LIRA 100215Z 25004KT 9999 FEW020 SCT030 17/15 Q1015=
200910100145 METAR LIRA 100145Z 00000KT 9999 FEW020 SCT030 18/15 Q1015=
200910100115 METAR LIRA 100115Z 10003KT 9999 FEW020 SCT030 18/15 Q1016=
200910100045 METAR LIRA 100045Z 10005KT 9999 FEW020 SCT030 18/16 Q1016=
200910100015 METAR LIRA 100015Z 11004KT 9999 FEW020 SCT030 18/16 Q1017=
200910092350 METAR LIRA 100045Z 10005KT 9999 FEW020 SCT030 18/16 Q1016=
200910092345 METAR LIRA 092345Z 21004KT 9999 FEW030 BKN070 18/16 Q1017=
200910092315 METAR LIRA 092315Z 21002KT 9999 FEW030 SCT070 18/16 Q1017=
200910092245 METAR LIRA 092245Z 10001KT 9999 FEW030 SCT070 18/17 Q1017=
200910092215 METAR LIRA 092215Z 10004KT 9999 FEW030 SCT070 18/16 Q1017=
200910092145 METAR LIRA 092145Z 10006KT 9999 FEW030 SCT070 19/17 Q1017=
200910092115 METAR LIRA 092115Z 10005KT 9999 FEW030 SCT070 19/18 Q1017=
200910092045 METAR LIRA 092045Z 16003KT 9999 FEW030 SCT070 20/18 Q1018=
200910092015 METAR LIRA 092015Z 02003KT 9999 FEW030 SCT070 20/18 Q1017=
200910091945 METAR LIRA 091945Z 18004KT 9999 FEW030 BKN070 20/18 Q1017=
200910091915 METAR LIRA 091915Z 16005KT 140V200 9999 FEW070 20/18 Q1017=
200910091845 METAR LIRA 091845Z 16005KT 090V210 9999 FEW070 20/18 Q1017=
200910091815 METAR LIRA 091815Z 18005KT 9999 FEW070 20/18 Q1017=
200910091745 METAR LIRA 091745Z 20003KT 9999 FEW070 20/17 Q1016=
200910091715 METAR LIRA 091715Z 22004KT 9999 FEW070 20/17 Q1016=
200910091645 METAR LIRA 091645Z 22004KT 9999 FEW070 21/18 Q1016=
200910091615 METAR LIRA 091615Z 20005KT 9999 FEW070 22/17 Q1017=
200910091545 METAR LIRA 091545Z 21004KT 170V240 9999 FEW080 22/17 Q1017=
200910091515 METAR LIRA 091515Z 23008KT 200V280 9999 FEW080 23/17 Q1017=
200910091445 METAR LIRA 091445Z 24007KT 200V310 9999 FEW020 SCT080 24/18
                        Q1017=
200910091415 METAR LIRA 091415Z 22006KT 170V270 9999 FEW020 25/18 Q1017=
200910091345 METAR LIRA 091345Z 20005KT 120V240 9999 FEW020 25/17 Q1017=
200910091315 METAR LIRA 091315Z 19005KT 180V230 9999 FEW020 25/18 Q1017=
200910091245 METAR LIRA 091245Z 17006KT 120V250 9999 FEW020 SCT080 24/18
                        Q1017=
200910091215 METAR LIRA 091215Z 18009KT 140V230 9999 FEW020 SCT200 24/17
                        Q1017=
200910091145 METAR LIRA 091145Z 18009KT 130V210 9999 FEW020 SCT200 24/17
                        Q1018=
200910091115 METAR LIRA 091115Z 17009KT 140V220 9999 FEW018 25/18 Q1018=
200910091045 METAR LIRA 091045Z 19006KT 140V250 9999 SCT018 24/18 Q1018=
200910091015 METAR LIRA 091015Z 19007KT 120V260 9999 FEW018 23/17 Q1018=
200910090945 METAR LIRA 090945Z 19005KT 9000 FEW018 23/17 Q1018=
200910090915 METAR LIRA 090915Z 16004KT 150V220 8000 FEW020 23/18 Q1018=
200910090845 METAR LIRA 090845Z 33001KT 8000 FEW020 21/18 Q1018=
200910090815 METAR LIRA 090815Z 36002KT 7000 FEW080 20/17 Q1018=
200910090745 METAR LIRA 090745Z 32002KT 7000 FEW080 19/16 Q1018=
200910090715 METAR LIRA 090715Z 00000KT 7000 SCT080 18/15 Q1018=
200910090645 METAR LIRA 090645Z 09002KT 7000 FEW040 SCT080 17/15 Q1017=
200910090615 METAR LIRA 090615Z 08003KT 7000 FEW040 SCT080 15/15 Q1017=
200910090545 METAR LIRA 090545Z 07002KT 7000 FEW040 SCT080 15/14 Q1017=
200910090515 METAR LIRA 090515Z 06001KT 7000 FEW030 SCT080 15/14 Q1017=
200910090445 METAR LIRA 090445Z 02002KT 7000 FEW080 15/14 Q1017=
200910090415 METAR LIRA 090415Z 09001KT 8000 FEW080 15/14 Q1017=
200910090345 METAR LIRA 090345Z VRB01KT 8000 FEW080 SCT200 15/14 Q1017=
200910090315 METAR LIRA 090315Z 08001KT 9999 FEW080 SCT200 15/14 Q1017=
200910090245 METAR LIRA 090245Z 10003KT 9999 FEW080 SCT200 15/14 Q1017=
200910090215 METAR LIRA 090215Z 07002KT 9999 FEW080 15/15 Q1017=
200910090145 METAR LIRA 090145Z 04002KT 9999 FEW080 16/15 Q1017=
200910090115 METAR LIRA 090115Z 00000KT 9999 FEW080 16/15 Q1017=
200910090045 METAR LIRA 090045Z 00000KT 9999 FEW080 16/15 Q1017=
200910090015 METAR LIRA 090015Z 00000KT 9999 FEW080 16/15 Q1017=
200910082345 METAR LIRA 082345Z 09002KT 9999 FEW080 16/16 Q1017=
200910082315 METAR LIRA 082315Z 07003KT CAVOK 17/16 Q1018=
200910082245 METAR LIRA 082245Z 00000KT CAVOK 17/16 Q1018=
200910082215 METAR LIRA 082215Z 09003KT CAVOK 17/16 Q1018=
200910082145 METAR LIRA 082145Z 00000KT 9999 FEW030 SCT070 18/16 Q1018=
200910082115 METAR LIRA 082115Z 11002KT 8000 SCT025 SCT060 19/18 Q1018=
200910082045 METAR LIRA 082045Z 19002KT 9999 SCT030 SCT060 19/17 Q1018=
200910082015 METAR LIRA 082015Z 14004KT 9999 FEW035 SCT060 18/17 Q1018=
200910081945 METAR LIRA 081945Z 15004KT CAVOK 18/17 Q1018=
200910081915 METAR LIRA 081915Z 17002KT CAVOK 19/17 Q1018=
200910081845 METAR LIRA 081845Z 18002KT CAVOK 19/17 Q1018=
200910081815 METAR LIRA 081815Z 18002KT CAVOK 19/17 Q1017=
200910081745 METAR LIRA 081745Z 21003KT CAVOK 20/17 Q1018=
200910081715 METAR LIRA 081715Z 22003KT CAVOK 20/18 Q1018=
200910081645 METAR LIRA 081645Z 23003KT 9999 FEW020 21/18 Q1017=
200910081615 METAR LIRA 081615Z 23004KT 9999 FEW020 22/18 Q1017=
200910081545 METAR LIRA 081545Z 22005KT 160V260 9999 FEW020 23/18 Q1018=
200910081515 METAR LIRA 081515Z 23004KT 9999 FEW020 24/16 Q1018=
200910081445 METAR LIRA 081445Z 20005KT 150V270 9999 SCT020 24/18 Q1018=
200910081415 METAR LIRA 081415Z 20005KT 160V250 9999 SCT020 24/18 Q1018=
200910081345 METAR LIRA 081345Z 23007KT 200V280 9999 SCT022 24/18 Q1018=
200910081315 METAR LIRA 081315Z 22005KT 180V290 9999 SCT022 24/18 Q1018=
200910081245 METAR LIRA 081245Z 22005KT 160V280 9999 SCT022 25/18 Q1018=
200910081215 METAR LIRA 081215Z 21005KT 170V270 9999 SCT022 25/18 Q1018=
200910081145 METAR LIRA 081145Z 22005KT 180V280 9999 FEW022 26/17 Q1019=
200910081115 METAR LIRA 081115Z 20004KT 9999 FEW022 25/15 Q1019=
200910081045 METAR LIRA 081045Z 17005KT 9999 FEW022 25/16 Q1019=
200910081015 METAR LIRA 081015Z 21002KT CAVOK 24/17 Q1019=
200910080945 METAR LIRA 080945Z 21002KT CAVOK 24/17 Q1019=
200910080915 METAR LIRA 080915Z 27003KT CAVOK 22/16 Q1019=
200910080845 METAR LIRA 080845Z 24002KT 9000 NSC 21/16 Q1019=
200910080815 METAR LIRA 080815Z 30001KT 8000 NSC 20/16 Q1019=
200910080745 METAR LIRA 080745Z 34002KT 8000 SKC 19/16 Q1019=
200910080715 METAR LIRA 080715Z 36002KT 8000 SKC 17/15 Q1019=
200910080645 METAR LIRA 080645Z 01002KT 8000 SKC 17/15 Q1019=
200910080615 METAR LIRA 080615Z 04002KT 8000 SKC 15/14 Q1019=
200910080545 METAR LIRA 080545Z 08002KT 8000 SKC 15/14 Q1019=
200910080515 METAR LIRA 080515Z 00000KT 8000 FEW070 14/13 Q1019=
200910080445 METAR LIRA 080445Z 06002KT 8000 FEW070 14/13 Q1019=
200910080415 METAR LIRA 080415Z 09003KT 8000 FEW030 15/14 Q1019=
200910080345 METAR LIRA 080345Z 14002KT 8000 SCT030 16/15 Q1019=
200910080315 METAR LIRA 080315Z 12003KT 8000 BKN030 16/15 Q1019=
200910080245 METAR LIRA 080245Z 00000KT 7000 SCT013 SCT030 16/14 Q1019=
200910080215 METAR LIRA 080215Z 11002KT 9999 SCT013 SCT025 16/13 Q1019=
200910080145 METAR LIRA 080145Z 11002KT 9999 FEW030 SCT100 16/13 Q1019=
200910080115 METAR LIRA 080115Z 13002KT CAVOK 16/12 Q1020=
200910080045 METAR LIRA 080045Z 11002KT CAVOK 16/13 Q1020=
200910080015 METAR LIRA 080015Z 13002KT CAVOK 16/13 Q1020=
200910072350 METAR LIRA 080045Z 11002KT CAVOK 16/13 Q1020=
200910072345 METAR LIRA 072345Z 15003KT CAVOK 17/13 Q1020=
200910072315 METAR LIRA 072315Z 15003KT CAVOK 17/14 Q1020=
200910072245 METAR LIRA 072245Z 12002KT CAVOK 17/15 Q1021=
200910072215 METAR LIRA 072215Z 15002KT CAVOK 17/15 Q1021=
200910072145 METAR LIRA 072145Z 15002KT CAVOK 17/15 Q1021=
200910072115 METAR LIRA 072115Z 14002KT CAVOK 18/15 Q1021=
200910072045 METAR LIRA 072045Z 14002KT CAVOK 18/15 Q1021=
200910072015 METAR LIRA 072015Z 13002KT CAVOK 18/16 Q1021=
200910071945 METAR LIRA 071945Z 10002KT CAVOK 18/16 Q1021=
200910071915 METAR LIRA 071915Z 00000KT CAVOK 19/16 Q1021=
200910071845 METAR LIRA 071845Z 00000KT CAVOK 19/17 Q1021=
200910071815 METAR LIRA 071815Z 19001KT CAVOK 20/17 Q1021=
200910071745 METAR LIRA 071745Z 21002KT CAVOK 20/17 Q1021=
200910071715 METAR LIRA 071715Z 24003KT CAVOK 20/16 Q1021=
200910071645 METAR LIRA 071645Z 26003KT CAVOK 22/16 Q1021=
200910071615 METAR LIRA 071615Z 27005KT 200V300 CAVOK 22/15 Q1020=
200910071545 METAR LIRA 071545Z 25005KT 210V300 CAVOK 24/13 Q1021=
200910071515 METAR LIRA 071515Z 27007KT 220V320 CAVOK 25/13 Q1021=
200910071445 METAR LIRA 071445Z 27008KT 210V310 CAVOK 25/13 Q1021=
200910071415 METAR LIRA 071415Z 26006KT 200V330 CAVOK 26/14 Q1021=
200910071345 METAR LIRA 071345Z 23006KT 210V300 CAVOK 25/13 Q1021=
200910071315 METAR LIRA 071315Z 33003KT CAVOK 26/12 Q1021=
200910071245 METAR LIRA 071245Z 31003KT CAVOK 26/13 Q1022=
200910071215 METAR LIRA 071215Z 26005KT 210V310 CAVOK 25/13 Q1022=
200910071145 METAR LIRA 071145Z 30005KT 240V330 9999 FEW020 25/14 Q1022=
200910071115 METAR LIRA 071115Z 28003KT 9999 FEW020 25/14 Q1023=
200910071045 METAR LIRA 071045Z 35004KT 9999 FEW020 24/14 Q1023=
200910071015 METAR LIRA 071015Z 28002KT CAVOK 23/15 Q1023=
200910070945 METAR LIRA 070945Z 31004KT CAVOK 22/14 Q1023=
200910070915 METAR LIRA 070915Z 34003KT CAVOK 22/14 Q1023=
200910070845 METAR LIRA 070845Z 03003KT CAVOK 20/14 Q1023=
200910070815 METAR LIRA 070815Z 36003KT CAVOK 19/14 Q1023=
200910070745 METAR LIRA 070745Z 01001KT CAVOK 18/15 Q1023=
200910070715 METAR LIRA 070715Z 03003KT CAVOK 17/14 Q1023=
200910070645 METAR LIRA 070645Z 03002KT CAVOK 16/15 Q1022=
200910070615 METAR LIRA 070615Z 03002KT CAVOK 15/14 Q1022=
200910070545 METAR LIRA 070545Z 02002KT CAVOK 14/13 Q1022=
200910070515 METAR LIRA 070515Z 06003KT CAVOK 14/13 Q1022=
200910070445 METAR LIRA 070445Z 04002KT CAVOK 14/13 Q1022=
200910070415 METAR LIRA 070415Z 02002KT CAVOK 14/13 Q1022=
200910070345 METAR LIRA 070345Z 04002KT CAVOK 14/13 Q1023=
200910070315 METAR LIRA 070315Z 03002KT CAVOK 14/13 Q1023=
200910070245 METAR LIRA 070245Z 03002KT CAVOK 15/14 Q1023=
200910070215 METAR LIRA 070215Z 03002KT CAVOK 15/15 Q1023=
200910070145 METAR LIRA 070145Z 00000KT CAVOK 16/15 Q1023=
200910070115 METAR LIRA 070115Z 00000KT CAVOK 16/15 Q1023=
200910070045 METAR LIRA 070045Z 00000KT CAVOK 16/14 Q1023=
200910070015 METAR LIRA 070015Z 16001KT CAVOK 16/14 Q1023=
200910062350 METAR LIRA 070045Z 00000KT CAVOK 16/14 Q1023=
200910062345 METAR LIRA 062345Z 11001KT CAVOK 17/14 Q1023=
200910062315 METAR LIRA 062315Z 14001KT CAVOK 16/14 Q1023=
200910062245 METAR LIRA 062245Z 10004KT CAVOK 16/14 Q1023=
200910062215 METAR LIRA 062215Z 10004KT CAVOK 17/15 Q1023=
200910062145 METAR LIRA 062145Z 15003KT CAVOK 17/16 Q1023=
200910062115 METAR LIRA 062115Z 17002KT CAVOK 18/16 Q1023=
200910062045 METAR LIRA 062045Z 10001KT CAVOK 18/16 Q1023=
200910062015 METAR LIRA 062015Z 15002KT CAVOK 18/16 Q1023=
200910061945 METAR LIRA 061945Z 09001KT CAVOK 18/16 Q1023=
200910061915 METAR LIRA 061915Z 15002KT CAVOK 19/16 Q1023=
200910061845 METAR LIRA 061845Z 14001KT CAVOK 19/17 Q1023=
200910061815 METAR LIRA 061815Z 16003KT CAVOK 19/17 Q1023=
200910061745 METAR LIRA 061745Z 21002KT CAVOK 20/16 Q1023=
200910061715 METAR LIRA 061715Z 21002KT 9999 FEW040 20/16 Q1023=
200910061645 METAR LIRA 061645Z 25002KT 9999 FEW040 21/16 Q1023=
200910061615 METAR LIRA 061615Z 26005KT 9999 FEW040 BKN200 22/16 Q1023=
200910061545 METAR LIRA 061545Z 25006KT 180V310 9999 FEW020 23/16 Q1022=
200910061515 METAR LIRA 061515Z 28005KT 180V300 9999 FEW020 23/15 Q1022=
200910061445 METAR LIRA 061445Z 27007KT 210V320 9999 FEW020 24/16 Q1022=
200910061415 METAR LIRA 061415Z 27006KT 200V320 9999 SCT018 24/15 Q1022=
200910061345 METAR LIRA 061345Z 28006KT 220V310 9999 SCT018 24/16 Q1023=
200910061315 METAR LIRA 061315Z 27002KT 9999 SCT018 24/13 Q1023=
200910061245 METAR LIRA 061245Z 21002KT 9999 SCT018 25/13 Q1023=
200910061215 METAR COR LIRA 061215Z 13001KT 9999 SCT018 25/13 Q1023=
200910061145 METAR LIRA 061145Z 25005KT 200V300 9999 SCT018 24/14 Q1024=
200910061115 METAR LIRA 061115Z 26005KT 200V280 9999 SCT018 24/14 Q1024=
200910061045 METAR LIRA 061045Z 36005KT 240V010 9999 SCT018 23/15 Q1024=
200910061015 METAR LIRA 061015Z 00000KT 9999 SCT020 22/14 Q1024=
200910060945 METAR LIRA 060945Z 00000KT 9999 SCT018 22/15 Q1024=
200910060915 METAR LIRA 060915Z 30003KT 9999 FEW020 22/15 Q1024=
200910060845 METAR LIRA 060845Z 03002KT 9999 FEW020 21/15 Q1024=
200910060815 METAR LIRA 060815Z 03003KT 9999 FEW020 19/15 Q1024=
200910060745 METAR LIRA 060745Z 01003KT CAVOK 18/15 Q1024=
200910060715 METAR LIRA 060715Z 03002KT CAVOK 17/15 Q1024=
200910060645 METAR LIRA 060645Z 02002KT CAVOK 16/14 Q1023=
200910060615 METAR LIRA 060615Z 05003KT CAVOK 15/13 Q1023=
200910060545 METAR LIRA 060545Z 06003KT CAVOK 14/12 Q1023=
200910060515 METAR LIRA 060515Z 08002KT CAVOK 14/12 Q1023=
200910060445 METAR LIRA 060445Z 08003KT CAVOK 14/12 Q1023=
200910060415 METAR LIRA 060415Z 07002KT CAVOK 15/12 Q1023=
200910060345 METAR LIRA 060345Z 08002KT CAVOK 15/12 Q1023=
200910060315 METAR LIRA 060315Z 00000KT CAVOK 15/13 Q1023=
200910060245 METAR LIRA 060245Z 06002KT CAVOK 15/13 Q1023=
200910060215 METAR LIRA 060215Z 09002KT CAVOK 15/14 Q1023=
200910060145 METAR LIRA 060145Z 10003KT CAVOK 15/13 Q1023=
200910060115 METAR LIRA 060115Z 11003KT CAVOK 15/13 Q1023=
200910060045 METAR LIRA 060045Z 10002KT CAVOK 16/14 Q1023=
200910060015 METAR LIRA 060015Z 11003KT CAVOK 16/14 Q1023=
200910052350 METAR LIRA 060045Z 10002KT CAVOK 16/14 Q1023=
200910052345 METAR LIRA 052345Z 11002KT CAVOK 16/14 Q1023=
200910052315 METAR LIRA 052315Z 00000KT CAVOK 16/14 Q1023=
200910052245 METAR LIRA 052245Z 14002KT CAVOK 16/13 Q1023=
200910052215 METAR LIRA 052215Z 14002KT CAVOK 16/14 Q1023=
200910052145 METAR LIRA 052145Z 12002KT CAVOK 16/14 Q1023=
200910052115 METAR LIRA 052115Z 00000KT CAVOK 17/15 Q1023=
200910052045 METAR LIRA 052045Z 10004KT CAVOK 17/15 Q1023=
200910052015 METAR LIRA 052015Z 10005KT CAVOK 17/16 Q1023=
200910051945 METAR LIRA 051945Z 00000KT CAVOK 18/16 Q1022=
200910051915 METAR LIRA 051915Z 18002KT 9999 FEW020 19/16 Q1022=
200910051845 METAR LIRA 051845Z 17002KT 9999 FEW020 19/16 Q1022=
200910051815 METAR LIRA 051815Z 19003KT 9999 FEW020 19/16 Q1022=
200910051745 METAR LIRA 051745Z 22003KT 9999 FEW020 19/16 Q1022=
200910051715 METAR LIRA 051715Z 23004KT 9999 FEW020 20/15 Q1021=
200910051645 METAR LIRA 051645Z 22004KT 9999 FEW020 21/15 Q1021=
200910051615 METAR LIRA 051615Z 23006KT 200V280 9999 FEW020 22/15 Q1022=
200910051545 METAR LIRA 051545Z 23006KT 170V290 9999 FEW020 22/13 Q1022=
200910051515 METAR LIRA 051515Z 23007KT 160V280 9999 FEW020 FEW022CB 23/13
                        Q1022=
200910051445 METAR LIRA 051445Z 21006KT 140V250 9999 FEW020 FEW022CB 24/14
                        Q1021=
200910051415 METAR LIRA 051415Z 22006KT 150V270 9999 FEW020 24/13 Q1021=
200910051345 METAR LIRA 051345Z 23007KT 120V270 9999 FEW020 24/14 Q1021=
200910051315 METAR LIRA 051315Z 22007KT 9999 SCT020 24/13 Q1021=
200910051245 METAR LIRA 051245Z 21006KT 150V250 9999 SCT020 24/13 Q1022=
200910051215 METAR LIRA 051215Z 20005KT 150V250 9999 SCT020 25/14 Q1022=
200910051145 METAR LIRA 051145Z 21006KT 150V250 9999 SCT020 24/14 Q1022=
200910051115 METAR LIRA 051115Z 18008KT 120V240 9999 SCT020 24/14 Q1022=
200910051045 METAR LIRA 051045Z 20006KT 140V250 9999 BKN020 24/13 Q1022=
200910051015 METAR LIRA 051015Z 18007KT 140V240 9999 BKN020 23/14 Q1022=
200910050945 METAR LIRA 050945Z 19006KT 140V240 9999 SCT020 23/15 Q1022=
200910050915 METAR LIRA 050915Z 22006KT 170V250 9999 FEW020 SCT080 22/15
                        Q1022=
200910050845 METAR LIRA 050845Z 17004KT 150V220 9999 FEW020 SCT070 22/17
                        Q1021=
200910050815 METAR LIRA 050815Z 36003KT 9999 FEW020 SCT070 21/16 Q1021=
200910050745 METAR LIRA 050745Z 01002KT 9999 FEW020 SCT070 19/16 Q1021=
200910050715 METAR LIRA 050715Z 03002KT 9999 FEW020 SCT040 17/15 Q1021=
200910050645 METAR LIRA 050645Z 02002KT 9999 FEW020 SCT040 17/16 Q1020=
200910050615 METAR LIRA 050615Z 03002KT 9999 FEW020 SCT040 17/15 Q1020=
200910050545 METAR LIRA 050545Z 04003KT 9999 FEW020 SCT040 17/15 Q1019=
200910050515 METAR LIRA 050515Z 06002KT 9999 FEW020 SCT040 17/15 Q1019=
200910050445 METAR LIRA 050445Z 07003KT 9999 FEW020 SCT070 16/14 Q1019=
200910050415 METAR LIRA 050415Z 08002KT 9999 SCT070 16/14 Q1019=
200910050345 METAR LIRA 050345Z 18001KT 9999 FEW070 15/13 Q1018=
200910050315 METAR LIRA 050315Z 18001KT 9999 FEW070 15/13 Q1018=
200910050245 METAR LIRA 050245Z 19001KT 9999 FEW070 15/14 Q1018=
200910050215 METAR LIRA 050215Z 11003KT 9999 FEW070 16/14 Q1018=
200910050145 METAR LIRA 050145Z 09001KT 9999 FEW070 16/15 Q1018=
200910050115 METAR LIRA 050115Z 10002KT 9999 FEW070 16/15 Q1019=
200910050045 METAR LIRA 050045Z 08002KT 9999 FEW070 16/15 Q1019=
200910050015 METAR LIRA 050015Z 09004KT 9999 FEW070 16/15 Q1018=
200910042350 METAR LIRA 050045Z 08002KT 9999 FEW070 16/15 Q1019=
200910042345 METAR LIRA 042345Z 10004KT 9999 FEW070 17/14 Q1018=
200910042315 METAR LIRA 042315Z 12002KT 9999 FEW070 17/15 Q1018=
200910042245 METAR LIRA 042245Z 11003KT 9999 FEW070 17/15 Q1018=
200910042215 METAR LIRA 042215Z 11002KT 9999 FEW070 18/16 Q1018=
200910042145 METAR LIRA 042145Z 10004KT 9999 FEW070 18/16 Q1018=
200910042115 METAR LIRA 042115Z 11002KT 9999 FEW070 18/17 Q1018=
200910042045 METAR LIRA 042045Z 12002KT 9999 FEW070 19/17 Q1018=
200910042015 METAR LIRA 042015Z 13001KT 9999 FEW018 19/17 Q1018=
200910041945 METAR LIRA 041945Z 12002KT 9999 FEW018 19/17 Q1018=
200910041915 METAR LIRA 041915Z 17002KT 9999 FEW018 20/18 Q1017=
200910041845 METAR LIRA 041845Z 17002KT 9999 FEW018 20/18 Q1017=
200910041815 METAR LIRA 041815Z 19002KT 9999 FEW070 21/19 Q1017=
200910041745 METAR LIRA 041745Z 22003KT 9999 FEW070 21/18 Q1017=
200910041715 METAR LIRA 041715Z 23003KT 9999 FEW070 21/18 Q1017=
200910041645 METAR LIRA 041645Z 25002KT 9999 FEW070 22/17 Q1017=
200910041615 METAR LIRA 041615Z 24005KT 190V260 9999 FEW070 23/17 Q1017=
200910041545 METAR LIRA 041545Z 26006KT 200V300 CAVOK 24/12 Q1016=
200910041515 METAR LIRA 041515Z 25006KT 200V300 9999 FEW020 24/09 Q1016=
200910041445 METAR LIRA 041445Z 27006KT 210V330 9999 FEW020 25/10 Q1016=
200910041415 METAR LIRA 041415Z 26007KT 180V310 9999 FEW020 25/09 Q1016=
200910041345 METAR LIRA 041345Z 27006KT 210V310 9999 FEW018 26/09 Q1016=
200910041315 METAR LIRA 041315Z 29005KT 240V330 9999 FEW018 25/10 Q1016=
200910041245 METAR LIRA 041245Z 30005KT 210V330 9999 FEW018 25/10 Q1017=
200910041215 METAR LIRA 041215Z 32004KT 290V010 9999 FEW018 25/10 Q1017=
200910041145 METAR LIRA 041145Z 33004KT 270V360 9999 FEW018 25/10 Q1017=
200910041115 METAR LIRA 041115Z 33005KT 280V030 9999 FEW018 25/09 Q1017=
200910041045 METAR LIRA 041045Z 28004KT 9999 FEW018 25/13 Q1017=
200910041015 METAR LIRA 041015Z 24003KT 9999 FEW018 24/13 Q1017=
200910040945 METAR LIRA 040945Z 27003KT 9999 FEW018 23/16 Q1017=
200910040915 METAR LIRA 040915Z 24004KT 9999 FEW018 21/15 Q1017=
200910040845 METAR LIRA 040845Z 33001KT 9999 FEW018 20/14 Q1017=
200910040815 METAR LIRA 040815Z 01003KT 9999 FEW018 19/14 Q1017=
200910040745 METAR LIRA 040745Z 02003KT 9999 FEW018 17/14 Q1017=
200910040715 METAR LIRA 040715Z 02003KT CAVOK 16/13 Q1016=
200910040645 METAR LIRA 040645Z 05003KT CAVOK 15/12 Q1016=
200910040615 METAR LIRA 040615Z 04002KT CAVOK 14/11 Q1016=
200910040545 METAR LIRA 040545Z 31004KT CAVOK 13/11 Q1015=
200910040515 METAR LIRA 040515Z 05002KT 9999 FEW018 13/11 Q1015=
200910040445 METAR LIRA 040445Z 06003KT CAVOK 13/11 Q1015=
200910040415 METAR LIRA 040415Z 35002KT CAVOK 13/12 Q1015=
200910040345 METAR LIRA 040345Z 03002KT CAVOK 14/12 Q1015=
200910040315 METAR LIRA 040315Z 01001KT CAVOK 14/13 Q1015=
200910040245 METAR LIRA 040245Z 02002KT CAVOK 15/13 Q1015=
200910040215 METAR LIRA 040215Z 05003KT CAVOK 15/13 Q1015=
200910040145 METAR LIRA 040145Z 02002KT CAVOK 15/14 Q1015=
200910040115 METAR LIRA 040115Z 01002KT CAVOK 15/14 Q1015=
200910040045 METAR LIRA 040045Z 34003KT CAVOK 15/15 Q1015=
200910040015 METAR LIRA 040015Z 04001KT CAVOK 16/15 Q1015=
200910032345 METAR LIRA 032345Z 00000KT CAVOK 16/15 Q1015=
200910032315 METAR LIRA 032315Z 00000KT CAVOK 16/15 Q1015=
200910032245 METAR LIRA 032245Z 00000KT CAVOK 17/16 Q1015=
200910032215 METAR LIRA 032215Z 00000KT CAVOK 17/16 Q1015=
200910032145 METAR LIRA 032145Z 00000KT CAVOK 17/16 Q1015=
200910032115 METAR LIRA 032115Z 16002KT CAVOK 18/16 Q1015=
200910032045 METAR LIRA 032045Z 14006KT 9999 FEW030 18/16 Q1014=
200910032015 METAR LIRA 032015Z 15004KT 9999 FEW060 18/15 Q1014=
200910031945 METAR LIRA 031945Z 14002KT 9999 FEW060 20/15 Q1014=
200910031915 METAR LIRA 031915Z 17005KT 9999 FEW030 20/15 Q1014=
200910031845 METAR LIRA 031845Z 17005KT CAVOK 20/15 Q1014=
200910031815 METAR LIRA 031815Z 18004KT 9999 FEW030 20/16 Q1013=
200910031745 METAR LIRA 031745Z 18005KT 9999 FEW020TCU 21/18 Q1013=
200910031715 METAR LIRA 031715Z 19005KT 170V230 9999 VCTS FEW017 FEW020CB
                        21/19 Q1013=
200910031645 METAR LIRA 031645Z 22005KT 180V260 9999 FEW017 FEW020CB 22/19
                        Q1013=
200910031615 METAR LIRA 031615Z 21004KT 9999 FEW017 FEW020CB 23/18 Q1013=
200910031545 METAR LIRA 031545Z 23007KT 190V260 9999 FEW018 FEW020CB 24/18
                        Q1012=
200910031515 METAR LIRA 031515Z 23008KT 190V300 9999 FEW018 FEW020CB 24/18
                        Q1012=
200910031445 METAR LIRA 031445Z 23007KT 160V270 9999 FEW020 SCT030 24/17
                        Q1012=
200910031415 METAR LIRA 031415Z 23007KT 180V280 9999 FEW020 SCT030 25/16
                        Q1012=
200910031345 METAR LIRA 031345Z 22008KT 170V260 9999 FEW020 SCT030 24/16
                        Q1012=
200910031315 METAR LIRA 031315Z 28005KT 9999 FEW020 SCT030 26/10 Q1012=
200910031245 METAR LIRA 031245Z 31002KT 9999 FEW020 SCT030 26/10 Q1012=
200910031215 METAR LIRA 031215Z 21006KT 9999 SCT020 26/11 Q1012=
200910031145 METAR LIRA 031145Z 22006KT 9999 SCT022 26/11 Q1012=
200910031115 METAR LIRA 031115Z 13003KT 9999 SCT022 25/12 Q1012=
200910031045 METAR LIRA 031045Z 20001KT 9999 FEW022 25/11 Q1012=
200910031015 METAR LIRA 031015Z 28002KT 9999 FEW022 24/12 Q1012=
200910030945 METAR LIRA 030945Z 33003KT 330V100 9999 FEW022 23/12 Q1012=
200910030915 METAR LIRA 030915Z 36005KT 310V030 9999 FEW022 22/12 Q1012=
200910030845 METAR LIRA 030845Z 02005KT 320V100 CAVOK 21/12 Q1012=
200910030815 METAR LIRA 030815Z 01006KT 330V060 CAVOK 20/13 Q1011=
200910030745 METAR LIRA 030745Z 03008KT 340V070 CAVOK 19/13 Q1011=
200910030715 METAR LIRA 030715Z 04007KT 350V080 CAVOK 18/13 Q1011=
200910030645 METAR LIRA 030645Z 04006KT 360V080 CAVOK 18/13 Q1011=
200910030615 METAR LIRA 030615Z 03004KT 9999 FEW070 17/13 Q1010=
200910030545 METAR LIRA 030545Z 03004KT CAVOK 16/13 Q1010=
200910030515 METAR LIRA 030515Z 04006KT 340V090 CAVOK 15/13 Q1009=
200910030445 METAR LIRA 030445Z 04006KT 010V070 CAVOK 15/13 Q1009=
200910030415 METAR LIRA 030415Z 04005KT CAVOK 15/14 Q1009=
200910030345 METAR LIRA 030345Z 04005KT CAVOK 15/13 Q1009=
200910030315 METAR LIRA 030315Z 04003KT CAVOK 15/13 Q1009=
200910030245 METAR LIRA 030245Z 04004KT CAVOK 16/14 Q1009=
200910030215 METAR LIRA 030215Z 06006KT 020V090 CAVOK 16/14 Q1009=
200910030145 METAR LIRA 030145Z 05004KT CAVOK 16/15 Q1009=
200910030115 METAR LIRA 030115Z 05005KT CAVOK 16/15 Q1009=
200910030045 METAR LIRA 030045Z 02005KT CAVOK 17/16 Q1009=
200910030015 METAR LIRA 030015Z 04005KT CAVOK 17/16 Q1009=
200910022350 METAR LIRA 030045Z 02005KT CAVOK 17/16 Q1009=
200910022345 METAR LIRA 022345Z 02004KT CAVOK 17/15 Q1009=
200910022315 METAR LIRA 022315Z 04004KT CAVOK 17/15 Q1008=
200910022245 METAR LIRA 022245Z 05002KT CAVOK 17/16 Q1008=
200910022215 METAR LIRA 022215Z 31002KT CAVOK 17/16 Q1008=
200910022145 METAR LIRA 022145Z 04004KT 9999 FEW030 18/17 Q1008=
200910022115 METAR LIRA 022115Z 35003KT 9999 FEW030 18/16 Q1008=
200910022045 METAR LIRA 022045Z 04003KT 9999 FEW030 19/16 Q1008=
200910022015 METAR LIRA 022015Z 03002KT 9999 FEW020TCU SCT060 19/16 Q1008=
200910021945 METAR LIRA 021945Z 05002KT 9999 VCTS FEW020CB SCT060 19/16
                        Q1008=
200910021915 METAR LIRA 021915Z 11005KT 9999 VCTS FEW020CB 20/16 Q1007=
200910021845 METAR LIRA 021845Z 11008KT 9999 VCTS FEW017 FEW020CB SCT030
                        20/16 Q1007=
200910021815 METAR LIRA 021815Z 11007KT 040V130 9999 VCTS FEW017 FEW020CB
                        SCT030 21/14 Q1007=
200910021745 METAR LIRA 021745Z 05012KT 9999 TS FEW017 FEW020CB SCT025
                        22/17 Q1007=
200910021715 METAR LIRA 021715Z 21004KT 7000 TS FEW020CB 23/19 Q1006=
200910021645 METAR LIRA 021645Z 25004KT 200V290 7000 FEW020TCU 23/18 Q1006=
200910021615 METAR LIRA 021615Z 25005KT 220V300 7000 FEW020TCU 24/18 Q1006=
200910021545 METAR LIRA 021545Z 25005KT 180V290 9000 FEW025 24/16 Q1006=
200910021515 METAR LIRA 021515Z 22007KT 180V270 9000 FEW025 24/17 Q1006=
200910021445 METAR LIRA 021445Z 23004KT 8000 FEW025 25/16 Q1006=
200910021415 METAR LIRA 021415Z 25004KT 240V310 8000 FEW020 BKN080 25/16
                        Q1006=
200910021345 METAR LIRA 021345Z 34002KT 9000 FEW020 BKN080 25/16 Q1006=
200910021315 METAR LIRA 021315Z 12002KT 9000 FEW020 BKN080 25/16 Q1007=
200910021245 METAR LIRA 021245Z 24002KT 8000 FEW020 SCT080 25/16 Q1007=
200910021215 METAR LIRA 021215Z 24004KT 8000 FEW020 SCT080 24/16 Q1008=
200910021145 METAR LIRA 021145Z 34002KT 6000 FEW025 BKN080 23/17 Q1008=
200910021115 METAR LIRA 021115Z 28002KT 6000 SCT030 BKN080 23/17 Q1008=
200910021045 METAR LIRA 021045Z 31003KT 5000 BR FEW030 BKN080 22/17 Q1009=
200910021015 METAR LIRA 021015Z 34003KT 5000 BR FEW030 BKN070 22/18 Q1009=
200910020945 METAR LIRA 020945Z 07004KT 5000 BR FEW030 BKN070 21/18 Q1009=
200910020915 METAR LIRA 020915Z 04003KT 5000 BR FEW030 BKN070 21/17 Q1009=
200910020845 METAR LIRA 020845Z 03005KT 5000 BR FEW030 BKN070 20/17 Q1009=
200910020815 METAR LIRA 020815Z 01004KT 5000 BR FEW030 BKN070 20/16 Q1009=
200910020745 METAR LIRA 020745Z 03003KT 5000 BR FEW030 BKN070 20/17 Q1008=
200910020715 METAR LIRA 020715Z 01003KT 5000 BR FEW030 BKN070 19/17 Q1008=
200910020645 METAR LIRA 020645Z 36004KT 6000 FEW030 BKN080 19/17 Q1008=
200910020615 METAR LIRA 020615Z 36003KT 6000 FEW030 BKN080 19/17 Q1008=
200910020545 METAR LIRA 020545Z 01002KT 6000 FEW030 BKN080 19/18 Q1008=
200910020515 METAR LIRA 020515Z 02005KT 6000 FEW030 BKN080 19/18 Q1008=
200910020445 METAR LIRA 020445Z 36003KT 7000 FEW030 SCT070 19/18 Q1009=
200910020415 METAR LIRA 020415Z 36001KT 7000 FEW030 SCT070 19/18 Q1009=
200910020345 METAR LIRA 020345Z 35002KT 7000 FEW030 SCT070 19/18 Q1009=
200910020315 METAR LIRA 020315Z 01002KT 7000 FEW018 BKN080 19/18 Q1009=
200910020245 METAR LIRA 020245Z 01002KT 7000 FEW018 BKN080 19/17 Q1010=
200910020215 METAR LIRA 020215Z 01002KT 7000 FEW018 BKN080 19/17 Q1010=
200910020145 METAR LIRA 020145Z 01002KT 7000 FEW018 BKN080 19/17 Q1010=
200910020115 METAR LIRA 020115Z 03002KT 7000 FEW018 BKN080 19/17 Q1010=
200910020045 METAR LIRA 020045Z 01003KT 9000 FEW018 BKN080 19/18 Q1011=
200910020015 METAR LIRA 020015Z 00000KT 9000 FEW018 BKN080 19/18 Q1011=
200910012350 METAR LIRA 020045Z 01003KT 9000 FEW018 BKN080 19/18 Q1011=
200910012345 METAR LIRA 012345Z 00000KT 9000 FEW018 BKN080 20/18 Q1011=
200910012315 METAR LIRA 012315Z 06004KT 9000 FEW018 SCT080 20/18 Q1011=
200910012245 METAR LIRA 012245Z 04004KT 9000 SCT018 SCT035 BKN080 20/18
                        Q1012=
200910012215 METAR LIRA 012215Z 34002KT 9000 FEW018 SCT040 20/18 Q1012=
200910012145 METAR LIRA 012145Z 17003KT 9000 FEW018 SCT040 20/18 Q1012=
200910012115 METAR LIRA 012115Z 18005KT 9000 FEW018 SCT040 21/19 Q1012=
200910012045 METAR LIRA 012045Z 16005KT 100V190 8000 FEW018 SCT040 21/19
                        Q1012=
200910012015 METAR LIRA 012015Z 18003KT 8000 FEW018 SCT035 BKN080 21/19
                        Q1012=
200910011945 METAR LIRA 011945Z 18003KT 8000 FEW018 SCT035 21/19 Q1012=
200910011915 METAR LIRA 011915Z 18004KT 8000 FEW018 SCT035 21/17 Q1012=
200910011845 METAR LIRA 011845Z 24002KT 8000 FEW018 SCT080 21/17 Q1012=
200910011815 METAR LIRA 011815Z 34001KT 8000 FEW018 SCT080 21/16 Q1012=
200910011745 METAR LIRA 011745Z 31005KT 8000 FEW018 SCT080 21/17 Q1011=
200910011715 METAR LIRA 011715Z 32003KT 8000 FEW018 SCT035 22/16 Q1012=
200910011645 METAR LIRA 011645Z 16001KT 8000 FEW018 SCT035 22/17 Q1012=
200910011615 METAR LIRA 011615Z 12004KT 100V160 8000 FEW018 SCT035 22/17
                        Q1012=
200910011545 METAR LIRA 011545Z 15010KT 110V200 8000 FEW018 SCT035 23/17
                        Q1012=
200910011515 METAR LIRA 011515Z 15010KT 130V210 8000 FEW018 SCT070 23/18
                        Q1012=
200910011445 METAR LIRA 011445Z 15012KT 130V210 8000 FEW018 SCT070 23/18
                        Q1013=
200910011415 METAR LIRA 011415Z 17011KT 130V210 8000 FEW020 SCT070 23/19
                        Q1013=
200910011345 METAR LIRA 011345Z 17013KT 8000 FEW020 BKN070 23/18 Q1013=
200910011315 METAR LIRA 011315Z 18011KT 130V230 8000 FEW020 BKN080 24/18
                        Q1013=
200910011245 METAR LIRA 011245Z 19010KT 130V230 9999 FEW025 SCT080 25/16
                        Q1014=
200910011215 METAR LIRA 011215Z 20007KT 9999 FEW025 25/15 Q1014=
200910011145 METAR LIRA 011145Z 16008KT 9999 FEW025 25/15 Q1014=
200910011115 METAR LIRA 011115Z 16010KT 9999 FEW025 24/15 Q1015=
200910011045 METAR LIRA 011045Z 17009KT 9999 FEW025 25/15 Q1015=
200910011015 METAR LIRA 011015Z 18007KT 9999 FEW025 24/15 Q1015=
200910010945 METAR LIRA 010945Z 16008KT 8000 NSC 24/15 Q1016=
200910010915 METAR LIRA 010915Z 18006KT 7000 NSC 24/14 Q1015=
200910010845 METAR LIRA 010845Z 00000KT 7000 NSC 22/16 Q1016=
200910010815 METAR LIRA 010815Z 35004KT 7000 NSC 22/16 Q1016=
200910010745 METAR LIRA 010745Z 03003KT 8000 NSC 21/16 Q1016=
200910010715 METAR LIRA 010715Z 09003KT 8000 NSC 20/16 Q1016=
200910010645 METAR LIRA 010645Z 10006KT 8000 NSC 19/15 Q1016=
200910010615 METAR LIRA 010615Z 11004KT 8000 NSC 18/15 Q1016=
200910010545 METAR LIRA 010545Z 10002KT 8000 NSC 16/13 Q1016=
200910010515 METAR LIRA 010515Z 05003KT 8000 NSC 16/14 Q1016=
200910010445 METAR LIRA 010445Z 06003KT 8000 NSC 16/14 Q1016=
200910010415 METAR LIRA 010415Z 04003KT 7000 NSC 15/14 Q1016=
200910010345 METAR LIRA 010345Z 07003KT 7000 NSC 15/14 Q1016=
200910010315 METAR LIRA 010315Z 00000KT 7000 NSC 15/13 Q1016=
200910010245 METAR LIRA 010245Z 00000KT 8000 NSC 15/13 Q1016=
200910010215 METAR LIRA 010215Z 00000KT 8000 NSC 16/13 Q1016=
200910010145 METAR LIRA 010145Z 10001KT 8000 NSC 16/13 Q1016=
200910010115 METAR LIRA 010115Z 05002KT CAVOK 17/14 Q1017=
200910010045 METAR LIRA 010045Z 12002KT CAVOK 18/15 Q1017=
200910010015 METAR LIRA 010015Z 12003KT CAVOK 18/16 Q1017=

</pre>

</body>
</html>
