##########################################################
# Query made at 11/10/2014 14:33:56 UTC
# Time interval: from 10/01/2008 00:00  to 10/31/2008 23:59  UTC
##########################################################

##########################################################
# LIRA, Roma / Ciampino (Italy)
# WMO index: 16239
# Latitude 41-47N. Longitude 012-35E. Altitude 129 m.
##########################################################

###################################
#  METAR/SPECI from LIRA
###################################
200810312345 METAR LIRA 312345Z 15028G41KT 8000 -RA SKC 20/16 Q1002 RERA=
200810312315 METAR LIRA 312315Z 15026G38KT 9999 FEW015 FEW020TCU SCT070
                        19/10 Q1003 RERA=
200810312245 METAR LIRA 312245Z 14022G41KT 9999 FEW015 FEW020TCU SCT070
                        19/12 Q1003 RERA WS RWY 15=
200810312215 METAR LIRA 312215Z 14021G31KT 6000 RA SCT012 FEW017TCU BKN070
                        19/15 Q1005 WS RWY 15=
200810312145 METAR LIRA 312145Z 13019G30KT 100V180 9999 -RA FEW016 FEW017TCU
                        SCT030 BKN070 20/13 Q1004=
200810312115 METAR LIRA 312115Z 14016G34KT 090V180 9999 -RA FEW016 FEW017TCU
                        BKN025 19/12 Q1004=
200810312045 METAR LIRA 312045Z 14004KT 060V210 9999 -RA FEW016 SCT025
                        BKN070 19/12 Q1005=
200810312015 METAR LIRA 312015Z 04005KT 320V130 9999 FEW016 SCT025 18/12
                        Q1005=
200810311945 METAR LIRA 311945Z 05009KT 010V120 9999 FEW016 SCT025 18/12
                        Q1006=
200810311915 METAR LIRA 311915Z 08011KT 040V120 9999 FEW016 SCT030 17/13
                        Q1007=
200810311845 METAR LIRA 311845Z 09011KT 9999 FEW016 SCT030 18/12 Q1008=
200810311815 METAR LIRA 311815Z 09010KT 040V120 8000 FEW016 SCT030 BKN070
                        18/12 Q1009=
200810311745 METAR LIRA 311745Z 05008KT 360V130 8000 -RA FEW016 FEW018CB
                        BKN070 19/12 Q1009=
200810311715 METAR LIRA 311715Z 14013KT 8000 -RA FEW016 FEW018CB BKN070
                        19/12 Q1010=
200810311645 METAR LIRA 311645Z 14015G25KT 110V200 8000 -RA FEW016 FEW020CB
                        BKN080 19/12 Q1010=
200810311615 METAR LIRA 311615Z 14015KT 8000 -RA FEW016 FEW020CB BKN080
                        20/13 Q1010=
200810311545 METAR LIRA 311545Z 13011KT 100V160 9999 -RA FEW016 FEW020CB
                        BKN080 20/12 Q1010=
200810311515 METAR LIRA 311515Z 14015KT 100V160 9999 FEW016 FEW020CB BKN070
                        19/12 Q1010=
200810311445 METAR LIRA 311445Z 14015KT 9999 FEW017 SCT080 OVC200 19/12
                        Q1011=
200810311415 METAR LIRA 311415Z 15013KT 9999 FEW017 SCT025 BKN200 19/12
                        Q1011=
200810311345 METAR LIRA 311345Z 14016KT 120V200 9999 FEW017 SCT025 BKN200
                        19/11 Q1011=
200810311315 METAR LIRA 311315Z 16013KT 110V210 9999 FEW017 SCT025 BKN200
                        19/11 Q1012=
200810311245 METAR LIRA 311245Z 15013KT 9999 FEW016 SCT025 BKN200 19/11
                        Q1012=
200810311215 METAR LIRA 311215Z 14017KT 120V180 9999 FEW016 SCT080 BKN200
                        19/11 Q1012=
200810311145 METAR LIRA 311145Z 15013KT 120V190 9999 FEW016 OVC200 19/11
                        Q1013=
200810311115 METAR LIRA 311115Z 16014KT 9999 SCT016 BKN200 19/10 Q1013=
200810311045 METAR LIRA 311045Z 15013KT 120V200 9999 SCT016 BKN200 19/11
                        Q1014=
200810311015 METAR LIRA 311015Z 16012KT 9999 SCT017 BKN200 20/12 Q1014=
200810310945 METAR LIRA 310945Z 17010KT 120V210 9999 SCT018 BKN200 18/11
                        Q1014=
200810310915 METAR LIRA 310915Z 17008KT 130V210 9999 SCT018 BKN200 18/11
                        Q1014=
200810310845 METAR LIRA 310845Z 16012KT 130V210 9999 FEW016 SCT030 BKN200
                        17/11 Q1013=
200810310815 METAR LIRA 310815Z 17011KT 120V220 9999 FEW016 SCT030 17/11
                        Q1013=
200810310745 METAR LIRA 310745Z 17013KT 9999 FEW016 SCT030 17/12 Q1012=
200810310715 METAR LIRA 310715Z 16010KT 9999 FEW016 SCT030 16/12 Q1012=
200810310645 METAR LIRA 310645Z 17009KT 9999 FEW016 SCT030 15/13 Q1012=
200810310615 METAR LIRA 310615Z 17008KT 9999 FEW016 SCT030 15/13 Q1011=
200810310545 METAR LIRA 310545Z 14008KT 110V180 9999 -RA FEW014 FEW020CB
                        SCT030 15/12 Q1011=
200810310515 METAR LIRA 310515Z 17007KT 140V220 9999 -RA FEW014 FEW020CB
                        BKN030 15/12 Q1012=
200810310445 METAR LIRA 310445Z 18009KT 120V210 9999 -RA FEW018 BKN030
                        13/11 Q1012=
200810310415 METAR LIRA 310415Z 19008KT 9999 FEW018 BKN030 13/10 Q1011=
200810310345 METAR LIRA 310345Z 19008KT 9999 -RA FEW018 BKN030 13/11 Q1011=
200810310315 METAR LIRA 310315Z 18008KT 9999 -RA FEW018 BKN030 13/10 Q1011=
200810310245 METAR LIRA 310245Z 18010KT 9999 -RA FEW018 BKN030 13/10 Q1011=
200810310215 METAR LIRA 310215Z 16011KT 9999 FEW030 13/10 Q1011=
200810310145 METAR LIRA 310145Z 16011KT 9999 FEW015 13/10 Q1011=
200810310115 METAR LIRA 310115Z 16010KT 9999 FEW015 13/09 Q1011=
200810310045 METAR LIRA 310045Z 16008KT 9999 FEW015 14/10 Q1011=
200810310015 METAR LIRA 310015Z 15009KT 9999 FEW015 13/10 Q1010=
200810302345 METAR LIRA 302345Z 16009KT 9999 FEW015 13/10 Q1010=
200810302315 METAR LIRA 302315Z 17009KT 9999 FEW015 12/09 Q1010=
200810302245 METAR LIRA 302245Z 15009KT 9999 FEW015 12/09 Q1010=
200810302215 METAR LIRA 302215Z 16009KT 9999 FEW015 12/09 Q1010=
200810302145 METAR LIRA 302145Z 15008KT 9999 FEW015 12/09 Q1010=
200810302115 METAR LIRA 302115Z 15008KT 9999 FEW015 SCT070 12/09 Q1010=
200810302045 METAR LIRA 302045Z 18007KT 140V220 9999 FEW015 SCT070 13/11
                        Q1010=
200810302015 METAR LIRA 302015Z 18006KT 120V210 9999 FEW015 SCT070 13/11
                        Q1010=
200810301945 METAR LIRA 301945Z 16007KT 9999 FEW015 SCT070 13/10 Q1010=
200810301915 METAR LIRA 301915Z 16007KT 9999 FEW015 SCT070 12/10 Q1009=
200810301845 METAR LIRA 301845Z 14008KT 9999 FEW015 FEW020CB SCT070 12/10
                        Q1009=
200810301815 METAR LIRA 301815Z 16005KT 9999 FEW015 FEW020CB SCT070 12/10
                        Q1009 RERA=
200810301745 METAR LIRA 301745Z 18003KT 9999 -RA SCT015 FEW020CB SCT070
                        10/09 Q1009=
200810301715 METAR LIRA 301715Z 13006KT 9999 SCT015 FEW020CB SCT070 15/12
                        Q1009=
200810301645 METAR LIRA 301645Z 10006KT 9999 SCT015 FEW017CB SCT025 15/11
                        Q1008 RETS=
200810301615 METAR LIRA 301615Z 35003KT 9999 SCT015 FEW017CB SCT070 16/11
                        Q1008 RETS=
200810301545 METAR LIRA 301545Z 22013KT 190V290 1200 R15//// TSRA SCT005
                        FEW015CB SCT022 16/12 Q1008=
200810301515 METAR LIRA 301515Z 20005KT 9999 -TSRA SCT017 FEW020CB SCT025
                        17/10 Q1008=
200810301445 METAR LIRA 301445Z 23006KT 190V260 9999 TS SCT017 FEW020CB
                        SCT070 17/09 Q1007=
200810301415 METAR LIRA 301415Z 24008KT 200V270 9999 SCT017 FEW020TCU
                        SCT070 17/08 Q1007=
200810301345 METAR LIRA 301345Z 25009KT 200V300 9999 SCT017 FEW020TCU
                        SCT200 18/07 Q1007=
200810301315 METAR LIRA 301315Z 23010KT 190V270 9999 SCT017 SCT025 18/07
                        Q1007=
200810301245 METAR LIRA 301245Z 23011KT 180V290 9999 FEW017 SCT030 17/07
                        Q1007=
200810301215 METAR LIRA 301215Z 23010KT 170V270 9999 FEW017 SCT070 BKN200
                        17/09 Q1007=
200810301145 METAR LIRA 301145Z 23009KT 170V270 9999 FEW017 SCT070 BKN200
                        16/09 Q1007=
200810301115 METAR LIRA 301115Z 24010KT 190V280 9999 FEW016 BKN200 16/09
                        Q1007=
200810301045 METAR LIRA 301045Z 22009KT 180V280 9999 FEW016 SCT030 BKN070
                        16/10 Q1007=
200810301015 METAR LIRA 301015Z 24011KT 190V280 9999 FEW016 SCT030 BKN070
                        16/11 Q1007=
200810300945 METAR LIRA 300945Z 24010KT 280V280 9999 SCT016 BKN030 15/12
                        Q1007=
200810300915 METAR LIRA 300915Z 24007KT 190V220 9999 SCT016 BKN030 15/12
                        Q1007=
200810300845 METAR LIRA 300845Z 20005KT 160V250 9999 SCT002 BKN030 14/12
                        Q1006=
200810300815 METAR LIRA 300815Z 22004KT 9999 FEW016 BKN030 14/12 Q1006=
200810300745 METAR LIRA 300745Z 21004KT 9000 FEW016 BKN030 14/13 Q1006=
200810300715 METAR LIRA 300715Z 20005KT 9000 FEW015 BKN030 14/12 Q1006=
200810300645 METAR LIRA 300645Z 17006KT 7000 -RA SCT015 BKN030 15/11 Q1005=
200810300615 METAR LIRA 300615Z 17007KT 6000 -RA SCT010 BKN015 15/10 Q1005=
200810300545 METAR LIRA 300545Z 18006KT 8000 -RA SCT007 SCT013 16/11 Q1004=
200810300515 METAR LIRA 300515Z 19003KT 9999 FEW015 SCT025 16/11 Q1004=
200810300445 METAR LIRA 300445Z 23003KT 9999 FEW015 SCT070 16/11 Q1004=
200810300415 METAR LIRA 300415Z 22005KT 9999 FEW015 SCT070 16/11 Q1004=
200810300345 METAR LIRA 300345Z 23004KT 9999 FEW015 SCT070 16/12 Q1004=
200810300315 METAR LIRA 300315Z 23004KT 9999 FEW015 SCT070 16/12 Q1004=
200810300245 METAR LIRA 300245Z 23006KT 180V260 9999 FEW015 SCT070 16/13
                        Q1004=
200810300215 METAR LIRA 300215Z 22006KT 170V260 9999 FEW015 SCT070 16/13
                        Q1004=
200810300145 METAR LIRA 300145Z 23006KT 9999 FEW015 SCT070 16/14 Q1004=
200810300115 METAR LIRA 300115Z 20006KT 9999 FEW015 SCT070 17/14 Q1004=
200810300045 METAR LIRA 300045Z 20006KT 9999 FEW015 SCT070 17/15 Q1004=
200810300015 METAR LIRA 300015Z 23006KT 160V280 9999 FEW015 FEW020CB SCT070
                        17/15 Q1004=
200810292345 METAR LIRA 292345Z 17016KT 9999 FEW015 FEW020CB SCT070 17/15
                        Q1004=
200810292315 METAR LIRA 292315Z 17018KT 9999 FEW015 FEW020CB SCT070 17/16
                        Q1004=
200810292245 METAR LIRA 292245Z 16016KT 9999 FEW015 FEW020CB SCT070 17/16
                        Q1005 RERA=
200810292215 METAR LIRA 292215Z 17011KT 150V240 9999 FEW015 FEW020CB SCT070
                        17/16 Q1005 RERA=
200810292145 METAR LIRA 292145Z 18010KT 130V220 9999 -RA FEW015 FEW020CB
                        SCT025 17/14 Q1004 RETS=
200810292115 METAR LIRA 292115Z 18010KT 9999 -RA FEW015 FEW020CB BKN025
                        17/16 Q1005 RETS=
200810292045 METAR LIRA 292045Z 18011KT 150V220 9000 -TSRA FEW015 FEW017CB
                        BKN025 18/16 Q1005=
200810292015 METAR LIRA 292015Z 18014KT 150V230 5000 -TSRA FEW015 FEW017CB
                        BKN022 19/17 Q1005=
200810291945 METAR LIRA 291945Z 24015KT 180V270 6000 -TSRA FEW010 FEW018CB
                        BKN022 19/18 Q1004=
200810291915 METAR LIRA 291915Z 17020G33KT 6000 -TSRA FEW010 FEW018CB
                        BKN022 20/18 Q1004=
200810291845 METAR LIRA 291845Z 17020G32KT 9000 FEW010 SCT023 21/19 Q1004=
200810291815 METAR LIRA 291815Z 17016KT 140V200 9000 FEW010 SCT023 21/18
                        Q1004=
200810291745 METAR LIRA 291745Z 17017KT 9000 FEW010 SCT023 21/18 Q1005=
200810291715 METAR LIRA 291715Z 17017KT 9000 SCT010 BKN023 21/18 Q1005=
200810291645 METAR LIRA 291645Z 17015KT 140V200 8000 SCT010 BKN023 22/18
                        Q1005=
200810291615 METAR LIRA 291615Z 17018KT 7000 SCT008 SCT023 22/18 Q1005=
200810291545 METAR LIRA 291545Z 17017KT 120V200 8000 FEW016 SCT070 22/17
                        Q1005=
200810291515 METAR LIRA 291515Z 17016KT 120V200 8000 FEW015 FEW020TCU
                        SCT025 BKN070 22/18 Q1005=
200810291445 METAR LIRA 291445Z 18018KT 8000 FEW015 FEW020TCU SCT025 BKN070
                        22/17 Q1005=
200810291415 METAR LIRA 291415Z 17016KT 120V200 8000 FEW015 FEW020TCU
                        SCT025 BKN070 22/18 Q1005=
200810291345 METAR LIRA 291345Z 16016KT 120V210 8000 FEW015 FEW020TCU
                        SCT025 BKN070 23/18 Q1005=
200810291315 METAR LIRA 291315Z 17016KT 8000 FEW016 FEW020TCU SCT030 BKN070
                        23/18 Q1005=
200810291245 METAR LIRA 291245Z 18015KT 130V210 9999 FEW016 SCT030 22/18
                        Q1006=
200810291215 METAR LIRA 291215Z 17015KT 9999 FEW016 SCT030 23/18 Q1006=
200810291145 METAR LIRA 291145Z 17004KT 9999 FEW016 SCT030 BKN070 23/17
                        Q1006=
200810291115 METAR LIRA 291115Z 17017KT 9999 FEW016 SCT030 22/18 Q1006=
200810291045 METAR LIRA 291045Z 17016KT 9999 FEW016 SCT070 22/18 Q1007=
200810291015 METAR LIRA 291015Z 16018KT 9999 FEW016 BKN070 22/17 Q1007=
200810290945 METAR LIRA 290945Z 16015KT 9999 FEW016 SCT030 BKN070 22/17
                        Q1007=
200810290915 METAR LIRA 290915Z 16018KT 9999 FEW018 SCT035 BKN070 22/17
                        Q1006=
200810290845 METAR LIRA 290845Z 16016KT 9999 FEW018 SCT035 BKN080 21/17
                        Q1006=
200810290815 METAR LIRA 290815Z 16016KT 120V160 9999 FEW018 SCT080 21/17
                        Q1006=
200810290745 METAR LIRA 290745Z 15016KT 9999 FEW020 SCT070 21/16 Q1006=
200810290715 METAR LIRA 290715Z 16015KT 9999 FEW018 SCT080 20/16 Q1006=
200810290645 METAR LIRA 290645Z 16016KT 9999 FEW018 20/16 Q1005=
200810290615 METAR LIRA 290615Z 16016KT 9999 FEW018 20/16 Q1005=
200810290545 METAR LIRA 290545Z 16013KT 9999 FEW020 SCT070 20/16 Q1005=
200810290515 METAR LIRA 290515Z 16012KT 9999 FEW020 20/16 Q1005=
200810290445 METAR LIRA 290445Z 16014KT 9999 SCT035 20/16 Q1005=
200810290415 METAR LIRA 290415Z 16014KT 9999 SCT035 20/16 Q1005=
200810290345 METAR LIRA 290345Z 15015KT 9999 SCT035 19/17 Q1005=
200810290315 METAR LIRA 290315Z 15014KT 130V190 9999 FEW030 19/17 Q1005=
200810290245 METAR LIRA 290245Z 17011KT 8000 FEW025 19/17 Q1006=
200810290215 METAR LIRA 290215Z 17013KT 8000 FEW030 19/17 Q1006=
200810290145 METAR LIRA 290145Z 17012KT 8000 FEW025 19/17 Q1006=
200810290115 METAR LIRA 290115Z 17010KT 8000 FEW025 19/18 Q1006=
200810290045 METAR LIRA 290045Z 17009KT 140V200 8000 FEW025 19/18 Q1006=
200810290015 METAR LIRA 290015Z 18010KT 160V220 8000 SCT025 19/18 Q1006=
200810282350 METAR LIRA 290045Z 17009KT 140V200 8000 FEW025 19/18 Q1006=
200810282345 METAR LIRA 282345Z 17009KT 8000 FEW025 19/18 Q1006=
200810282315 METAR LIRA 282315Z 18009KT 160V230 8000 FEW020TCU SCT030
                        19/16 Q1006=
200810282245 METAR LIRA 282245Z 19012KT 160V220 7000 VCTS FEW018CB SCT035
                        19/16 Q1006=
200810282215 METAR LIRA 282215Z 20010KT 120V240 7000 TS FEW018CB SCT030
                        19/18 Q1006=
200810282145 METAR LIRA 282145Z 18012KT 160V230 7000 -TSRA FEW018CB BKN030
                        19/18 Q1006=
200810282115 METAR LIRA 282115Z 17017KT 6000 -TSRA SCT018CB BKN025 18/17
                        Q1006=
200810282045 METAR LIRA 282045Z 17014KT 6000 -TSRA SCT018CB BKN025 17/15
                        Q1005=
200810282015 METAR LIRA 282015Z 09003KT 7000 -TSRA FEW018CB BKN030 17/16
                        Q1006=
200810281945 METAR LIRA 281945Z 16018KT 120V190 6000 -TSRA SCT018CB BKN025
                        18/16 Q1005=
200810281915 METAR LIRA 281915Z 15024KT 6000 -TSRA FEW018CB BKN025 19/16
                        Q1005=
200810281845 METAR LIRA 281845Z 16023G33KT 9999 VCTS FEW018CB SCT030 19/16
                        Q1005=
200810281815 METAR LIRA 281815Z 20008KT 130V230 9999 VCTS FEW018CB SCT060
                        19/15 Q1005=
200810281745 METAR LIRA 281745Z 15017KT 9999 FEW018TCU SCT030 19/15 Q1005=
200810281715 METAR LIRA 281715Z 14015G25KT 110V170 9999 FEW018TCU SCT060
                        18/15 Q1006 RETS=
200810281645 METAR LIRA 281645Z 13012KT 090V180 6000 -TSRA SCT013 FEW015CB
                        SCT025 17/14 Q1006=
200810281615 METAR LIRA 281615Z 14011KT 6000 -TSRA SCT013 SCT015CB 17/15
                        Q1006=
200810281545 METAR LIRA 281545Z 17016KT 6000 RA SCT013 SCT015CB 17/15
                        Q1006=
200810281515 METAR LIRA 281515Z 17017G29KT 120V190 9999 -RA SCT017 FEW018CB
                        BKN070 19/15 Q1006=
200810281445 METAR LIRA 281445Z 17014KT 120V090 9999 -RA FEW017 FEW018CB
                        BKN070 21/12 Q1006=
200810281415 METAR LIRA 281415Z 16014KT 130V210 9999 FEW017 FEW018CB SCT080
                        21/13 Q1006=
200810281345 METAR LIRA 281345Z 15009KT 9999 FEW017 BKN080 20/12 Q1006=
200810281315 METAR LIRA 281315Z 06003KT 9999 FEW017 SCT080 19/14 Q1007=
200810281245 METAR LIRA 281245Z 12008KT 080V150 9999 SCT017 SCT070 19/15
                        Q1007=
200810281215 METAR LIRA 281215Z 04003KT 9999 FEW017 SCT070 18/13 Q1008=
200810281145 METAR LIRA 281145Z 10012KT 9999 -RA FEW017 SCT030 BKN070
                        18/15 Q1008=
200810281115 METAR LIRA 281115Z 03001KT 9999 -RA FEW017 SCT030 BKN070
                        18/15 Q1008=
200810281045 METAR LIRA 281045Z 12017KT 9999 FEW017 SCT030 BKN070 18/15
                        Q1008=
200810281015 METAR LIRA 281015Z 12016G26KT 9999 FEW017 SCT030 BKN070 19/15
                        Q1008=
200810280945 METAR LIRA 280945Z 12014KT 9999 -RA FEW017 SCT030 BKN070
                        18/15 Q1008=
200810280915 METAR LIRA 280915Z 15017KT 120V180 7000 -RA FEW015 FEW017CB
                        BKN070 18/15 Q1011=
200810280845 METAR LIRA 280845Z 16015G25KT 130V210 9999 FEW015 FEW017CB
                        BKN070 19/15 Q1010=
200810280815 METAR LIRA 280815Z 19006KT 160V230 9999 FEW015 BKN080 18/14
                        Q1009=
200810280745 METAR LIRA 280745Z 30002KT 9999 FEW015 BKN080 18/14 Q1009=
200810280715 METAR LIRA 280715Z 12006KT 9999 FEW015 BKN080 18/14 Q1009=
200810280645 METAR LIRA 280645Z 31002KT 9999 FEW015 BKN080 18/14 Q1009=
200810280615 METAR LIRA 280615Z 05005KT 030V150 9999 FEW015 BKN080 19/16
                        Q1009=
200810280545 METAR LIRA 280545Z 14012KT 090V180 9999 FEW015 BKN070 18/15
                        Q1010=
200810280515 METAR LIRA 280515Z 15014KT 130V190 9999 FEW015 SCT030 18/15
                        Q1011=
200810280445 METAR LIRA 280445Z 15012KT 110V180 9999 FEW030 SCT070 18/15
                        Q1011=
200810280415 METAR LIRA 280415Z 16012KT 130V200 9999 FEW030 18/15 Q1011=
200810280345 METAR LIRA 280345Z 15011KT 130V190 9999 FEW030 18/15 Q1011=
200810280315 METAR LIRA 280315Z 15012KT 9999 FEW020 18/15 Q1011=
200810280245 METAR LIRA 280245Z 16011KT 9999 FEW020 18/16 Q1012=
200810280215 METAR LIRA 280215Z 17010KT 130V190 9999 FEW020 18/16 Q1012=
200810280145 METAR LIRA 280145Z 17009KT 9999 FEW020 SCT070 18/15 Q1013=
200810280115 METAR LIRA 280115Z 16009KT 9999 FEW020 SCT060 18/16 Q1013=
200810280045 METAR LIRA 280045Z 17008KT 9999 FEW020 SCT060 18/16 Q1013=
200810280015 METAR LIRA 280015Z 16010KT 9999 FEW020 SCT030 18/16 Q1013=
200810272350 METAR LIRA 280045Z 17008KT 9999 FEW020 SCT060 18/16 Q1013=
200810272345 METAR LIRA 272345Z 16010KT 9999 FEW020 SCT060 18/16 Q1013=
200810272315 METAR LIRA 272315Z 17008KT 130V190 9999 SCT030 SCT070 18/16
                        Q1014=
200810272245 METAR LIRA 272245Z 16009KT 9999 SCT030 SCT070 18/16 Q1014=
200810272215 METAR LIRA 272215Z 15006KT 9999 FEW030 SCT070 18/16 Q1014=
200810272145 METAR LIRA 272145Z 18005KT 9000 SCT030 SCT070 18/16 Q1014=
200810272115 METAR LIRA 272115Z 16007KT 9000 FEW020 SCT070 18/16 Q1014=
200810272045 METAR LIRA 272045Z 16008KT 8000 FEW020 SCT070 18/16 Q1014=
200810272015 METAR LIRA 272015Z 16008KT 130V210 8000 SCT030 SCT070 18/16
                        Q1014=
200810271945 METAR LIRA 271945Z 18008KT 8000 -RA BKN030 18/16 Q1014=
200810271915 METAR LIRA 271915Z 17007KT 8000 SCT030 SCT070 18/16 Q1014=
200810271845 METAR LIRA 271845Z 17010KT 8000 FEW020 SCT030 19/16 Q1014=
200810271815 METAR LIRA 271815Z 18005KT 150V220 8000 FEW020 SCT030 19/16
                        Q1014=
200810271745 METAR LIRA 271745Z 18007G150KT 8000 SCT030 SCT060 19/16 Q1014=
200810271715 METAR LIRA 271715Z 18006KT 160V230 9999 SCT030 SCT070 19/16
                        Q1014=
200810271645 METAR LIRA 271645Z 19007KT 160V240 9999 FEW018 BKN040 20/16
                        Q1014=
200810271615 METAR LIRA 271615Z 19007KT 160V240 9999 FEW018 BKN035 20/15
                        Q1015=
200810271545 METAR LIRA 271545Z 20007KT 160V240 9999 FEW018 BKN035 20/15
                        Q1015=
200810271515 METAR LIRA 271515Z 21009KT 160V260 9999 SCT018 SCT040 21/15
                        Q1015=
200810271445 METAR LIRA 271445Z 21008KT 160V250 9999 SCT018 SCT040 21/15
                        Q1015=
200810271415 METAR LIRA 271415Z 22005KT 160V260 9999 SCT018 SCT040 22/15
                        Q1015=
200810271345 METAR LIRA 271345Z 21007KT 160V260 9999 SCT018 SCT030 22/14
                        Q1015=
200810271315 METAR LIRA 271315Z 22006KT 160V250 9999 SCT018 FEW020TCU
                        23/13 Q1016=
200810271245 METAR LIRA 271245Z 22003KT 9999 SCT018 21/14 Q1016=
200810271215 METAR LIRA 271215Z 20006KT 160V250 9999 SCT018 22/15 Q1016=
200810271145 METAR LIRA 271145Z 18007KT 150V260 9999 SCT018 SCT030 20/14
                        Q1017=
200810271115 METAR LIRA 271115Z 22005KT 170V270 9999 SCT018 SCT030 22/15
                        Q1017=
200810271045 METAR LIRA 271045Z 21008KT 160V260 9999 SCT018 FEW020TCU
                        21/15 Q1018=
200810271015 METAR LIRA 271015Z 21007KT 160V270 8000 SCT018 FEW020TCU
                        20/14 Q1018=
200810270945 METAR LIRA 270945Z 00000KT 8000 SCT018 FEW020TCU 21/15 Q1018=
200810270915 METAR LIRA 270915Z 00000KT 8000 SCT018 20/15 Q1018=
200810270845 METAR LIRA 270845Z 00000KT 6000 FEW018 16/14 Q1018=
200810270815 METAR LIRA 270815Z 00000KT 6000 FEW008 16/13 Q1018=
200810270800 METAR LIRA INTER CB E-NW=
200810270745 METAR LIRA 270745Z 00000KT 8000 FEW020 15/13 Q1018=
200810270715 METAR LIRA 270715Z 00000KT 8000 FEW070 14/12 Q1018=
200810270645 METAR LIRA 270645Z 00000KT 8000 FEW080 14/13 Q1018=
200810270615 METAR LIRA 270615Z 00000KT 8000 NSC 14/12 Q1018=
200810270545 METAR LIRA 270545Z 07003KT 8000 NSC 15/12 Q1019=
200810270515 METAR LIRA 270515Z 04002KT 8000 NSC 15/13 Q1019=
200810270445 METAR LIRA 270445Z 00000KT 6000 NSC 15/13 Q1019=
200810270415 METAR LIRA 270415Z 00000KT 6000 NSC 15/13 Q1019=
200810270345 METAR LIRA 270345Z 01004KT 6000 NSC 15/13 Q1019=
200810270315 METAR LIRA 270315Z 13003KT 6000 NSC 15/13 Q1019=
200810270245 METAR LIRA 270245Z 00000KT 6000 FEW008 SCT200 15/13 Q1020=
200810270215 METAR LIRA 270215Z 00000KT 6000 FEW008 SCT200 15/13 Q1020=
200810270145 METAR LIRA 270145Z 00000KT 6000 FEW008 SCT200 15/14 Q1020=
200810270115 METAR LIRA 270115Z 12003KT 6000 SCT008 15/13 Q1020=
200810270045 METAR LIRA 270045Z 00000KT 6000 SCT006 15/14 Q1020=
200810270015 METAR LIRA 270015Z 00000KT 6000 SCT006 15/14 Q1021=
200810262350 METAR LIRA 270045Z 00000KT 6000 SCT006 15/14 Q1020=
200810262345 METAR LIRA 262345Z 14004KT 6000 SCT006 16/14 Q1021=
200810262315 METAR LIRA 262315Z 00000KT 6000 FEW017 16/14 Q1021=
200810262245 METAR LIRA 262245Z 00000KT 6000 NSC 16/14 Q1021=
200810262215 METAR LIRA 262215Z 00000KT 6000 NSC 16/15 Q1021=
200810262145 METAR LIRA 262145Z 12003KT 6000 FEW005 16/15 Q1022=
200810262115 METAR LIRA 262115Z 14001KT 6000 SCT005 16/15 Q1022=
200810262045 METAR LIRA 262045Z 00000KT 7000 NSC 17/15 Q1022=
200810262015 METAR LIRA 262015Z 00000KT 8000 NSC 17/15 Q1022=
200810261945 METAR LIRA 261945Z 13002KT 8000 NSC 17/15 Q1022=
200810261915 METAR LIRA 261915Z 15004KT 8000 NSC 17/15 Q1022=
200810261845 METAR LIRA 261845Z 17003KT 8000 NSC 18/16 Q1022=
200810261815 METAR LIRA 261815Z 00000KT 8000 FEW017 SCT200 18/16 Q1022=
200810261745 METAR LIRA 261745Z 18002KT 8000 FEW017 SCT200 19/15 Q1022=
200810261715 METAR LIRA 261715Z 20003KT 8000 FEW017 SCT200 20/15 Q1022=
200810261645 METAR LIRA 261645Z 22001KT 8000 NSC 20/16 Q1022=
200810261615 METAR LIRA 261615Z 24001KT 8000 NSC 20/15 Q1022=
200810261545 METAR LIRA 261545Z 25003KT 9999 FEW020 21/16 Q1022=
200810261515 METAR LIRA 261515Z 24004KT 9999 FEW020 22/15 Q1022=
200810261445 METAR LIRA 261445Z 26005KT 210V300 9999 FEW018 23/16 Q1022=
200810261415 METAR LIRA 261415Z 24003KT 9999 SCT018 23/15 Q1022=
200810261345 METAR LIRA 261345Z 25003KT 9999 SCT018 23/15 Q1022=
200810261315 METAR LIRA 261315Z 25004KT 9999 SCT025 23/14 Q1022=
200810261245 METAR LIRA 261245Z 27001KT 9999 SCT025 22/13 Q1023=
200810261215 METAR LIRA 261215Z 25003KT 9999 SCT025 22/13 Q1023=
200810261145 METAR LIRA 261145Z 27002KT 9999 FEW025 22/14 Q1023=
200810261115 METAR LIRA 261115Z 00000KT 9999 FEW025 21/14 Q1024=
200810261045 METAR LIRA 261045Z 19002KT 9999 FEW010 20/15 Q1024=
200810261015 METAR LIRA 261015Z 00000KT 9000 FEW010 19/15 Q1024=
200810260945 METAR LIRA 260945Z 00000KT 9000 FEW010 18/14 Q1025=
200810260915 METAR LIRA 260915Z 01001KT 9000 FEW010 17/14 Q1025=
200810260845 METAR LIRA 260845Z 04001KT 9000 FEW010 15/13 Q1025=
200810260815 METAR LIRA 260815Z 04001KT 8000 NSC 15/13 Q1025=
200810260800 METAR LIRA CONTUS CB N=
200810260745 METAR LIRA 260745Z 01002KT 8000 NSC 14/13 Q1025=
200810260715 METAR LIRA 260715Z 05002KT 8000 NSC 14/13 Q1025=
200810260645 METAR LIRA 260645Z 00000KT 7000 NSC 14/13 Q1024=
200810260615 METAR LIRA 260615Z 06002KT 7000 NSC 14/13 Q1024=
200810260545 METAR LIRA 260545Z 00000KT 7000 NSC 14/13 Q1024=
200810260515 METAR LIRA 260515Z 00000KT 7000 NSC 14/13 Q1024=
200810260445 METAR LIRA 260445Z 05002KT 7000 SKC 14/13 Q1024=
200810260415 METAR LIRA 260415Z 00000KT 7000 SKC 14/13 Q1024=
200810260345 METAR LIRA 260345Z 00000KT 7000 SKC 14/13 Q1024=
200810260315 METAR LIRA 260315Z 06004KT 7000 FEW080 15/14 Q1024=
200810260245 METAR LIRA 260245Z 00000KT 7000 FEW080 15/14 Q1024=
200810260215 METAR LIRA 260215Z 00000KT 7000 FEW080 15/14 Q1024=
200810260145 METAR LIRA 260145Z 06001KT 7000 SCT070 15/13 Q1024=
200810260115 METAR LIRA 260115Z 06002KT 7000 SCT070 15/14 Q1025=
200810260045 METAR LIRA 260045Z 08003KT 7000 SCT070 16/15 Q1025=
200810260015 METAR LIRA 260015Z 08002KT 7000 SCT070 16/15 Q1025=
200810252345 METAR LIRA 252345Z 05002KT 7000 SCT080 16/15 Q1025=
200810252315 METAR LIRA 252315Z 05002KT 7000 FEW017 SCT070 16/15 Q1025=
200810252245 METAR LIRA 252245Z 05004KT 7000 FEW017 SCT070 16/15 Q1025=
200810252215 METAR LIRA 252215Z 06003KT 7000 FEW017 SCT080 16/15 Q1025=
200810252145 METAR LIRA 252145Z 05002KT 7000 FEW017 SCT080 16/15 Q1025=
200810252115 METAR LIRA 252115Z 00000KT 7000 FEW017 SCT070 17/16 Q1025=
200810252045 METAR LIRA 252045Z 09001KT 7000 FEW017 SCT070 17/16 Q1025=
200810252015 METAR LIRA 252015Z 00000KT 8000 FEW017 SCT070 17/15 Q1025=
200810251945 METAR LIRA 251945Z 00000KT 8000 FEW017 SCT070 17/16 Q1025=
200810251915 METAR LIRA 251915Z 09002KT 8000 FEW017 SCT070 17/16 Q1025=
200810251845 METAR LIRA 251845Z 06003KT 9000 FEW017 SCT070 17/16 Q1025=
200810251815 METAR LIRA 251815Z 02002KT 9000 FEW017 SCT070 18/16 Q1025=
200810251745 METAR LIRA 251745Z 10005KT 7000 -RA FEW012 FEW017CB SCT027
                        18/16 Q1024 RETS=
200810251715 METAR LIRA 251715Z 01005KT 7000 -RA FEW012 FEW015CB SCT025
                        20/16 Q1024 RETS=
200810251645 METAR LIRA 251645Z 06003KT 5000 -TSRA FEW012 SCT015CB 22/17
                        Q1024=
200810251615 METAR LIRA 251615Z 15009KT 090V180 6000 -TSRA FEW012 SCT015CB
                        23/18 Q1024=
200810251545 METAR LIRA 251545Z 27004KT 8000 TS FEW015 SCT017CB 23/17
                        Q1023=
200810251515 METAR LIRA 251515Z 25003KT 9999 FEW018TCU FEW020CB SCT200
                        23/17 Q1023=
200810251445 METAR LIRA 251445Z 24003KT 9999 FEW018TCU FEW020CB SCT200
                        23/17 Q1023=
200810251415 METAR LIRA 251415Z 24004KT 9999 FEW018 FEW020TCU SCT200 23/16
                        Q1023=
200810251345 METAR LIRA 251345Z 25004KT 180V260 9999 SCT018 FEW020TCU
                        BKN200 23/16 Q1024=
200810251315 METAR LIRA 251315Z 22005KT 180V270 9999 FEW018 FEW020CB BKN200
                        23/16 Q1024=
200810251245 METAR LIRA 251245Z 22003KT 9999 FEW018 FEW020CB BKN200 22/16
                        Q1024=
200810251215 METAR LIRA 251215Z 22004KT 9999 FEW018 FEW020CB BKN200 22/16
                        Q1024=
200810251145 METAR LIRA 251145Z 21005KT 180V260 9999 FEW018 FEW020CB BKN200
                        23/15 Q1024=
200810251115 METAR LIRA 251115Z 20006KT 160V240 9999 FEW018 FEW020CB SCT080
                        23/15 Q1024=
200810251045 METAR LIRA 251045Z 20005KT 9999 FEW018 FEW020CB SCT080 22/15
                        Q1024=
200810251015 METAR LIRA 251015Z 18001KT 9999 FEW018 FEW020CB SCT080 BKN200
                        22/15 Q1024=
200810250945 METAR LIRA 250945Z 30001KT 9999 FEW018 SCT080 BKN200 21/15
                        Q1024=
200810250915 METAR LIRA 250915Z 04001KT 9999 FEW018 SCT080 BKN200 20/15
                        Q1024=
200810250845 METAR LIRA 250845Z 01004KT 9999 FEW022 SCT200 19/15 Q1024=
200810250815 METAR LIRA 250815Z 01003KT 9999 FEW022 SCT070 18/15 Q1024=
200810250745 METAR LIRA 250745Z 03003KT 9999 FEW018 SCT060 18/15 Q1023=
200810250715 METAR LIRA 250715Z 36003KT 9999 FEW018 SCT060 17/15 Q1023=
200810250700 METAR LIRA INTER CB NW/S=
200810250645 METAR LIRA 250645Z 00000KT 9999 FEW018 BKN070 17/15 Q1023=
200810250615 METAR LIRA 250615Z 00000KT 9999 FEW018 SCT025 17/15 Q1022=
200810250545 METAR LIRA 250545Z 00000KT 9999 FEW017 SCT025 17/15 Q1022=
200810250515 METAR LIRA 250515Z 00000KT 8000 FEW018 SCT025 17/14 Q1022=
200810250445 METAR LIRA 250445Z 00000KT 8000 FEW018 SCT025 17/15 Q1022=
200810250415 METAR LIRA 250415Z 36002KT 8000 FEW018 SCT025 17/15 Q1022=
200810250345 METAR LIRA 250345Z 01002KT 8000 FEW018 SCT025 17/15 Q1022=
200810250315 METAR LIRA 250315Z 08002KT 8000 FEW018 SCT025 17/15 Q1022=
200810250245 METAR LIRA 250245Z 02002KT 9999 FEW018 SCT070 17/15 Q1022=
200810250215 METAR LIRA 250215Z 00000KT 9999 FEW018 SCT070 17/15 Q1022=
200810250145 METAR LIRA 250145Z 00000KT 9999 FEW018 SCT070 18/15 Q1022=
200810250115 METAR LIRA 250115Z 00000KT 9999 FEW018 SCT070 18/15 Q1022=
200810250045 METAR LIRA 250045Z 02001KT 9999 FEW018 BKN070 18/15 Q1022=
200810250015 METAR LIRA 250015Z 09002KT 9999 FEW018 SCT070 18/14 Q1022=
200810242345 METAR LIRA 242345Z 06003KT 9999 FEW018 SCT070 18/15 Q1022=
200810242315 METAR LIRA 242315Z 00000KT 9999 FEW018 SCT070 18/15 Q1022=
200810242300 METAR LIRA INT=
200810242245 METAR LIRA 242245Z 00000KT 9999 FEW030 SCT070 19/15 Q1022=
200810242215 METAR LIRA 242215Z 13001KT 9999 FEW030 SCT070 19/15 Q1022=
200810242145 METAR LIRA 242145Z 13002KT 9999 FEW030 SCT070 19/15 Q1022=
200810242115 METAR LIRA 242115Z 12004KT 9999 FEW020 BKN070 19/15 Q1022=
200810242045 METAR LIRA 242045Z 12002KT 9999 FEW018 BKN070 20/14 Q1022=
200810242015 METAR LIRA 242015Z 11003KT 9999 FEW018 BKN070 20/15 Q1021=
200810241945 METAR LIRA 241945Z 14004KT 9999 FEW018 BKN070 20/16 Q1021=
200810241915 METAR LIRA 241915Z 12004KT 9999 FEW018 BKN070 20/16 Q1021=
200810241845 METAR LIRA 241845Z 14006KT 100V180 9999 FEW018 BKN070 20/16
                        Q1021=
200810241815 METAR LIRA 241815Z 13008KT 9999 FEW018 BKN070 20/15 Q1021=
200810241745 METAR LIRA 241745Z 16005KT 9999 FEW018 BKN070 21/14 Q1021=
200810241715 METAR LIRA 241715Z 17004KT 9999 FEW018 BKN070 21/12 Q1021=
200810241645 METAR LIRA 241645Z 19007KT 9999 FEW018 BKN070 22/12 Q1020=
200810241615 METAR LIRA 241615Z 19007KT 9999 FEW018 BKN070 22/12 Q1020=
200810241545 METAR LIRA 241545Z 21006KT 170V250 9999 FEW018 SCT070 23/12
                        Q1020=
200810241515 METAR LIRA 241515Z 21008KT 150V250 9999 FEW018 SCT080 23/12
                        Q1020=
200810241445 METAR LIRA 241445Z 19009KT 160V230 9999 FEW018 SCT080 24/11
                        Q1020=
200810241415 METAR LIRA 241415Z 19007KT 150V240 9999 FEW018 SCT080 25/11
                        Q1020=
200810241345 METAR LIRA 241345Z 20008KT 150V240 9999 FEW018 SCT080 25/10
                        Q1020=
200810241315 METAR LIRA 241315Z 21006KT 150V270 9999 FEW018 SCT080 25/10
                        Q1020=
200810241245 METAR LIRA 241245Z 20009KT 150V260 9999 FEW018 SCT200 25/11
                        Q1020=
200810241215 METAR LIRA 241215Z 20005KT 160V250 9999 FEW018 SCT200 25/12
                        Q1020=
200810241145 METAR LIRA 241145Z 17007KT 130V210 9999 FEW018 SCT200 24/13
                        Q1021=
200810241115 METAR LIRA 241115Z 09002KT 9999 FEW018 23/14 Q1021=
200810241045 METAR LIRA 241045Z 05003KT 9999 FEW080 SCT200 22/13 Q1021=
200810241015 METAR LIRA 241015Z 01002KT 9999 FEW080 SCT200 21/13 Q1021=
200810240945 METAR LIRA 240945Z 08002KT 9999 FEW080 SCT200 20/14 Q1021=
200810240915 METAR LIRA 240915Z 31002KT 9999 FEW080 SCT200 20/15 Q1021=
200810240845 METAR LIRA 240845Z 32001KT 9999 FEW080 SCT200 18/15 Q1021=
200810240815 METAR LIRA 240815Z 33002KT 9999 FEW080 SCT200 17/14 Q1021=
200810240745 METAR LIRA 240745Z 32002KT 9999 FEW080 SCT200 17/15 Q1021=
200810240715 METAR LIRA 240715Z 33001KT 9999 FEW080 SCT200 15/13 Q1021=
200810240645 METAR LIRA 240645Z 19001KT 9999 FEW080 SCT200 14/12 Q1021=
200810240615 METAR LIRA 240615Z 14002KT 9999 FEW080 SCT200 14/12 Q1020=
200810240545 METAR LIRA 240545Z 03002KT 9999 FEW080 14/12 Q1020=
200810240515 METAR LIRA 240515Z 10002KT 9999 FEW080 13/12 Q1020=
200810240445 METAR LIRA 240445Z 11002KT 9999 FEW080 13/12 Q1020=
200810240415 METAR LIRA 240415Z 09002KT 9999 FEW080 13/12 Q1020=
200810240345 METAR LIRA 240345Z 00000KT CAVOK 14/12 Q1020=
200810240315 METAR LIRA 240315Z 00000KT CAVOK 15/13 Q1020=
200810240245 METAR LIRA 240245Z 00000KT 9999 FEW070 16/13 Q1020=
200810240215 METAR LIRA 240215Z 09001KT CAVOK 16/13 Q1020=
200810240145 METAR LIRA 240145Z 05002KT 9999 FEW070 16/13 Q1020=
200810240115 METAR LIRA 240115Z 10001KT 9999 SCT060 17/13 Q1020=
200810240045 METAR LIRA 240045Z 14002KT 9999 FEW040 SCT060 17/14 Q1020=
200810240015 METAR LIRA 240015Z 16003KT 9999 FEW040 SCT060 16/15 Q1020=
200810232345 METAR LIRA 232345Z 17003KT 9999 FEW040 BKN060 16/15 Q1020=
200810232315 METAR LIRA 232315Z 00000KT 9999 FEW040 SCT060 16/14 Q1020=
200810232245 METAR LIRA 232245Z 00000KT 9999 FEW040 SCT070 16/13 Q1020=
200810232215 METAR LIRA 232215Z 00000KT 9999 FEW040 SCT070 16/13 Q1020=
200810232145 METAR LIRA 232145Z 00000KT 9999 FEW040 SCT070 17/14 Q1020=
200810232115 METAR LIRA 232115Z 00000KT 9999 SCT070 18/15 Q1020=
200810232045 METAR LIRA 232045Z 00000KT 9999 FEW040 BKN070 18/14 Q1020=
200810232015 METAR LIRA 232015Z 00000KT 9999 FEW040 SCT070 18/14 Q1020=
200810231945 METAR LIRA 231945Z 00000KT 9999 SCT040 SCT070 18/13 Q1020=
200810231915 METAR LIRA 231915Z 06002KT 9999 SCT035 SCT070 19/13 Q1020=
200810231845 METAR LIRA 231845Z 00000KT 9999 SCT035 SCT070 19/13 Q1020=
200810231815 METAR LIRA 231815Z 11002KT 9999 SCT030 SCT070 19/13 Q1019=
200810231745 METAR LIRA 231745Z 00000KT 9999 SCT035 SCT070 19/13 Q1019=
200810231715 METAR LIRA 231715Z 09003KT 9999 FEW020 SCT030 BKN070 19/13
                        Q1019=
200810231645 METAR LIRA 231645Z 08005KT 9999 FEW020 SCT035 BKN070 19/14
                        Q1019=
200810231615 METAR LIRA 231615Z 04006KT 020V080 9999 FEW020 SCT035 BKN070
                        19/15 Q1019=
200810231545 METAR LIRA 231545Z 08004KT 040V120 9999 -DZ FEW018 BKN070
                        19/15 Q1019=
200810231515 METAR LIRA 231515Z 08005KT 9999 -DZ FEW018 BKN070 19/15 Q1019=
200810231445 METAR LIRA 231445Z 08005KT 9999 -DZ FEW018 BKN070 20/15 Q1019=
200810231415 METAR LIRA 231415Z 07005KT 020V100 9999 FEW018 BKN070 20/16
                        Q1019=
200810231345 METAR LIRA 231345Z 06006KT 9999 -DZ FEW018 BKN070 20/16 Q1019=
200810231315 METAR LIRA 231315Z 07004KT 9999 -RA FEW018 SCT030 BKN070
                        20/16 Q1019=
200810231245 METAR LIRA 231245Z 09004KT 9000 -DZ FEW018 SCT030 BKN070
                        21/16 Q1019=
200810231215 METAR LIRA 231215Z 17003KT 9000 -DZ FEW018 SCT030 BKN070
                        21/16 Q1019=
200810231145 METAR LIRA 231145Z 18002KT 9000 -DZ FEW018 SCT030 BKN070
                        21/16 Q1019=
200810231115 METAR LIRA 231115Z 17005KT 9999 FEW018 SCT030 BKN070 21/11
                        Q1019=
200810231045 METAR LIRA 231045Z 17007KT 9999 FEW018 SCT030 BKN070 21/11
                        Q1019=
200810231015 METAR LIRA 231015Z 17005KT 9999 FEW018 SCT030 BKN070 21/11
                        Q1019=
200810230945 METAR LIRA 230945Z 00000KT 9999 FEW018 SCT030 BKN070 21/11
                        Q1018=
200810230915 METAR LIRA 230915Z 01002KT 9999 FEW018 BKN070 19/12 Q1018=
200810230845 METAR LIRA 230845Z 00000KT 9999 FEW018 BKN070 19/12 Q1018=
200810230815 METAR LIRA 230815Z 36002KT 9999 FEW018 SCT030 BKN070 18/12
                        Q1018=
200810230745 METAR LIRA 230745Z 36002KT 9999 FEW018 SCT030 BKN070 17/13
                        Q1018=
200810230715 METAR LIRA 230715Z 03005KT 9999 FEW018 SCT030 BKN070 16/13
                        Q1017=
200810230645 METAR LIRA 230645Z 02003KT 9999 FEW018 BKN070 16/13 Q1017=
200810230615 METAR LIRA 230615Z 04003KT 9999 FEW018 BKN070 15/12 Q1017=
200810230545 METAR LIRA 230545Z 03003KT 9999 FEW018 BKN070 15/12 Q1017=
200810230515 METAR LIRA 230515Z 36002KT 9999 FEW018 SCT030 BKN070 15/13
                        Q1017=
200810230445 METAR LIRA 230445Z 36002KT 9999 FEW018 SCT030 BKN070 15/13
                        Q1017=
200810230415 METAR LIRA 230415Z 00000KT 9999 FEW018 SCT030 BKN070 15/12
                        Q1017=
200810230345 METAR LIRA 230345Z 08003KT 9999 SCT040 SCT070 15/12 Q1017=
200810230315 METAR LIRA 230315Z 14002KT 9999 SCT040 SCT070 15/12 Q1017=
200810230245 METAR LIRA 230245Z 08002KT 9999 SCT040 SCT070 15/12 Q1016=
200810230215 METAR LIRA 230215Z 00000KT 9999 SCT040 SCT070 15/12 Q1017=
200810230145 METAR LIRA 230145Z 00000KT 9999 FEW040 SCT080 15/12 Q1017=
200810230115 METAR LIRA 230115Z 00000KT 9999 SCT040 SCT070 15/12 Q1017=
200810230045 METAR LIRA 230045Z 00000KT 9999 FEW040 BKN200 15/12 Q1017=
200810230015 METAR LIRA 230015Z 00000KT 9999 SCT070 SCT200 15/12 Q1017=
200810222350 METAR LIRA 230045Z 00000KT 9999 FEW040 BKN200 15/12 Q1017=
200810222345 METAR LIRA 222345Z 00000KT 9999 SCT070 SCT200 16/12 Q1017=
200810222315 METAR LIRA 222315Z 00000KT 9999 SCT070 SCT200 16/12 Q1017=
200810222245 METAR LIRA 222245Z 00000KT 9999 SCT070 SCT200 16/12 Q1017=
200810222215 METAR LIRA 222215Z 05001KT 9999 SCT070 SCT200 17/13 Q1017=
200810222145 METAR LIRA 222145Z 08002KT 9999 SCT070 SCT200 17/13 Q1017=
200810222115 METAR LIRA 222115Z 02002KT 9999 FEW030 SCT070 17/12 Q1017=
200810222045 METAR LIRA 222045Z 00000KT 9999 FEW040 SCT070 17/11 Q1017=
200810222015 METAR LIRA 222015Z 00000KT 9999 FEW040 SCT070 BKN200 18/11
                        Q1017=
200810221945 METAR LIRA 221945Z 00000KT 9999 FEW040 SCT070 BKN200 18/11
                        Q1017=
200810221915 METAR LIRA 221915Z 00000KT 9999 FEW040 SCT070 19/10 Q1017=
200810221845 METAR LIRA 221845Z 05002KT 9999 SCT070 SCT200 19/12 Q1016=
200810221815 METAR LIRA 221815Z 11005KT 100V160 9999 SCT070 SCT200 19/14
                        Q1016=
200810221745 METAR LIRA 221745Z 18003KT 9999 SCT070 SCT200 19/14 Q1016=
200810221715 METAR LIRA 221715Z 19005KT 160V220 9999 SCT070 BKN200 20/14
                        Q1016=
200810221645 METAR LIRA 221645Z 20005KT 180V250 9999 SCT070 BKN200 20/14
                        Q1016=
200810221615 METAR LIRA 221615Z 20006KT 9999 FEW080 BKN200 21/13 Q1016=
200810221545 METAR LIRA 221545Z 19006KT 150V240 CAVOK 21/13 Q1016=
200810221515 METAR LIRA 221515Z 19006KT 140V230 CAVOK 22/13 Q1016=
200810221445 METAR LIRA 221445Z 21006KT 160V240 CAVOK 23/12 Q1016=
200810221415 METAR LIRA 221415Z 19009KT 160V240 CAVOK 23/11 Q1016=
200810221345 METAR LIRA 221345Z 19008KT 150V240 9999 FEW020 BKN200 23/11
                        Q1016=
200810221315 METAR LIRA 221315Z 20007KT 160V240 9999 FEW020 BKN200 24/11
                        Q1016=
200810221245 METAR LIRA 221245Z 19008KT 130V240 9999 FEW020 BKN200 24/11
                        Q1016=
200810221215 METAR LIRA 221215Z 18008KT 150V240 9999 FEW020 BKN200 24/10
                        Q1016=
200810221145 METAR LIRA 221145Z 18010KT 9999 FEW020 SCT200 23/10 Q1017=
200810221115 METAR LIRA 221115Z 18007KT 140V220 9999 FEW020 23/11 Q1017=
200810221045 METAR LIRA 221045Z 20010KT 150V240 9999 FEW020 22/12 Q1017=
200810221015 METAR LIRA 221015Z 20009KT 150V250 9999 FEW020 22/13 Q1017=
200810220945 METAR LIRA 220945Z 18008KT 140V240 9999 FEW020 20/14 Q1017=
200810220915 METAR LIRA 220915Z 20006KT 9999 FEW020 19/13 Q1017=
200810220845 METAR LIRA 220845Z 35003KT 9999 FEW025 16/12 Q1017=
200810220815 METAR LIRA 220815Z 31004KT CAVOK 16/12 Q1017=
200810220745 METAR LIRA 220745Z 30003KT CAVOK 14/12 Q1017=
200810220715 METAR LIRA 220715Z 04002KT CAVOK 14/12 Q1017=
200810220645 METAR LIRA 220645Z 08003KT CAVOK 12/11 Q1017=
200810220615 METAR LIRA 220615Z 04001KT CAVOK 11/11 Q1016=
200810220545 METAR LIRA 220545Z 06002KT CAVOK 11/10 Q1016=
200810220515 METAR LIRA 220515Z 06003KT CAVOK 11/10 Q1016=
200810220445 METAR LIRA 220445Z 00000KT CAVOK 12/11 Q1017=
200810220415 METAR LIRA 220415Z 00000KT CAVOK 12/11 Q1017=
200810220345 METAR LIRA 220345Z 00000KT CAVOK 12/11 Q1017=
200810220315 METAR LIRA 220315Z 00000KT CAVOK 12/11 Q1017=
200810220245 METAR LIRA 220245Z 35001KT CAVOK 13/12 Q1017=
200810220215 METAR LIRA 220215Z 01001KT CAVOK 13/11 Q1017=
200810220145 METAR LIRA 220145Z 03002KT CAVOK 13/11 Q1017=
200810220115 METAR LIRA 220115Z 06002KT CAVOK 14/11 Q1018=
200810220045 METAR LIRA 220045Z 13001KT CAVOK 14/11 Q1018=
200810220015 METAR LIRA 220015Z 13002KT CAVOK 14/12 Q1018=
200810212345 METAR LIRA 212345Z 13003KT CAVOK 15/12 Q1019=
200810212315 METAR LIRA 212315Z 14004KT CAVOK 15/12 Q1019=
200810212245 METAR LIRA 212245Z 13005KT CAVOK 15/12 Q1019=
200810212215 METAR LIRA 212215Z 15003KT CAVOK 15/12 Q1019=
200810212145 METAR LIRA 212145Z 15003KT CAVOK 15/13 Q1018=
200810212115 METAR LIRA 212115Z 13002KT CAVOK 16/13 Q1018=
200810212045 METAR LIRA 212045Z 12001KT CAVOK 16/13 Q1018=
200810212015 METAR LIRA 212015Z 17001KT CAVOK 17/13 Q1018=
200810211945 METAR LIRA 211945Z 18001KT CAVOK 17/13 Q1018=
200810211915 METAR LIRA 211915Z 20004KT CAVOK 17/13 Q1018=
200810211845 METAR LIRA 211845Z 19003KT CAVOK 18/13 Q1018=
200810211815 METAR LIRA 211815Z 18003KT CAVOK 18/13 Q1018=
200810211745 METAR LIRA 211745Z 18003KT CAVOK 19/13 Q1018=
200810211715 METAR LIRA 211715Z 22003KT CAVOK 20/13 Q1018=
200810211645 METAR LIRA 211645Z 22003KT 9999 FEW018 BKN200 20/13 Q1018=
200810211615 METAR LIRA 211615Z 25003KT 9999 FEW025 BKN200 21/13 Q1018=
200810211545 METAR LIRA 211545Z 25006KT 210V320 9999 FEW025 BKN200 22/12
                        Q1018=
200810211515 METAR LIRA 211515Z 25004KT 210V320 9999 FEW025 BKN200 23/13
                        Q1018=
200810211445 METAR LIRA 211445Z 23004KT 9999 FEW020 BKN200 24/13 Q1018=
200810211415 METAR LIRA 211415Z 23004KT 9999 FEW020 BKN200 24/13 Q1018=
200810211345 METAR LIRA 211345Z 26004KT 9999 FEW020 BKN200 24/13 Q1019=
200810211315 METAR LIRA 211315Z 22002KT 9999 SCT020 SCT200 24/13 Q1019=
200810211245 METAR LIRA 211245Z 25005KT 200V280 9999 SCT020 SCT200 24/12
                        Q1019=
200810211215 METAR LIRA 211215Z 19004KT 9999 FEW020 BKN200 24/10 Q1019=
200810211145 METAR LIRA 211145Z 28003KT 9999 FEW020 BKN200 23/11 Q1019=
200810211115 METAR LIRA 211115Z 14001KT 9999 FEW020 BKN200 23/11 Q1020=
200810211045 METAR LIRA 211045Z 00000KT 9999 FEW025 BKN200 21/12 Q1020=
200810211015 METAR LIRA 211015Z 00000KT 9999 FEW025 BKN200 21/12 Q1020=
200810210945 METAR LIRA 210945Z 36002KT 9999 FEW025 BKN200 20/13 Q1021=
200810210915 METAR LIRA 210915Z 02002KT CAVOK 19/12 Q1021=
200810210845 METAR LIRA 210845Z 35003KT CAVOK 18/13 Q1021=
200810210815 METAR LIRA 210815Z 36004KT CAVOK 16/13 Q1021=
200810210745 METAR LIRA 210745Z 02002KT CAVOK 14/12 Q1021=
200810210715 METAR LIRA 210715Z 00000KT CAVOK 14/12 Q1020=
200810210645 METAR LIRA 210645Z 00000KT CAVOK 13/11 Q1020=
200810210615 METAR LIRA 210615Z 00000KT CAVOK 12/11 Q1020=
200810210600 METAR LIRA INTER CB ALQUADS=
200810210545 METAR LIRA 210545Z 10001KT CAVOK 12/11 Q1020=
200810210515 METAR LIRA 210515Z 14001KT CAVOK 12/11 Q1020=
200810210445 METAR LIRA 210445Z 07002KT CAVOK 12/11 Q1020=
200810210415 METAR LIRA 210415Z 04002KT CAVOK 12/12 Q1020=
200810210345 METAR LIRA 210345Z 03003KT CAVOK 12/11 Q1020=
200810210315 METAR LIRA 210315Z 04002KT CAVOK 12/11 Q1021=
200810210245 METAR LIRA 210245Z 05002KT CAVOK 13/11 Q1021=
200810210215 METAR LIRA 210215Z 09002KT CAVOK 13/11 Q1021=
200810210145 METAR LIRA 210145Z 10002KT CAVOK 13/11 Q1021=
200810210115 METAR LIRA 210115Z 08003KT CAVOK 13/11 Q1021=
200810210045 METAR LIRA 210045Z 09002KT CAVOK 13/11 Q1022=
200810210015 METAR LIRA 210015Z 12002KT CAVOK 14/12 Q1022=
200810202345 METAR LIRA 202345Z 18003KT CAVOK 15/12 Q1021=
200810202315 METAR LIRA 202315Z 14002KT CAVOK 14/11 Q1021=
200810202245 METAR LIRA 202245Z 16003KT CAVOK 14/11 Q1022=
200810202215 METAR LIRA 202215Z 14002KT CAVOK 15/12 Q1022=
200810202145 METAR LIRA 202145Z 15001KT CAVOK 15/12 Q1022=
200810202115 METAR LIRA 202115Z 13001KT CAVOK 15/13 Q1022=
200810202045 METAR LIRA 202045Z 12004KT CAVOK 16/14 Q1022=
200810202015 METAR LIRA 202015Z 00000KT CAVOK 16/14 Q1022=
200810201945 METAR LIRA 201945Z 19001KT CAVOK 16/14 Q1022=
200810201915 METAR LIRA 201915Z 11002KT CAVOK 17/15 Q1022=
200810201845 METAR LIRA 201845Z 11003KT CAVOK 17/15 Q1023=
200810201815 METAR LIRA 201815Z 19002KT CAVOK 18/16 Q1023=
200810201745 METAR LIRA 201745Z 18002KT CAVOK 18/16 Q1023=
200810201715 METAR LIRA 201715Z 23002KT CAVOK 19/15 Q1023=
200810201645 METAR LIRA 201645Z 19002KT CAVOK 19/15 Q1023=
200810201615 METAR LIRA 201615Z 27003KT 220V310 CAVOK 20/12 Q1023=
200810201545 METAR LIRA 201545Z 28006KT 230V330 9999 FEW018 21/13 Q1023=
200810201515 METAR LIRA 201515Z 28008KT 210V330 9999 FEW018 22/13 Q1023=
200810201445 METAR LIRA 201445Z 25006KT 230V300 9999 FEW018 SCT200 24/12
                        Q1023=
200810201415 METAR LIRA 201415Z 28005KT 240V310 9999 FEW018 SCT200 24/10
                        Q1023=
200810201345 METAR LIRA 201345Z 22001KT 9999 FEW018 SCT200 24/10 Q1023=
200810201315 METAR LIRA 201315Z 34004KT 280V350 9999 FEW018 SCT200 23/11
                        Q1023=
200810201245 METAR LIRA 201245Z 22002KT 9999 FEW018 SCT200 23/10 Q1024=
200810201215 METAR LIRA 201215Z 17003KT 9999 FEW018 SCT200 23/09 Q1024=
200810201145 METAR LIRA 201145Z 24003KT 9999 FEW018 SCT200 23/10 Q1024=
200810201115 METAR LIRA 201115Z 23004KT 9999 FEW018 SCT200 23/11 Q1024=
200810201045 METAR LIRA 201045Z 00000KT 9999 FEW018 SCT200 21/12 Q1025=
200810201015 METAR LIRA 201015Z 00000KT CAVOK 20/12 Q1025=
200810200945 METAR LIRA 200945Z 33001KT CAVOK 19/12 Q1025=
200810200915 METAR LIRA 200915Z 35002KT CAVOK 16/12 Q1025=
200810200845 METAR LIRA 200845Z 36001KT CAVOK 14/11 Q1025=
200810200815 METAR LIRA 200815Z 02003KT CAVOK 14/11 Q1024=
200810200745 METAR LIRA 200745Z 36002KT CAVOK 13/12 Q1024=
200810200715 METAR LIRA 200715Z 04002KT 8000 NSC 12/11 Q1024=
200810200645 METAR LIRA 200645Z 03003KT 8000 NSC 11/11 Q1024=
200810200615 METAR LIRA 200615Z 04002KT 8000 NSC 11/11 Q1024=
200810200545 METAR LIRA 200545Z 06002KT 8000 NSC 12/11 Q1024=
200810200515 METAR LIRA 200515Z 03002KT CAVOK 12/11 Q1024=
200810200445 METAR LIRA 200445Z 02001KT CAVOK 12/11 Q1024=
200810200415 METAR LIRA 200415Z 06003KT CAVOK 12/12 Q1024=
200810200345 METAR LIRA 200345Z 05002KT CAVOK 12/11 Q1024=
200810200315 METAR LIRA 200315Z 03001KT CAVOK 12/10 Q1024=
200810200245 METAR LIRA 200245Z 03001KT CAVOK 12/10 Q1024=
200810200215 METAR LIRA 200215Z 03001KT CAVOK 13/10 Q1024=
200810200145 METAR LIRA 200145Z 00000KT CAVOK 13/11 Q1024=
200810200115 METAR LIRA 200115Z 00000KT CAVOK 13/11 Q1024=
200810200045 METAR LIRA 200045Z 00000KT CAVOK 13/11 Q1024=
200810200015 METAR LIRA 200015Z 00000KT CAVOK 14/11 Q1024=
200810192345 METAR LIRA 192345Z 15001KT CAVOK 14/12 Q1024=
200810192315 METAR LIRA 192315Z 15002KT CAVOK 15/13 Q1024=
200810192245 METAR LIRA 192245Z 15003KT CAVOK 15/13 Q1024=
200810192215 METAR LIRA 192215Z 15002KT CAVOK 15/13 Q1024=
200810192145 METAR LIRA 192145Z 15002KT CAVOK 16/14 Q1024=
200810192115 METAR LIRA 192115Z 15002KT CAVOK 16/13 Q1024=
200810192045 METAR LIRA 192045Z 15002KT CAVOK 16/14 Q1024=
200810192015 METAR LIRA 192015Z 15002KT CAVOK 16/13 Q1024=
200810191945 METAR LIRA 191945Z 15002KT CAVOK 16/13 Q1024=
200810191915 METAR LIRA 191915Z 14002KT CAVOK 17/14 Q1022=
200810191845 METAR LIRA 191845Z 11002KT CAVOK 18/13 Q1022=
200810191815 METAR LIRA 191815Z 18002KT 9999 FEW070 18/12 Q1022=
200810191745 METAR LIRA 191745Z 19002KT 9999 FEW070 19/11 Q1022=
200810191715 METAR LIRA 191715Z 23002KT 9999 FEW020 SCT200 19/12 Q1022=
200810191645 METAR LIRA 191645Z 24002KT 9999 FEW020 SCT200 20/12 Q1022=
200810191615 METAR LIRA 191615Z 27003KT 9999 FEW020 SCT200 21/13 Q1022=
200810191545 METAR LIRA 191545Z 28006KT 240V330 9999 FEW020 SCT200 22/13
                        Q1022=
200810191515 METAR LIRA 191515Z 27004KT 210V320 9999 FEW020 BKN200 23/12
                        Q1022=
200810191445 METAR LIRA 191445Z 26005KT 220V330 9999 FEW020 BKN200 23/13
                        Q1022=
200810191415 METAR LIRA 191415Z 25003KT 9999 FEW018 BKN200 23/13 Q1022=
200810191345 METAR LIRA 191345Z 27004KT 240V340 9999 FEW018 BKN200 23/11
                        Q1022=
200810191315 METAR LIRA 191315Z 23003KT 200V270 9999 FEW018 BKN200 23/11
                        Q1022=
200810191245 METAR LIRA 191245Z 24004KT 9999 FEW018 BKN200 23/11 Q1023=
200810191215 METAR LIRA 191215Z 25005KT 230V300 9999 FEW018 BKN200 23/13
                        Q1023=
200810191145 METAR LIRA 191145Z 27004KT 9999 FEW018 BKN200 22/15 Q1024=
200810191115 METAR LIRA 191115Z 00000KT 9999 FEW016 BKN200 21/14 Q1024=
200810191045 METAR LIRA 191045Z 32003KT 9999 FEW016 BKN200 20/14 Q1023=
200810191015 METAR LIRA 191015Z 34002KT 9999 FEW020 BKN200 19/14 Q1023=
200810190945 METAR LIRA 190945Z 00000KT CAVOK 18/14 Q1023=
200810190915 METAR LIRA 190915Z 36003KT CAVOK 17/13 Q1023=
200810190845 METAR LIRA 190845Z 02003KT CAVOK 16/13 Q1023=
200810190815 METAR LIRA 190815Z 36002KT CAVOK 14/13 Q1023=
200810190745 METAR LIRA 190745Z 36002KT CAVOK 13/13 Q1023=
200810190715 METAR LIRA 190715Z 04002KT CAVOK 13/12 Q1023=
200810190645 METAR LIRA 190645Z 34002KT CAVOK 12/12 Q1022=
200810190615 METAR LIRA 190615Z 07002KT CAVOK 12/11 Q1022=
200810190545 METAR LIRA 190545Z 07003KT CAVOK 12/11 Q1021=
200810190515 METAR LIRA 190515Z 00000KT CAVOK 13/11 Q1021=
200810190445 METAR LIRA 190445Z 01002KT CAVOK 13/11 Q1021=
200810190415 METAR LIRA 190415Z 00000KT CAVOK 13/11 Q1021=
200810190345 METAR LIRA 190345Z 00000KT CAVOK 13/10 Q1021=
200810190315 METAR LIRA 190315Z 09001KT 9999 FEW060 13/11 Q1021=
200810190245 METAR LIRA 190245Z 08001KT 9999 FEW060 14/11 Q1021=
200810190215 METAR LIRA 190215Z 06004KT CAVOK 14/12 Q1021=
200810190145 METAR LIRA 190145Z 00000KT 9999 FEW060 15/12 Q1021=
200810190115 METAR LIRA 190115Z 14001KT 9999 FEW060 15/13 Q1021=
200810190045 METAR LIRA 190045Z 17002KT CAVOK 15/13 Q1021=
200810190015 METAR LIRA 190015Z 00000KT CAVOK 15/14 Q1021=
200810182350 METAR LIRA 190045Z 17002KT CAVOK 15/13 Q1021=
200810182345 METAR LIRA 182345Z 12001KT 9999 FEW060 15/14 Q1021=
200810182315 METAR LIRA 182315Z 17001KT CAVOK 15/14 Q1021=
200810182245 METAR LIRA 182245Z 14001KT CAVOK 15/14 Q1021=
200810182215 METAR LIRA 182215Z 00000KT CAVOK 15/14 Q1021=
200810182145 METAR LIRA 182145Z 12003KT 9999 FEW040 16/15 Q1021=
200810182115 METAR LIRA 182115Z 17003KT 9999 FEW060 16/15 Q1020=
200810182045 METAR LIRA 182045Z 15003KT 9999 FEW060 16/15 Q1020=
200810182015 METAR LIRA 182015Z 15002KT 9999 FEW060 16/14 Q1020=
200810181945 METAR LIRA 181945Z 15003KT 9999 FEW060 17/15 Q1020=
200810181915 METAR LIRA 181915Z 18003KT CAVOK 17/15 Q1019=
200810181845 METAR LIRA 181845Z 14003KT CAVOK 18/15 Q1019=
200810181815 METAR LIRA 181815Z 20002KT CAVOK 18/16 Q1019=
200810181745 METAR LIRA 181745Z 19002KT CAVOK 19/15 Q1018=
200810181715 METAR LIRA 181715Z 20002KT CAVOK 19/15 Q1018=
200810181645 METAR LIRA 181645Z 22002KT 9999 SCT070 20/15 Q1018=
200810181615 METAR LIRA 181615Z 23003KT 9999 FEW020 SCT070 21/15 Q1018=
200810181545 METAR LIRA 181545Z 24005KT 180V270 9999 FEW018 22/15 Q1018=
200810181515 METAR LIRA 181515Z 22004KT 180V280 9999 FEW018 22/14 Q1018=
200810181445 METAR LIRA 181445Z 22009KT 160V270 9999 FEW018 22/13 Q1017=
200810181415 METAR LIRA 181415Z 20008KT 160V260 9999 SCT018 22/15 Q1017=
200810181345 METAR LIRA 181345Z 21008KT 170V270 9999 SCT018 22/15 Q1017=
200810181315 METAR LIRA 181315Z 22008KT 170V280 9999 SCT018 23/16 Q1017=
200810181245 METAR LIRA 181245Z 23008KT 160V270 9999 SCT018 22/16 Q1017=
200810181215 METAR LIRA 181215Z 23005KT 160V270 9999 SCT018 22/16 Q1017=
200810181145 METAR LIRA 181145Z 22008KT 220V008 9999 SCT017 22/16 Q1017=
200810181115 METAR LIRA 181115Z 20008KT 160V270 9999 SCT017 22/17 Q1017=
200810181045 METAR LIRA 181045Z 21007KT 150V270 9999 BKN017 21/16 Q1017=
200810181015 METAR LIRA 181015Z 20007KT 160V280 9999 BKN017 21/16 Q1017=
200810180945 METAR LIRA 180945Z 22006KT 170V280 9999 BKN017 21/16 Q1017=
200810180915 METAR LIRA 180915Z 15011KT 120V200 9999 SCT017 21/16 Q1017=
200810180845 METAR LIRA 180845Z 18010KT 9999 SCT017 20/16 Q1017=
200810180815 METAR LIRA 180815Z 17008KT 140V230 9999 SCT017 20/16 Q1017=
200810180745 METAR LIRA 180745Z 17008KT 9999 SCT017 18/15 Q1016=
200810180715 METAR LIRA 180715Z 18004KT 9999 SCT018 17/15 Q1016=
200810180645 METAR LIRA 180645Z 12001KT 9999 SCT018 15/14 Q1016=
200810180615 METAR LIRA 180615Z 15001KT 9999 SCT018 15/13 Q1016=
200810180545 METAR LIRA 180545Z 00000KT 9999 SCT018 15/13 Q1015=
200810180515 METAR LIRA 180515Z 00000KT 9999 FEW005 15/13 Q1015=
200810180445 METAR LIRA 180445Z 00000KT 9999 FEW005 14/12 Q1015=
200810180415 METAR LIRA 180415Z 15003KT CAVOK 15/14 Q1015=
200810180345 METAR LIRA 180345Z 12002KT CAVOK 15/14 Q1015=
200810180315 METAR LIRA 180315Z 00000KT 9999 FEW070 15/14 Q1015=
200810180245 METAR LIRA 180245Z 00000KT 9999 FEW070 16/15 Q1015=
200810180215 METAR LIRA 180215Z 00000KT 9999 SCT060 16/14 Q1015=
200810180145 METAR LIRA 180145Z 01001KT 9999 SCT030 SCT070 16/14 Q1015=
200810180115 METAR LIRA 180115Z 32003KT 9999 SCT030 SCT060 16/14 Q1015=
200810180045 METAR LIRA 180045Z 00000KT 9999 SCT030 SCT070 16/13 Q1015=
200810180015 METAR LIRA 180015Z 16001KT 9999 SCT030 SCT060 16/13 Q1015=
200810172345 METAR LIRA 172345Z 11003KT 9999 SCT030 SCT060 16/14 Q1015=
200810172315 METAR LIRA 172315Z 00000KT 9999 SCT030 SCT060 16/14 Q1015=
200810172245 METAR LIRA 172245Z 12004KT 9999 FEW018 16/14 Q1015=
200810172215 METAR LIRA 172215Z 11003KT 9999 FEW060 16/14 Q1015=
200810172145 METAR LIRA 172145Z 12003KT 9999 SCT060 16/14 Q1015=
200810172115 METAR LIRA 172115Z 06002KT 9999 SCT060 17/15 Q1015=
200810172045 METAR LIRA 172045Z 15004KT 9999 FEW060 18/15 Q1015=
200810172015 METAR LIRA 172015Z 16004KT 9999 FEW070 18/16 Q1015=
200810171945 METAR LIRA 171945Z 19002KT 9999 FEW070 18/16 Q1014=
200810171915 METAR LIRA 171915Z 15007KT 9999 FEW060 18/16 Q1014=
200810171845 METAR LIRA 171845Z 14007KT 9999 FEW035 SCT070 18/17 Q1014=
200810171815 METAR LIRA 171815Z 13007KT 9999 FEW035 SCT070 18/17 Q1014=
200810171745 METAR LIRA 171745Z 16007KT 130V190 9999 FEW035 19/17 Q1014=
200810171715 METAR LIRA 171715Z 18007KT 9999 SCT035 19/17 Q1013=
200810171645 METAR LIRA 171645Z 20005KT 9999 FEW018 SCT060 20/17 Q1013=
200810171615 METAR LIRA 171615Z 18007KT 140V210 9999 FEW018TCU SCT070
                        20/17 Q1013=
200810171545 METAR LIRA 171545Z 19006KT 9999 FEW018 SCT030 20/16 Q1013=
200810171515 METAR LIRA 171515Z 18007KT 9999 FEW018 SCT030 20/16 Q1013=
200810171445 METAR LIRA 171445Z 17008KT 9999 FEW018 SCT030 21/16 Q1013=
200810171415 METAR LIRA 171415Z 18008KT 9999 FEW018 SCT030 21/17 Q1013=
200810171345 METAR LIRA 171345Z 17009KT 9999 FEW018 FEW020TCU SCT030 21/18
                        Q1013=
200810171315 METAR LIRA 171315Z 16009KT 110V210 9999 FEW018 FEW020TCU
                        SCT030 20/18 Q1013=
200810171245 METAR LIRA 171245Z 19004KT 9000 4000S FEW010 FEW020CB SCT030
                        20/18 Q1013=
200810171215 METAR LIRA 171215Z 03001KT 8000 FEW015 FEW020CB SCT030 19/17
                        Q1013 RETS=
200810171145 METAR LIRA 171145Z 12006KT 100V200 8000 FEW015 FEW020CB SCT030
                        18/17 Q1013 RETS=
200810171115 METAR LIRA 171115Z 22002KT 7000 -TSRA FEW010 FEW018CB BKN090
                        18/17 Q1013=
200810171045 METAR LIRA 171045Z 10004KT 7000 -TSRA SCT010 FEW018CB BKN090
                        18/16 Q1013=
200810171015 METAR LIRA 171015Z 15007KT 090V180 6000 -TSRA FEW010 FEW020CB
                        BKN100 19/16 Q1013=
200810170945 METAR LIRA 170945Z 17008KT 130V220 7000 -TSRA FEW017 FEW020CB
                        SCT070 BKN100 21/16 Q1013=
200810170915 METAR LIRA 170915Z 17014KT 8000 -RA FEW017 FEW020CB BKN070
                        20/14 Q1013=
200810170845 METAR LIRA 170845Z 16012KT 120V210 8000 FEW017 FEW020CB BKN070
                        21/14 Q1013=
200810170815 METAR LIRA 170815Z 17013KT 9999 FEW020 BKN070 21/14 Q1013=
200810170745 METAR LIRA 170745Z 16013KT 110V210 9999 FEW020 SCT080 20/14
                        Q1013=
200810170715 METAR LIRA 170715Z 16011KT 9999 FEW017 SCT080 19/14 Q1013=
200810170645 METAR LIRA 170645Z 16011KT 9999 FEW017 SCT035 19/13 Q1013=
200810170615 METAR LIRA 170615Z 17011KT 9999 FEW017 SCT035 19/14 Q1013=
200810170545 METAR LIRA 170545Z 18008KT 9999 FEW017 SCT070 19/14 Q1013=
200810170515 METAR LIRA 170515Z 18007KT 120V210 9999 FEW017 SCT070 19/15
                        Q1013=
200810170445 METAR LIRA 170445Z 18007KT 9999 FEW017 SCT080 19/16 Q1013=
200810170415 METAR LIRA 170415Z 17008KT 9999 FEW017 SCT080 19/16 Q1013=
200810170345 METAR LIRA 170345Z 18006KT 9999 FEW017 SCT080 18/16 Q1014=
200810170315 METAR LIRA 170315Z 15006KT 9999 FEW017 SCT080 19/17 Q1014=
200810170245 METAR LIRA 170245Z 15008KT 9999 FEW017 SCT080 19/17 Q1014=
200810170215 METAR LIRA 170215Z 17008KT 9999 FEW017 SCT080 18/17 Q1014=
200810170145 METAR LIRA 170145Z 18007KT 9999 FEW017 SCT080 18/16 Q1015=
200810170115 METAR LIRA 170115Z 18007KT 9999 FEW017 SCT080 18/17 Q1015=
200810170045 METAR LIRA 170045Z 16009KT 9999 SCT080 SCT200 18/16 Q1015=
200810170015 METAR LIRA 170015Z 16008KT 9999 FEW022 SCT080 18/16 Q1016=
200810162345 METAR LIRA 162345Z 15007KT 9999 FEW022 SCT080 19/17 Q1016=
200810162315 METAR LIRA 162315Z 17006KT 9999 FEW022 BKN080 19/16 Q1017=
200810162245 METAR LIRA 162245Z 17005KT 9999 FEW022 BKN080 19/16 Q1017=
200810162215 METAR LIRA 162215Z 17005KT 9999 FEW020 BKN080 19/16 Q1017=
200810162145 METAR LIRA 162145Z 16007KT 160V200 9999 FEW022 BKN080 19/16
                        Q1017=
200810162115 METAR LIRA 162115Z 18006KT 9999 FEW022 BKN080 19/16 Q1017=
200810162045 METAR LIRA 162045Z 17009KT 130V200 9999 FEW022 BKN070 19/16
                        Q1017=
200810162015 METAR LIRA 162015Z 17007KT 140V200 9999 FEW034 BKN080 19/16
                        Q1017=
200810161945 METAR LIRA 161945Z 17006KT 120V200 9999 FEW018 SCT080 19/17
                        Q1017=
200810161915 METAR LIRA 161915Z 18009KT 130V230 9999 FEW018 SCT080 19/17
                        Q1017=
200810161845 METAR LIRA 161845Z 18007KT 9999 FEW018 SCT080 19/17 Q1017=
200810161815 METAR LIRA 161815Z 18009KT 9999 FEW017 SCT080 19/16 Q1017=
200810161745 METAR LIRA 161745Z 18007KT 160V220 9999 FEW017 SCT080 19/16
                        Q1017=
200810161715 METAR LIRA 161715Z 19006KT 9999 FEW017 SCT080 19/16 Q1017=
200810161645 METAR LIRA 161645Z 20006KT 170V240 9999 FEW017 SCT080 19/15
                        Q1017=
200810161615 METAR LIRA 161615Z 21007KT 170V250 9999 FEW017 SCT080 20/15
                        Q1018=
200810161545 METAR LIRA 161545Z 22008KT 170V260 9999 FEW017 22/16 Q1018=
200810161515 METAR LIRA 161515Z 21010KT 9999 FEW017 23/15 Q1018=
200810161445 METAR LIRA 161445Z 21008KT 160V260 9999 FEW017 23/15 Q1018=
200810161415 METAR LIRA 161415Z 22008KT 170V260 9999 FEW017 SCT050 23/15
                        Q1018=
200810161345 METAR LIRA 161345Z 18008KT 9999 SCT017 SCT050 23/15 Q1018=
200810161315 METAR LIRA 161315Z 18008KT 120V210 9999 SCT017 SCT050 23/15
                        Q1018=
200810161245 METAR LIRA 161245Z 18007KT 160V240 9999 SCT020 SCT070 23/15
                        Q1019=
200810161215 METAR LIRA 161215Z 19007KT 160V240 9999 SCT020 SCT070 24/14
                        Q1019=
200810161145 METAR LIRA 161145Z 19009KT 150V230 9999 SCT020 SCT070 23/14
                        Q1019=
200810161115 METAR LIRA 161115Z 16008KT 130V220 9999 SCT020 SCT070 23/15
                        Q1020=
200810161045 METAR LIRA 161045Z 18010KT 140V240 9999 SCT020 23/15 Q1020=
200810161015 METAR LIRA 161015Z 18009KT 140V230 9999 SCT020 22/15 Q1020=
200810160945 METAR LIRA 160945Z 20008KT 160V250 8000 SCT020 22/15 Q1021=
200810160915 METAR LIRA 160915Z 19008KT 130V240 8000 SCT020 SCT030 21/14
                        Q1021=
200810160845 METAR LIRA 160845Z 19008KT 8000 FEW020 SCT030 20/14 Q1021=
200810160815 METAR LIRA 160815Z 25001KT 8000 FEW020 SCT035 19/14 Q1021=
200810160745 METAR LIRA 160745Z 21002KT 8000 FEW020 SCT035 18/13 Q1020=
200810160715 METAR LIRA 160715Z 00000KT 8000 FEW020 SCT035 17/13 Q1020=
200810160645 METAR LIRA 160645Z 00000KT 8000 FEW020 BKN035 17/13 Q1020=
200810160615 METAR LIRA 160615Z 00000KT 8000 FEW020 BKN035 17/12 Q1020=
200810160545 METAR LIRA 160545Z 13002KT 8000 FEW020 BKN035 16/12 Q1020=
200810160515 METAR LIRA 160515Z 11003KT 8000 FEW022 BKN070 16/12 Q1020=
200810160445 METAR LIRA 160445Z 15001KT 8000 FEW022 BKN070 16/12 Q1020=
200810160415 METAR COR LIRA 160415Z 14002KT 8000 FEW022 BKN070 16/12 Q1020=
200810160345 METAR LIRA 160345Z 14004KT 8000 FEW022 BKN070 16/14 Q1020=
200810160315 METAR LIRA 160315Z 11003KT 8000 FEW022 BKN070 15/14 Q1020=
200810160245 METAR LIRA 160245Z 15002KT 8000 FEW022 SCT070 15/14 Q1020=
200810160215 METAR LIRA 160215Z 11005KT 8000 FEW022 BKN070 15/14 Q1020=
200810160145 METAR LIRA 160145Z 12002KT 8000 BKN070 15/14 Q1020=
200810160115 METAR LIRA 160115Z 13003KT 7000 SCT070 17/16 Q1021=
200810160100 METAR LIRA INTER CB NW/NE=
200810160045 METAR LIRA 160045Z 12005KT 6000 SKC 15/14 Q1021=
200810160015 METAR LIRA 160015Z 17004KT 6000 SKC 15/14 Q1021=
200810152345 METAR LIRA 152345Z 15005KT 5000 BR SKC 15/14 Q1021=
200810152315 METAR LIRA 152315Z 15004KT 6000 SKC 16/15 Q1021=
200810152245 METAR LIRA 152245Z 14002KT 6000 SKC 16/15 Q1021=
200810152215 METAR LIRA 152215Z 16004KT 6000 SKC 17/16 Q1021=
200810152145 METAR LIRA 152145Z 16004KT 6000 SKC 17/15 Q1021=
200810152115 METAR LIRA 152115Z 15004KT 6000 FEW015 18/16 Q1021=
200810152045 METAR LIRA 152045Z 18002KT 6000 FEW015 17/16 Q1021=
200810152015 METAR LIRA 152015Z 17004KT 7000 SKC 18/16 Q1022=
200810151945 METAR LIRA 151945Z 18004KT 7000 FEW020 18/16 Q1021=
200810151915 METAR LIRA 151915Z 21004KT 8000 FEW020 18/16 Q1021=
200810151845 METAR LIRA 151845Z 19003KT 8000 FEW020 19/17 Q1021=
200810151815 METAR LIRA 151815Z 19003KT 8000 FEW020 SCT070 19/17 Q1021=
200810151745 METAR LIRA 151745Z 20004KT 8000 FEW017 SCT070 20/16 Q1020=
200810151715 METAR LIRA 151715Z 20004KT 8000 FEW008 SCT200 21/16 Q1020=
200810151645 METAR LIRA 151645Z 21005KT 170V250 8000 FEW008 SCT200 21/16
                        Q1020=
200810151615 METAR LIRA 151615Z 21007KT 160V240 9999 FEW030 21/16 Q1020=
200810151545 METAR LIRA 151545Z 22006KT 180V270 9999 FEW018 22/16 Q1019=
200810151515 METAR LIRA 151515Z 22005KT 160V270 9999 FEW018 22/16 Q1019=
200810151445 METAR LIRA 151445Z 23007KT 180V270 9999 SCT018 24/17 Q1019=
200810151415 METAR LIRA 151415Z 21008KT 170V250 9999 SCT018 24/17 Q1019=
200810151345 METAR LIRA 151345Z 21006KT 170V270 9999 SCT018 24/16 Q1019=
200810151315 METAR LIRA 151315Z 21006KT 150V300 9999 SCT018 23/16 Q1019=
200810151245 METAR LIRA 151245Z 21006KT 170V260 9999 SCT018 23/16 Q1020=
200810151215 METAR LIRA 151215Z 21007KT 170V300 9999 SCT018 23/16 Q1020=
200810151145 METAR LIRA 151145Z 24005KT 210V300 9999 SCT018 23/15 Q1020=
200810151115 METAR LIRA 151115Z 22004KT 9999 SCT018 23/15 Q1020=
200810151045 METAR LIRA 151045Z 21005KT 180V270 9999 SCT018 23/15 Q1020=
200810151015 METAR LIRA 151015Z 24005KT 180V300 9999 FEW022 22/15 Q1020=
200810150945 METAR LIRA 150945Z 24006KT 200V270 9000 FEW022 21/15 Q1020=
200810150915 METAR LIRA 150915Z 24005KT 7000 SKC 18/16 Q1020=
200810150845 METAR LIRA 150845Z 27001KT 6000 NSC 18/15 Q1020=
200810150815 METAR LIRA 150815Z 00000KT 6000 NSC 17/15 Q1020=
200810150745 METAR LIRA 150745Z 02002KT 6000 NSC 16/15 Q1020=
200810150715 METAR LIRA 150715Z 00000KT 6000 FEW080 15/14 Q1020=
200810150645 METAR LIRA 150645Z 00000KT 6000 FEW080 SCT200 16/14 Q1020=
200810150615 METAR LIRA 150615Z 03003KT 5000 BR FEW040 BKN080 15/14 Q1019=
200810150545 METAR LIRA 150545Z 34004KT 5000 BR FEW040 BKN080 15/13 Q1019=
200810150515 METAR LIRA 150515Z 00000KT 7000 FEW040 BKN080 15/14 Q1019=
200810150445 METAR LIRA 150445Z 02002KT 7000 FEW040 BKN080 15/13 Q1019=
200810150415 METAR LIRA 150415Z 09002KT 7000 FEW040 BKN070 15/13 Q1019=
200810150345 METAR LIRA 150345Z 05001KT 7000 BKN070 14/13 Q1019=
200810150315 METAR LIRA 150315Z 07001KT 7000 SKC 14/13 Q1019=
200810150245 METAR LIRA 150245Z 10001KT 7000 SKC 14/13 Q1019=
200810150215 METAR LIRA 150215Z 09002KT 6000 SKC 15/13 Q1019=
200810150145 METAR LIRA 150145Z 09002KT 6000 SKC 15/14 Q1019=
200810150115 METAR LIRA 150115Z 07002KT 6000 SKC 15/14 Q1019=
200810150045 METAR LIRA 150045Z 06003KT 6000 SKC 15/14 Q1019=
200810150015 METAR LIRA 150015Z 16002KT 6000 FEW010 15/14 Q1019=
200810142350 METAR LIRA 150045Z 06003KT 6000 SKC 15/14 Q1019=
200810142345 METAR LIRA 142345Z 17002KT 6000 FEW010 15/14 Q1019=
200810142315 METAR LIRA 142315Z 16002KT 6000 SKC 16/14 Q1019=
200810142245 METAR LIRA 142245Z 14002KT 5000 BR SCT005 16/15 Q1019=
200810142215 METAR LIRA 142215Z 13003KT 5000 BR SCT005 16/15 Q1019=
200810142145 METAR LIRA 142145Z 00000KT 5000 BR SCT005 16/15 Q1019=
200810142115 METAR LIRA 142115Z 14001KT 5000 BR BKN005 16/15 Q1019=
200810142045 METAR LIRA 142045Z 00000KT 5000 BR BKN005 17/16 Q1019=
200810142015 METAR LIRA 142015Z 15002KT 5000 BR BKN005 17/16 Q1019=
200810141945 METAR LIRA 141945Z 19002KT 5000 BR BKN005 18/16 Q1019=
200810141915 METAR LIRA 141915Z 19003KT 5000 BR BKN005 18/16 Q1018=
200810141845 METAR LIRA 141845Z 19002KT 8000 SCT005 SCT200 18/16 Q1018=
200810141815 METAR LIRA 141815Z 20003KT 8000 FEW006 BKN200 19/16 Q1018=
200810141745 METAR LIRA 141745Z 23003KT CAVOK 19/16 Q1018=
200810141715 METAR LIRA 141715Z 22003KT CAVOK 19/15 Q1018=
200810141645 METAR LIRA 141645Z 23003KT 8000 NSC 20/15 Q1018=
200810141615 METAR LIRA 141615Z 24004KT 9999 FEW020 BKN200 21/16 Q1018=
200810141545 METAR LIRA 141545Z 23004KT 200V270 9999 FEW020 BKN200 22/16
                        Q1018=
200810141515 METAR LIRA 141515Z 22004KT 190V270 9999 FEW020 BKN200 23/16
                        Q1018=
200810141445 METAR LIRA 141445Z 24006KT 150V280 9999 FEW016 BKN200 24/16
                        Q1018=
200810141415 METAR LIRA 141415Z 23008KT 180V270 9999 FEW016 BKN200 24/15
                        Q1018=
200810141345 METAR LIRA 141345Z 25006KT 210V300 9999 FEW016 SCT200 24/12
                        Q1018=
200810141315 METAR LIRA 141315Z 19004KT 150V240 9999 FEW016 SCT200 24/12
                        Q1019=
200810141245 METAR LIRA 141245Z 24004KT 180V270 9999 FEW016 SCT200 24/13
                        Q1019=
200810141215 METAR LIRA 141215Z 18006KT 150V240 9999 FEW016 SCT200 23/13
                        Q1019=
200810141145 METAR LIRA 141145Z 21006KT 170V240 CAVOK 23/13 Q1020=
200810141115 METAR LIRA 141115Z 21006KT 160V240 CAVOK 23/13 Q1020=
200810141045 METAR LIRA 141045Z 23005KT 170V290 9999 FEW016 BKN200 22/14
                        Q1020=
200810141015 METAR LIRA 141015Z 18007KT 160V250 9999 FEW016 BKN200 21/13
                        Q1020=
200810140945 METAR LIRA 140945Z 09003KT 9999 FEW016 BKN200 20/12 Q1020=
200810140915 METAR LIRA 140915Z 02003KT 9999 FEW016 BKN200 19/11 Q1020=
200810140845 METAR LIRA 140845Z 02003KT 9999 FEW016 BKN200 17/10 Q1020=
200810140815 METAR LIRA 140815Z 04002KT CAVOK 16/11 Q1020=
200810140745 METAR LIRA 140745Z 02002KT CAVOK 14/11 Q1020=
200810140715 METAR LIRA 140715Z 04003KT 9999 FEW080 BKN200 13/10 Q1020=
200810140645 METAR LIRA 140645Z 05002KT 9999 FEW080 BKN200 13/10 Q1020=
200810140615 METAR LIRA 140615Z 04002KT 9999 FEW080 BKN200 13/10 Q1019=
200810140545 METAR LIRA 140545Z 07002KT 9999 FEW070 BKN200 13/10 Q1019=
200810140515 METAR LIRA 140515Z 04001KT 9999 FEW070 BKN200 13/10 Q1019=
200810140445 METAR LIRA 140445Z 00000KT 9999 FEW070 SCT200 13/10 Q1019=
200810140415 METAR LIRA 140415Z 33001KT 9999 FEW070 SCT200 13/10 Q1019=
200810140345 METAR LIRA 140345Z 04001KT 9999 FEW080 SCT200 13/10 Q1019=
200810140315 METAR LIRA 140315Z 30001KT 9999 SCT070 SCT200 14/11 Q1019=
200810140245 METAR LIRA 140245Z 00000KT 9999 SCT070 14/11 Q1019=
200810140215 METAR LIRA 140215Z 12003KT 9999 SCT070 13/11 Q1019=
200810140145 METAR LIRA 140145Z 06001KT 9999 SCT070 13/11 Q1019=
200810140115 METAR LIRA 140115Z 05002KT 9999 SCT080 13/11 Q1019=
200810140045 METAR LIRA 140045Z 06002KT CAVOK 13/10 Q1019=
200810140015 METAR LIRA 140015Z 34004KT CAVOK 15/11 Q1020=
200810132345 METAR LIRA 132345Z 06002KT CAVOK 15/11 Q1020=
200810132315 METAR LIRA 132315Z 03002KT CAVOK 15/09 Q1020=
200810132245 METAR LIRA 132245Z 07002KT CAVOK 16/11 Q1020=
200810132215 METAR LIRA 132215Z 33001KT CAVOK 16/11 Q1020=
200810132145 METAR LIRA 132145Z 12004KT CAVOK 16/11 Q1020=
200810132115 METAR LIRA 132115Z 12003KT CAVOK 17/11 Q1020=
200810132045 METAR LIRA 132045Z 12002KT CAVOK 17/11 Q1020=
200810132015 METAR LIRA 132015Z 12002KT CAVOK 17/11 Q1020=
200810131945 METAR LIRA 131945Z 16004KT CAVOK 18/12 Q1020=
200810131915 METAR LIRA 131915Z 19003KT CAVOK 18/12 Q1020=
200810131845 METAR LIRA 131845Z 19004KT CAVOK 19/12 Q1020=
200810131815 METAR LIRA 131815Z 18004KT CAVOK 19/12 Q1020=
200810131745 METAR LIRA 131745Z 17005KT CAVOK 20/12 Q1020=
200810131715 METAR LIRA 131715Z 19004KT CAVOK 20/12 Q1020=
200810131645 METAR LIRA 131645Z 19003KT CAVOK 21/11 Q1019=
200810131615 METAR LIRA 131615Z 21003KT 9999 FEW080 SCT200 21/11 Q1019=
200810131545 METAR LIRA 131545Z 25003KT 210V310 CAVOK 22/10 Q1019=
200810131515 METAR LIRA 131515Z 28007KT 240V340 CAVOK 23/10 Q1019=
200810131445 METAR LIRA 131445Z 28005KT 190V350 CAVOK 24/08 Q1019=
200810131415 METAR LIRA 131415Z 29008KT 230V350 CAVOK 25/07 Q1019=
200810131345 METAR LIRA 131345Z 32004KT CAVOK 25/06 Q1019=
200810131315 METAR LIRA 131315Z 33003KT CAVOK 25/09 Q1020=
200810131245 METAR LIRA 131245Z 32003KT 300V070 CAVOK 25/09 Q1020=
200810131215 METAR LIRA 131215Z 01004KT 290V040 CAVOK 24/07 Q1020=
200810131145 METAR LIRA 131145Z 33006KT 300V030 CAVOK 23/07 Q1021=
200810131115 METAR LIRA 131115Z 32005KT CAVOK 23/07 Q1021=
200810131045 METAR LIRA 131045Z 32004KT CAVOK 22/07 Q1022=
200810131015 METAR LIRA 131015Z 34005KT CAVOK 22/08 Q1022=
200810130945 METAR LIRA 130945Z 32003KT CAVOK 20/08 Q1022=
200810130915 METAR LIRA 130915Z 34005KT CAVOK 18/08 Q1022=
200810130845 METAR LIRA 130845Z 03003KT CAVOK 18/08 Q1022=
200810130815 METAR LIRA 130815Z 03004KT CAVOK 16/09 Q1023=
200810130745 METAR LIRA 130745Z 36005KT CAVOK 15/09 Q1023=
200810130715 METAR LIRA 130715Z 02005KT CAVOK 14/09 Q1022=
200810130645 METAR LIRA 130645Z 04004KT CAVOK 13/09 Q1022=
200810130615 METAR LIRA 130615Z 05003KT CAVOK 11/08 Q1022=
200810130545 METAR LIRA 130545Z 04005KT 310V090 CAVOK 11/08 Q1022=
200810130515 METAR LIRA 130515Z 05005KT 340V080 CAVOK 11/09 Q1022=
200810130445 METAR LIRA 130445Z 06005KT CAVOK 11/09 Q1022=
200810130415 METAR LIRA 130415Z 04004KT CAVOK 11/10 Q1022=
200810130345 METAR LIRA 130345Z 05002KT CAVOK 12/11 Q1023=
200810130315 METAR LIRA 130315Z 34001KT CAVOK 12/11 Q1023=
200810130245 METAR LIRA 130245Z 06004KT CAVOK 12/11 Q1023=
200810130215 METAR LIRA 130215Z 04003KT CAVOK 12/10 Q1024=
200810130145 METAR LIRA 130145Z 06004KT CAVOK 12/11 Q1024=
200810130115 METAR LIRA 130115Z 06004KT CAVOK 13/11 Q1024=
200810130045 METAR LIRA 130045Z 11002KT CAVOK 13/11 Q1024=
200810130015 METAR LIRA 130015Z 10004KT CAVOK 13/11 Q1025=
200810122350 METAR LIRA 130045Z 11002KT CAVOK 13/11 Q1024=
200810122345 METAR LIRA 122345Z 00000KT CAVOK 13/11 Q1025=
200810122315 METAR LIRA 122315Z 00000KT CAVOK 14/11 Q1025=
200810122245 METAR LIRA 122245Z 00000KT CAVOK 15/12 Q1025=
200810122215 METAR LIRA 122215Z 00000KT CAVOK 15/12 Q1025=
200810122145 METAR LIRA 122145Z 12002KT CAVOK 16/12 Q1025=
200810122115 METAR LIRA 122115Z 13002KT CAVOK 17/13 Q1025=
200810122045 METAR LIRA 122045Z 13001KT CAVOK 16/12 Q1026=
200810122015 METAR LIRA 122015Z 15003KT CAVOK 17/13 Q1026=
200810121945 METAR LIRA 121945Z 15002KT CAVOK 18/14 Q1026=
200810121915 METAR LIRA 121915Z 17003KT CAVOK 18/15 Q1026=
200810121845 METAR LIRA 121845Z 17005KT CAVOK 18/14 Q1026=
200810121815 METAR LIRA 121815Z 17005KT CAVOK 19/15 Q1026=
200810121745 METAR LIRA 121745Z 17005KT CAVOK 20/14 Q1026=
200810121715 METAR LIRA 121715Z 19005KT CAVOK 21/13 Q1026=
200810121645 METAR LIRA 121645Z 21005KT 170V240 CAVOK 22/12 Q1026=
200810121615 METAR LIRA 121615Z 24004KT 210V280 CAVOK 23/11 Q1026=
200810121545 METAR LIRA 121545Z 26005KT 200V300 CAVOK 25/11 Q1026=
200810121515 METAR LIRA 121515Z 26007KT 230V330 CAVOK 25/11 Q1026=
200810121445 METAR LIRA 121445Z 28007KT 210V320 CAVOK 25/11 Q1026=
200810121415 METAR LIRA 121415Z 27007KT 210V320 CAVOK 25/11 Q1027=
200810121345 METAR LIRA 121345Z 27007KT 210V310 CAVOK 25/12 Q1027=
200810121315 METAR LIRA 121315Z 28007KT 220V320 CAVOK 25/11 Q1027=
200810121245 METAR LIRA 121245Z 29005KT 270V340 CAVOK 25/08 Q1027=
200810121215 METAR LIRA 121215Z 27002KT CAVOK 24/08 Q1028=
200810121145 METAR LIRA 121145Z 27001KT CAVOK 23/07 Q1028=
200810121115 METAR LIRA 121115Z 34004KT CAVOK 23/08 Q1029=
200810121045 METAR LIRA 121045Z 30005KT 240V340 CAVOK 22/08 Q1029=
200810121015 METAR LIRA 121015Z 31002KT CAVOK 21/08 Q1029=
200810120945 METAR LIRA 120945Z 34004KT CAVOK 19/10 Q1029=
200810120915 METAR LIRA 120915Z 02003KT CAVOK 18/10 Q1029=
200810120845 METAR LIRA 120845Z 01003KT CAVOK 17/11 Q1029=
200810120815 METAR LIRA 120815Z 35005KT CAVOK 16/11 Q1029=
200810120745 METAR LIRA 120745Z 36005KT CAVOK 14/11 Q1029=
200810120715 METAR LIRA 120715Z 03004KT CAVOK 14/11 Q1029=
200810120645 METAR LIRA 120645Z 02003KT CAVOK 12/11 Q1029=
200810120615 METAR LIRA 120615Z 03003KT CAVOK 12/11 Q1029=
200810120545 METAR LIRA 120545Z 05005KT CAVOK 12/11 Q1029=
200810120515 METAR LIRA 120515Z 03003KT CAVOK 12/11 Q1029=
200810120445 METAR LIRA 120445Z 04003KT 8000 SKC 12/11 Q1029=
200810120415 METAR LIRA 120415Z 05005KT 310V060 8000 SKC 12/11 Q1029=
200810120345 METAR LIRA 120345Z 35003KT 8000 SKC 12/11 Q1029=
200810120315 METAR LIRA 120315Z 33003KT 8000 SKC 13/11 Q1030=
200810120245 METAR LIRA 120245Z 05004KT 8000 SKC 13/12 Q1030=
200810120215 METAR LIRA 120215Z 03004KT 8000 SKC 13/12 Q1030=
200810120145 METAR LIRA 120145Z 36001KT 8000 SKC 14/12 Q1030=
200810120115 METAR LIRA 120115Z 05003KT CAVOK 14/12 Q1031=
200810120045 METAR LIRA 120045Z 08003KT CAVOK 14/12 Q1031=
200810120015 METAR LIRA 120015Z 00000KT CAVOK 15/12 Q1031=
200810112345 METAR LIRA 112345Z 00000KT CAVOK 15/13 Q1031=
200810112315 METAR LIRA 112315Z 00000KT CAVOK 16/12 Q1031=
200810112245 METAR LIRA 112245Z 16001KT CAVOK 17/13 Q1031=
200810112215 METAR LIRA 112215Z 15001KT CAVOK 17/13 Q1031=
200810112145 METAR LIRA 112145Z 16003KT CAVOK 17/13 Q1031=
200810112115 METAR LIRA 112115Z 17003KT CAVOK 18/14 Q1031=
200810112045 METAR LIRA 112045Z 17002KT CAVOK 17/14 Q1031=
200810112015 METAR LIRA 112015Z 16003KT CAVOK 18/14 Q1030=
200810111945 METAR LIRA 111945Z 14005KT CAVOK 18/14 Q1030=
200810111915 METAR LIRA 111915Z 17002KT CAVOK 19/15 Q1030=
200810111845 METAR LIRA 111845Z 17004KT CAVOK 19/15 Q1030=
200810111815 METAR LIRA 111815Z 18004KT CAVOK 20/13 Q1030=
200810111745 METAR LIRA 111745Z 19004KT CAVOK 20/13 Q1030=
200810111715 METAR LIRA 111715Z 21004KT CAVOK 22/13 Q1030=
200810111645 METAR LIRA 111645Z 23004KT CAVOK 22/14 Q1030=
200810111615 METAR LIRA 111615Z 24005KT 210V280 CAVOK 23/14 Q1030=
200810111545 METAR LIRA 111545Z 25006KT 200V300 CAVOK 23/15 Q1030=
200810111515 METAR LIRA 111515Z 25006KT 210V280 9999 FEW025 24/15 Q1030=
200810111445 METAR LIRA 111445Z 25007KT 220V290 9999 FEW025 24/15 Q1030=
200810111415 METAR LIRA 111415Z 21006KT 160V270 9999 FEW024 25/16 Q1030=
200810111345 METAR LIRA 111345Z 23006KT 190V280 9999 SCT020 24/14 Q1030=
200810111315 METAR LIRA 111315Z 23007KT 200V330 9999 SCT020 25/15 Q1030=
200810111245 METAR LIRA 111245Z 18002KT 9999 SCT020 25/13 Q1030=
200810111215 METAR LIRA 111215Z 22005KT 180V270 9999 SCT020 25/13 Q1030=
200810111145 METAR LIRA 111145Z 18003KT 9999 SCT020 25/13 Q1031=
200810111115 METAR LIRA 111115Z 13002KT 9999 SCT020 24/15 Q1031=
200810111045 METAR LIRA 111045Z 34002KT 9999 FEW020 23/14 Q1031=
200810111015 METAR LIRA 111015Z 18002KT 9999 FEW025 23/15 Q1031=
200810110945 METAR LIRA 110945Z 08002KT 9999 FEW025 21/14 Q1031=
200810110915 METAR LIRA 110915Z 04002KT CAVOK 18/12 Q1031=
200810110845 METAR LIRA 110845Z 02003KT CAVOK 17/13 Q1031=
200810110815 METAR LIRA 110815Z 05004KT CAVOK 16/12 Q1031=
200810110745 METAR LIRA 110745Z 03003KT CAVOK 15/12 Q1031=
200810110715 METAR LIRA 110715Z 04003KT CAVOK 14/12 Q1030=
200810110645 METAR LIRA 110645Z 05004KT CAVOK 13/12 Q1030=
200810110615 METAR LIRA 110615Z 04004KT CAVOK 13/12 Q1030=
200810110545 METAR LIRA 110545Z 06002KT CAVOK 13/12 Q1029=
200810110515 METAR LIRA 110515Z 05004KT CAVOK 13/12 Q1029=
200810110445 METAR LIRA 110445Z 03002KT CAVOK 13/12 Q1029=
200810110415 METAR LIRA 110415Z 07002KT CAVOK 13/12 Q1029=
200810110345 METAR LIRA 110345Z 06002KT CAVOK 13/12 Q1029=
200810110315 METAR LIRA 110315Z 07003KT CAVOK 13/12 Q1029=
200810110245 METAR LIRA 110245Z 04002KT CAVOK 14/12 Q1029=
200810110215 METAR LIRA 110215Z 03002KT CAVOK 15/12 Q1029=
200810110145 METAR LIRA 110145Z 05003KT CAVOK 15/12 Q1029=
200810110115 METAR LIRA 110115Z 04003KT CAVOK 15/12 Q1029=
200810110045 METAR LIRA 110045Z 03003KT CAVOK 15/12 Q1029=
200810110015 METAR LIRA 110015Z 06003KT CAVOK 15/12 Q1029=
200810102345 METAR LIRA 102345Z 00000KT CAVOK 15/12 Q1029=
200810102315 METAR LIRA 102315Z 12001KT CAVOK 16/12 Q1029=
200810102245 METAR LIRA 102245Z 09003KT 9999 FEW070 16/13 Q1030=
200810102215 METAR LIRA 102215Z 09002KT 9999 FEW070 17/14 Q1030=
200810102145 METAR LIRA 102145Z 09003KT 9999 FEW070 17/14 Q1030=
200810102115 METAR LIRA 102115Z 07003KT 9999 FEW070 17/14 Q1030=
200810102045 METAR LIRA 102045Z 10003KT 9999 FEW070 18/15 Q1030=
200810102015 METAR LIRA 102015Z 16003KT 9999 FEW070 18/15 Q1030=
200810101945 METAR LIRA 101945Z 17004KT 9999 FEW070 19/15 Q1030=
200810101915 METAR LIRA 101915Z 18003KT 9999 SCT070 19/15 Q1030=
200810101845 METAR LIRA 101845Z 18002KT 9999 SCT070 19/15 Q1029=
200810101815 METAR LIRA 101815Z 20003KT 9999 SCT070 20/13 Q1029=
200810101745 METAR LIRA 101745Z 19003KT 9999 SCT070 21/13 Q1029=
200810101715 METAR LIRA 101715Z 23004KT 9999 FEW020 SCT200 21/13 Q1029=
200810101645 METAR LIRA 101645Z 22004KT 9999 FEW020 SCT200 23/10 Q1028=
200810101615 METAR LIRA 101615Z 22004KT 9999 FEW020 SCT200 23/10 Q1029=
200810101545 METAR LIRA 101545Z 24007KT 190V290 9999 FEW020 SCT200 24/11
                        Q1029=
200810101515 METAR LIRA 101515Z 23007KT 190V280 9999 FEW020 BKN200 24/10
                        Q1028=
200810101445 METAR LIRA 101445Z 23006KT 190V270 9999 FEW020 SCT200 25/10
                        Q1028=
200810101415 METAR LIRA 101415Z 24008KT 210V300 9999 FEW020 SCT200 25/10
                        Q1028=
200810101345 METAR LIRA 101345Z 24007KT 200V270 9999 FEW020 SCT200 25/10
                        Q1028=
200810101315 METAR LIRA 101315Z 25006KT 210V330 9999 FEW020 SCT200 25/10
                        Q1028=
200810101245 METAR LIRA 101245Z 32004KT 9999 FEW020 SCT200 25/12 Q1028=
200810101215 METAR LIRA 101215Z 23003KT 9999 FEW020 SCT200 24/12 Q1029=
200810101145 METAR LIRA 101145Z 26003KT 9999 FEW020 SCT200 24/13 Q1029=
200810101115 METAR LIRA 101115Z 29006KT 220V330 9999 FEW020 SCT200 24/14
                        Q1029=
200810101045 METAR LIRA 101045Z 30004KT 9999 FEW020 SCT200 23/15 Q1029=
200810101015 METAR LIRA 101015Z 09003KT 9999 FEW020 SCT200 21/13 Q1029=
200810100945 METAR LIRA 100945Z 04003KT 9999 FEW020 SCT200 19/12 Q1029=
200810100915 METAR LIRA 100915Z 02003KT CAVOK 18/12 Q1029=
200810100845 METAR LIRA 100845Z 03005KT 330V060 CAVOK 18/13 Q1029=
200810100815 METAR LIRA 100815Z 02005KT CAVOK 16/12 Q1029=
200810100745 METAR LIRA 100745Z 03003KT CAVOK 15/12 Q1029=
200810100715 METAR LIRA 100715Z 05005KT 360V110 CAVOK 14/12 Q1029=
200810100645 METAR LIRA 100645Z 05004KT CAVOK 13/11 Q1029=
200810100615 METAR LIRA 100615Z 05003KT CAVOK 13/11 Q1028=
200810100545 METAR LIRA 100545Z 07002KT CAVOK 13/11 Q1028=
200810100515 METAR LIRA 100515Z 04003KT CAVOK 13/11 Q1028=
200810100445 METAR LIRA 100445Z 06004KT CAVOK 13/11 Q1028=
200810100415 METAR LIRA 100415Z 05004KT CAVOK 13/11 Q1027=
200810100345 METAR LIRA 100345Z 05005KT CAVOK 13/M14 Q1027=
200810100315 METAR LIRA 100315Z 03001KT CAVOK 13/11 Q1027=
200810100245 METAR LIRA 100245Z 04003KT CAVOK 13/12 Q1027=
200810100215 METAR LIRA 100215Z 04003KT CAVOK 16/14 Q1027=
200810100145 METAR LIRA 100145Z 03002KT CAVOK 14/12 Q1028=
200810100115 METAR LIRA 100115Z 01002KT CAVOK 14/12 Q1027=
200810100045 METAR LIRA 100045Z 36002KT CAVOK 14/12 Q1027=
200810100015 METAR LIRA 100015Z 04003KT CAVOK 14/11 Q1026=
200810092345 METAR LIRA 092345Z 02003KT CAVOK 15/11 Q1026=
200810092315 METAR LIRA 092315Z 03004KT CAVOK 15/12 Q1026=
200810092245 METAR LIRA 092245Z 20001KT CAVOK 16/12 Q1026=
200810092215 METAR LIRA 092215Z 17003KT CAVOK 16/12 Q1026=
200810092145 METAR LIRA 092145Z 12004KT CAVOK 16/12 Q1026=
200810092115 METAR LIRA 092115Z 10004KT CAVOK 16/12 Q1026=
200810092045 METAR LIRA 092045Z 10002KT CAVOK 17/12 Q1026=
200810092015 METAR LIRA 092015Z 13003KT CAVOK 18/12 Q1026=
200810091945 METAR LIRA 091945Z 12004KT CAVOK 18/10 Q1026=
200810091915 METAR LIRA 091915Z 14002KT CAVOK 18/10 Q1026=
200810091845 METAR LIRA 091845Z 00000KT CAVOK 20/10 Q1025=
200810091815 METAR LIRA 091815Z 00000KT CAVOK 20/10 Q1025=
200810091745 METAR LIRA 091745Z 20002KT CAVOK 21/10 Q1025=
200810091715 METAR LIRA 091715Z 23002KT CAVOK 23/11 Q1024=
200810091645 METAR LIRA 091645Z 23003KT CAVOK 23/11 Q1024=
200810091615 METAR LIRA 091615Z 24004KT 9999 FEW020 23/11 Q1024=
200810091545 METAR LIRA 091545Z 27004KT 220V290 9999 FEW020 24/11 Q1024=
200810091515 METAR LIRA 091515Z 26005KT 220V330 9999 FEW020 24/10 Q1024=
200810091445 METAR LIRA 091445Z 26006KT 220V320 9999 FEW020 25/10 Q1023=
200810091415 METAR LIRA 091415Z 26005KT 200V300 9999 FEW020 25/09 Q1023=
200810091345 METAR LIRA 091345Z 26003KT 9999 FEW020 24/08 Q1023=
200810091315 METAR LIRA 091315Z 24004KT 9999 FEW020 25/10 Q1023=
200810091245 METAR LIRA 091245Z 21001KT 9999 FEW020 24/11 Q1023=
200810091215 METAR LIRA 091215Z 33002KT 9999 FEW023 24/11 Q1023=
200810091145 METAR LIRA 091145Z 36001KT 9999 FEW023 23/11 Q1024=
200810091115 METAR LIRA 091115Z 18002KT 9999 FEW023 23/12 Q1024=
200810091045 METAR LIRA 091045Z 23001KT 9999 FEW023 21/12 Q1024=
200810091015 METAR LIRA 091015Z 00000KT 9999 FEW023 20/12 Q1024=
200810091000 METAR LIRA CONTUS CB ALL QUADS=
200810090945 METAR LIRA 090945Z 34002KT 9999 FEW023 19/13 Q1023=
200810090915 METAR LIRA 090915Z 00000KT CAVOK 17/12 Q1023=
200810090845 METAR LIRA 090845Z 04003KT CAVOK 16/12 Q1023=
200810090815 METAR LIRA 090815Z 03004KT CAVOK 14/11 Q1023=
200810090745 METAR LIRA 090745Z 03004KT CAVOK 14/11 Q1022=
200810090715 METAR LIRA 090715Z 03004KT CAVOK 13/11 Q1022=
200810090645 METAR LIRA 090645Z 01002KT CAVOK 11/10 Q1021=
200810090615 METAR LIRA 090615Z 00000KT CAVOK 11/10 Q1021=
200810090545 METAR LIRA 090545Z 00000KT CAVOK 11/10 Q1021=
200810090515 METAR LIRA 090515Z 00000KT CAVOK 11/10 Q1020=
200810090445 METAR LIRA 090445Z 06003KT CAVOK 11/10 Q1020=
200810090415 METAR LIRA 090415Z 00000KT CAVOK 11/10 Q1020=
200810090345 METAR LIRA 090345Z VRB01KT CAVOK 11/10 Q1020=
200810090315 METAR LIRA 090315Z 03004KT CAVOK 11/10 Q1020=
200810090245 METAR LIRA 090245Z 06002KT CAVOK 12/11 Q1020=
200810090215 METAR LIRA 090215Z 03002KT CAVOK 12/11 Q1019=
200810090145 METAR LIRA 090145Z 02003KT CAVOK 13/11 Q1019=
200810090115 METAR LIRA 090115Z 01001KT CAVOK 13/12 Q1019=
200810090045 METAR LIRA 090045Z 03002KT CAVOK 13/12 Q1019=
200810090015 METAR LIRA 090015Z 06002KT CAVOK 13/12 Q1019=
200810082345 METAR LIRA 082345Z 00000KT CAVOK 14/12 Q1019=
200810082315 METAR LIRA 082315Z 00000KT CAVOK 14/12 Q1019=
200810082245 METAR LIRA 082245Z 10003KT CAVOK 14/12 Q1019=
200810082215 METAR LIRA 082215Z 11003KT CAVOK 15/13 Q1019=
200810082145 METAR LIRA 082145Z 13003KT CAVOK 15/13 Q1019=
200810082115 METAR LIRA 082115Z 16002KT CAVOK 15/13 Q1019=
200810082045 METAR LIRA 082045Z 13001KT CAVOK 16/13 Q1019=
200810082015 METAR LIRA 082015Z 11002KT CAVOK 16/13 Q1019=
200810081945 METAR LIRA 081945Z VRB01KT CAVOK 16/14 Q1019=
200810081915 METAR LIRA 081915Z 16002KT CAVOK 17/14 Q1019=
200810081845 METAR LIRA 081845Z 19003KT CAVOK 17/14 Q1018=
200810081815 METAR LIRA 081815Z 21003KT CAVOK 18/14 Q1018=
200810081745 METAR LIRA 081745Z 22003KT CAVOK 19/14 Q1018=
200810081715 METAR LIRA 081715Z 21004KT CAVOK 19/13 Q1018=
200810081645 METAR LIRA 081645Z 23003KT CAVOK 20/13 Q1018=
200810081615 METAR LIRA 081615Z 24005KT 9999 FEW020 21/12 Q1018=
200810081545 METAR LIRA 081545Z 24005KT 180V270 9999 FEW020 22/11 Q1018=
200810081515 METAR LIRA 081515Z 24006KT 220V290 9999 SCT020 22/10 Q1018=
200810081445 METAR LIRA 081445Z 22006KT 200V300 9999 SCT020 22/10 Q1018=
200810081415 METAR LIRA 081415Z 23004KT 160V270 9999 SCT020 22/10 Q1018=
200810081315 METAR LIRA 081315Z 22002KT 9999 SCT020 22/10 Q1018=
200810081245 METAR LIRA 081245Z 23003KT 200V280 9999 SCT020 22/09 Q1018=
200810081215 METAR LIRA 081215Z 22005KT 190V280 9999 SCT020 22/09 Q1018=
200810081200 METAR LIRA CONTUS=
200810081145 METAR LIRA 081145Z 00000KT 9999 SCT020 22/08 Q1018=
200810081115 METAR LIRA 081115Z 36004KT 9999 SCT020 22/09 Q1018=
200810081045 METAR LIRA 081045Z 23004KT 9999 SCT020 21/10 Q1019=
200810081015 METAR LIRA 081015Z 21003KT 9999 SCT020 21/13 Q1019=
200810080945 METAR LIRA 080945Z 24003KT 9999 FEW020 20/13 Q1019=
200810080915 METAR LIRA 080915Z 27001KT 9999 FEW020 19/13 Q1019=
200810080845 METAR LIRA 080845Z 06001KT 9999 FEW020 19/14 Q1019=
200810080815 METAR LIRA 080815Z 00000KT 9999 FEW020 17/13 Q1019=
200810080745 METAR LIRA 080745Z 03001KT CAVOK 15/13 Q1019=
200810080715 METAR LIRA 080715Z 01001KT CAVOK 15/13 Q1019=
200810080645 METAR LIRA 080645Z 04001KT CAVOK 13/12 Q1018=
200810080615 METAR LIRA 080615Z 04001KT CAVOK 13/12 Q1018=
200810080545 METAR LIRA 080545Z 00000KT CAVOK 12/11 Q1018=
200810080515 METAR LIRA 080515Z 00000KT CAVOK 12/11 Q1018=
200810080445 METAR LIRA 080445Z 07002KT CAVOK 12/11 Q1018=
200810080415 METAR LIRA 080415Z 07001KT CAVOK 13/12 Q1018=
200810080345 METAR LIRA 080345Z 07002KT CAVOK 13/12 Q1018=
200810080315 METAR LIRA 080315Z 00000KT CAVOK 13/12 Q1019=
200810080245 METAR LIRA 080245Z 12002KT 9999 FEW030 13/12 Q1018=
200810080215 METAR LIRA 080215Z 00000KT 9999 FEW030 14/12 Q1019=
200810080145 METAR LIRA 080145Z 00000KT 9999 FEW020 14/12 Q1019=
200810080115 METAR LIRA 080115Z 11002KT 9999 FEW020 14/13 Q1019=
200810080045 METAR LIRA 080045Z 13002KT 9999 FEW020 15/13 Q1019=
200810080015 METAR LIRA 080015Z 14002KT 9999 FEW020 SCT035 15/13 Q1019=
200810072345 METAR LIRA 072345Z 15001KT 9999 FEW018 SCT035 15/13 Q1019=
200810072315 METAR LIRA 072315Z 15002KT 9999 FEW018 SCT035 15/13 Q1019=
200810072245 METAR LIRA 072245Z 12001KT 9999 SCT016 15/13 Q1019=
200810072215 METAR LIRA 072215Z 12004KT 9999 SCT016 SCT060 15/13 Q1019=
200810072145 METAR LIRA 072145Z 12003KT 9999 FEW020 SCT060 15/13 Q1019=
200810072115 METAR LIRA 072115Z 16002KT 9999 FEW025 SCT070 16/14 Q1019=
200810072045 METAR LIRA 072045Z 16002KT 9999 FEW025 SCT060 16/14 Q1019=
200810072015 METAR LIRA 072015Z 13002KT 9999 FEW030 SCT070 16/14 Q1019=
200810071945 METAR LIRA 071945Z 14002KT 9999 FEW030 SCT070 17/14 Q1019=
200810071915 METAR LIRA 071915Z 19001KT 9999 FEW080 17/14 Q1019=
200810071845 METAR LIRA 071845Z 18002KT 9999 FEW060 17/13 Q1019=
200810071815 METAR LIRA 071815Z 19002KT 9999 FEW060 18/14 Q1019=
200810071745 METAR LIRA 071745Z 19004KT 9999 FEW030 SCT200 18/14 Q1019=
200810071715 METAR LIRA 071715Z 22003KT 9999 FEW025 SCT200 19/13 Q1019=
200810071645 METAR LIRA 071645Z 24004KT 9999 FEW025 SCT200 20/13 Q1019=
200810071615 METAR LIRA 071615Z 25005KT 220V310 9999 FEW016 SCT200 20/12
                        Q1019=
200810071545 METAR LIRA 071545Z 26007KT 210V330 9999 FEW015 21/12 Q1019=
200810071515 METAR LIRA 071515Z 27006KT 230V330 9999 SCT018 22/12 Q1019=
200810071445 METAR LIRA 071445Z 25007KT 210V310 9999 SCT018 22/12 Q1019=
200810071415 METAR LIRA 071415Z 28008KT 220V300 9999 SCT018 23/12 Q1019=
200810071345 METAR LIRA 071345Z 25007KT 210V290 9999 SCT018 23/13 Q1019=
200810071315 METAR LIRA 071315Z 26006KT 200V300 9999 SCT015 22/13 Q1019=
200810071245 METAR LIRA 071245Z 23005KT 180V280 9999 SCT015 22/12 Q1020=
200810071215 METAR LIRA 071215Z 24003KT 9999 SCT015 22/12 Q1020=
200810071145 METAR LIRA 071145Z 23005KT 200V280 9999 SCT015 21/11 Q1020=
200810071115 METAR LIRA 071115Z 23006KT 280V200 9999 SCT015 20/12 Q1021=
200810071045 METAR LIRA 071045Z 35002KT 9999 SCT015 20/13 Q1021=
200810071015 METAR LIRA 071015Z 00000KT 9999 SCT015 20/13 Q1021=
200810070945 METAR LIRA 070945Z 34005KT 9999 SCT018 20/13 Q1021=
200810070915 METAR LIRA 070915Z 31001KT 9999 FEW015 19/13 Q1021=
200810070845 METAR LIRA 070845Z 05001KT 9999 FEW015 BKN070 18/13 Q1021=
200810070815 METAR LIRA 070815Z 00000KT 9999 FEW015 BKN070 17/13 Q1021=
200810070745 METAR LIRA 070745Z 00000KT 9999 FEW015 BKN070 16/14 Q1021=
200810070715 METAR LIRA 070715Z 00000KT 9999 FEW015 BKN070 15/13 Q1021=
200810070700 LIRA INTER=
200810070645 METAR LIRA 070645Z 00000KT 9999 FEW015 BKN070 15/13 Q1021=
200810070615 METAR LIRA 070615Z 00000KT 9999 FEW015 BKN070 15/13 Q1021=
200810070545 METAR LIRA 070545Z 02001KT 9999 FEW015 BKN070 15/13 Q1021=
200810070515 METAR LIRA 070515Z 00000KT 9999 FEW015 BKN070 15/13 Q1021=
200810070445 METAR LIRA 070445Z 01001KT 9999 FEW015 SCT070 15/13 Q1021=
200810070415 METAR LIRA 070415Z 05002KT 9999 FEW015 SCT070 15/13 Q1021=
200810070345 METAR LIRA 070345Z 04001KT 9999 FEW015 SCT070 15/12 Q1021=
200810070315 METAR LIRA 070315Z 04002KT 9999 FEW015 SCT070 15/13 Q1021=
200810070245 METAR LIRA 070245Z 07002KT 9999 FEW015 SCT070 15/13 Q1021=
200810070215 METAR LIRA 070215Z 06002KT 9999 FEW015 SCT080 16/13 Q1021=
200810070145 METAR LIRA 070145Z 00000KT 9999 FEW015 SCT080 16/13 Q1021=
200810070115 METAR LIRA 070115Z 16001KT 9999 FEW015 SCT080 15/12 Q1022=
200810070045 METAR LIRA 070045Z 16002KT 9999 FEW015 SCT080 15/13 Q1022=
200810070015 METAR LIRA 070015Z 13002KT 9999 FEW015 SCT080 15/12 Q1022=
200810062345 METAR LIRA 062345Z 17001KT 9999 FEW015 SCT080 15/12 Q1022=
200810062315 METAR LIRA 062315Z 15003KT 9999 FEW012 FEW017TCU SCT080 15/13
                        Q1022=
200810062245 METAR LIRA 062245Z 12005KT 9999 FEW012 FEW017TCU SCT080 15/12
                        Q1022=
200810062215 METAR LIRA 062215Z 15002KT 9999 FEW012 SCT080 15/13 Q1022=
200810062145 METAR LIRA 062145Z 16004KT 9999 FEW012 SCT080 16/13 Q1022=
200810062115 METAR LIRA 062115Z 12003KT 9999 FEW012 SCT080 16/13 Q1022=
200810062045 METAR LIRA 062045Z 15003KT 9999 FEW018 SCT070 16/13 Q1022=
200810062015 METAR LIRA 062015Z 17002KT 9999 FEW018 SCT080 16/13 Q1022=
200810061945 METAR LIRA 061945Z 16005KT 9999 SCT028 SCT080 15/12 Q1022=
200810061915 METAR LIRA 061915Z 18004KT 9999 SCT028 SCT080 16/12 Q1022=
200810061845 METAR LIRA 061845Z 19003KT 9999 SCT030 SCT070 16/12 Q1022=
200810061815 METAR LIRA 061815Z 18003KT 9999 SCT030 SCT080 16/12 Q1022=
200810061745 METAR LIRA 061745Z 23002KT 9999 FEW016 SCT080 17/12 Q1021=
200810061715 METAR LIRA 061715Z 23004KT 9999 FEW016 FEW017CB SCT090 17/12
                        Q1021=
200810061645 METAR LIRA 061645Z 22002KT 9999 SCT016 FEW017CB SCT200 19/12
                        Q1021=
200810061615 METAR LIRA 061615Z 23003KT 9999 SCT016 FEW017CB SCT200 19/11
                        Q1021=
200810061545 METAR LIRA 061545Z 24006KT 190V270 9999 SCT016 FEW017CB SCT200
                        20/11 Q1021=
200810061515 METAR LIRA 061515Z 23008KT 210V280 9999 SCT016 FEW017CB SCT200
                        20/12 Q1022=
200810061445 METAR LIRA 061445Z 24005KT 190V290 9999 SCT016 FEW017CB BKN200
                        19/12 Q1021=
200810061415 METAR LIRA 061415Z 34002KT 9999 SCT016 FEW018TCU SCT200 20/12
                        Q1022=
200810061345 METAR LIRA 061345Z 31005KT 270V340 9999 SCT015 FEW017TCU
                        SCT200 19/12 Q1022=
200810061315 METAR LIRA 061315Z 25003KT 9999 SCT015 FEW017TCU SCT200 20/12
                        Q1022=
200810061245 METAR LIRA 061245Z 27004KT 9999 SCT016 FEW017TCU SCT200 20/12
                        Q1022=
200810061215 METAR LIRA 061215Z 25001KT 9999 SCT017 SCT200 19/12 Q1022=
200810061145 METAR LIRA 061145Z 00000KT 9999 SCT017 SCT200 19/11 Q1022=
200810061115 METAR LIRA 061115Z 35003KT 9999 SCT016 SCT070 19/12 Q1022=
200810061045 METAR LIRA 061045Z 00000KT 9999 SCT016 SCT060 18/12 Q1022=
200810061015 METAR LIRA 061015Z 03001KT 9999 FEW016 SCT060 17/13 Q1022=
200810060945 METAR LIRA 060945Z 15002KT 9999 FEW018 SCT035 16/13 Q1022=
200810060915 METAR LIRA 060915Z 06002KT 9999 FEW018 SCT030 15/12 Q1022=
200810060845 METAR LIRA 060845Z 01001KT 9000 -RA FEW018 BKN030 13/11 Q1022=
200810060815 METAR LIRA 060815Z 28001KT 6000 -RA FEW015 BKN030 13/11 Q1023=
200810060745 METAR LIRA 060745Z 00000KT 9999 FEW018 BKN030 13/10 Q1022=
200810060715 METAR LIRA 060715Z 03002KT 9999 FEW018 BKN035 12/10 Q1022=
200810060645 METAR LIRA 060645Z 05004KT 9999 FEW018 BKN035 11/10 Q1021=
200810060615 METAR LIRA 060615Z 00000KT 9999 FEW020 SCT035 10/09 Q1021=
200810060545 METAR LIRA 060545Z 05002KT 9999 FEW020 SCT035 10/09 Q1021=
200810060515 METAR LIRA 060515Z 15001KT 9999 FEW020 SCT040 10/09 Q1021=
200810060445 METAR LIRA 060445Z 10002KT 9999 FEW030 SCT080 10/09 Q1021=
200810060415 METAR LIRA 060415Z 05002KT 9999 FEW080 10/10 Q1021=
200810060345 METAR LIRA 060345Z 14001KT CAVOK 12/10 Q1021=
200810060315 METAR LIRA 060315Z 00000KT CAVOK 12/10 Q1020=
200810060245 METAR LIRA 060245Z 00000KT CAVOK 13/10 Q1020=
200810060215 METAR LIRA 060215Z 16003KT 9999 SCT020 SCT025 13/10 Q1020=
200810060145 METAR LIRA 060145Z 16005KT 9999 SCT020 SCT025 12/09 Q1020=
200810060115 METAR LIRA 060115Z 16005KT 9999 SCT020 SCT025 12/09 Q1020=
200810060045 METAR LIRA 060045Z 17004KT 9999 SCT018 13/10 Q1020=
200810060015 METAR LIRA 060015Z 16005KT 9999 SCT018 13/09 Q1020=
200810052350 METAR LIRA 060045Z 17004KT 9999 SCT018 13/10 Q1020=
200810052345 METAR LIRA 052345Z 17004KT 9999 SCT018 14/10 Q1020=
200810052315 METAR LIRA 052315Z 17004KT 9999 FEW018 14/09 Q1020=
200810052245 METAR LIRA 052245Z 18004KT 9999 FEW018 13/08 Q1020=
200810052215 METAR LIRA 052215Z 17003KT 9999 FEW018 13/09 Q1020=
200810052145 METAR LIRA 052145Z 16006KT 9999 FEW018 13/09 Q1020=
200810052115 METAR LIRA 052115Z 16006KT 9999 FEW018 13/09 Q1020=
200810052045 METAR LIRA 052045Z 16006KT 9999 FEW018 13/08 Q1020=
200810052015 METAR LIRA 052015Z 16007KT 9999 FEW018 13/08 Q1020=
200810051945 METAR LIRA 051945Z 14006KT 9999 FEW018 14/08 Q1020=
200810051915 METAR LIRA 051915Z 17005KT 100V180 9999 FEW018 14/08 Q1020=
200810051845 METAR LIRA 051845Z 15006KT 9999 FEW018 15/07 Q1019=
200810051815 METAR LIRA 051815Z 17005KT 9999 FEW018 15/07 Q1019=
200810051745 METAR LIRA 051745Z 18003KT 9999 FEW018 16/07 Q1019=
200810051715 METAR LIRA 051715Z 19004KT 9999 FEW020 SCT080 16/06 Q1019=
200810051645 METAR LIRA 051645Z 20005KT 170V240 9999 FEW020 SCT080 16/06
                        Q1019=
200810051615 METAR LIRA 051615Z 20005KT 160V240 9999 SCT020 SCT080 17/05
                        Q1020=
200810051545 METAR LIRA 051545Z 22007KT 160V270 9999 FEW022 SCT080 18/03
                        Q1020=
200810051515 METAR LIRA 051515Z 21008KT 170V270 9999 FEW022 SCT200 18/02
                        Q1020=
200810051445 METAR LIRA 051445Z 23005KT 170V280 9999 FEW022 20/01 Q1020=
200810051415 METAR LIRA 051415Z 24008KT 180V300 9999 FEW022 20/01 Q1020=
200810051345 METAR LIRA 051345Z 24010KT 200V280 9999 FEW022 20/01 Q1020=
200810051315 METAR LIRA 051315Z 25002KT 200V320 9999 FEW022 SCT200 19/00
                        Q1020=
200810051245 METAR LIRA 051245Z 19002KT 9999 FEW022 SCT200 19/01 Q1021=
200810051215 METAR LIRA 051215Z 28006KT 180V320 9999 FEW022 19/03 Q1021=
200810051145 METAR LIRA 051145Z 36004KT 9999 FEW080 SCT200 17/05 Q1021=
200810051115 METAR LIRA 051115Z 00000KT 9999 FEW080 SCT200 16/04 Q1021=
200810051045 METAR LIRA 051045Z 07004KT 9999 FEW080 SCT200 15/04 Q1021=
200810051015 METAR LIRA 051015Z 03004KT 9999 FEW070 SCT200 15/05 Q1021=
200810050945 METAR LIRA 050945Z 06002KT 9999 FEW070 13/05 Q1021=
200810050915 METAR LIRA 050915Z 04004KT 360V080 9999 FEW080 13/05 Q1021=
200810050845 METAR LIRA 050845Z 01005KT 330V050 CAVOK 11/07 Q1021=
200810050815 METAR LIRA 050815Z 03005KT 340V080 CAVOK 10/06 Q1021=
200810050745 METAR LIRA 050745Z 04006KT 350V090 CAVOK 09/06 Q1021=
200810050715 METAR LIRA 050715Z 06006KT CAVOK 07/05 Q1021=
200810050645 METAR LIRA 050645Z 04002KT CAVOK 06/05 Q1021=
200810050615 METAR LIRA 050615Z 07003KT CAVOK 05/04 Q1020=
200810050545 METAR LIRA 050545Z 08002KT CAVOK 05/05 Q1019=
200810050515 METAR LIRA 050515Z 06002KT CAVOK 05/05 Q1019=
200810050445 METAR LIRA 050445Z 00000KT CAVOK 05/04 Q1018=
200810050415 METAR LIRA 050415Z 03002KT CAVOK 05/04 Q1018=
200810050345 METAR LIRA 050345Z 06003KT CAVOK 06/05 Q1018=
200810050315 METAR LIRA 050315Z 07002KT CAVOK 07/05 Q1018=
200810050245 METAR LIRA 050245Z 32003KT 9999 FEW070 07/05 Q1018=
200810050215 METAR LIRA 050215Z 33002KT 9999 FEW070 08/06 Q1017=
200810050145 METAR LIRA 050145Z 03002KT 9999 FEW070 08/06 Q1017=
200810050115 METAR LIRA 050115Z 04002KT 9999 FEW070 08/06 Q1017=
200810050015 METAR LIRA 050015Z 04003KT 9999 FEW070 08/06 Q1017=
200810042345 METAR LIRA 042345Z 04004KT 9999 FEW070 08/06 Q1017=
200810042315 METAR LIRA 042315Z 01004KT 9999 FEW070 08/06 Q1017=
200810042245 METAR LIRA 042245Z 02003KT 9999 FEW070 09/04 Q1017=
200810042215 METAR LIRA 042215Z 05004KT 9999 FEW070 09/04 Q1017=
200810042145 METAR LIRA 042145Z 08004KT 9999 FEW070 09/04 Q1017=
200810042115 METAR LIRA 042115Z 05004KT 9999 FEW070 09/05 Q1017=
200810042045 METAR LIRA 042045Z 04005KT 9999 FEW070 09/04 Q1016=
200810042015 METAR LIRA 042015Z 35002KT 9999 FEW070 09/05 Q1016=
200810041945 METAR LIRA 041945Z 05006KT 9999 FEW070 10/05 Q1015=
200810041915 METAR LIRA 041915Z 04003KT 9999 FEW070 10/07 Q1015=
200810041845 METAR LIRA 041845Z 04003KT 9999 FEW017 10/07 Q1015=
200810041815 METAR LIRA 041815Z 06004KT 9999 FEW015 FEW022CB SCT025CB
                        10/07 Q1014 RETS=
200810041745 METAR LIRA 041745Z 03002KT 9999 FEW015 FEW022CB SCT025 11/07
                        Q1014 RETS=
200810041715 METAR LIRA 041715Z 00000KT 9999 -TSRA SCT015 FEW022CB SCT025
                        11/07 Q1014=
200810041645 METAR LIRA 041645Z 34004KT 9999 FEW015 FEW022CB SCT025 12/07
                        Q1013=
200810041615 METAR LIRA 041615Z 33005KT 9999 FEW015 FEW022CB SCT025 12/07
                        Q1012=
200810041545 METAR LIRA 041545Z 32007KT 330V020 9999 FEW015 FEW020CB SCT025
                        11/07 Q1012=
200810041515 METAR LIRA 041515Z 01008KT 300V080 9999 FEW015 FEW020CB SCT025
                        12/08 Q1012=
200810041445 METAR LIRA 041445Z 33011KT 300V010 9999 -RA FEW015 FEW020CB
                        SCT030 11/08 Q1011=
200810041415 METAR LIRA 041415Z 35008KT 300V030 9999 -RA FEW015 FEW018CB
                        SCT025 VV/// 12/08 Q1011=
200810041345 METAR LIRA 041345Z 33012KT 300V060 9999 FEW015 FEW018CB SCT025
                        13/06 Q1011 RETS=
200810041315 METAR LIRA 041315Z 02010KT 330V050 6000 -TSRA FEW015 FEW017CB
                        SCT025 13/08 Q1011=
200810041245 METAR LIRA 041245Z 36008KT 310V040 9999 FEW015 FEW017CB 13/06
                        Q1011 RETS=
200810041215 METAR LIRA 041215Z 32003KT 9999 TS SCT015 FEW017CB SCT025
                        13/06 Q1011=
200810041145 METAR LIRA 041145Z 32008KT 330V010 9999 TS SCT015 FEW017CB
                        SCT025 15/05 Q1011 RETS WS RWY 33=
200810041115 METAR LIRA 041115Z 30011KT 260V330 8000 -TSRA SCT011 SCT017CB
                        18/05 Q1011 WS RWY 33=
200810041045 METAR LIRA 041045Z 28020G32KT 240V330 9999 SCT017 SCT020CB
                        17/07 Q1010=
200810041015 METAR LIRA 041015Z 29009KT 210V340 9999 SCT017 FEW020CB 16/06
                        Q1008=
200810040945 METAR LIRA 040945Z 25010KT 190V330 9999 SCT017 FEW020CB SCT025
                        17/08 Q1008=
200810040915 METAR LIRA 040915Z 26006KT 210V320 9999 SCT017 FEW020CB SCT025
                        17/08 Q1008=
200810040845 METAR LIRA 040845Z 24010KT 160V330 9999 SCT017 FEW020CB SCT025
                        17/09 Q1008=
200810040815 METAR LIRA 040815Z 18011KT 9999 SCT017 FEW020CB 16/09 Q1008=
200810040745 METAR LIRA 040745Z 19007KT 150V220 9999 FEW020 FEW022TCU
                        15/09 Q1008=
200810040715 METAR LIRA 040715Z 15005KT 9999 FEW020 15/08 Q1008=
200810040645 METAR LIRA 040645Z 15005KT 9999 FEW020 14/09 Q1008=
200810040615 METAR LIRA 040615Z 16005KT 120V190 9999 FEW020 13/09 Q1008=
200810040545 METAR LIRA 040545Z 15007KT 9999 SCT025 13/08 Q1008=
200810040515 METAR LIRA 040515Z 15006KT 9999 SCT025 13/08 Q1008=
200810040445 METAR LIRA 040445Z 16007KT 9999 FEW025 14/09 Q1008=
200810040415 METAR LIRA 040415Z 18006KT 9999 FEW025 14/09 Q1008=
200810040345 METAR LIRA 040345Z 18006KT 170V230 9999 FEW025 15/09 Q1008=
200810040315 METAR LIRA 040315Z 19006KT 170V230 9999 FEW025 SCT060 15/10
                        Q1008=
200810040245 METAR LIRA 040245Z 18006KT 9999 SCT025 SCT060 14/10 Q1008=
200810040215 METAR LIRA 040215Z 16007KT 9999 FEW025 SCT060 14/10 Q1008=
200810040145 METAR LIRA 040145Z 16008KT 9999 SCT030 SCT060 14/10 Q1008=
200810040115 METAR LIRA 040115Z 18005KT 9999 SCT060 14/10 Q1009=
200810040045 METAR LIRA 040045Z 17005KT 9999 FEW060 14/11 Q1009=
200810040015 METAR LIRA 040015Z 17004KT 9999 FEW070 15/12 Q1009=
200810032345 METAR LIRA 032345Z 17004KT 9999 FEW020 SCT070 15/12 Q1009=
200810032315 METAR LIRA 032315Z 22003KT 9999 FEW020 SCT060 15/12 Q1009=
200810032245 METAR LIRA 032245Z 24004KT 8000 FEW020 SCT040 16/15 Q1009=
200810032215 METAR LIRA 032215Z 24005KT 200V280 7000 FEW017 BKN035 16/15
                        Q1009=
200810032145 METAR LIRA 032145Z 20006KT 160V230 7000 FEW017 BKN030 16/15
                        Q1009=
200810032115 METAR LIRA 032115Z 19007KT 160V240 7000 FEW017 BKN035 16/15
                        Q1009=
200810032045 METAR LIRA 032045Z 21005KT 7000 -RA FEW017 BKN030 16/16 Q1009
                        RERA=
200810032015 METAR LIRA 032015Z 21007KT 180V250 3000 RA BR SCT015 BKN020
                        17/16 Q1009=
200810031945 METAR LIRA 031945Z 17004KT 6000 -RA FEW018 BKN025 18/16 Q1009=
200810031915 METAR LIRA 031915Z 18005KT 9999 -RA FEW018 BKN030 18/16 Q1009=
200810031845 METAR LIRA 031845Z 21004KT 9999 FEW018 BKN030 18/16 Q1009=
200810031815 METAR LIRA 031815Z 16005KT 9999 FEW017 BKN035 18/16 Q1009=
200810031745 METAR LIRA 031745Z 20005KT 9999 -RA FEW017 BKN030 18/16 Q1009=
200810031715 METAR LIRA 031715Z 20003KT 9999 -RA FEW017TCU BKN025 18/16
                        Q1009=
200810031645 METAR LIRA 031645Z 20003KT 9999 FEW017TCU BKN025 19/15 Q1009=
200810031615 METAR LIRA 031615Z 22003KT 180V250 9999 FEW017TCU BKN025
                        19/15 Q1009=
200810031545 METAR LIRA 031545Z 21004KT 160V240 9999 FEW018 BKN030 20/15
                        Q1009=
200810031515 METAR LIRA 031515Z 18008KT 150V220 9999 FEW018 SCT030 20/14
                        Q1009=
200810031445 METAR LIRA 031445Z 19010KT 150V240 9999 FEW018 SCT030 20/15
                        Q1009=
200810031415 METAR LIRA 031415Z 17009KT 150V220 9999 FEW018 SCT030 21/15
                        Q1009=
200810031345 METAR LIRA 031345Z 18010KT 160V230 9999 FEW017 FEW020CB 21/15
                        Q1009=
200810031315 METAR LIRA 031315Z 21008KT 160V250 9999 FEW017 FEW020CB 21/15
                        Q1009=
200810031245 METAR LIRA 031245Z 26006KT 200V310 9999 FEW018 FEW020CB SCT030
                        21/13 Q1009=
200810031215 METAR LIRA 031215Z 24005KT 210V320 9999 SCT017 FEW022CB 22/10
                        Q1009=
200810031145 METAR LIRA 031145Z 24007KT 160V300 9999 FEW017 SCT030 22/11
                        Q1009=
200810031115 METAR LIRA 031115Z 21007KT 160V270 9999 SCT018 SCT070 22/12
                        Q1010=
200810031045 METAR LIRA 031045Z 26007KT 170V320 9999 SCT018 22/12 Q1010=
200810031015 METAR LIRA 031015Z 19006KT 150V270 9999 SCT018 22/13 Q1010=
200810030945 METAR LIRA 030945Z 19009KT 140V230 9999 SCT018 SCT070 21/13
                        Q1010=
200810030915 METAR LIRA 030915Z 16010KT 140V250 9999 SCT018 20/13 Q1010=
200810030845 METAR LIRA 030845Z 21008KT 140V250 9999 SCT018 20/14 Q1010=
200810030815 METAR LIRA 030815Z 20008KT 150V250 9999 SCT018 19/14 Q1010=
200810030745 METAR LIRA 030745Z 17008KT 9999 FEW018 19/14 Q1010=
200810030715 METAR LIRA 030715Z 17007KT 9999 FEW018 19/15 Q1010=
200810030645 METAR LIRA 030645Z 17007KT 9999 FEW018 18/15 Q1009=
200810030615 METAR LIRA 030615Z 18006KT 9999 FEW018 17/15 Q1009=
200810030545 METAR LIRA 030545Z 19003KT 9999 FEW018 16/14 Q1009=
200810030445 METAR LIRA 030445Z 18007KT 9999 SCT018 16/14 Q1009=
200810030415 METAR LIRA 030415Z 17006KT 9999 SCT020 16/14 Q1009=
200810030345 METAR LIRA 030345Z 17007KT 9999 FEW020 16/14 Q1009=
200810030315 METAR LIRA 030315Z 16007KT 9999 FEW018 17/14 Q1009=
200810030245 METAR LIRA 030245Z 17007KT 9999 FEW017TCU SCT018 17/14 Q1009=
200810030215 METAR LIRA 030215Z 17006KT 9999 FEW018TCU SCT020 18/15 Q1009=
200810030145 METAR LIRA 030145Z 17006KT 9999 FEW018TCU SCT020 17/14 Q1010=
200810030115 METAR LIRA 030115Z 17006KT 9999 FEW020 SCT030 17/14 Q1010=
200810030045 METAR LIRA 030045Z 17007KT 9999 SCT030 SCT070 17/14 Q1010=
200810030015 METAR LIRA 030015Z 16006KT 9999 SCT020 SCT060 17/14 Q1011=
200810022345 METAR LIRA 022345Z 17007KT 9999 FEW030 SCT070 17/14 Q1011=
200810022315 METAR LIRA 022315Z 17007KT 9999 SCT020 SCT070 17/14 Q1011=
200810022245 METAR LIRA 022245Z 18005KT 9999 SCT020 SCT060 17/14 Q1011=
200810022215 METAR LIRA 022215Z 18006KT 9999 SCT025 SCT060 17/14 Q1011=
200810022145 METAR LIRA 022145Z 17005KT 9999 SCT025 SCT070 17/14 Q1011=
200810022115 METAR LIRA 022115Z 18006KT 150V220 9999 SCT025 SCT060 17/13
                        Q1011=
200810022045 METAR LIRA 022045Z 18005KT 9999 SCT020 17/13 Q1011=
200810022015 METAR LIRA 022015Z 18005KT 9999 FEW030 17/14 Q1011=
200810021945 METAR LIRA 021945Z 18006KT 9999 FEW030 17/14 Q1011=
200810021915 METAR LIRA 021915Z 18004KT 140V220 9999 FEW020 SCT070 18/14
                        Q1011=
200810021845 METAR LIRA 021845Z 19004KT 9999 FEW020 SCT025 18/14 Q1011=
200810021815 METAR LIRA 021815Z 19004KT 9999 SCT025 SCT060 18/13 Q1011=
200810021745 METAR LIRA 021745Z 18004KT 9999 FEW017CB SCT020 19/14 Q1011=
200810021715 METAR LIRA 021715Z 22003KT 9999 FEW017CB SCT018 19/13 Q1011=
200810021645 METAR LIRA 021645Z 24004KT 200V260 9999 FEW017CB SCT018 19/13
                        Q1011=
200810021615 METAR LIRA 021615Z 23008KT 180V280 9999 FEW017CB SCT018 20/12
                        Q1011=
200810021545 METAR LIRA 021545Z 24005KT 190V280 9999 FEW018 SCT035 20/12
                        Q1011=
200810021515 METAR LIRA 021515Z 24008KT 190V280 9999 SCT018 SCT035 21/13
                        Q1011=
200810021445 METAR LIRA 021445Z 23010KT 180V270 9999 SCT018 SCT200 21/13
                        Q1011=
200810021415 METAR LIRA 021415Z 21008KT 160V260 9999 SCT018 SCT200 22/13
                        Q1011=
200810021345 METAR LIRA 021345Z 22007KT 150V240 9999 SCT018 SCT200 21/14
                        Q1011=
200810021315 METAR LIRA 021315Z 20007KT 180V260 9999 SCT018 SCT200 21/13
                        Q1011=
200810021245 METAR LIRA 021245Z 22005KT 170V260 9999 SCT018 SCT200 22/12
                        Q1012=
200810021215 METAR LIRA 021215Z 23008KT 150V260 9999 SCT018 SCT200 22/13
                        Q1012=
200810021145 METAR LIRA 021145Z 21008KT 170V270 9999 SCT018 22/12 Q1012=
200810021115 METAR LIRA 021115Z 21007KT 150V260 9999 SCT018 22/12 Q1012=
200810021045 METAR LIRA 021045Z 20009KT 170V280 9999 SCT018 22/13 Q1012=
200810021015 METAR LIRA 021015Z 22008KT 170V280 9999 SCT018 21/13 Q1012=
200810020945 METAR LIRA 020945Z 24004KT 9999 SCT018 21/14 Q1012=
200810020915 METAR LIRA 020915Z 17009KT 140V220 9999 SCT018 21/14 Q1013=
200810020845 METAR LIRA 020845Z 20007KT 150V240 9999 FEW018 SCT070 19/13
                        Q1013=
200810020815 METAR LIRA 020815Z 17005KT 140V210 9999 FEW018 SCT070 19/11
                        Q1013=
200810020745 METAR LIRA 020745Z 18007KT 140V230 9999 FEW018 SCT070 18/11
                        Q1012=
200810020715 METAR LIRA 020715Z 20005KT 140V230 9999 FEW018 SCT070 17/11
                        Q1012=
200810020645 METAR LIRA 020645Z 00000KT 9999 FEW018 SCT030 14/11 Q1012=
200810020615 METAR LIRA 020615Z 00000KT 9999 SCT030 BKN070 13/10 Q1012=
200810020545 METAR LIRA 020545Z 00000KT 9999 SCT030 BKN070 13/10 Q1012=
200810020515 METAR LIRA 020515Z 03001KT 9999 SCT030 BKN070 13/10 Q1012=
200810020445 METAR LIRA 020445Z 00000KT 9999 FEW020 SCT070 13/10 Q1012=
200810020415 METAR LIRA 020415Z 27001KT 9999 FEW020 SCT070 14/10 Q1012=
200810020345 METAR LIRA 020345Z 33003KT 9999 FEW020 SCT080 13/09 Q1012=
200810020315 METAR LIRA 020315Z 12006KT 9999 FEW020 13/09 Q1012=
200810020245 METAR LIRA 020245Z 11003KT 9999 FEW020 13/09 Q1012=
200810020215 METAR LIRA 020215Z 06003KT 9999 FEW080 14/09 Q1013=
200810020145 METAR LIRA 020145Z 12002KT 060V130 9999 FEW080 14/10 Q1013=
200810020115 METAR LIRA 020115Z 16003KT 9999 FEW080 14/10 Q1013=
200810020045 METAR LIRA 020045Z 13004KT CAVOK 13/09 Q1014=
200810020015 METAR LIRA 020015Z 13001KT CAVOK 13/09 Q1014=
200810012350 METAR LIRA 020045Z 13004KT CAVOK 13/09 Q1014=
200810012345 METAR LIRA 012345Z 12005KT CAVOK 14/09 Q1014=
200810012315 METAR LIRA 012315Z 14002KT CAVOK 14/09 Q1014=
200810012245 METAR LIRA 012245Z 11002KT CAVOK 14/12 Q1014=
200810012215 METAR LIRA 012215Z 17003KT CAVOK 15/12 Q1014=
200810012145 METAR LIRA 012145Z 13002KT CAVOK 15/12 Q1014=
200810012115 METAR LIRA 012115Z 12004KT CAVOK 15/12 Q1014=
200810012045 METAR LIRA 012045Z 12004KT CAVOK 16/13 Q1014=
200810012015 METAR LIRA 012015Z 13003KT CAVOK 17/14 Q1014=
200810011945 METAR LIRA 011945Z 11002KT CAVOK 17/13 Q1014=
200810011915 METAR LIRA 011915Z 20003KT CAVOK 17/13 Q1014=
200810011845 METAR LIRA 011845Z 19004KT CAVOK 18/13 Q1014=
200810011815 METAR LIRA 011815Z 23003KT 9999 FEW070 19/12 Q1014=
200810011745 METAR LIRA 011745Z 23003KT 9999 FEW080 19/12 Q1014=
200810011715 METAR LIRA 011715Z 24004KT 9999 FEW080 20/12 Q1013=
200810011645 METAR LIRA 011645Z 24004KT 9999 FEW080 21/10 Q1013=
200810011615 METAR LIRA 011615Z 24005KT 9999 FEW020 22/10 Q1013=
200810011545 METAR LIRA 011545Z 25005KT 200V280 9999 FEW020 22/10 Q1014=
200810011515 METAR LIRA 011515Z 24007KT 190V310 9999 FEW018 22/08 Q1014=
200810011445 METAR LIRA 011445Z 24007KT 190V290 9999 FEW018 SCT200 23/08
                        Q1014=
200810011415 METAR LIRA 011415Z 22003KT 160V270 9999 FEW018 SCT200 23/09
                        Q1014=
200810011345 METAR LIRA 011345Z 23005KT 180V290 9999 FEW017 SCT200 24/10
                        Q1014=
200810011315 METAR LIRA 011315Z 22005KT 150V270 9999 SCT017 SCT200 24/09
                        Q1014=
200810011245 METAR LIRA 011245Z 25008KT 190V300 9999 SCT017 SCT200 22/09
                        Q1014=
200810011215 METAR LIRA 011215Z 20006KT 160V260 9999 SCT017 SCT200 23/10
                        Q1014=
200810011145 METAR LIRA 011145Z 19006KT 130V240 9999 SCT018 SCT200 23/11
                        Q1015=
200810011115 METAR LIRA 011115Z 19008KT 170V260 9999 SCT018 SCT200 23/11
                        Q1015=
200810011045 METAR LIRA 011045Z 21008KT 130V270 9999 SCT018 SCT200 22/11
                        Q1015=
200810011015 METAR LIRA 011015Z 20007KT 110V240 9999 SCT018 SCT200 22/11
                        Q1015=
200810010945 METAR LIRA 010945Z 20007KT 150V280 9999 SCT018 SCT200 22/12
                        Q1015=
200810010915 METAR LIRA 010915Z 17006KT 120V240 9999 FEW018 SCT200 21/12
                        Q1015=
200810010845 METAR LIRA 010845Z 18006KT 140V220 9999 FEW018 SCT200 20/13
                        Q1014=
200810010815 METAR LIRA 010815Z 20007KT 150V230 9999 FEW018 20/13 Q1014=
200810010745 METAR LIRA 010745Z 18007KT 130V240 9999 FEW018 18/15 Q1014=
200810010715 METAR LIRA 010715Z 14002KT 9999 FEW020 17/15 Q1014=
200810010645 METAR LIRA 010645Z 00000KT 9999 FEW020 15/13 Q1014=
200810010615 METAR LIRA 010615Z 16002KT 9999 FEW020 14/13 Q1014=
200810010545 METAR LIRA 010545Z 30002KT 9999 FEW020 15/13 Q1014=
200810010515 METAR LIRA 010515Z 04001KT 9999 FEW020 16/14 Q1013=
200810010445 METAR LIRA 010445Z 07003KT 9999 FEW025 17/15 Q1013=
200810010415 METAR LIRA 010415Z 05003KT 9999 FEW025 SCT070 18/15 Q1013=
200810010345 METAR LIRA 010345Z 21002KT 280V350 9999 SCT025 SCT070 17/14
                        Q1014=
200810010315 METAR LIRA 010315Z 16008KT 130V190 9999 SCT025 SCT070 17/15
                        Q1013=
200810010245 METAR LIRA 010245Z 16006KT 9999 SCT025 SCT070 17/13 Q1013=
200810010215 METAR LIRA 010215Z 15009KT 130V190 9999 FEW025 15/11 Q1013=
200810010145 METAR LIRA 010145Z 16009KT 140V210 9999 FEW025 SCT070 15/11
                        Q1014=
200810010115 METAR LIRA 010115Z 28001KT 9999 FEW025 SCT070 15/11 Q1014=
200810010045 METAR LIRA 010045Z 00000KT 9999 FEW025 15/10 Q1014=
200810010015 METAR LIRA 010015Z 09004KT 9999 FEW025 SCT070 16/11 Q1014=

</pre>

</body>
</html>
