##########################################################
# Query made at 11/10/2014 16:29:45 UTC
# Time interval: from 10/01/2011 00:00  to 10/31/2011 23:59  UTC
##########################################################

##########################################################
# LIRA, Roma / Ciampino (Italy)
# WMO index: 16239
# Latitude 41-47N. Longitude 012-35E. Altitude 129 m.
##########################################################

###################################
#  METAR/SPECI from LIRA
###################################
201110312350 METAR LIRA 010045Z 04002KT 9999 SCT070 13/13 Q1019=
201110312345 METAR LIRA 312345Z 04001KT 9999 FEW020 SCT070 14/13 Q1019=
201110312315 METAR LIRA 312315Z 06002KT 9999 FEW020 SCT070 14/13 Q1019=
201110312245 METAR LIRA 312245Z 09001KT 9999 FEW020 SCT070 14/13 Q1019=
201110312215 METAR LIRA 312215Z 03001KT 9999 FEW020 BKN070 15/13 Q1019=
201110312145 METAR LIRA 312145Z 04002KT 9999 FEW020 BKN070 15/13 Q1019=
201110312115 METAR LIRA 312115Z 08002KT 9999 FEW020 BKN070 15/13 Q1019=
201110312045 METAR LIRA 312045Z 11004KT 9999 FEW020 BKN070 15/13 Q1019=
201110312015 METAR LIRA 312015Z 10006KT 9999 FEW020 BKN070 16/13 Q1019=
201110311945 METAR LIRA 311945Z 12001KT 9999 FEW020 BKN070 16/13 Q1019=
201110311915 METAR LIRA 311915Z 00000KT 9999 FEW020 BKN070 16/13 Q1019=
201110311845 METAR LIRA 311845Z 10003KT 9999 FEW020 BKN070 16/13 Q1018=
201110311815 METAR LIRA 311815Z 00000KT 9999 SCT020 SCT070 16/13 Q1018=
201110311745 METAR LIRA 311745Z 00000KT 9999 SCT020 SCT070 16/14 Q1018=
201110311715 METAR LIRA 311715Z 18001KT 9999 SCT023 SCT070 17/14 Q1018=
201110311645 METAR LIRA 311645Z 00000KT 9999 SCT023 BKN030 17/14 Q1018=
201110311615 METAR LIRA 311615Z 22003KT 9999 SCT023 BKN030 17/14 Q1018=
201110311545 METAR LIRA 311545Z 22004KT 9999 SCT023 BKN030 18/14 Q1018=
201110311515 METAR LIRA 311515Z 23004KT 9999 SCT023 SCT025 18/13 Q1018=
201110311445 METAR LIRA 311445Z 24004KT 9999 FEW023 SCT025 19/13 Q1018=
201110311415 METAR LIRA 311415Z 24002KT 9999 FEW023 SCT025 19/12 Q1018=
201110311345 METAR LIRA 311345Z 30002KT 9999 SCT023 19/12 Q1019=
201110311315 METAR LIRA 311315Z 29005KT 9999 SCT023 19/12 Q1019=
201110311245 METAR LIRA 311245Z 25004KT 9999 SCT023 19/12 Q1019=
201110311215 METAR LIRA 311215Z 29004KT 9999 SCT023 19/12 Q1019=
201110311145 METAR LIRA 311145Z 29002KT 9999 SCT025 20/13 Q1019=
201110311115 METAR LIRA 311115Z 00000KT 9999 SCT025 19/12 Q1020=
201110311045 METAR LIRA 311045Z 33003KT 9999 SCT025 18/11 Q1020=
201110311015 METAR LIRA 311015Z 33005KT 9999 SCT025 18/12 Q1020=
201110310945 METAR LIRA 310945Z 30004KT 9999 SCT025 18/13 Q1020=
201110310915 METAR LIRA 310915Z 33003KT 9999 FEW025 17/12 Q1020=
201110310845 METAR LIRA 310845Z 03004KT 9999 FEW025 15/12 Q1020=
201110310815 METAR LIRA 310815Z 04002KT 9999 FEW060 14/13 Q1020=
201110310745 METAR LIRA 310745Z 02004KT 9999 FEW060 13/12 Q1020=
201110310715 METAR LIRA 310715Z 04004KT 9999 FEW040 12/12 Q1020=
201110310645 METAR LIRA 310645Z 03003KT 8000 FEW040 11/10 Q1020=
201110310615 METAR LIRA 310615Z 02003KT 8000 FEW040 11/10 Q1019=
201110310545 METAR LIRA 310545Z 04005KT 8000 FEW040 11/11 Q1019=
201110310515 METAR LIRA 310515Z 01004KT 8000 SCT040 12/11 Q1020=
201110310445 METAR LIRA 310445Z 01003KT 8000 FEW010 SCT030 12/12 Q1020=
201110310415 METAR LIRA 310415Z 36003KT 8000 FEW010 SCT030 12/12 Q1020=
201110310345 METAR LIRA 310345Z 02003KT 8000 FEW010 SCT030 12/12 Q1020=
201110310315 METAR LIRA 310315Z 01003KT 9999 FEW010 SCT030 12/12 Q1020=
201110310245 METAR LIRA 310245Z 35003KT 9999 FEW010 SCT030 12/12 Q1020=
201110310215 METAR LIRA 310215Z 35002KT 9999 FEW010 13/13 Q1020=
201110310145 METAR LIRA 310145Z 36002KT 8000 FEW010 SCT030 13/13 Q1020=
201110310115 METAR LIRA 310115Z 00000KT 8000 FEW010 BKN030 14/13 Q1020=
201110310045 METAR LIRA 310045Z 05001KT 8000 FEW010 BKN030 14/14 Q1020=
201110310015 METAR LIRA 310015Z 05001KT 8000 FEW010 BKN030 14/14 Q1020=
201110302350 METAR LIRA 310045Z 05001KT 8000 FEW010 BKN030 14/14 Q1020=
201110302345 METAR LIRA 302345Z 03002KT 9999 FEW010 BKN030 15/14 Q1020=
201110302315 METAR LIRA 302315Z 00000KT 9999 FEW010 BKN030 15/14 Q1020=
201110302245 METAR LIRA 302245Z 10001KT 9999 FEW010 BKN030 15/14 Q1020=
201110302215 METAR LIRA 302215Z 06001KT 9999 FEW010 BKN030 15/14 Q1020=
201110302145 METAR LIRA 302145Z 10002KT 9999 FEW010 BKN030 15/15 Q1020=
201110302115 METAR LIRA 302115Z 16001KT 9999 FEW010 BKN030 15/14 Q1020=
201110302045 METAR LIRA 302045Z 00000KT 9999 FEW010 BKN030 15/15 Q1020=
201110302015 METAR LIRA 302015Z 15001KT 9999 FEW010 SCT200 15/14 Q1020=
201110301945 METAR LIRA 301945Z 15001KT 9999 FEW010 SCT200 15/14 Q1020=
201110301915 METAR LIRA 301915Z 00000KT 9999 FEW010 15/15 Q1020=
201110301845 METAR LIRA 301845Z 16002KT 9999 FEW010 15/15 Q1019=
201110301815 METAR LIRA 301815Z 13001KT 9999 FEW018 16/15 Q1019=
201110301745 METAR LIRA 301745Z 15002KT 9999 FEW020 16/15 Q1019=
201110301715 METAR LIRA 301715Z 10001KT 9999 FEW020 18/15 Q1019=
201110301645 METAR LIRA 301645Z 36001KT 9999 FEW020 18/15 Q1019=
201110301615 METAR LIRA 301615Z 33001KT 9999 SCT020 18/15 Q1020=
201110301545 METAR LIRA 301545Z 33002KT 9999 SCT018 FEW020TCU 19/15 Q1020=
201110301515 METAR LIRA 301515Z 34002KT 9999 SCT018 FEW020TCU 19/15 Q1020=
201110301445 METAR LIRA 301445Z 33003KT 9999 SCT018 FEW020TCU 20/14 Q1020=
201110301415 METAR LIRA 301415Z 32003KT 9999 SCT018 FEW020TCU 20/14 Q1020=
201110301345 METAR LIRA 301345Z 00000KT 9999 SCT018 FEW020TCU 19/13 Q1020=
201110301315 METAR LIRA 301315Z 32001KT 9999 SCT018 FEW020TCU 19/14 Q1020=
201110301245 METAR LIRA 301245Z 33002KT 9999 SCT018 FEW020TCU 19/14 Q1020=
201110301215 METAR LIRA 301215Z 31003KT 9999 SCT018 FEW020TCU 19/14 Q1020=
201110301145 METAR LIRA 301145Z 33005KT 9999 SCT018 20/15 Q1021=
201110301115 METAR LIRA 301115Z 29003KT 9999 FEW018 19/14 Q1021=
201110301045 METAR LIRA 301045Z 07002KT 9999 FEW018 19/15 Q1021=
201110301015 METAR LIRA 301015Z 00000KT 9999 FEW018 17/14 Q1021=
201110300945 METAR LIRA 300945Z 35002KT 9999 FEW018 16/14 Q1021=
201110300915 METAR LIRA 300915Z 01002KT 9999 FEW018 15/14 Q1021=
201110300845 METAR LIRA 300845Z 03002KT 9999 FEW080 14/13 Q1021=
201110300815 METAR LIRA 300815Z 03002KT 8000 FEW080 13/13 Q1021=
201110300800 METAR LIRA CONTUS HZ ALQUADS=
201110300745 METAR LIRA 300745Z 03002KT 8000 FEW080 12/12 Q1021=
201110300715 METAR LIRA 300715Z 02001KT 8000 FEW080 11/11 Q1021=
201110300645 METAR LIRA 300645Z 03002KT 7000 FEW080 11/11 Q1020=
201110300615 METAR LIRA 300615Z 04002KT 6000 FEW080 10/10 Q1020=
201110300545 METAR LIRA 300545Z 06003KT 6000 FEW080 10/10 Q1020=
201110300515 METAR LIRA 300515Z 07001KT 8000 FEW080 10/10 Q1020=
201110300445 METAR LIRA 300445Z 06002KT 8000 NSC 10/10 Q1020=
201110300415 METAR LIRA 300415Z 03001KT 8000 NSC 11/11 Q1020=
201110300345 METAR LIRA 300345Z 05002KT 8000 NSC 11/11 Q1020=
201110300315 METAR LIRA 300315Z 04001KT 8000 NSC 11/11 Q1020=
201110300245 METAR LIRA 300245Z 36002KT 8000 FEW006 12/12 Q1020=
201110300215 METAR LIRA 300215Z 00000KT 8000 FEW005 12/12 Q1021=
201110300145 METAR LIRA 300145Z 00000KT 9000 FEW005 12/12 Q1021=
201110300115 METAR LIRA 300115Z 04003KT 9999 FEW006 12/12 Q1021=
201110300045 METAR LIRA 300045Z 06003KT CAVOK 12/12 Q1021=
201110300015 METAR LIRA 300015Z 05002KT 9999 FEW010 13/13 Q1022=
201110292350 METAR LIRA 300045Z 06003KT CAVOK 12/12 Q1021=
201110292345 METAR LIRA 292345Z 04002KT CAVOK 13/13 Q1022=
201110292315 METAR LIRA 292315Z 00000KT 9999 FEW007 13/13 Q1022=
201110292245 METAR LIRA 292245Z 15002KT CAVOK 13/13 Q1022=
201110292215 METAR LIRA 292215Z 11003KT CAVOK 13/13 Q1022=
201110292145 METAR LIRA 292145Z 08003KT CAVOK 14/13 Q1022=
201110292115 METAR LIRA 292115Z 10002KT 9999 FEW010 14/13 Q1022=
201110292045 METAR LIRA 292045Z 10002KT 9999 SCT010 14/13 Q1022=
201110292015 METAR LIRA 292015Z 10002KT 9999 FEW010 14/14 Q1022=
201110291945 METAR LIRA 291945Z 13002KT 9999 FEW007 15/14 Q1022=
201110291915 METAR LIRA 291915Z 11004KT 9999 FEW007 14/14 Q1022=
201110291845 METAR LIRA 291845Z 16002KT 9999 FEW007 15/14 Q1022=
201110291815 METAR LIRA 291815Z 17002KT 9999 FEW070 16/15 Q1022=
201110291745 METAR LIRA 291745Z 18002KT 9999 FEW010 17/16 Q1022=
201110291715 METAR LIRA 291715Z 20002KT 9999 FEW030 SCT070 17/15 Q1022=
201110291645 METAR LIRA 291645Z 22003KT 9999 FEW030 SCT070 18/15 Q1022=
201110291615 METAR LIRA 291615Z 22002KT 9999 FEW030 18/15 Q1022=
201110291545 METAR LIRA 291545Z 22004KT 9999 FEW020 19/15 Q1022=
201110291445 METAR LIRA 291445Z 23005KT 9999 SCT020 21/14 Q1022=
201110291415 METAR LIRA 291415Z 17002KT 9999 SCT020 21/12 Q1022=
201110291345 METAR LIRA 291345Z 31003KT 9999 SCT020 21/13 Q1022=
201110291315 METAR LIRA 291315Z 01002KT 9999 SCT020 21/13 Q1022=
201110291245 METAR LIRA 291245Z 35004KT 9999 SCT020 21/13 Q1023=
201110291215 METAR LIRA 291215Z 32003KT 9999 SCT020 21/14 Q1023=
201110291145 METAR LIRA 291145Z 02002KT 9999 FEW020 21/14 Q1024=
201110291115 METAR LIRA 291115Z 01003KT 9999 FEW020 20/14 Q1024=
201110291045 METAR LIRA 291045Z 02003KT 9999 FEW020 20/14 Q1024=
201110291015 METAR LIRA 291015Z 03004KT 9999 FEW020 20/15 Q1024=
201110290945 METAR LIRA 290945Z 03004KT 9999 FEW020 18/14 Q1024=
201110290915 METAR LIRA 290915Z 03004KT 9999 FEW020 17/13 Q1024=
201110290845 METAR LIRA 290845Z 01003KT 9999 FEW020 16/13 Q1024=
201110290815 METAR LIRA 290815Z 36003KT 9999 FEW020 15/13 Q1024=
201110290745 METAR LIRA 290745Z 02003KT 9999 FEW080 14/13 Q1024=
201110290715 METAR LIRA 290715Z 01002KT 9999 FEW080 13/12 Q1024=
201110290645 METAR LIRA 290645Z 04002KT 9999 FEW080 11/11 Q1023=
201110290615 METAR LIRA 290615Z 03003KT 9999 FEW080 11/11 Q1023=
201110290545 METAR LIRA 290545Z 04001KT 9999 FEW080 10/10 Q1023=
201110290515 METAR LIRA 290515Z 04002KT 9999 FEW080 10/10 Q1024=
201110290445 METAR LIRA 290445Z 04002KT 9999 FEW080 10/10 Q1024=
201110290415 METAR LIRA 290415Z 05002KT CAVOK 10/10 Q1024=
201110290345 METAR LIRA 290345Z 05002KT CAVOK 11/11 Q1024=
201110290315 METAR LIRA 290315Z 03001KT CAVOK 11/11 Q1024=
201110290245 METAR LIRA 290245Z 04002KT 9999 FEW080 11/11 Q1024=
201110290215 METAR LIRA 290215Z 04001KT 9999 FEW080 11/11 Q1024=
201110290145 METAR LIRA 290145Z 04001KT CAVOK 11/11 Q1024=
201110290115 METAR LIRA 290115Z 03001KT 9999 FEW010 12/12 Q1024=
201110290045 METAR LIRA 290045Z 03002KT 9999 FEW010 12/12 Q1024=
201110290015 METAR LIRA 290015Z 02002KT 9999 FEW010 12/12 Q1024=
201110282350 METAR LIRA 290045Z 03002KT 9999 FEW010 12/12 Q1024=
201110282345 METAR LIRA 282345Z 36002KT 9999 FEW010 13/13 Q1024=
201110282315 METAR LIRA 282315Z 05001KT 9999 FEW060 13/13 Q1024=
201110282245 METAR LIRA 282245Z 05001KT 9999 FEW060 13/13 Q1024=
201110282215 METAR LIRA 282215Z 11003KT CAVOK 14/14 Q1024=
201110282145 METAR LIRA 282145Z 11003KT CAVOK 14/14 Q1024=
201110282115 METAR LIRA 282115Z 09003KT CAVOK 15/14 Q1024=
201110282045 METAR LIRA 282045Z 09003KT CAVOK 15/15 Q1024=
201110282015 METAR LIRA 282015Z 09003KT 9999 FEW035 15/14 Q1024=
201110281945 METAR LIRA 281945Z 08003KT 9999 FEW035 16/15 Q1024=
201110281915 METAR LIRA 281915Z 09002KT 9999 FEW035 15/14 Q1024=
201110281845 METAR LIRA 281845Z 08002KT 9999 FEW060 15/14 Q1024=
201110281815 METAR LIRA 281815Z 09003KT 9999 FEW020 15/14 Q1024=
201110281745 METAR LIRA 281745Z 29001KT 9999 FEW020 17/16 Q1024=
201110281715 METAR LIRA 281715Z 28001KT 9999 FEW060 18/16 Q1024=
201110281645 METAR LIRA 281645Z 27002KT 9999 FEW080 19/16 Q1023=
201110281615 METAR LIRA 281615Z 25001KT CAVOK 19/16 Q1023=
201110281545 METAR LIRA 281545Z 21003KT 9999 FEW018 20/15 Q1023=
201110281515 METAR LIRA 281515Z 20004KT 9999 FEW018 21/15 Q1023=
201110281445 METAR LIRA 281445Z 20005KT 9999 FEW018 FEW020TCU 21/13 Q1023=
201110281415 METAR LIRA 281415Z 18004KT 9999 SCT018 21/14 Q1023=
201110281345 METAR LIRA 281345Z 20007KT 170V230 9999 SCT018 22/14 Q1023=
201110281315 METAR LIRA 281315Z 19007KT 9999 SCT018 22/12 Q1023=
201110281245 METAR LIRA 281245Z 19006KT 9999 SCT018 22/11 Q1023=
201110281215 METAR LIRA 281215Z 15006KT 120V190 9999 SCT018 22/13 Q1023=
201110281145 METAR LIRA 281145Z 16006KT 120V190 9999 SCT018 21/14 Q1023=
201110281115 METAR LIRA 281115Z 15007KT 9999 SCT018 22/15 Q1023=
201110281045 METAR LIRA 281045Z 22005G15KT 090V270 9999 SCT017 21/15 Q1023=
201110281015 METAR LIRA 281015Z 05004KT 9999 SCT017 18/15 Q1023=
201110280945 METAR LIRA 280945Z 01004KT 9999 SCT017 18/15 Q1023=
201110280915 METAR LIRA 280915Z 02004KT 9999 FEW017 16/13 Q1023=
201110280845 METAR LIRA 280845Z 04005KT 9999 FEW017 15/13 Q1023=
201110280815 METAR LIRA 280815Z 04005KT 9999 FEW018 SCT025 13/12 Q1023=
201110280745 METAR LIRA 280745Z 04006KT 020V090 9999 FEW018 SCT025 13/12
                        Q1022=
201110280715 METAR LIRA 280715Z 03005KT 360V070 9999 FEW018 SCT025 13/12
                        Q1022=
201110280645 METAR LIRA 280645Z 04004KT 9999 FEW018 SCT025 11/11 Q1022=
201110280615 METAR LIRA 280615Z 05003KT 9999 FEW018 SCT025 11/11 Q1022=
201110280545 METAR LIRA 280545Z 04002KT 9999 FEW018 SCT025 11/11 Q1022=
201110280515 METAR LIRA 280515Z 03003KT 9999 SCT018 SCT025 11/11 Q1022=
201110280445 METAR LIRA 280445Z 03002KT 9999 FEW018 SCT030 11/11 Q1021=
201110280415 METAR LIRA 280415Z 04005KT 330V070 9999 FEW018 SCT030 11/11
                        Q1021=
201110280345 METAR LIRA 280345Z 05003KT 9999 FEW020TCU SCT030 12/12 Q1021=
201110280315 METAR LIRA 280315Z 01002KT 9999 FEW020TCU SCT030 11/11 Q1021=
201110280245 METAR LIRA 280245Z 03003KT 9999 FEW020TCU SCT070 11/11 Q1021=
201110280215 METAR LIRA 280215Z 02002KT 9999 FEW025 SCT070 11/11 Q1021=
201110280145 METAR LIRA 280145Z 02001KT 9999 FEW025 11/11 Q1021=
201110280115 METAR LIRA 280115Z 05002KT 9999 FEW035 11/10 Q1021=
201110280045 METAR LIRA 280045Z 05003KT 9999 FEW035 11/11 Q1021=
201110280015 METAR LIRA 280015Z 04003KT 9999 FEW040 11/11 Q1020=
201110272350 METAR LIRA 280045Z 05003KT 9999 FEW035 11/11 Q1021=
201110272345 METAR LIRA 272345Z 04003KT 9999 SCT060 11/11 Q1020=
201110272315 METAR LIRA 272315Z 05003KT 9999 BKN060 11/11 Q1020=
201110272245 METAR LIRA 272245Z 04003KT 9999 FEW060 12/11 Q1020=
201110272215 METAR LIRA 272215Z 02001KT 9999 FEW060 12/11 Q1020=
201110272145 METAR LIRA 272145Z 00000KT CAVOK 12/12 Q1020=
201110272115 METAR LIRA 272115Z 00000KT CAVOK 13/11 Q1020=
201110272045 METAR LIRA 272045Z 09002KT CAVOK 13/11 Q1020=
201110272015 METAR LIRA 272015Z 09003KT CAVOK 14/12 Q1020=
201110271945 METAR LIRA 271945Z 08001KT 9999 FEW080 14/13 Q1019=
201110271915 METAR LIRA 271915Z 09002KT 9999 FEW080 14/14 Q1019=
201110271845 METAR LIRA 271845Z 05003KT 9999 FEW080 15/14 Q1019=
201110271815 METAR LIRA 271815Z 35002KT 9999 FEW080 15/14 Q1019=
201110271745 METAR LIRA 271745Z 08004KT 9999 FEW080 15/14 Q1019=
201110271715 METAR LIRA 271715Z 06004KT 9999 FEW080 16/15 Q1019=
201110271645 METAR LIRA 271645Z 03002KT 9999 FEW080 17/14 Q1019=
201110271615 METAR LIRA 271615Z 03002KT 9999 FEW030 SCT080 18/13 Q1019=
201110271545 METAR LIRA 271545Z 03002KT 9999 FEW020 SCT080 18/12 Q1018=
201110271515 METAR LIRA 271515Z 00000KT 9999 FEW020 SCT080 19/12 Q1018=
201110271445 METAR LIRA 271445Z 01002KT 9999 FEW018 SCT080 20/12 Q1018=
201110271415 METAR LIRA 271415Z 30004KT 9999 FEW015 SCT080 20/12 Q1018=
201110271345 METAR LIRA 271345Z 31001KT 9999 FEW015 SCT080 19/12 Q1018=
201110271315 METAR LIRA 271315Z 02001KT 9999 FEW015 SCT080 19/13 Q1019=
201110271245 METAR LIRA 271245Z 35001KT 9999 FEW015 19/13 Q1019=
201110271215 METAR LIRA 271215Z 33003KT 9999 FEW015 SCT080 19/13 Q1019=
201110271145 METAR LIRA 271145Z 30001KT 9999 FEW015 SCT080 19/14 Q1019=
201110271115 METAR LIRA 271115Z 35001KT 9999 FEW015 SCT080 18/14 Q1019=
201110271045 METAR LIRA 271045Z 00000KT 9999 FEW080 18/13 Q1019=
201110271015 METAR LIRA 271015Z 34002KT 9999 FEW080 BKN200 18/15 Q1019=
201110270945 METAR LIRA 270945Z 33004KT 9999 FEW080 18/15 Q1019=
201110270915 METAR LIRA 270915Z 33003KT 9999 FEW080 18/14 Q1019=
201110270845 METAR LIRA 270845Z 34002KT 9999 FEW080 16/13 Q1019=
201110270815 METAR LIRA 270815Z 01001KT 9999 FEW080 16/13 Q1019=
201110270745 METAR LIRA 270745Z 07001KT CAVOK 16/14 Q1019=
201110270715 METAR LIRA 270715Z 08002KT CAVOK 14/13 Q1018=
201110270645 METAR LIRA 270645Z 05001KT CAVOK 13/12 Q1018=
201110270615 METAR LIRA 270615Z 07002KT CAVOK 11/10 Q1018=
201110270545 METAR LIRA 270545Z 31001KT CAVOK 11/10 Q1018=
201110270515 METAR LIRA 270515Z 05001KT CAVOK 11/10 Q1018=
201110270445 METAR LIRA 270445Z 00000KT CAVOK 12/11 Q1017=
201110270415 METAR LIRA 270415Z 12002KT CAVOK 12/11 Q1017=
201110270345 METAR LIRA 270345Z 12003KT CAVOK 12/11 Q1017=
201110270315 METAR LIRA 270315Z 09002KT CAVOK 11/10 Q1017=
201110270245 METAR LIRA 270245Z 08003KT CAVOK 11/11 Q1017=
201110270215 METAR LIRA 270215Z 05002KT CAVOK 12/11 Q1017=
201110270145 METAR LIRA 270145Z 12002KT CAVOK 12/11 Q1017=
201110270115 METAR LIRA 270115Z 07001KT 9999 FEW030 13/12 Q1017=
201110270045 METAR LIRA 270045Z 12001KT 9999 FEW017 13/13 Q1017=
201110270015 METAR LIRA 270015Z 16003KT CAVOK 14/13 Q1017=
201110262350 METAR LIRA 270045Z 12001KT 9999 FEW017 13/13 Q1017=
201110262345 METAR LIRA 262345Z 17003KT CAVOK 14/13 Q1017=
201110262315 METAR LIRA 262315Z 13002KT 9999 FEW080 13/13 Q1017=
201110262245 METAR LIRA 262245Z 16003KT 9999 FEW080 14/13 Q1017=
201110262215 METAR LIRA 262215Z 14002KT 9999 FEW018 14/13 Q1017=
201110262145 METAR LIRA 262145Z 17002KT 9999 FEW018 14/13 Q1017=
201110262115 METAR LIRA 262115Z 16003KT 9999 FEW018 13/13 Q1016=
201110262045 METAR LIRA 262045Z 15002KT 9999 FEW018 15/14 Q1016=
201110262015 METAR LIRA 262015Z 15002KT 9999 SCT018 15/14 Q1016=
201110261945 METAR LIRA 261945Z 00000KT 9999 SCT018 15/14 Q1016=
201110261915 METAR LIRA 261915Z 35002KT 9999 SCT018 15/14 Q1015=
201110261845 METAR LIRA 261845Z 00000KT 9999 SCT018 15/15 Q1015=
201110261815 METAR LIRA 261815Z 11001KT 9999 FEW018 15/15 Q1015=
201110261745 METAR LIRA 261745Z 17001KT 9999 FEW018 16/16 Q1015=
201110261715 METAR LIRA 261715Z 00000KT 9999 FEW018 17/16 Q1015=
201110261645 METAR LIRA 261645Z 17005KT 9999 SCT015 FEW017TCU 18/16 Q1014=
201110261615 METAR LIRA 261615Z 17005KT 9999 SCT015 FEW017TCU 18/16 Q1014=
201110261545 METAR LIRA 261545Z 17006KT 9999 SCT015 FEW017TCU 19/17 Q1014=
201110261515 METAR LIRA 261515Z 17007KT 9999 SCT015 FEW017TCU 19/17 Q1014=
201110261445 METAR LIRA 261445Z 19005KT 170V230 9999 SCT015 FEW017TCU
                        BKN200 20/17 Q1014=
201110261415 METAR LIRA 261415Z 19006KT 160V220 9999 SCT015 19/17 Q1014=
201110261345 METAR LIRA 261345Z 18007KT 9999 SCT015 19/17 Q1014=
201110261315 METAR LIRA 261315Z 18006KT 9999 SCT014 BKN070 19/17 Q1014=
201110261245 METAR LIRA 261245Z 18006KT 9999 FEW015 SCT035 BKN070 19/17
                        Q1014=
201110261215 METAR LIRA 261215Z 16006KT 9999 FEW015 SCT035 BKN070 19/18
                        Q1014=
201110261145 METAR LIRA 261145Z 17006KT 9999 FEW015 SCT030 BKN070 18/17
                        Q1014=
201110261115 METAR LIRA 261115Z 18008KT 8000 -RA SCT015 FEW018TCU SCT025
                        17/17 Q1014=
201110261045 METAR LIRA 261045Z 16007KT 7000 -RA SCT015 FEW018TCU SCT025
                        17/16 Q1014=
201110261015 METAR LIRA 261015Z 17008KT 8000 -RA FEW013 SCT015 FEW018TCU
                        BKN025 17/17 Q1014=
201110260945 METAR LIRA 260945Z 16007KT 8000 -RA FEW015 FEW018TCU SCT025
                        17/16 Q1014=
201110260915 METAR LIRA 260915Z 18006KT 150V210 8000 -RA SCT015 FEW018CB
                        SCT025 17/16 Q1014=
201110260845 METAR LIRA 260845Z 17007KT 180V240 6000 -RA SCT014 FEW017CB
                        BKN025 16/16 Q1014=
201110260815 METAR LIRA 260815Z 17011KT 9999 -RA SCT014 FEW017CB BKN025
                        16/16 Q1013 RETS=
201110260745 METAR LIRA 260745Z 16012KT 9999 -RA SCT014 FEW017CB BKN025
                        16/15 Q1013 RETS=
201110260715 METAR LIRA 260715Z 17016KT 4000 -TSRA FEW009 FEW017CB BKN025
                        16/15 Q1012 RETS=
201110260645 METAR LIRA 260645Z 20012G25KT 160V240 3000 TSRA BR FEW007
                        SCT015CB BKN025 18/17 Q1012=
201110260615 METAR LIRA 260615Z 15013KT 3500 -TSRA FEW013 SCT018CB BKN025
                        18/17 Q1011=
201110260545 METAR LIRA 260545Z 14014KT 6000 -TSRA FEW016 FEW018CB SCT025
                        18/17 Q1011=
201110260515 METAR LIRA 260515Z 13013KT 8000 -TSRA SCT017 FEW018CB SCT025
                        18/17 Q1011=
201110260445 METAR LIRA 260445Z 14015KT 8000 -RA SCT017 FEW018CB SCT025
                        18/17 Q1012=
201110260415 METAR LIRA 260415Z 15014KT 9999 -RA SCT017 SCT025 19/16 Q1012=
201110260345 METAR LIRA 260345Z 14015G25KT 9999 -RA FEW018 FEW020CB SCT070
                        19/14 Q1012=
201110260315 METAR LIRA 260315Z 14015KT 9999 FEW018 SCT070 19/14 Q1012=
201110260245 METAR LIRA 260245Z 14013KT 9999 FEW018 SCT070 19/13 Q1012=
201110260215 METAR LIRA 260215Z 14015KT 9999 FEW018 SCT070 19/13 Q1012=
201110260145 METAR LIRA 260145Z 14014KT 9999 FEW018 SCT070 19/13 Q1012=
201110260115 METAR LIRA 260115Z 14013KT 9999 FEW018 SCT200 19/13 Q1013=
201110260045 METAR LIRA 260045Z 14015KT 9999 FEW018 SCT200 19/13 Q1013=
201110260015 METAR LIRA 260015Z 14014KT 9999 FEW018 SCT200 18/12 Q1013=
201110252350 METAR LIRA 260045Z 14015KT 9999 FEW018 SCT200 19/13 Q1013=
201110252345 METAR LIRA 252345Z 14015G25KT 9999 FEW018 SCT200 18/12 Q1013=
201110252315 METAR LIRA 252315Z 14015KT 9999 FEW018 SCT200 18/12 Q1013=
201110252245 METAR LIRA 252245Z 14013KT 9999 FEW018 SCT200 18/12 Q1013=
201110252215 METAR LIRA 252215Z 14012KT 9999 FEW018 SCT200 18/12 Q1013=
201110252145 METAR LIRA 252145Z 14011KT 9999 FEW018 SCT200 18/12 Q1013=
201110252115 METAR LIRA 252115Z 14012KT 9999 FEW018 SCT200 18/12 Q1013=
201110252045 METAR LIRA 252045Z 12011KT 9999 FEW018 SCT200 18/12 Q1013=
201110252015 METAR LIRA 252015Z 16009KT 9999 SCT030 SCT200 18/13 Q1013=
201110251945 METAR LIRA 251945Z 16007KT 9999 FEW030 SCT200 18/13 Q1013=
201110251915 METAR LIRA 251915Z 15006KT 9999 FEW030 SCT200 18/14 Q1013=
201110251845 METAR LIRA 251845Z 16007KT 9999 SCT070 BKN200 18/14 Q1013=
201110251815 METAR LIRA 251815Z 14009KT 9999 SCT080 BKN200 18/14 Q1013=
201110251745 METAR LIRA 251745Z 15010KT 9999 SCT080 BKN200 18/16 Q1013=
201110251715 METAR LIRA 251715Z 16007KT 9999 SCT080 BKN200 18/16 Q1012=
201110251645 METAR LIRA 251645Z 17008KT 9999 SCT080 BKN200 18/15 Q1012=
201110251615 METAR LIRA 251615Z 16010KT 9999 SCT080 BKN200 19/13 Q1012=
201110251545 METAR LIRA 251545Z 15010KT 9999 SCT080 20/12 Q1012=
201110251515 METAR LIRA 251515Z 15011KT 9999 FEW080 20/11 Q1012=
201110251445 METAR LIRA 251445Z 16013KT 9999 FEW080 21/11 Q1012=
201110251415 METAR LIRA 251415Z 16012KT 9999 FEW018 21/12 Q1012=
201110251345 METAR LIRA 251345Z 15015KT 9999 FEW018 21/13 Q1012=
201110251315 METAR LIRA 251315Z 16013KT 9999 FEW018 21/14 Q1012=
201110251245 METAR LIRA 251245Z 16013KT 9999 FEW018 21/13 Q1012=
201110251215 METAR LIRA 251215Z 16013KT 120V190 9999 FEW018 22/12 Q1012=
201110251145 METAR LIRA 251145Z 17013KT 9999 FEW018 22/13 Q1012=
201110251115 METAR LIRA 251115Z 16014KT 9999 FEW018 21/12 Q1012=
201110251045 METAR LIRA 251045Z 16012KT 130V200 9999 FEW018 22/12 Q1012=
201110251015 METAR LIRA 251015Z 16012KT 9999 FEW018 22/12 Q1012=
201110250945 METAR LIRA 250945Z 15011KT 9999 FEW080 22/12 Q1012=
201110250915 METAR LIRA 250915Z 16008KT 9999 FEW080 21/12 Q1012=
201110250845 METAR LIRA 250845Z 17007KT 9999 FEW080 20/11 Q1012=
201110250815 METAR LIRA 250815Z 31003KT 9999 FEW080 18/12 Q1012=
201110250745 METAR LIRA 250745Z 34002KT 9999 FEW080 18/13 Q1012=
201110250715 METAR LIRA 250715Z 36002KT 9999 FEW018 SCT080 17/13 Q1012=
201110250645 METAR LIRA 250645Z 00000KT 9999 FEW018 SCT030 16/12 Q1012=
201110250615 METAR LIRA 250615Z 10004KT 9999 FEW018 BKN030 15/12 Q1012=
201110250545 METAR LIRA 250545Z 11004KT 9999 FEW018 BKN030 15/12 Q1012=
201110250515 METAR LIRA 250515Z 23002KT 9999 FEW018 BKN030 14/12 Q1012=
201110250445 METAR LIRA 250445Z 00000KT 9999 FEW018 SCT030 14/12 Q1012=
201110250415 METAR LIRA 250415Z 07003KT 9999 FEW018 SCT030 14/12 Q1012=
201110250345 METAR LIRA 250345Z 00000KT 9999 FEW018 SCT030 14/12 Q1012=
201110250315 METAR LIRA 250315Z 34001KT 9999 SCT030 SCT070 14/12 Q1012=
201110250245 METAR LIRA 250245Z 36002KT 9999 FEW018 SCT025 14/12 Q1012=
201110250215 METAR LIRA 250215Z 32002KT 9999 FEW018 SCT025 13/11 Q1013=
201110250145 METAR LIRA 250145Z 00000KT 9999 FEW018 SCT025 13/11 Q1013=
201110250115 METAR LIRA 250115Z 33001KT 9999 SCT030 SCT070 13/11 Q1013=
201110250045 METAR LIRA 250045Z 01001KT 9999 FEW030 SCT070 12/11 Q1013=
201110250015 METAR LIRA 250015Z 04002KT 9999 FEW030 SCT080 12/11 Q1013=
201110242350 METAR LIRA 250045Z 01001KT 9999 FEW030 SCT070 12/11 Q1013=
201110242345 METAR LIRA 242345Z 07002KT 9999 FEW020 12/10 Q1013=
201110242315 METAR LIRA 242315Z 12001KT 9999 FEW030 12/10 Q1013=
201110242245 METAR LIRA 242245Z 30001KT 9999 FEW018 SCT060 12/11 Q1013=
201110242215 METAR LIRA 242215Z 33001KT 9999 FEW018 13/11 Q1013=
201110242145 METAR LIRA 242145Z 00000KT CAVOK 13/11 Q1013=
201110242115 METAR LIRA 242115Z 08002KT CAVOK 13/11 Q1013=
201110242045 METAR LIRA 242045Z 27002KT CAVOK 14/12 Q1013=
201110242015 METAR LIRA 242015Z 13002KT 9999 FEW030 14/12 Q1013=
201110241945 METAR LIRA 241945Z 14003KT 9999 FEW018 14/12 Q1013=
201110241915 METAR LIRA 241915Z 00000KT 9999 FEW006 14/12 Q1013=
201110241845 METAR LIRA 241845Z 31001KT 9999 FEW006 SCT070 15/13 Q1013=
201110241815 METAR LIRA 241815Z 00000KT 9999 FEW018 SCT070 15/12 Q1013=
201110241745 METAR LIRA 241745Z 00000KT 9999 FEW018 16/13 Q1013=
201110241715 METAR LIRA 241715Z 00000KT 9999 FEW018 SCT070 17/13 Q1012=
201110241645 METAR LIRA 241645Z 15004KT 9999 FEW018 SCT070 17/12 Q1012=
201110241615 METAR LIRA 241615Z 13005KT 9999 FEW018 SCT070 17/12 Q1012=
201110241545 METAR LIRA 241545Z 14006KT 9999 FEW018 SCT070 18/12 Q1012=
201110241515 METAR LIRA 241515Z 17006KT 130V190 9999 FEW018 SCT070 18/12
                        Q1012=
201110241445 METAR LIRA 241445Z 06006KT 9999 FEW018 SCT070 19/13 Q1012=
201110241415 METAR LIRA 241415Z 04003KT 9999 FEW018 SCT070 19/12 Q1012=
201110241345 METAR LIRA 241345Z 10007KT 330V130 9999 FEW018 SCT070 18/12
                        Q1012=
201110241315 METAR LIRA 241315Z 14008KT 9999 FEW018 SCT070 18/12 Q1012=
201110241245 METAR LIRA 241245Z 13006KT 9999 FEW018 BKN070 18/12 Q1013=
201110241215 METAR LIRA 241215Z 13008KT 9999 FEW018 BKN070 19/13 Q1013=
201110241145 METAR LIRA 241145Z 14006KT 110V180 9999 FEW018 BKN070 19/14
                        Q1013=
201110241115 METAR LIRA 241115Z 15009KT 090V180 9999 FEW018 BKN070 19/13
                        Q1013=
201110241045 METAR LIRA 241045Z 13007KT 9999 FEW018 BKN070 18/12 Q1014=
201110241015 METAR LIRA 241015Z 13008KT 090V170 9999 FEW018 BKN070 19/13
                        Q1014=
201110240945 METAR LIRA 240945Z 12010KT 9999 FEW018 BKN070 19/13 Q1014=
201110240915 METAR LIRA 240915Z 13009KT 100V170 9999 FEW018 BKN070 18/12
                        Q1014=
201110240845 METAR LIRA 240845Z 00000KT 9999 FEW018 BKN070 14/11 Q1014=
201110240815 METAR LIRA 240815Z 00000KT 9999 FEW018 BKN070 14/11 Q1014=
201110240745 METAR LIRA 240745Z 02003KT 9999 FEW018 BKN070 13/10 Q1014=
201110240715 METAR LIRA 240715Z 03003KT 9999 FEW018 BKN070 12/10 Q1014=
201110240645 METAR LIRA 240645Z 02003KT 9999 FEW018 BKN070 12/10 Q1014=
201110240615 METAR LIRA 240615Z 36002KT 9999 FEW018 BKN070 12/10 Q1014=
201110240545 METAR LIRA 240545Z 29002KT 9999 BKN070 12/10 Q1014=
201110240515 METAR LIRA 240515Z 08004KT 9999 BKN070 11/10 Q1014=
201110240445 METAR LIRA 240445Z 01002KT 9999 SCT070 11/10 Q1014=
201110240415 METAR LIRA 240415Z 03003KT 9999 FEW070 11/10 Q1014=
201110240345 METAR LIRA 240345Z 01002KT 9999 FEW060 11/10 Q1014=
201110240315 METAR LIRA 240315Z 01001KT 9999 FEW060 11/10 Q1014=
201110240245 METAR LIRA 240245Z 05003KT 9999 FEW060 12/10 Q1014=
201110240215 METAR LIRA 240215Z 05002KT 9999 SCT060 12/10 Q1015=
201110240145 METAR LIRA 240145Z 02002KT 9999 FEW030 BKN060 12/10 Q1015=
201110240115 METAR LIRA 240115Z 08002KT 9999 FEW030 BKN060 12/10 Q1016=
201110240045 METAR LIRA 240045Z 02002KT 9999 FEW030 BKN060 12/10 Q1016=
201110240015 METAR LIRA 240015Z 01001KT 9999 FEW030 BKN060 12/11 Q1016=
201110232350 METAR LIRA 240045Z 02002KT 9999 FEW030 BKN060 12/10 Q1016=
201110232345 METAR LIRA 232345Z 04002KT 9999 FEW020TCU BKN060 12/10 Q1016=
201110232315 METAR LIRA 232315Z 04003KT 9999 FEW020TCU BKN060 13/11 Q1016=
201110232245 METAR LIRA 232245Z 04002KT 9999 FEW040 BKN060 13/10 Q1016=
201110232215 METAR LIRA 232215Z 03002KT 9999 FEW040 BKN060 13/11 Q1016=
201110232145 METAR LIRA 232145Z 05002KT 9999 FEW040 SCT060 13/10 Q1016=
201110232115 METAR LIRA 232115Z 00000KT 9999 FEW040 SCT060 13/11 Q1016=
201110232045 METAR LIRA 232045Z 05002KT 9999 FEW040 SCT060 14/10 Q1016=
201110232015 METAR LIRA 232015Z 08001KT 9999 FEW040 SCT060 14/11 Q1016=
201110231945 METAR LIRA 231945Z 00000KT 9999 FEW040 BKN060 14/11 Q1016=
201110231915 METAR LIRA 231915Z 11002KT 9999 FEW040 BKN060 14/11 Q1016=
201110231845 METAR LIRA 231845Z 00000KT 9999 FEW040 BKN060 15/11 Q1016=
201110231815 METAR LIRA 231815Z 00000KT 9999 FEW040 SCT060 15/09 Q1016=
201110231745 METAR LIRA 231745Z 07001KT 9999 FEW040 SCT060 16/09 Q1016=
201110231715 METAR LIRA 231715Z 01001KT 9999 FEW040 SCT060 16/10 Q1016=
201110231645 METAR LIRA 231645Z 23002KT 9999 SCT040 BKN060 17/11 Q1016=
201110231615 METAR LIRA 231615Z 22002KT 9999 SCT040 BKN060 18/10 Q1016=
201110231545 METAR LIRA 231545Z 28002KT 9999 FEW018 BKN060 18/09 Q1016=
201110231515 METAR LIRA 231515Z 27003KT 9999 FEW018 BKN060 19/07 Q1016=
201110231445 METAR LIRA 231445Z 23004KT 9999 FEW018 BKN060 20/08 Q1016=
201110231415 METAR LIRA 231415Z 23004KT 9999 SCT018 BKN060 20/08 Q1016=
201110231345 METAR LIRA 231345Z 29004KT 9999 SCT018 BKN060 20/08 Q1016=
201110231315 METAR LIRA 231315Z 32002KT 9999 SCT018 SCT070 20/09 Q1016=
201110231245 METAR LIRA 231245Z 32003KT 9999 SCT018 SCT070 20/08 Q1017=
201110231215 METAR LIRA 231215Z 28002KT 9999 SCT018 SCT070 19/08 Q1017=
201110231145 METAR LIRA 231145Z 32004KT 9999 FEW018 19/08 Q1017=
201110231115 METAR LIRA 231115Z 01003KT 9999 FEW018 18/09 Q1018=
201110231045 METAR LIRA 231045Z 02004KT 9999 FEW018 17/09 Q1018=
201110231015 METAR LIRA 231015Z 35004KT 9999 FEW018 16/09 Q1018=
201110230945 METAR LIRA 230945Z 01004KT 9999 FEW018 15/09 Q1018=
201110230915 METAR LIRA 230915Z 02004KT 9999 FEW020 SCT080 14/09 Q1018=
201110230845 METAR LIRA 230845Z 02004KT 9999 FEW020 BKN070 13/09 Q1018=
201110230815 METAR LIRA 230815Z 01003KT 9999 FEW030 BKN070 12/08 Q1019=
201110230745 METAR LIRA 230745Z 03003KT 9999 FEW018 SCT070 11/08 Q1019=
201110230715 METAR LIRA 230715Z 03002KT 9999 FEW018 SCT070 10/08 Q1019=
201110230645 METAR LIRA 230645Z 02004KT 9999 FEW018 SCT070 09/08 Q1018=
201110230615 METAR LIRA 230615Z 03003KT 9999 FEW018 SCT070 08/07 Q1018=
201110230545 METAR LIRA 230545Z 03002KT 9999 FEW025 BKN070 07/07 Q1018=
201110230515 METAR LIRA 230515Z 03003KT 9999 FEW040 SCT070 07/06 Q1018=
201110230445 METAR LIRA 230445Z 04005KT 9999 FEW080 07/07 Q1018=
201110230415 METAR LIRA 230415Z 05004KT 9999 FEW080 08/07 Q1018=
201110230345 METAR LIRA 230345Z 03003KT 9999 FEW080 08/07 Q1018=
201110230315 METAR LIRA 230315Z 36002KT CAVOK 08/07 Q1018=
201110230245 METAR LIRA 230245Z 01003KT 9999 FEW070 08/07 Q1018=
201110230215 METAR LIRA 230215Z 06004KT 9999 FEW070 08/07 Q1019=
201110230145 METAR LIRA 230145Z 05003KT 9999 FEW070 08/07 Q1019=
201110230115 METAR LIRA 230115Z 02003KT 9999 FEW070 08/08 Q1019=
201110230045 METAR LIRA 230045Z 01003KT 9999 SCT070 09/08 Q1019=
201110230015 METAR LIRA 230015Z 02003KT 9999 FEW070 09/07 Q1019=
201110222350 METAR LIRA 230045Z 01003KT 9999 SCT070 09/08 Q1019=
201110222345 METAR LIRA 222345Z 02003KT 9999 SCT070 09/07 Q1020=
201110222315 METAR LIRA 222315Z 05003KT 9999 FEW070 09/07 Q1020=
201110222245 METAR LIRA 222245Z 09003KT 9999 FEW070 09/08 Q1020=
201110222215 METAR LIRA 222215Z 02003KT CAVOK 10/08 Q1020=
201110222145 METAR LIRA 222145Z 08001KT CAVOK 10/07 Q1020=
201110222115 METAR LIRA 222115Z 09002KT CAVOK 10/07 Q1020=
201110222045 METAR LIRA 222045Z 09002KT 9999 FEW080 11/07 Q1020=
201110222015 METAR LIRA 222015Z 13001KT 9999 FEW080 11/08 Q1020=
201110221945 METAR LIRA 221945Z 12002KT 9999 FEW080 12/08 Q1020=
201110221915 METAR LIRA 221915Z 10003KT 9999 FEW080 11/08 Q1020=
201110221845 METAR LIRA 221845Z 13001KT 9999 FEW080 12/08 Q1020=
201110221815 METAR LIRA 221815Z 15001KT 9999 FEW070 13/08 Q1020=
201110221745 METAR LIRA 221745Z 18003KT 9999 FEW070 14/08 Q1020=
201110221715 METAR LIRA 221715Z 22001KT 9999 FEW030 14/08 Q1019=
201110221645 METAR LIRA 221645Z 23001KT 9999 FEW030 15/07 Q1019=
201110221615 METAR LIRA 221615Z 24002KT 9999 FEW030 16/06 Q1019=
201110221545 METAR LIRA 221545Z 26003KT 9999 FEW030 17/05 Q1019=
201110221515 METAR LIRA 221515Z 28004KT 9999 FEW030 17/05 Q1019=
201110221445 METAR LIRA 221445Z 24005KT 9999 FEW030 18/06 Q1019=
201110221415 METAR LIRA 221415Z 23004KT 9999 FEW030 18/05 Q1019=
201110221345 METAR LIRA 221345Z 24002KT 9999 FEW030 18/07 Q1019=
201110221315 METAR LIRA 221315Z 25006KT 9999 FEW030 18/07 Q1019=
201110221245 METAR LIRA 221245Z 24008KT 210V270 9999 FEW040 18/06 Q1019=
201110221215 METAR LIRA 221215Z 23007KT 200V280 9999 FEW040 18/05 Q1020=
201110221145 METAR LIRA 221145Z 23005KT 200V280 9999 FEW020 18/02 Q1020=
201110221115 METAR LIRA 221115Z 24005KT 9999 FEW020 18/05 Q1020=
201110221045 METAR LIRA 221045Z 22004KT 230V310 9999 FEW020 17/08 Q1020=
201110221015 METAR LIRA 221015Z 14002KT 9999 FEW020 16/09 Q1020=
201110220945 METAR LIRA 220945Z 29001KT 9999 FEW020 15/10 Q1020=
201110220915 METAR LIRA 220915Z 35003KT 9999 FEW020 14/10 Q1020=
201110220845 METAR LIRA 220845Z 05003KT 9999 FEW020 13/09 Q1020=
201110220815 METAR LIRA 220815Z 02003KT 9999 FEW020 12/08 Q1020=
201110220745 METAR LIRA 220745Z 36003KT 9999 FEW020 11/07 Q1020=
201110220715 METAR LIRA 220715Z 04004KT 9999 FEW020 09/08 Q1020=
201110220645 METAR LIRA 220645Z 03005KT 9999 FEW020 09/08 Q1020=
201110220615 METAR LIRA 220615Z 05003KT 9999 FEW020 08/07 Q1020=
201110220545 METAR LIRA 220545Z 04003KT 9999 FEW030 07/06 Q1020=
201110220515 METAR LIRA 220515Z 04004KT 9999 FEW030 07/06 Q1020=
201110220445 METAR LIRA 220445Z 06004KT 9999 FEW030 07/05 Q1020=
201110220415 METAR LIRA 220415Z 05003KT 9999 FEW006 07/05 Q1020=
201110220345 METAR LIRA 220345Z 03003KT 9999 FEW080 09/08 Q1020=
201110220315 METAR LIRA 220315Z 02001KT 9999 FEW080 09/08 Q1020=
201110220245 METAR LIRA 220245Z 05004KT 9999 FEW080 09/07 Q1020=
201110220215 METAR LIRA 220215Z 04002KT 9999 FEW080 09/07 Q1020=
201110220145 METAR LIRA 220145Z 01003KT 9999 FEW030 SCT070 09/08 Q1020=
201110220115 METAR LIRA 220115Z 04005KT 9999 FEW030 SCT080 10/08 Q1020=
201110220045 METAR LIRA 220045Z 04004KT 9999 FEW030 SCT070 10/08 Q1020=
201110220015 METAR LIRA 220015Z 03003KT 9999 FEW030 SCT070 10/08 Q1020=
201110212350 METAR LIRA 220045Z 04004KT 9999 FEW030 SCT070 10/08 Q1020=
201110212345 METAR LIRA 212345Z 03004KT 9999 FEW030 SCT070 10/08 Q1020=
201110212315 METAR LIRA 212315Z 36002KT 9999 FEW030 SCT070 10/08 Q1020=
201110212245 METAR LIRA 212245Z 36002KT 9999 FEW020 SCT070 10/08 Q1020=
201110212215 METAR LIRA 212215Z 04003KT 9999 SCT070 10/08 Q1020=
201110212145 METAR LIRA 212145Z 04006KT 9999 SCT070 11/08 Q1020=
201110212115 METAR LIRA 212115Z 04003KT 010V080 9999 SCT080 11/08 Q1020=
201110212045 METAR LIRA 212045Z 36004KT 330V030 9999 FEW080 11/08 Q1019=
201110212015 METAR LIRA 212015Z 01005KT 330V030 9999 FEW080 12/08 Q1019=
201110211945 METAR LIRA 211945Z 01005KT 9999 FEW080 12/08 Q1019=
201110211915 METAR LIRA 211915Z 01005KT 9999 FEW080 13/09 Q1019=
201110211845 METAR LIRA 211845Z 01003KT 9999 FEW070 13/08 Q1019=
201110211815 METAR LIRA 211815Z 03007KT 360V070 9999 FEW080 14/08 Q1018=
201110211745 METAR LIRA 211745Z 03005KT 9999 FEW080 15/09 Q1018=
201110211715 METAR LIRA 211715Z 01005KT 9999 FEW080 15/09 Q1018=
201110211645 METAR LIRA 211645Z 35006KT 9999 FEW030 16/09 Q1017=
201110211615 METAR LIRA 211615Z 35004KT 9999 FEW018 17/10 Q1017=
201110211545 METAR LIRA 211545Z 34006KT 9999 FEW018 18/10 Q1017=
201110211515 METAR LIRA 211515Z 33005KT 9999 FEW017 FEW018TCU 18/10 Q1017=
201110211445 METAR LIRA 211445Z 34004KT 310V020 9999 FEW017 FEW018TCU
                        18/11 Q1017=
201110211415 METAR LIRA 211415Z 33005KT 9999 FEW017 FEW018TCU SCT070 18/11
                        Q1017=
201110211345 METAR LIRA 211345Z 34006KT 9999 FEW017 FEW018TCU SCT070 19/12
                        Q1017=
201110211315 METAR LIRA 211315Z 35004KT 310V010 9999 FEW017 FEW018TCU
                        SCT060 18/11 Q1018=
201110211245 METAR LIRA 211245Z 01004KT 9999 FEW017 FEW018TCU BKN060 18/11
                        Q1018=
201110211215 METAR LIRA 211215Z 04005KT 9999 FEW017 SCT060 17/11 Q1018=
201110211145 METAR LIRA 211145Z 03005KT 340V070 9999 FEW017 SCT060 17/11
                        Q1018=
201110211115 METAR LIRA 211115Z 02005KT 350V060 9999 FEW017 SCT060 17/12
                        Q1018=
201110211045 METAR LIRA 211045Z 03006KT 010V070 9999 FEW017 BKN070 16/11
                        Q1018=
201110211015 METAR LIRA 211015Z 03006KT 010V070 9999 FEW017 BKN060 15/11
                        Q1018=
201110210945 METAR LIRA 210945Z 02006KT 350V060 9999 FEW017 BKN060 15/11
                        Q1018=
201110210915 METAR LIRA 210915Z 01006KT 9999 FEW017 BKN060 15/11 Q1018=
201110210845 METAR LIRA 210845Z 03007KT 350V060 9999 FEW020 BKN060 14/11
                        Q1018=
201110210815 METAR LIRA 210815Z 02005KT 9999 FEW030 BKN060 14/11 Q1018=
201110210745 METAR LIRA 210745Z 02005KT 340V050 9999 FEW030 BKN060 13/11
                        Q1018=
201110210715 METAR LIRA 210715Z 01006KT 310V040 9999 FEW030 SCT080 12/11
                        Q1017=
201110210645 METAR LIRA 210645Z 05007KT 010V100 9999 FEW030 11/10 Q1017=
201110210615 METAR LIRA 210615Z 02004KT 010V070 9999 FEW017 SCT070 10/10
                        Q1017=
201110210545 METAR LIRA 210545Z 05004KT 9999 FEW017 SCT070 10/10 Q1017=
201110210515 METAR LIRA 210515Z 02004KT 9999 FEW020 SCT070 10/10 Q1017=
201110210445 METAR LIRA 210445Z 01002KT 9999 FEW020 SCT070 10/10 Q1017=
201110210415 METAR LIRA 210415Z 01004KT 9999 FEW020 SCT070 10/10 Q1016=
201110210345 METAR LIRA 210345Z 33003KT 9999 FEW021 SCT070 10/10 Q1016=
201110210315 METAR LIRA 210315Z 33002KT 9999 FEW021 SCT070 11/10 Q1016=
201110210245 METAR LIRA 210245Z 35003KT 9999 FEW017 SCT070 11/10 Q1016=
201110210215 METAR LIRA 210215Z 11003KT 9999 FEW017 SCT070 11/10 Q1017=
201110210145 METAR LIRA 210145Z 11005KT 9999 FEW017 SCT070 11/10 Q1017=
201110210115 METAR LIRA 210115Z 11004KT 9999 FEW017 SCT070 11/10 Q1017=
201110210045 METAR LIRA 210045Z 13001KT 9999 FEW017 11/10 Q1017=
201110210015 METAR LIRA 210015Z 12001KT 9999 FEW017 11/10 Q1017=
201110202350 METAR LIRA 210045Z 13001KT 9999 FEW017 11/10 Q1017=
201110202345 METAR LIRA 202345Z 12003KT 9999 FEW017 11/10 Q1017=
201110202315 METAR LIRA 202315Z 12003KT 9999 FEW017 11/11 Q1017=
201110202245 METAR LIRA 202245Z 12004KT 9999 FEW017 11/11 Q1017=
201110202215 METAR LIRA 202215Z 11006KT 9999 FEW017 11/10 Q1017=
201110202145 METAR LIRA 202145Z 13001KT 9999 FEW070 11/10 Q1017=
201110202115 METAR LIRA 202115Z 14002KT 9999 FEW070 12/11 Q1017=
201110202045 METAR LIRA 202045Z 00000KT 9999 FEW070 13/11 Q1017=
201110202015 METAR LIRA 202015Z 24002KT 9999 FEW070 13/11 Q1016=
201110201945 METAR LIRA 201945Z 15002KT 9999 FEW070 13/12 Q1016=
201110201915 METAR LIRA 201915Z 14001KT 9999 FEW070 13/12 Q1016=
201110201845 METAR LIRA 201845Z 10004KT 9999 FEW017 14/12 Q1016=
201110201815 METAR LIRA 201815Z 11001KT 9999 FEW017 15/12 Q1016=
201110201745 METAR LIRA 201745Z 20002KT 9999 FEW017 15/11 Q1016=
201110201715 METAR LIRA 201715Z 22003KT 9999 FEW015 SCT070 17/12 Q1016=
201110201645 METAR LIRA 201645Z 24004KT 9999 FEW015 BKN070 17/13 Q1016=
201110201615 METAR LIRA 201615Z 25004KT 9999 FEW015 FEW017CB SCT030 18/15
                        Q1015=
201110201545 METAR LIRA 201545Z 21002KT 9999 FEW015 FEW017CB SCT030 18/15
                        Q1015=
201110201515 METAR LIRA 201515Z 22004KT 9999 FEW015 FEW017CB SCT030 18/15
                        Q1015=
201110201445 METAR LIRA 201445Z 22005KT 9999 FEW015 FEW017CB SCT030 18/16
                        Q1015=
201110201415 METAR LIRA 201415Z 19007KT 9999 FEW015 FEW017CB SCT080 18/16
                        Q1015=
201110201345 METAR LIRA 201345Z 18008KT 9999 FEW015 FEW017CB SCT080 18/16
                        Q1015=
201110201315 METAR LIRA 201315Z 16009KT 9999 SCT015 FEW017CB SCT080 18/16
                        Q1015=
201110201245 METAR LIRA 201245Z 18008KT 150V220 9999 -RA SCT015 FEW017CB
                        SCT030 18/16 Q1015=
201110201215 METAR LIRA 201215Z 17012KT 9999 SCT015 FEW017CB SCT030 18/16
                        Q1015=
201110201145 METAR LIRA 201145Z 17014KT 140V210 9999 FEW015 FEW017CB SCT080
                        18/16 Q1015=
201110201115 METAR LIRA 201115Z 17013KT 9999 FEW013 FEW017CB SCT070 18/16
                        Q1015=
201110201045 METAR LIRA 201045Z 16014KT 9999 FEW015 FEW017CB SCT070 17/16
                        Q1016 RETS=
201110201015 METAR LIRA 201015Z 16009KT 9999 FEW015 FEW017CB SCT080 15/15
                        Q1016 RETS=
201110200945 METAR LIRA 200945Z 15011KT 8000 -TSRA SCT010 SCT015CB BKN025
                        14/14 Q1017=
201110200915 METAR LIRA 200915Z 16011KT 8000 1800S -TSRA SCT012 SCT017CB
                        BKN025 14/13 Q1017=
201110200845 METAR LIRA 200845Z 10002KT 8000 -TSRA SCT012 SCT017CB BKN027
                        15/14 Q1016=
201110200815 METAR LIRA 200815Z 13004KT 0800 R15//// -TSRA SCT007 SCT012CB
                        BKN025 14/13 Q1017=
201110200745 METAR LIRA 200745Z 02007KT 310V110 2000 -TSRA BR SCT007 SCT012CB
                        BKN023 14/13 Q1017 RETS=
201110200715 METAR LIRA 200715Z 30004KT 340V070 2000 -TSRA SCT007 SCT012CB
                        BKN023 14/13 Q1017=
201110200645 METAR LIRA 200645Z 22014G28KT 180V260 0800 R15//// +TSRA
                        SCT007 SCT012CB BKN023 15/13 Q1016=
201110200615 METAR LIRA 200615Z 16018KT 8000 -TSRA SCT016 FEW018CB SCT027
                        18/16 Q1015=
201110200545 METAR LIRA 200545Z 16016KT 8000 -TSRA SCT016 SCT018CB 18/16
                        Q1015=
201110200515 METAR LIRA 200515Z 16017G30KT 9999 -TSRA FEW016 SCT018CB
                        18/16 Q1015=
201110200445 METAR LIRA 200445Z 15020KT 9999 TS FEW016 SCT018CB 18/16
                        Q1015=
201110200415 METAR LIRA 200415Z 16017G27KT 9999 TS FEW016 FEW018CB SCT025
                        18/16 Q1015=
201110200345 METAR LIRA 200345Z 16016KT 9999 TS FEW016 FEW018CB SCT025
                        18/16 Q1015=
201110200315 METAR LIRA 200315Z 17014KT 9999 TS FEW016 FEW018CB SCT025
                        18/16 Q1015=
201110200245 METAR LIRA 200245Z 16013KT 9999 FEW016 FEW020CB SCT025 18/16
                        Q1015 RETS=
201110200215 METAR LIRA 200215Z 16014KT 9999 FEW016 FEW020CB SCT025 18/16
                        Q1015 RETS=
201110200145 METAR LIRA 200145Z 16013KT 9999 TS FEW016 FEW020CB 18/16
                        Q1016=
201110200115 METAR LIRA 200115Z 17014KT 9999 -TSRA FEW016 FEW020CB SCT025
                        18/16 Q1016=
201110200045 METAR LIRA 200045Z 17013KT 9999 VCTS FEW017 FEW020CB 18/16
                        Q1017=
201110200015 METAR LIRA 200015Z 16014KT 9999 -RA FEW017 FEW020CB SCT025
                        18/16 Q1017=
201110192350 METAR LIRA 200045Z 17013KT 9999 VCTS FEW017 FEW020CB 18/16
                        Q1017=
201110192345 METAR LIRA 192345Z 17015KT 9999 -DZ SCT017 FEW020CB SCT025
                        18/16 Q1017=
201110192315 METAR LIRA 192315Z 17013KT 9999 SCT017 FEW020CB 18/16 Q1018=
201110192245 METAR LIRA 192245Z 17014KT 9999 SCT017 18/16 Q1018=
201110192215 METAR LIRA 192215Z 17012KT 9999 SCT017 SCT025 18/16 Q1018=
201110192145 METAR LIRA 192145Z 17016KT 9999 SCT017 SCT025 18/16 Q1019=
201110192115 METAR LIRA 192115Z 16016KT 9999 -RA SCT017 SCT025 18/15 Q1019=
201110192045 METAR LIRA 192045Z 16014KT 9999 SCT017 18/15 Q1019=
201110192015 METAR LIRA 192015Z 15015KT 9999 FEW016 SCT025 18/14 Q1019=
201110191945 METAR LIRA 191945Z 15015KT 9999 SCT016 SCT025 18/13 Q1019=
201110191915 METAR LIRA 191915Z 15015KT 9999 FEW016 BKN025 18/13 Q1019=
201110191845 METAR LIRA 191845Z 14008KT 9999 FEW017 SCT025 18/13 Q1019=
201110191815 METAR LIRA 191815Z 14011KT 9999 FEW018 BKN025 18/13 Q1020=
201110191745 METAR LIRA 191745Z 14012KT 9999 FEW018 BKN025 18/13 Q1020=
201110191715 METAR LIRA 191715Z 15011KT 9999 FEW018 SCT025 18/13 Q1020=
201110191645 METAR LIRA 191645Z 15011KT 9999 FEW018 FEW020TCU SCT025 18/13
                        Q1020=
201110191615 METAR LIRA 191615Z 16010KT 9999 FEW018 FEW020TCU SCT025 18/12
                        Q1020=
201110191545 METAR LIRA 191545Z 17011KT 9999 SCT017 SCT025 18/11 Q1021=
201110191515 METAR LIRA 191515Z 18011KT 9999 SCT017 19/10 Q1021=
201110191445 METAR LIRA 191445Z 19012KT 150V230 9999 SCT017 19/09 Q1022=
201110191415 METAR LIRA 191415Z 18013KT 140V220 9999 SCT017 19/09 Q1022=
201110191345 METAR LIRA 191345Z 19013KT 9999 SCT017 20/07 Q1022=
201110191315 METAR LIRA 191315Z 18015KT 150V230 9999 SCT017 20/07 Q1022=
201110191245 METAR LIRA 191245Z 17018KT 9999 BKN018 20/10 Q1022=
201110191215 METAR LIRA 191215Z 19013KT 140V210 9999 FEW017TCU SCT018
                        20/11 Q1023=
201110191145 METAR LIRA 191145Z 20016KT 170V230 9999 FEW017TCU SCT018
                        20/12 Q1023=
201110191115 METAR LIRA 191115Z 18011G23KT 9999 SCT015 FEW022TCU SCT025
                        19/12 Q1023=
201110191045 METAR LIRA 191045Z 17017KT 9999 SCT015 FEW022TCU 19/12 Q1023=
201110191015 METAR LIRA 191015Z 19012KT 140V220 9999 SCT018 SCT025 20/11
                        Q1023=
201110190945 METAR LIRA 190945Z 20015KT 9999 SCT015 SCT025 19/11 Q1023=
201110190915 METAR LIRA 190915Z 18011KT 150V270 9999 SCT015 SCT025 19/12
                        Q1023=
201110190845 METAR LIRA 190845Z 19008KT 9999 SCT015 SCT025 18/13 Q1023=
201110190815 METAR LIRA 190815Z 18012KT 9999 SCT018 SCT025 18/13 Q1023=
201110190745 METAR LIRA 190745Z 17008KT 9999 SCT015 17/13 Q1023=
201110190715 METAR LIRA 190715Z 18008KT 9999 SCT015 17/13 Q1023=
201110190645 METAR LIRA 190645Z 17007KT 9999 SCT015 16/13 Q1023=
201110190615 METAR LIRA 190615Z 17007KT 9999 SCT015 SCT025 16/13 Q1023=
201110190545 METAR LIRA 190545Z 16002KT 9999 SCT015 SCT025 16/13 Q1023=
201110190515 METAR LIRA 190515Z 17006KT 9999 SCT015 SCT025 15/13 Q1023=
201110190445 METAR LIRA 190445Z 35002KT 9999 -DZ SCT015 SCT025 14/13 Q1023=
201110190415 METAR LIRA 190415Z 15005KT 9999 -DZ SCT015 SCT025 15/14 Q1023=
201110190345 METAR LIRA 190345Z 13003KT 9999 -RA BKN030 SCT070 15/14 Q1024=
201110190315 METAR LIRA 190315Z 13003KT 9999 -RA BKN040 SCT070 15/13 Q1024=
201110190245 METAR LIRA 190245Z 16004KT 9999 -RA SCT040 15/13 Q1024=
201110190215 METAR LIRA 190215Z 17004KT 9999 SCT040 15/13 Q1024=
201110190145 METAR LIRA 190145Z 13002KT 9999 SCT040 13/11 Q1024=
201110190115 METAR LIRA 190115Z 12002KT 9999 SCT040 14/12 Q1024=
201110190045 METAR LIRA 190045Z 10001KT 9999 SCT040 14/12 Q1024=
201110190015 METAR LIRA 190015Z 13001KT 9999 SCT040 14/12 Q1024=
201110182350 METAR LIRA 190045Z 10001KT 9999 SCT040 14/12 Q1024=
201110182345 METAR LIRA 182345Z 16003KT 9999 SCT040 13/12 Q1024=
201110182315 METAR LIRA 182315Z 17002KT 9999 SCT040 14/12 Q1024=
201110182245 METAR LIRA 182245Z 18004KT 9999 FEW030 16/13 Q1024=
201110182215 METAR LIRA 182215Z 17003KT 9999 FEW030 17/13 Q1024=
201110182145 METAR LIRA 182145Z 20005KT 9999 FEW030 SCT070 17/14 Q1024=
201110182115 METAR LIRA 182115Z 22003KT 9999 FEW030 SCT070 17/13 Q1023=
201110182045 METAR LIRA 182045Z 19005KT 9999 FEW030 BKN070 17/13 Q1023=
201110182015 METAR LIRA 182015Z 16009KT 9999 FEW030 BKN070 18/14 Q1023=
201110181945 METAR LIRA 181945Z 17008KT 9999 FEW030 SCT070 18/14 Q1023=
201110181915 METAR LIRA 181915Z 15011KT 060V170 9999 FEW030 SCT070 17/14
                        Q1023=
201110181845 METAR LIRA 181845Z 15010KT 9999 FEW030 SCT070 17/13 Q1023=
201110181815 METAR LIRA 181815Z 15009KT 9999 FEW030 SCT070 17/14 Q1023=
201110181745 METAR LIRA 181745Z 15007KT 9999 FEW030 17/14 Q1023=
201110181715 METAR LIRA 181715Z 15010KT 9999 FEW030 17/13 Q1023=
201110181645 METAR LIRA 181645Z 16010KT 9999 FEW030 17/14 Q1023=
201110181615 METAR LIRA 181615Z 18009KT 140V200 9999 FEW023 SCT030 19/14
                        Q1023=
201110181545 METAR LIRA 181545Z 16008KT 9999 FEW023 SCT030 19/13 Q1023=
201110181515 METAR LIRA 181515Z 16010KT 9999 FEW023 SCT030 19/13 Q1023=
201110181445 METAR LIRA 181445Z 15008KT 9999 FEW023 SCT030 19/12 Q1023=
201110181415 METAR LIRA 181415Z 17009KT 9999 FEW023 SCT030 19/12 Q1023=
201110181345 METAR LIRA 181345Z 18008KT 150V210 9999 FEW023 SCT030 19/12
                        Q1023=
201110181315 METAR LIRA 181315Z 17009KT 9999 SCT028 SCT070 19/12 Q1023=
201110181245 METAR LIRA 181245Z 16007KT 9999 SCT028 SCT070 19/11 Q1023=
201110181215 METAR LIRA 181215Z 15007KT 130V210 9999 FEW020 SCT030 19/11
                        Q1023=
201110181145 METAR LIRA 181145Z 17004KT 150V220 9999 FEW020 SCT030 20/12
                        Q1023=
201110181115 METAR LIRA 181115Z 16006KT 130V210 9999 FEW020 SCT030 20/11
                        Q1023=
201110181045 METAR LIRA 181045Z 19004KT 9999 SCT030 SCT070 20/11 Q1023=
201110181015 METAR LIRA 181015Z 23001KT 9999 SCT030 SCT070 19/10 Q1023=
201110180945 METAR LIRA 180945Z 21001KT 9999 SCT030 SCT070 18/09 Q1023=
201110180915 METAR LIRA 180915Z 31001KT 9999 SCT030 SCT070 17/09 Q1023=
201110180845 METAR LIRA 180845Z 04002KT 9999 SCT030 15/09 Q1023=
201110180815 METAR LIRA 180815Z 36002KT 9999 SCT030 14/09 Q1023=
201110180745 METAR LIRA 180745Z 36002KT 9999 SCT030 12/09 Q1023=
201110180715 METAR LIRA 180715Z 01002KT 9999 FEW070 11/09 Q1023=
201110180645 METAR LIRA 180645Z 04003KT 9999 FEW070 10/08 Q1023=
201110180615 METAR LIRA 180615Z 04003KT 9999 FEW070 08/07 Q1023=
201110180545 METAR LIRA 180545Z 03002KT 9999 FEW070 08/06 Q1022=
201110180515 METAR LIRA 180515Z 04002KT CAVOK 08/06 Q1022=
201110180445 METAR LIRA 180445Z 04002KT CAVOK 09/07 Q1022=
201110180415 METAR LIRA 180415Z 04004KT CAVOK 08/07 Q1022=
201110180345 METAR LIRA 180345Z 04003KT CAVOK 09/08 Q1022=
201110180315 METAR LIRA 180315Z 03002KT CAVOK 09/08 Q1022=
201110180245 METAR LIRA 180245Z 03002KT CAVOK 09/08 Q1022=
201110180215 METAR LIRA 180215Z 05002KT CAVOK 09/08 Q1022=
201110180145 METAR LIRA 180145Z 06005KT CAVOK 09/08 Q1022=
201110180115 METAR LIRA 180115Z 04001KT CAVOK 10/09 Q1022=
201110180045 METAR LIRA 180045Z 36002KT CAVOK 11/09 Q1022=
201110180015 METAR LIRA 180015Z 07004KT CAVOK 11/09 Q1022=
201110172350 METAR LIRA 180045Z 36002KT CAVOK 11/09 Q1022=
201110172345 METAR LIRA 172345Z 08004KT CAVOK 11/09 Q1022=
201110172315 METAR LIRA 172315Z 08004KT CAVOK 11/09 Q1022=
201110172245 METAR LIRA 172245Z 08004KT CAVOK 11/09 Q1022=
201110172215 METAR LIRA 172215Z 10002KT CAVOK 12/10 Q1022=
201110172145 METAR LIRA 172145Z 10002KT CAVOK 12/10 Q1022=
201110172115 METAR LIRA 172115Z 09003KT CAVOK 12/10 Q1022=
201110172045 METAR LIRA 172045Z 10002KT CAVOK 12/10 Q1022=
201110172015 METAR LIRA 172015Z 06002KT CAVOK 12/10 Q1022=
201110171945 METAR LIRA 171945Z 07001KT CAVOK 13/10 Q1022=
201110171915 METAR LIRA 171915Z 10002KT CAVOK 13/11 Q1022=
201110171845 METAR LIRA 171845Z 00000KT CAVOK 14/10 Q1022=
201110171815 METAR LIRA 171815Z 22001KT CAVOK 14/10 Q1022=
201110171745 METAR LIRA 171745Z 23001KT CAVOK 15/10 Q1022=
201110171715 METAR LIRA 171715Z 26001KT CAVOK 15/09 Q1022=
201110171645 METAR LIRA 171645Z 27004KT CAVOK 16/10 Q1022=
201110171615 METAR LIRA 171615Z 29009KT 270V340 CAVOK 17/08 Q1022=
201110171545 METAR LIRA 171545Z 28010KT 250V310 9999 FEW023 18/08 Q1022=
201110171515 METAR LIRA 171515Z 28011KT 240V330 9999 FEW023 18/08 Q1022=
201110171445 METAR LIRA 171445Z 28007KT 240V340 9999 FEW030 19/07 Q1022=
201110171415 METAR LIRA 171415Z 27008KT 250V320 9999 FEW030 19/07 Q1022=
201110171345 METAR LIRA 171345Z 31009KT 270V350 9999 FEW030 19/06 Q1022=
201110171315 METAR LIRA 171315Z 33007KT 9999 FEW023 19/06 Q1023=
201110171245 METAR LIRA 171245Z 31005KT 9999 FEW023 19/05 Q1023=
201110171215 METAR LIRA 171215Z 33007KT 280V010 9999 FEW023 18/06 Q1023=
201110171145 METAR LIRA 171145Z 33009KT 360V020 9999 FEW023 18/06 Q1024=
201110171115 METAR LIRA 171115Z 33005KT 280V360 9999 FEW022 18/05 Q1024=
201110171045 METAR LIRA 171045Z 35007KT 310V030 9999 FEW022 18/03 Q1024=
201110171015 METAR LIRA 171015Z 33004KT 9999 FEW022 17/03 Q1024=
201110170945 METAR LIRA 170945Z 36004KT 9999 FEW022 16/03 Q1024=
201110170915 METAR LIRA 170915Z 04004KT 9999 FEW022 14/07 Q1024=
201110170845 METAR LIRA 170845Z 03005KT 9999 FEW022 SCT027 12/06 Q1024=
201110170815 METAR COR LIRA 170815Z 01006KT 9999 FEW022 11/05 Q1024=
201110170745 METAR LIRA 170745Z 36005KT 9999 FEW022 11/05 Q1024=
201110170715 METAR LIRA 170715Z 03006KT 9999 FEW022 10/05 Q1023=
201110170645 METAR LIRA 170645Z 02002KT 9999 FEW027 08/04 Q1023=
201110170615 METAR LIRA 170615Z 01002KT 9999 FEW030 08/04 Q1023=
201110170545 METAR LIRA 170545Z 36004KT 9999 FEW030 09/04 Q1023=
201110170515 METAR LIRA 170515Z 02004KT 9999 FEW030 10/04 Q1023=
201110170445 METAR LIRA 170445Z 02003KT 9999 FEW020 SCT035 10/04 Q1023=
201110170415 METAR LIRA 170415Z 01005KT 9999 SCT035 10/04 Q1023=
201110170245 METAR LIRA 170245Z 01005KT 9999 FEW018 10/04 Q1023=
201110170215 METAR LIRA 170215Z 36005KT 9999 FEW018 10/05 Q1023=
201110170145 METAR LIRA 170145Z 02003KT 9999 FEW018 10/05 Q1023=
201110170115 METAR LIRA 170115Z 04005KT 9999 FEW018 10/05 Q1023=
201110170045 METAR LIRA 170045Z 02002KT 9999 FEW018 11/06 Q1023=
201110170015 METAR LIRA 170015Z 05006KT 9999 FEW018 11/07 Q1023=
201110162350 METAR LIRA 170045Z 02002KT 9999 FEW018 11/06 Q1023=
201110162345 METAR LIRA 162345Z 04005KT 9999 FEW018 12/07 Q1023=
201110162315 METAR LIRA 162315Z 03001KT 9999 FEW018 12/08 Q1023=
201110162245 METAR LIRA 162245Z 06004KT 9999 FEW018 12/09 Q1023=
201110162215 METAR LIRA 162215Z 04004KT 9999 FEW018 SCT070 12/09 Q1023=
201110162145 METAR LIRA 162145Z 36002KT 9999 FEW018 SCT070 12/10 Q1023=
201110162115 METAR LIRA 162115Z 04004KT 9999 FEW018 SCT070 12/10 Q1023=
201110162045 METAR LIRA 162045Z 07004KT 9999 FEW018 SCT070 12/10 Q1022=
201110162015 METAR LIRA 162015Z 05002KT 9999 FEW080 13/11 Q1022=
201110161945 METAR LIRA 161945Z 09005KT 070V140 9999 FEW080 13/10 Q1022=
201110161915 METAR LIRA 161915Z 00000KT CAVOK 13/10 Q1022=
201110161845 METAR LIRA 161845Z 13004KT CAVOK 14/10 Q1021=
201110161815 METAR LIRA 161815Z 16001KT CAVOK 14/09 Q1021=
201110161745 METAR LIRA 161745Z 17005KT CAVOK 15/07 Q1021=
201110161715 METAR LIRA 161715Z 19006KT CAVOK 15/07 Q1021=
201110161645 METAR LIRA 161645Z 23004KT 170V240 CAVOK 17/05 Q1020=
201110161615 METAR LIRA 161615Z 20007KT 170V240 CAVOK 17/05 Q1020=
201110161545 METAR LIRA 161545Z 20010KT CAVOK 18/05 Q1020=
201110161515 METAR LIRA 161515Z 20010KT CAVOK 19/06 Q1020=
201110161445 METAR LIRA 161445Z 18010KT CAVOK 19/05 Q1020=
201110161415 METAR LIRA 161415Z 21007KT 180V250 CAVOK 20/04 Q1020=
201110161345 METAR LIRA 161345Z 19008KT CAVOK 20/04 Q1020=
201110161315 METAR LIRA 161315Z 21007KT 150V230 CAVOK 21/07 Q1020=
201110161245 METAR LIRA 161245Z 36002KT CAVOK 21/07 Q1020=
201110161215 METAR LIRA 161215Z 24002KT CAVOK 20/07 Q1021=
201110161145 METAR LIRA 161145Z 31001KT CAVOK 19/07 Q1021=
201110161115 METAR LIRA 161115Z 09003KT CAVOK 18/07 Q1021=
201110161045 METAR LIRA 161045Z 05005KT 350V060 CAVOK 17/05 Q1021=
201110161015 METAR LIRA 161015Z 35005KT 320V050 CAVOK 16/05 Q1021=
201110160945 METAR LIRA 160945Z 36006KT 320V050 CAVOK 15/05 Q1021=
201110160915 METAR LIRA 160915Z 01007KT 330V050 CAVOK 14/05 Q1021=
201110160845 METAR LIRA 160845Z 03006KT 330V050 CAVOK 13/06 Q1021=
201110160815 METAR LIRA 160815Z 03008KT 360V070 CAVOK 11/05 Q1021=
201110160745 METAR LIRA 160745Z 02008KT CAVOK 10/05 Q1021=
201110160715 METAR LIRA 160715Z 36006KT 340V040 CAVOK 07/03 Q1021=
201110160645 METAR LIRA 160645Z 04005KT CAVOK 06/03 Q1021=
201110160615 METAR LIRA 160615Z 05005KT CAVOK 06/03 Q1021=
201110160545 METAR LIRA 160545Z 03004KT CAVOK 07/02 Q1021=
201110160515 METAR LIRA 160515Z 04004KT 9999 FEW070 07/03 Q1021=
201110160445 METAR LIRA 160445Z 05003KT CAVOK 07/02 Q1021=
201110160415 METAR LIRA 160415Z 03003KT CAVOK 07/01 Q1021=
201110160345 METAR LIRA 160345Z 05003KT CAVOK 07/02 Q1021=
201110160315 METAR LIRA 160315Z 03002KT CAVOK 07/02 Q1021=
201110160245 METAR LIRA 160245Z 04004KT CAVOK 07/02 Q1021=
201110160215 METAR LIRA 160215Z 04006KT CAVOK 07/01 Q1021=
201110160145 METAR LIRA 160145Z 06006KT CAVOK 07/01 Q1021=
201110160115 METAR LIRA 160115Z 02003KT CAVOK 09/03 Q1020=
201110160045 METAR LIRA 160045Z 01004KT CAVOK 09/03 Q1020=
201110160015 METAR LIRA 160015Z 03003KT CAVOK 10/03 Q1020=
201110152350 METAR LIRA 160045Z 01004KT CAVOK 09/03 Q1020=
201110152345 METAR LIRA 152345Z 01004KT CAVOK 10/03 Q1020=
201110152315 METAR LIRA 152315Z 02005KT 9999 FEW020 10/03 Q1020=
201110152245 METAR LIRA 152245Z 01005KT 9999 FEW030 11/03 Q1020=
201110152215 METAR LIRA 152215Z 01005KT 320V030 9999 FEW030 11/02 Q1020=
201110152145 METAR LIRA 152145Z 36006KT 330V040 CAVOK 11/02 Q1020=
201110152115 METAR LIRA 152115Z 36005KT CAVOK 12/03 Q1020=
201110152045 METAR LIRA 152045Z 02005KT CAVOK 12/03 Q1020=
201110152015 METAR LIRA 152015Z 01001KT CAVOK 12/03 Q1020=
201110151945 METAR LIRA 151945Z 36002KT CAVOK 13/02 Q1020=
201110151915 METAR LIRA 151915Z 05003KT CAVOK 12/01 Q1019=
201110151845 METAR LIRA 151845Z 05004KT CAVOK 13/03 Q1019=
201110151815 METAR LIRA 151815Z 07006KT CAVOK 14/06 Q1019=
201110151745 METAR LIRA 151745Z 13003KT CAVOK 15/08 Q1019=
201110151715 METAR LIRA 151715Z 19004KT CAVOK 16/09 Q1019=
201110151645 METAR LIRA 151645Z 22003KT CAVOK 17/09 Q1019=
201110151615 METAR LIRA 151615Z 22005KT CAVOK 17/08 Q1019=
201110151545 METAR LIRA 151545Z 22013KT CAVOK 19/05 Q1019=
201110151515 METAR LIRA 151515Z 22006KT CAVOK 19/03 Q1019=
201110151445 METAR LIRA 151445Z 20008KT 180V250 CAVOK 20/M01 Q1019=
201110151415 METAR LIRA 151415Z 22005KT 200V270 CAVOK 21/00 Q1019=
201110151345 METAR LIRA 151345Z 31002KT 9999 FEW017 21/01 Q1019=
201110151315 METAR LIRA 151315Z 36003KT 9999 FEW017 21/01 Q1019=
201110151245 METAR LIRA 151245Z 02002KT CAVOK 21/00 Q1019=
201110151215 METAR LIRA 151215Z 06005KT 330V100 CAVOK 20/01 Q1019=
201110151145 METAR LIRA 151145Z 15002KT CAVOK 20/02 Q1019=
201110151115 METAR LIRA 151115Z 07001KT CAVOK 19/02 Q1019=
201110151045 METAR LIRA 151045Z 30001KT CAVOK 19/02 Q1019=
201110151015 METAR LIRA 151015Z 02002KT 320V060 CAVOK 19/02 Q1019=
201110150945 METAR LIRA 150945Z 04007KT 360V090 CAVOK 18/02 Q1019=
201110150915 METAR LIRA 150915Z 04006KT 350V070 CAVOK 17/03 Q1019=
201110150845 METAR LIRA 150845Z 05009KT 360V070 CAVOK 16/04 Q1019=
201110150815 METAR LIRA 150815Z 36008KT 330V050 CAVOK 15/04 Q1019=
201110150745 METAR LIRA 150745Z 04008KT 360V060 CAVOK 13/03 Q1019=
201110150715 METAR LIRA 150715Z 04005KT 010V080 CAVOK 12/04 Q1019=
201110150645 METAR LIRA 150645Z 05008KT CAVOK 11/04 Q1018=
201110150615 METAR LIRA 150615Z 02005KT CAVOK 10/03 Q1018=
201110150545 METAR LIRA 150545Z 02003KT CAVOK 10/03 Q1018=
201110150515 METAR LIRA 150515Z 36004KT CAVOK 10/03 Q1018=
201110150445 METAR LIRA 150445Z 36004KT CAVOK 10/03 Q1018=
201110150415 METAR LIRA 150415Z 05006KT CAVOK 10/04 Q1018=
201110150345 METAR LIRA 150345Z 04005KT CAVOK 11/03 Q1018=
201110150315 METAR LIRA 150315Z 03003KT CAVOK 10/03 Q1018=
201110150245 METAR LIRA 150245Z 02005KT CAVOK 10/04 Q1018=
201110150215 METAR LIRA 150215Z 02004KT CAVOK 10/04 Q1018=
201110150145 METAR LIRA 150145Z 05005KT CAVOK 11/04 Q1018=
201110150115 METAR LIRA 150115Z 02004KT CAVOK 11/04 Q1018=
201110150045 METAR LIRA 150045Z 04003KT CAVOK 11/04 Q1018=
201110150015 METAR LIRA 150015Z 03004KT CAVOK 12/04 Q1018=
201110142350 METAR LIRA 150045Z 04003KT CAVOK 11/04 Q1018=
201110142345 METAR LIRA 142345Z 03005KT 360V060 CAVOK 12/04 Q1018=
201110142315 METAR LIRA 142315Z 02004KT CAVOK 12/04 Q1018=
201110142245 METAR LIRA 142245Z 02006KT CAVOK 12/03 Q1018=
201110142215 METAR LIRA 142215Z 02005KT CAVOK 13/04 Q1018=
201110142145 METAR LIRA 142145Z 06004KT CAVOK 12/03 Q1018=
201110142115 METAR LIRA 142115Z 07005KT CAVOK 12/02 Q1017=
201110142045 METAR LIRA 142045Z 04005KT CAVOK 14/02 Q1017=
201110142015 METAR LIRA 142015Z 04007KT 010V070 CAVOK 14/02 Q1017=
201110141945 METAR LIRA 141945Z 02006KT 330V060 CAVOK 14/02 Q1017=
201110141915 METAR LIRA 141915Z 02008KT 330V060 CAVOK 15/03 Q1016=
201110141845 METAR LIRA 141845Z 03008KT 010V070 9999 FEW018 15/04 Q1016=
201110141815 METAR LIRA 141815Z 05010KT 9999 FEW018 16/05 Q1016=
201110141745 METAR LIRA 141745Z 05010KT 9999 FEW018 16/05 Q1016=
201110141715 METAR LIRA 141715Z 04005KT 020V080 9999 FEW018 18/08 Q1016=
201110141645 METAR LIRA 141645Z 21004KT 9999 FEW018 19/14 Q1015=
201110141615 METAR LIRA 141615Z 17003KT 9999 FEW018 19/15 Q1015=
201110141545 METAR LIRA 141545Z 17010KT 9999 FEW018 20/14 Q1015=
201110141515 METAR LIRA 141515Z 20011KT 9999 FEW018 22/09 Q1014=
201110141445 METAR LIRA 141445Z 20008KT 170V230 9999 FEW018 22/07 Q1014=
201110141415 METAR LIRA 141415Z 10006KT 080V190 9999 FEW018 23/03 Q1014=
201110141345 METAR LIRA 141345Z 07004KT 9999 FEW018 SCT080 23/02 Q1015=
201110141315 METAR LIRA 141315Z 08004KT 9999 FEW018 SCT030 24/03 Q1015=
201110141245 METAR LIRA 141245Z 07004KT 9999 FEW030 SCT080 25/04 Q1015=
201110141215 METAR LIRA 141215Z 25004KT 030V090 9999 FEW030 SCT080 24/02
                        Q1015=
201110141145 METAR LIRA 141145Z 05005KT 360V080 9999 FEW030 SCT080 23/06
                        Q1015=
201110141115 METAR LIRA 141115Z 03004KT 9999 SCT030 SCT080 23/06 Q1016=
201110141045 METAR LIRA 141045Z 03004KT 010V070 9999 SCT030 22/07 Q1016=
201110141015 METAR LIRA 141015Z 05004KT 9999 SCT030 21/07 Q1016=
201110140945 METAR LIRA 140945Z 07005KT 020V110 9999 SCT030 22/07 Q1015=
201110140915 METAR LIRA 140915Z 04005KT 340V080 9999 SCT030 20/07 Q1015=
201110140845 METAR LIRA 140845Z 02007KT 340V050 9999 SCT030 20/05 Q1015=
201110140815 METAR LIRA 140815Z 01007KT 360V060 9999 FEW018 SCT080 19/05
                        Q1015=
201110140745 METAR LIRA 140745Z 03008KT 360V070 9999 FEW018 18/05 Q1015=
201110140715 METAR LIRA 140715Z 01007KT 340V050 9999 FEW018 17/05 Q1015=
201110140645 METAR LIRA 140645Z 35005KT 9999 FEW018 SCT030 16/08 Q1015=
201110140615 METAR LIRA 140615Z 01004KT 9999 FEW018 SCT030 16/07 Q1015=
201110140545 METAR LIRA 140545Z 35005KT 9999 FEW030 SCT080 16/08 Q1014=
201110140515 METAR LIRA 140515Z 36004KT 9999 FEW030 SCT080 16/08 Q1014=
201110140445 METAR LIRA 140445Z 01005KT 9999 FEW030 SCT080 16/09 Q1014=
201110140415 METAR LIRA 140415Z 01005KT 9999 FEW030 SCT080 16/10 Q1014=
201110140345 METAR LIRA 140345Z 36004KT 9999 BKN060 16/12 Q1014=
201110140315 METAR LIRA 140315Z 02004KT 9999 BKN060 16/10 Q1014=
201110140245 METAR LIRA 140245Z 05005KT 9999 BKN060 16/12 Q1014=
201110140215 METAR LIRA 140215Z 02003KT 9999 BKN060 16/14 Q1014=
201110140145 METAR LIRA 140145Z 02003KT 9999 SCT060 16/15 Q1015=
201110140115 METAR LIRA 140115Z 36003KT 9999 BKN060 17/15 Q1015=
201110140045 METAR LIRA 140045Z 03002KT 9999 SCT060 17/16 Q1015=
201110140015 METAR LIRA 140015Z 02002KT 9999 SCT060 18/16 Q1015=
201110132350 METAR LIRA 140045Z 03002KT 9999 SCT060 17/16 Q1015=
201110132345 METAR LIRA 132345Z 02002KT 9999 SCT060 18/16 Q1015=
201110132315 METAR LIRA 132315Z 05003KT 9999 SCT060 18/16 Q1015=
201110132245 METAR LIRA 132245Z 06004KT 9999 SCT060 18/16 Q1015=
201110132215 METAR LIRA 132215Z 06003KT 9999 FEW020 SCT060 18/16 Q1015=
201110132145 METAR LIRA 132145Z 05004KT 9999 FEW030 SCT060 19/17 Q1015=
201110132115 METAR LIRA 132115Z 04004KT 9999 FEW030 SCT060 19/17 Q1015=
201110132045 METAR LIRA 132045Z 05004KT 9999 FEW030 SCT060 19/17 Q1015=
201110132015 METAR LIRA 132015Z 05004KT 9999 FEW030 SCT060 19/16 Q1015=
201110131945 METAR LIRA 131945Z 00000KT 9999 FEW030 SCT060 20/16 Q1015=
201110131915 METAR LIRA 131915Z 21002KT 9999 SCT025 SCT060 20/16 Q1014=
201110131845 METAR LIRA 131845Z 23002KT 9999 SCT020 SCT060 21/16 Q1014=
201110131815 METAR LIRA 131815Z 20004KT 9999 SCT020 SCT060 21/16 Q1014=
201110131745 METAR LIRA 131745Z 19005KT 9999 FEW013 SCT020 21/17 Q1014=
201110131715 METAR LIRA 131715Z 20006KT 9999 FEW013 SCT020 BKN060 21/17
                        Q1014=
201110131645 METAR LIRA 131645Z 21003KT 9999 SCT025 SCT060 21/17 Q1014=
201110131615 METAR LIRA 131615Z 18005KT 9999 FEW018 SCT030 22/16 Q1014=
201110131545 METAR LIRA 131545Z 15004KT 9999 SCT018 SCT030 23/14 Q1014=
201110131515 METAR LIRA 131515Z 15005KT 9999 SCT018 SCT030 23/14 Q1014=
201110131445 METAR LIRA 131445Z 17004KT 9999 SCT018 SCT030 23/14 Q1014=
201110131415 METAR LIRA 131415Z 17006KT 130V210 9999 SCT018 SCT030 23/14
                        Q1014=
201110131345 METAR LIRA 131345Z 12004KT 9999 SCT016 SCT030 23/15 Q1014=
201110131315 METAR LIRA 131315Z 17004KT 9999 SCT016 23/15 Q1014=
201110131245 METAR LIRA 131245Z 17004KT 9999 SCT015 SCT030 24/16 Q1015=
201110131215 METAR LIRA 131215Z 06003KT 9999 SCT015 SCT030 23/17 Q1015=
201110131145 METAR LIRA 131145Z 01002KT 9999 SCT015 SCT027 22/16 Q1015=
201110131115 METAR LIRA 131115Z 03002KT 9999 SCT015 SCT027 22/16 Q1016=
201110131045 METAR LIRA 131045Z 06003KT 9999 SCT015 SCT027 21/16 Q1016=
201110130815 METAR LIRA 130815Z 33004KT 9999 SCT014 SCT023 19/16 Q1016=
201110130745 METAR LIRA 130745Z 34002KT 9999 SCT014 18/16 Q1015=
201110130715 METAR LIRA 130715Z 33002KT 9999 SCT015 17/16 Q1015=
201110130645 METAR LIRA 130645Z 33003KT 9999 FEW018 16/15 Q1015=
201110130615 METAR LIRA 130615Z 15001KT 9999 FEW018 15/13 Q1014=
201110130545 METAR LIRA 130545Z 19002KT 9999 FEW018 15/13 Q1015=
201110130515 METAR LIRA 130515Z 14003KT 9999 FEW018 14/13 Q1015=
201110130445 METAR LIRA 130445Z 00000KT CAVOK 14/13 Q1015=
201110130415 METAR LIRA 130415Z 09002KT CAVOK 14/13 Q1015=
201110130345 METAR LIRA 130345Z 10006KT CAVOK 15/13 Q1016=
201110130315 METAR LIRA 130315Z 11003KT CAVOK 15/12 Q1016=
201110130245 METAR LIRA 130245Z 12003KT CAVOK 15/13 Q1016=
201110130215 METAR LIRA 130215Z 15005KT CAVOK 14/13 Q1016=
201110130145 METAR LIRA 130145Z 15004KT CAVOK 15/13 Q1017=
201110130115 METAR LIRA 130115Z 16005KT CAVOK 15/14 Q1017=
201110130045 METAR LIRA 130045Z 16005KT CAVOK 16/14 Q1017=
201110130015 METAR LIRA 130015Z 10001KT CAVOK 15/12 Q1017=
201110122350 METAR LIRA 130045Z 16005KT CAVOK 16/14 Q1017=
201110122345 METAR LIRA 122345Z 00000KT CAVOK 15/13 Q1017=
201110122315 METAR LIRA 122315Z 15002KT CAVOK 15/12 Q1017=
201110122245 METAR LIRA 122245Z 16003KT CAVOK 15/12 Q1017=
201110122215 METAR LIRA 122215Z 17004KT CAVOK 16/13 Q1017=
201110122145 METAR LIRA 122145Z 19003KT CAVOK 18/14 Q1017=
201110122115 METAR LIRA 122115Z 17003KT CAVOK 17/14 Q1017=
201110122045 METAR LIRA 122045Z 18003KT CAVOK 17/15 Q1017=
201110122015 METAR LIRA 122015Z 17003KT CAVOK 17/16 Q1017=
201110121945 METAR LIRA 121945Z 18003KT CAVOK 19/17 Q1017=
201110121915 METAR LIRA 121915Z 18004KT CAVOK 19/18 Q1017=
201110121845 METAR LIRA 121845Z 18004KT CAVOK 19/18 Q1017=
201110121815 METAR LIRA 121815Z 16005KT CAVOK 19/18 Q1017=
201110121745 METAR LIRA 121745Z 19005KT CAVOK 20/18 Q1017=
201110121715 METAR LIRA 121715Z 22003KT CAVOK 22/19 Q1017=
201110121645 METAR LIRA 121645Z 21003KT CAVOK 23/19 Q1017=
201110121615 METAR LIRA 121615Z 20004KT CAVOK 23/19 Q1017=
201110121545 METAR LIRA 121545Z 20004KT 180V250 CAVOK 23/18 Q1017=
201110121515 METAR LIRA 121515Z 24005KT CAVOK 24/17 Q1017=
201110121445 METAR LIRA 121445Z 24005KT 210V280 CAVOK 25/17 Q1017=
201110121415 METAR LIRA 121415Z 25006KT 210V300 CAVOK 26/15 Q1017=
201110121345 METAR LIRA 121345Z 24005KT 200V290 CAVOK 26/15 Q1017=
201110121315 METAR LIRA 121315Z 25006KT 170V300 CAVOK 27/13 Q1017=
201110121245 METAR LIRA 121245Z 26005KT 250V310 CAVOK 26/14 Q1017=
201110121215 METAR LIRA 121215Z 27003KT CAVOK 26/15 Q1018=
201110121145 METAR LIRA 121145Z 25005KT CAVOK 25/16 Q1018=
201110121115 METAR LIRA 121115Z 25004KT CAVOK 24/15 Q1018=
201110121045 METAR LIRA 121045Z 27003KT CAVOK 24/17 Q1018=
201110121015 METAR LIRA 121015Z 29004KT CAVOK 23/16 Q1018=
201110120945 METAR LIRA 120945Z 29003KT 9000 NSC 22/16 Q1018=
201110120915 METAR LIRA 120915Z 29003KT 7000 NSC 20/16 Q1018=
201110120845 METAR LIRA 120845Z 33004KT 7000 NSC 19/15 Q1018=
201110120815 METAR LIRA 120815Z 00000KT 6000 NSC 19/14 Q1018=
201110120745 METAR LIRA 120745Z 31001KT 6000 FEW005 16/14 Q1018=
201110120715 METAR LIRA 120715Z 03002KT 6000 FEW005 15/13 Q1018=
201110120645 METAR LIRA 120645Z 04004KT 3000 BR VCFG BKN002 14/11 Q1017=
201110120615 METAR LIRA 120615Z 05005KT 3500 BR BKN004 14/11 Q1017=
201110120545 METAR LIRA 120545Z 04003KT 4000 BR SCT004 13/11 Q1017=
201110120515 METAR LIRA 120515Z 03002KT 4000 BR SCT007 13/11 Q1017=
201110120445 METAR LIRA 120445Z 00000KT 8000 FEW010 14/11 Q1017=
201110120415 METAR LIRA 120415Z 10002KT 8000 FEW023 14/11 Q1017=
201110120345 METAR LIRA 120345Z 14002KT 8000 FEW030 14/12 Q1017=
201110120315 METAR LIRA 120315Z 00000KT 8000 FEW030 15/13 Q1017=
201110120245 METAR LIRA 120245Z 14002KT 8000 FEW030 16/14 Q1017=
201110120215 METAR LIRA 120215Z 16002KT 8000 FEW015 17/15 Q1018=
201110120145 METAR LIRA 120145Z 14003KT 8000 FEW008 SCT028 18/16 Q1018=
201110120115 METAR LIRA 120115Z 17003KT 8000 SCT005 SCT028 18/17 Q1018=
201110120045 METAR LIRA 120045Z 19003KT 8000 SCT004 SCT028 18/17 Q1018=
201110120015 METAR LIRA 120015Z 15003KT 8000 SCT004 SCT030 18/17 Q1018=
201110112350 METAR LIRA 120045Z 19003KT 8000 SCT004 SCT028 18/17 Q1018=
201110112345 METAR LIRA 112345Z 16004KT 9000 FEW004 BKN030 18/17 Q1018=
201110112315 METAR LIRA 112315Z 14006KT 9000 FEW004 BKN025 18/16 Q1018=
201110112245 METAR LIRA 112245Z 17004KT 9000 FEW004 BKN025 18/17 Q1018=
201110112215 METAR LIRA 112215Z 16004KT 9000 FEW004 BKN025 18/17 Q1018=
201110112145 METAR LIRA 112145Z 17005KT 9000 FEW004 BKN025 18/16 Q1018=
201110112115 METAR LIRA 112115Z 16007KT 9000 FEW004 BKN025 19/17 Q1018=
201110112045 METAR LIRA 112045Z 18006KT 9999 FEW004 19/17 Q1018=
201110112015 METAR LIRA 112015Z 18006KT CAVOK 19/17 Q1018=
201110111945 METAR LIRA 111945Z 18007KT CAVOK 19/17 Q1018=
201110111915 METAR LIRA 111915Z 19006KT CAVOK 19/17 Q1018=
201110111845 METAR LIRA 111845Z 18006KT CAVOK 20/16 Q1017=
201110111815 METAR LIRA 111815Z 20007KT CAVOK 21/14 Q1017=
201110111745 METAR LIRA 111745Z 20005KT CAVOK 23/12 Q1017=
201110111715 METAR LIRA 111715Z 18004KT CAVOK 23/11 Q1017=
201110111645 METAR LIRA 111645Z 21003KT CAVOK 24/11 Q1017=
201110111615 METAR LIRA 111615Z 24002KT CAVOK 25/11 Q1017=
201110111545 METAR LIRA 111545Z 24004KT CAVOK 26/11 Q1017=
201110111515 METAR LIRA 111515Z 27003KT CAVOK 26/11 Q1017=
201110111445 METAR LIRA 111445Z 27005KT 250V310 CAVOK 27/10 Q1017=
201110111415 METAR LIRA 111415Z 30005KT 240V290 CAVOK 27/10 Q1017=
201110111345 METAR LIRA 111345Z 31003KT CAVOK 27/09 Q1017=
201110111315 METAR LIRA 111315Z 28003KT CAVOK 27/09 Q1017=
201110111245 METAR LIRA 111245Z 05002KT CAVOK 26/09 Q1017=
201110111215 METAR LIRA 111215Z 34002KT CAVOK 25/08 Q1017=
201110111145 METAR LIRA 111145Z 27003KT CAVOK 24/08 Q1018=
201110111115 METAR LIRA 111115Z 34002KT CAVOK 23/08 Q1018=
201110111045 METAR LIRA 111045Z 35001KT CAVOK 23/08 Q1018=
201110111015 METAR LIRA 111015Z 30003KT 9999 FEW080 21/07 Q1018=
201110110945 METAR LIRA 110945Z 33004KT 9999 FEW080 19/06 Q1018=
201110110915 METAR LIRA 110915Z 35004KT 260V020 9999 FEW080 18/07 Q1018=
201110110845 METAR LIRA 110845Z 36006KT 330V030 CAVOK 17/07 Q1018=
201110110815 METAR LIRA 110815Z 02006KT 340V060 CAVOK 16/07 Q1018=
201110110745 METAR LIRA 110745Z 04006KT 010V090 CAVOK 14/07 Q1018=
201110110715 METAR LIRA 110715Z 03004KT CAVOK 13/07 Q1018=
201110110645 METAR LIRA 110645Z 02004KT CAVOK 12/07 Q1018=
201110110615 METAR LIRA 110615Z 02004KT CAVOK 12/07 Q1018=
201110110545 METAR LIRA 110545Z 02001KT CAVOK 12/07 Q1018=
201110110515 METAR LIRA 110515Z 01003KT CAVOK 12/06 Q1018=
201110110445 METAR LIRA 110445Z 06004KT CAVOK 12/06 Q1018=
201110110415 METAR LIRA 110415Z 05005KT CAVOK 12/06 Q1018=
201110110345 METAR LIRA 110345Z 36002KT CAVOK 12/06 Q1018=
201110110315 METAR LIRA 110315Z 04004KT CAVOK 13/06 Q1018=
201110110245 METAR LIRA 110245Z 04004KT CAVOK 13/06 Q1018=
201110110215 METAR LIRA 110215Z 04004KT 9999 FEW080 13/05 Q1018=
201110110145 METAR LIRA 110145Z 05004KT 9999 FEW070 13/05 Q1018=
201110110115 METAR LIRA 110115Z 07007KT 030V100 9999 SCT070 14/05 Q1019=
201110110045 METAR LIRA 110045Z 06005KT 9999 FEW060 14/05 Q1019=
201110110015 METAR LIRA 110015Z 07004KT 9999 FEW060 SCT080 12/04 Q1019=
201110102350 METAR LIRA 110045Z 06005KT 9999 FEW060 14/05 Q1019=
201110102345 METAR LIRA 102345Z 00000KT 9999 FEW080 13/04 Q1019=
201110102315 METAR LIRA 102315Z 02003KT 9999 FEW080 13/04 Q1019=
201110102245 METAR LIRA 102245Z 04004KT 9999 FEW080 14/03 Q1018=
201110102215 METAR LIRA 102215Z 02003KT 9999 FEW080 14/03 Q1019=
201110102145 METAR LIRA 102145Z 09002KT 9999 FEW080 14/03 Q1019=
201110102115 METAR LIRA 102115Z 07002KT 9999 FEW080 14/03 Q1019=
201110102045 METAR LIRA 102045Z 03003KT CAVOK 15/02 Q1019=
201110102015 METAR LIRA 102015Z 34003KT CAVOK 15/01 Q1018=
201110101945 METAR LIRA 101945Z 33002KT CAVOK 15/01 Q1018=
201110101915 METAR LIRA 101915Z 32006KT CAVOK 17/01 Q1018=
201110101845 METAR LIRA 101845Z 30007KT CAVOK 17/01 Q1018=
201110101815 METAR LIRA 101815Z 34010KT CAVOK 19/01 Q1018=
201110101745 METAR LIRA 101745Z 34006KT 320V030 CAVOK 18/01 Q1018=
201110101715 METAR LIRA 101715Z 36002KT 9999 FEW080 18/00 Q1018=
201110101645 METAR LIRA 101645Z 34009KT 9999 FEW080 19/M00 Q1018=
201110101615 METAR LIRA 101615Z 34008KT 9999 FEW080 19/M01 Q1018=
201110101545 METAR LIRA 101545Z 33013KT CAVOK 20/M04 Q1018=
201110101515 METAR LIRA 101515Z 33015KT CAVOK 20/M04 Q1017=
201110101445 METAR LIRA 101445Z 33013KT 300V020 CAVOK 21/M03 Q1017=
201110101415 METAR LIRA 101415Z 33013KT CAVOK 21/M03 Q1017=
201110101345 METAR LIRA 101345Z 32012KT CAVOK 20/M03 Q1017=
201110101315 METAR LIRA 101315Z 33014KT CAVOK 21/M03 Q1017=
201110101245 METAR LIRA 101245Z 35012KT 310V030 CAVOK 20/M01 Q1018=
201110101215 METAR LIRA 101215Z 32010KT 270V010 CAVOK 20/M01 Q1018=
201110101145 METAR LIRA 101145Z 35014KT CAVOK 19/01 Q1018=
201110101115 METAR LIRA 101115Z 35011KT 330V050 CAVOK 18/01 Q1018=
201110101045 METAR LIRA 101045Z 34013KT 320V020 CAVOK 18/01 Q1018=
201110101015 METAR LIRA 101015Z 35013KT CAVOK 17/01 Q1018=
201110100945 METAR LIRA 100945Z 35009KT 300V030 CAVOK 16/01 Q1018=
201110100915 METAR LIRA 100915Z 34011KT 310V020 CAVOK 15/01 Q1018=
201110100845 METAR LIRA 100845Z 01009KT 310V050 CAVOK 14/03 Q1018=
201110100815 METAR LIRA 100815Z 36011KT 330V100 CAVOK 12/04 Q1018=
201110100745 METAR LIRA 100745Z 36010KT 330V030 CAVOK 12/05 Q1018=
201110100715 METAR LIRA 100715Z 03007KT 350V060 CAVOK 11/05 Q1018=
201110100700 LIRA INTER=
201110100645 METAR LIRA 100645Z 03008KT 350V070 CAVOK 10/04 Q1017=
201110100615 METAR LIRA 100615Z 03008KT 010V080 CAVOK 09/03 Q1017=
201110100545 METAR LIRA 100545Z 01005KT 350V060 CAVOK 10/04 Q1017=
201110100515 METAR LIRA 100515Z 02007KT 340V050 CAVOK 10/04 Q1017=
201110100445 METAR LIRA 100445Z 35012KT CAVOK 09/04 Q1017=
201110100415 METAR LIRA 100415Z 33012KT CAVOK 09/04 Q1017=
201110100345 METAR LIRA 100345Z 34007KT CAVOK 09/04 Q1017=
201110100315 METAR LIRA 100315Z 02005KT 340V050 CAVOK 08/03 Q1017=
201110100245 METAR LIRA 100245Z 35003KT CAVOK 08/03 Q1017=
201110100215 METAR LIRA 100215Z 35002KT CAVOK 08/02 Q1017=
201110100145 METAR LIRA 100145Z 03003KT CAVOK 09/02 Q1017=
201110100115 METAR LIRA 100115Z 02003KT CAVOK 09/02 Q1017=
201110100045 METAR LIRA 100045Z 36005KT 330V050 CAVOK 09/03 Q1017=
201110100015 METAR LIRA 100015Z 36005KT CAVOK 10/03 Q1017=
201110092350 METAR LIRA 100045Z 36005KT 330V050 CAVOK 09/03 Q1017=
201110092345 METAR LIRA 092345Z 36003KT CAVOK 09/02 Q1017=
201110092315 METAR LIRA 092315Z 35004KT CAVOK 09/03 Q1017=
201110092245 METAR LIRA 092245Z 01010G21KT CAVOK 11/02 Q1017=
201110092215 METAR LIRA 092215Z 01011G22KT CAVOK 11/02 Q1017=
201110092145 METAR LIRA 092145Z 35010KT 320V030 CAVOK 10/01 Q1017=
201110092115 METAR LIRA 092115Z 35009KT 320V020 CAVOK 11/01 Q1017=
201110092045 METAR LIRA 092045Z 35007KT CAVOK 11/02 Q1017=
201110092015 METAR LIRA 092015Z 34009KT 300V010 CAVOK 11/01 Q1016=
201110091945 METAR LIRA 091945Z 34008KT CAVOK 12/01 Q1016=
201110091915 METAR LIRA 091915Z 36007KT CAVOK 12/01 Q1015=
201110091845 METAR LIRA 091845Z 36009KT CAVOK 13/M00 Q1015=
201110091815 METAR LIRA 091815Z 35012KT 310V030 9999 FEW020 14/M01 Q1014=
201110091745 METAR LIRA 091745Z 35014G26KT 330V030 9999 FEW020 14/M01
                        Q1014=
201110091715 METAR LIRA 091715Z 35013KT 310V020 9999 FEW020 14/M01 Q1013=
201110091645 METAR LIRA 091645Z 35013G24KT 9999 FEW020 15/M03 Q1013=
201110091615 METAR LIRA 091615Z 35013G23KT 330V040 9999 FEW020 16/M04
                        Q1013=
201110091545 METAR LIRA 091545Z 01013G23KT 330V050 9999 FEW017 17/M03
                        Q1012=
201110091515 METAR LIRA 091515Z 01011G22KT 300V050 9999 FEW017 17/M04
                        Q1011=
201110091445 METAR LIRA 091445Z 01012G22KT 330V040 9999 FEW017 17/M03
                        Q1011=
201110091415 METAR LIRA 091415Z 02011G23KT 9999 SCT017 17/M03 Q1011=
201110091345 METAR LIRA 091345Z 01011KT 330V050 9999 SCT017 17/M03 Q1011=
201110091315 METAR LIRA 091315Z 02013G25KT 320V070 9999 SCT017 18/M04
                        Q1011=
201110091245 METAR LIRA 091245Z 36013G24KT 310V040 9999 SCT017 SCT030
                        18/M03 Q1011=
201110091215 METAR LIRA 091215Z 01014G29KT 330V060 9999 SCT017 18/M06
                        Q1010=
201110091145 METAR LIRA 091145Z 03012G24KT 350V070 9999 FEW017 18/M06
                        Q1010=
201110091115 METAR LIRA 091115Z 04017G28KT 360V060 9999 FEW017 18/00 Q1010=
201110091045 METAR LIRA 091045Z 04015G28KT 360V090 9999 FEW030 18/M03
                        Q1010=
201110091015 METAR LIRA 091015Z 06015G26KT 330V090 9999 FEW030 18/M02
                        Q1010=
201110090945 METAR LIRA 090945Z 03012KT 350V060 9999 FEW015 17/01 Q1009=
201110090915 METAR LIRA 090915Z 36013KT 320V030 9999 FEW015 16/M00 Q1009=
201110090845 METAR LIRA 090845Z 36012G24KT 320V040 9999 FEW015 15/01 Q1009=
201110090815 METAR LIRA 090815Z 36011G23KT 9999 FEW015 14/02 Q1009=
201110090745 METAR LIRA 090745Z 01008G18KT 290V060 9999 FEW015 14/02 Q1009=
201110090715 METAR LIRA 090715Z 02010KT 330V070 9999 FEW080 12/03 Q1008=
201110090645 METAR LIRA 090645Z 03006KT 340V060 9999 FEW080 11/04 Q1008=
201110090615 METAR LIRA 090615Z 03004KT 9999 FEW030 SCT080 10/04 Q1008=
201110090545 METAR LIRA 090545Z 36005KT 320V030 9999 FEW030 SCT080 09/03
                        Q1008=
201110090515 METAR LIRA 090515Z 01003KT 9999 FEW030 SCT080 08/03 Q1008=
201110090445 METAR LIRA 090445Z 08002KT 9999 FEW030 09/03 Q1008=
201110090415 METAR LIRA 090415Z 04003KT 9999 FEW020 09/03 Q1008=
201110090345 METAR LIRA 090345Z 36005KT 320V030 9999 FEW030 09/02 Q1007=
201110090315 METAR LIRA 090315Z 04004KT 9999 SCT030 09/02 Q1007=
201110090245 METAR LIRA 090245Z 06005KT 9999 FEW030 10/03 Q1007=
201110090215 METAR LIRA 090215Z 34007KT 9999 FEW030 10/03 Q1007=
201110090145 METAR LIRA 090145Z 36001KT 9999 FEW030 10/02 Q1007=
201110090115 METAR LIRA 090115Z 35001KT 9999 FEW030 10/02 Q1008=
201110090045 METAR LIRA 090045Z 07003KT 9999 FEW070 10/01 Q1008=
201110090015 METAR LIRA 090015Z 06004KT CAVOK 10/M00 Q1008=
201110082350 METAR LIRA 090045Z 07003KT 9999 FEW070 10/01 Q1008=
201110082345 METAR LIRA 082345Z 06004KT CAVOK 10/01 Q1008=
201110082315 METAR LIRA 082315Z 04004KT CAVOK 11/01 Q1008=
201110082245 METAR LIRA 082245Z 02002KT CAVOK 11/M00 Q1008=
201110082215 METAR LIRA 082215Z 35003KT CAVOK 12/M00 Q1008=
201110082145 METAR LIRA 082145Z 34004KT CAVOK 13/M01 Q1008=
201110082115 METAR LIRA 082115Z 02002KT CAVOK 13/M02 Q1008=
201110082045 METAR LIRA 082045Z 05003KT 9999 FEW020 13/M02 Q1008=
201110082015 METAR LIRA 082015Z 03002KT 9999 FEW020 14/M05 Q1008=
201110081945 METAR LIRA 081945Z 07002KT 9999 FEW020 14/M04 Q1008=
201110081915 METAR LIRA 081915Z 04003KT 9999 FEW020 15/M04 Q1008=
201110081845 METAR LIRA 081845Z 02003KT 9999 FEW025 15/M04 Q1008=
201110081815 METAR LIRA 081815Z 30003KT 9999 FEW018 15/M07 Q1007=
201110081745 METAR LIRA 081745Z 34002KT 9999 FEW018 16/M06 Q1008=
201110081715 METAR LIRA 081715Z 33006KT 9999 FEW018 17/M07 Q1008=
201110081645 METAR LIRA 081645Z 34007KT 9999 FEW022 18/M07 Q1008=
201110081615 METAR LIRA 081615Z 34010KT 9999 FEW022 19/M06 Q1008=
201110081545 METAR LIRA 081545Z 35013KT 9999 FEW022 20/M06 Q1007=
201110081515 METAR LIRA 081515Z 35015KT 300V030 9999 FEW022 20/M05 Q1007=
201110081445 METAR LIRA 081445Z 34015KT 9999 FEW022 20/M03 Q1008=
201110081415 METAR LIRA 081415Z 34015G25KT 9999 FEW070 20/M01 Q1008=
201110081345 METAR LIRA 081345Z 32014KT 9999 FEW022 20/M03 Q1008=
201110081315 METAR LIRA 081315Z 32013G23KT 280V350 9999 FEW022 SCT080
                        21/M05 Q1008=
201110081245 METAR LIRA 081245Z 34010KT 340V040 9999 FEW022 SCT080 20/M05
                        Q1008=
201110081215 METAR LIRA 081215Z 36012KT 9999 FEW022 SCT080 21/M01 Q1008=
201110081145 METAR LIRA 081145Z 35007KT 300V050 9999 FEW022 SCT070 20/M02
                        Q1008=
201110081115 METAR LIRA 081115Z 33009KT 9999 FEW022 20/M00 Q1009=
201110081045 METAR LIRA 081045Z 33008KT 300V010 9999 FEW025 20/M01 Q1009=
201110081015 METAR LIRA 081015Z 35008KT 310V030 9999 FEW025 19/M00 Q1009=
201110080945 METAR LIRA 080945Z 36008KT 330V040 9999 FEW025 19/01 Q1009=
201110080915 METAR LIRA 080915Z 02008KT 320V060 9999 FEW025 19/01 Q1009=
201110080845 METAR LIRA 080845Z 01008KT 330V050 9999 FEW018 17/01 Q1009=
201110080815 METAR LIRA 080815Z 01008KT 330V060 9999 FEW018 17/03 Q1009=
201110080800 LIRA INTER=
201110080745 METAR LIRA 080745Z 36009KT 330V040 9999 FEW018 16/03 Q1009=
201110080715 METAR LIRA 080715Z 01006KT 340V050 9999 FEW018 FEW020TCU
                        SCT070 14/03 Q1009=
201110080645 METAR LIRA 080645Z 01007KT 330V040 9999 FEW018 FEW020TCU
                        SCT080 14/03 Q1009=
201110080615 METAR LIRA 080615Z 01004KT 9999 FEW018 FEW020TCU SCT080 12/04
                        Q1009=
201110080545 METAR LIRA 080545Z 04003KT 9999 FEW018 FEW020TCU SCT080 12/04
                        Q1008=
201110080515 METAR LIRA 080515Z 04005KT 360V070 9999 FEW018 SCT080 13/04
                        Q1008=
201110080445 METAR LIRA 080445Z 03004KT 9999 FEW030 SCT070 13/04 Q1008=
201110080415 METAR LIRA 080415Z 02006KT 9999 FEW030 SCT070 13/04 Q1008=
201110080345 METAR LIRA 080345Z 02006KT 350V060 9999 FEW018 BKN070 13/05
                        Q1007=
201110080315 METAR LIRA 080315Z 03006KT 360V070 9999 FEW018 SCT070 13/05
                        Q1007=
201110080245 METAR LIRA 080245Z 03007KT 9999 FEW018 13/05 Q1007=
201110080215 METAR LIRA 080215Z 01006KT 340V070 9999 FEW016 13/05 Q1008=
201110080145 METAR LIRA 080145Z 03006KT 360V070 9999 FEW014 13/05 Q1008=
201110080115 METAR LIRA 080115Z 02004KT CAVOK 13/07 Q1008=
201110080045 METAR LIRA 080045Z 01004KT CAVOK 14/07 Q1008=
201110080015 METAR LIRA 080015Z 01004KT 9999 FEW015 SCT070 14/07 Q1007=
201110072350 METAR LIRA 080045Z 01004KT CAVOK 14/07 Q1008=
201110072345 METAR LIRA 072345Z 04005KT 9999 FEW015 SCT070 15/08 Q1007=
201110072315 METAR LIRA 072315Z 01006KT 350V050 9999 FEW015 FEW017TCU
                        SCT035 16/08 Q1007=
201110072245 METAR LIRA 072245Z 02005KT 340V050 9999 FEW015 FEW017TCU
                        SCT035 16/08 Q1007=
201110072215 METAR LIRA 072215Z 04004KT 9999 FEW015 FEW017TCU SCT035 16/08
                        Q1007=
201110072145 METAR LIRA 072145Z 36008KT 310V040 9999 FEW020 SCT080 16/08
                        Q1007=
201110072115 METAR LIRA 072115Z 36005KT 9999 FEW020 17/08 Q1007=
201110072045 METAR LIRA 072045Z 01005KT 9999 FEW020 SCT035 17/08 Q1007=
201110072015 METAR LIRA 072015Z 01004KT 9999 FEW020 SCT060 18/08 Q1006=
201110071945 METAR LIRA 071945Z 35005KT 330V030 9999 FEW020 SCT060 19/09
                        Q1006=
201110071915 METAR LIRA 071915Z 35006KT 9999 FEW010 FEW020TCU SCT060 19/10
                        Q1006=
201110071845 METAR LIRA 071845Z 23001KT 8000 FEW010 FEW017TCU SCT060 19/14
                        Q1006=
201110071815 METAR LIRA 071815Z 21003KT 8000 FEW010 SCT016 FEW017TCU 19/14
                        Q1006=
201110071745 METAR LIRA 071745Z 24005KT 7000 FEW010 FEW017TCU SCT035 19/14
                        Q1006=
201110071715 METAR LIRA 071715Z 23007KT 7000 FEW010 FEW017TCU SCT035 19/14
                        Q1005=
201110071645 METAR LIRA 071645Z 24009KT 7000 FEW010 FEW017TCU FEW020CB
                        20/14 Q1005=
201110071615 METAR LIRA 071615Z 24011KT 210V280 7000 FEW010 FEW018TCU
                        FEW020CB SCT090 20/14 Q1006=
201110071545 METAR LIRA 071545Z 25010G27KT 200V300 9999 SCT014 FEW018TCU
                        SCT025 20/13 Q1006 WS RWY 15=
201110071515 METAR COR LIRA 071515Z 26010G20KT 210V300 9999 SCT014 FEW018TCU
                        SCT025 20/12 Q1006 WS RWY 15=
201110071445 METAR LIRA 071445Z 25015G27KT 190V300 9999 SCT014 FEW018TCU
                        SCT025 21/11 Q1006=
201110071415 METAR LIRA 071415Z 24016G32KT 210V290 9999 SCT014 FEW018TCU
                        SCT025 21/11 Q1006=
201110071345 METAR LIRA 071345Z 24015KT 210V290 9999 SCT014 FEW018TCU
                        SCT025 22/14 Q1006=
201110071315 METAR LIRA 071315Z 23016G29KT 9999 SCT014 FEW018TCU SCT025
                        22/17 Q1006=
201110071245 METAR LIRA 071245Z 23017G29KT 9999 SCT015 FEW018TCU SCT030
                        22/17 Q1007=
201110071215 METAR LIRA 071215Z 21014G28KT 180V260 9999 -RA SCT015 FEW018TCU
                        SCT030 21/18 Q1007=
201110071145 METAR LIRA 071145Z 20014G24KT 150V230 9999 SCT015 FEW018TCU
                        SCT030 22/16 Q1008=
201110071115 METAR LIRA 071115Z 22012KT 9999 -RA SCT015 FEW018CB SCT030
                        21/16 Q1009=
201110071045 METAR LIRA 071045Z 21014KT 180V260 9999 SCT015 FEW018CB SCT025
                        22/14 Q1009=
201110071015 METAR LIRA 071015Z 21013KT 160V250 9999 SCT015 FEW018CB SCT025
                        22/15 Q1010=
201110070945 METAR LIRA 070945Z 20012KT 160V260 9999 SCT018 SCT070 22/16
                        Q1010=
201110070915 METAR LIRA 070915Z 19012KT 140V210 9999 FEW018 SCT080 22/16
                        Q1010=
201110070845 METAR LIRA 070845Z 18015KT 150V220 9999 FEW018 SCT080 22/15
                        Q1010=
201110070815 METAR LIRA 070815Z 16016KT 9999 FEW018 SCT070 22/15 Q1010=
201110070745 METAR LIRA 070745Z 16013KT 9999 FEW018 SCT070 22/15 Q1011=
201110070715 METAR LIRA 070715Z 15012KT 9999 FEW018 SCT070 21/15 Q1011=
201110070645 METAR LIRA 070645Z 16010KT 9999 FEW018 SCT070 20/15 Q1011=
201110070615 METAR LIRA 070615Z 17007KT 9999 FEW018 SCT070 19/14 Q1012=
201110070545 METAR LIRA 070545Z 16008KT 9999 FEW018 SCT070 19/15 Q1012=
201110070515 METAR LIRA 070515Z 16008KT 9999 FEW018 18/15 Q1012=
201110070445 METAR LIRA 070445Z 16007KT 9999 FEW018 18/16 Q1012=
201110070415 METAR LIRA 070415Z 16006KT 9999 FEW018 18/16 Q1013=
201110070345 METAR LIRA 070345Z 16005KT 9999 FEW018 18/16 Q1013=
201110070315 METAR LIRA 070315Z 16005KT 9999 FEW018 18/16 Q1014=
201110070245 METAR LIRA 070245Z 15006KT 9999 FEW018 17/15 Q1014=
201110070215 METAR LIRA 070215Z 15006KT 9999 FEW018 18/15 Q1015=
201110070145 METAR LIRA 070145Z 15007KT 9999 FEW015 18/16 Q1015=
201110070115 METAR LIRA 070115Z 15006KT 9999 FEW012 FEW015TCU 18/16 Q1015=
201110070045 METAR LIRA 070045Z 15006KT 9999 SCT012 FEW015TCU 17/16 Q1016=
201110070015 METAR LIRA 070015Z 15005KT 9999 FEW012 FEW015TCU 18/16 Q1016=
201110062350 METAR LIRA 070045Z 15006KT 9999 SCT012 FEW015TCU 17/16 Q1016=
201110062345 METAR LIRA 062345Z 15005KT 9999 FEW012 FEW015TCU 18/16 Q1017=
201110062315 METAR LIRA 062315Z 15004KT 9999 FEW012 FEW015TCU 18/16 Q1017=
201110062245 METAR LIRA 062245Z 15004KT 9999 FEW012 FEW015TCU 18/16 Q1017=
201110062215 METAR LIRA 062215Z 16004KT 9999 SCT008 FEW015TCU 18/16 Q1017=
201110062145 METAR LIRA 062145Z 15005KT 9999 FEW008 18/16 Q1017=
201110062115 METAR LIRA 062115Z 16004KT 9999 FEW008 19/16 Q1017=
201110062045 METAR LIRA 062045Z 15005KT 9999 SCT018 19/17 Q1017=
201110062015 METAR LIRA 062015Z 12004KT 9999 SCT018 18/16 Q1017=
201110061945 METAR LIRA 061945Z 14004KT 9999 SCT018 19/17 Q1017=
201110061915 METAR LIRA 061915Z 15004KT 9999 SCT018 19/17 Q1017=
201110061845 METAR LIRA 061845Z 16004KT 9999 SCT018 19/17 Q1017=
201110061815 METAR LIRA 061815Z 18004KT 9999 FEW018 20/17 Q1017=
201110061745 METAR LIRA 061745Z 20005KT 9999 FEW018 21/17 Q1018=
201110061715 METAR LIRA 061715Z 21003KT 9999 FEW018 21/17 Q1018=
201110061645 METAR LIRA 061645Z 22003KT 9999 FEW025 22/17 Q1018=
201110061615 METAR LIRA 061615Z 23005KT 9999 FEW025 23/16 Q1018=
201110061545 METAR LIRA 061545Z 23006KT 9999 FEW025 24/16 Q1018=
201110061515 METAR LIRA 061515Z 24006KT 190V270 9999 FEW080 24/16 Q1018=
201110061445 METAR LIRA 061445Z 22007KT 190V260 9999 FEW070 25/16 Q1018=
201110061415 METAR LIRA 061415Z 23006KT 200V290 9999 FEW018 25/16 Q1018=
201110061345 METAR LIRA 061345Z 21006KT 160V250 9999 FEW018 25/17 Q1019=
201110061315 METAR LIRA 061315Z 24008KT 200V270 9999 FEW018 26/17 Q1019=
201110061245 METAR LIRA 061245Z 24005KT 190V280 9999 SCT018 26/15 Q1019=
201110061215 METAR LIRA 061215Z 24005G15KT 220V320 9999 SCT018 26/15 Q1019=
201110061145 METAR LIRA 061145Z 24005KT 9999 SCT018 26/15 Q1019=
201110061115 METAR LIRA 061115Z 25005KT 200V280 9999 SCT018 25/15 Q1020=
201110061045 METAR LIRA 061045Z 23006KT 180V260 9999 SCT018 25/15 Q1020=
201110061015 METAR LIRA 061015Z 24004KT 9999 FEW018 25/15 Q1020=
201110060945 METAR LIRA 060945Z 02004KT 9999 FEW018 25/16 Q1020=
201110060915 METAR LIRA 060915Z 22003KT 9999 FEW018 24/17 Q1020=
201110060845 METAR LIRA 060845Z 17003KT 9999 FEW018 23/18 Q1020=
201110060815 METAR LIRA 060815Z 30001KT 9999 FEW018 22/18 Q1020=
201110060745 METAR LIRA 060745Z 36001KT 9999 FEW015 22/18 Q1020=
201110060715 METAR LIRA 060715Z 05001KT 9999 FEW015 20/16 Q1020=
201110060645 METAR LIRA 060645Z 11003KT 9999 FEW014 18/14 Q1020=
201110060615 METAR LIRA 060615Z 09003KT 9999 FEW014 16/12 Q1019=
201110060545 METAR LIRA 060545Z 07003KT 9999 FEW014 14/11 Q1019=
201110060515 METAR LIRA 060515Z 06003KT 9999 FEW015 15/10 Q1019=
201110060445 METAR LIRA 060445Z 07004KT 9999 FEW015 14/11 Q1019=
201110060415 METAR LIRA 060415Z 08003KT 9999 FEW015 14/10 Q1019=
201110060345 METAR LIRA 060345Z 14001KT 9999 FEW070 14/10 Q1019=
201110060315 METAR LIRA 060315Z 16001KT 9999 FEW070 14/10 Q1019=
201110060245 METAR LIRA 060245Z 13001KT 9999 FEW070 14/09 Q1019=
201110060215 METAR LIRA 060215Z 13001KT 9999 FEW070 14/09 Q1019=
201110060145 METAR LIRA 060145Z 09002KT 9999 FEW070 15/10 Q1020=
201110060115 METAR LIRA 060115Z 02001KT 9999 FEW070 15/10 Q1020=
201110060045 METAR LIRA 060045Z 13002KT 9999 FEW070 16/10 Q1020=
201110060015 METAR LIRA 060015Z 14002KT 9999 FEW070 16/11 Q1020=
201110052350 METAR LIRA 060045Z 13002KT 9999 FEW070 16/10 Q1020=
201110052345 METAR LIRA 052345Z 13002KT 9999 FEW070 17/12 Q1020=
201110052315 METAR LIRA 052315Z 15003KT 9999 FEW070 17/12 Q1020=
201110052245 METAR LIRA 052245Z 14002KT 9999 FEW070 17/11 Q1020=
201110052215 METAR LIRA 052215Z 15002KT CAVOK 17/11 Q1020=
201110052145 METAR LIRA 052145Z 11003KT CAVOK 18/13 Q1020=
201110052115 METAR LIRA 052115Z 14002KT CAVOK 18/14 Q1020=
201110052045 METAR LIRA 052045Z 15001KT 9999 FEW070 18/14 Q1020=
201110052015 METAR LIRA 052015Z 15002KT 9999 FEW070 19/15 Q1020=
201110051945 METAR LIRA 051945Z 16003KT 9999 FEW070 19/15 Q1020=
201110051915 METAR LIRA 051915Z 17002KT 9999 FEW070 20/15 Q1020=
201110051845 METAR LIRA 051845Z 18004KT 9999 FEW070 21/15 Q1020=
201110051815 METAR LIRA 051815Z 18003KT 9999 FEW020 21/15 Q1019=
201110051745 METAR LIRA 051745Z 22002KT 9999 FEW020 22/14 Q1019=
201110051715 METAR LIRA 051715Z 25004KT 9999 FEW020 23/15 Q1019=
201110051645 METAR LIRA 051645Z 22004KT 9999 FEW018 24/14 Q1019=
201110051615 METAR LIRA 051615Z 22004KT 9999 FEW018 25/14 Q1019=
201110051545 METAR LIRA 051545Z 23005KT 9999 FEW018 25/14 Q1019=
201110051515 METAR LIRA 051515Z 23006KT 190V260 9999 FEW018 26/15 Q1019=
201110051445 METAR LIRA 051445Z 20006KT 170V240 9999 FEW018 26/13 Q1019=
201110051415 METAR LIRA 051415Z 20008KT 170V250 9999 FEW018 26/12 Q1019=
201110051345 METAR LIRA 051345Z 20008KT 150V250 9999 FEW018 27/14 Q1019=
201110051315 METAR LIRA 051315Z 19008KT 150V250 9999 FEW018 27/16 Q1019=
201110051245 METAR LIRA 051245Z 18009KT 150V220 9999 FEW018 27/15 Q1019=
201110051215 METAR LIRA 051215Z 18007KT 150V210 9999 FEW018 27/15 Q1019=
201110051145 METAR LIRA 051145Z 19008KT 160V220 CAVOK 27/12 Q1020=
201110051115 METAR LIRA 051115Z 18009KT CAVOK 27/12 Q1020=
201110051045 METAR LIRA 051045Z 18009KT 150V220 CAVOK 26/10 Q1020=
201110051015 METAR LIRA 051015Z 13005KT 160V280 CAVOK 27/11 Q1020=
201110050945 METAR LIRA 050945Z 03002KT CAVOK 25/12 Q1020=
201110050915 METAR LIRA 050915Z 33001KT CAVOK 23/12 Q1020=
201110050845 METAR LIRA 050845Z 02002KT CAVOK 22/12 Q1020=
201110050815 METAR LIRA 050815Z 36002KT CAVOK 20/11 Q1020=
201110050745 METAR LIRA 050745Z 36003KT CAVOK 18/12 Q1020=
201110050715 METAR LIRA 050715Z 02003KT CAVOK 17/13 Q1020=
201110050645 METAR LIRA 050645Z 03003KT CAVOK 16/12 Q1019=
201110050615 METAR LIRA 050615Z 02002KT CAVOK 15/12 Q1019=
201110050545 METAR LIRA 050545Z 02002KT CAVOK 14/11 Q1019=
201110050515 METAR LIRA 050515Z 05002KT CAVOK 14/11 Q1019=
201110050445 METAR LIRA 050445Z 02002KT CAVOK 14/12 Q1019=
201110050415 METAR LIRA 050415Z 03002KT CAVOK 14/11 Q1019=
201110050345 METAR LIRA 050345Z 03002KT CAVOK 14/11 Q1019=
201110050315 METAR LIRA 050315Z 04002KT CAVOK 15/12 Q1019=
201110050245 METAR LIRA 050245Z 04002KT CAVOK 15/11 Q1019=
201110050215 METAR LIRA 050215Z 00000KT CAVOK 15/12 Q1019=
201110050145 METAR LIRA 050145Z 00000KT CAVOK 15/12 Q1019=
201110050115 METAR LIRA 050115Z 10001KT CAVOK 17/14 Q1020=
201110050045 METAR LIRA 050045Z 10001KT CAVOK 17/14 Q1020=
201110050015 METAR LIRA 050015Z 10001KT CAVOK 17/15 Q1020=
201110042350 METAR LIRA 050045Z 10001KT CAVOK 17/14 Q1020=
201110042345 METAR LIRA 042345Z 13001KT CAVOK 17/15 Q1020=
201110042315 METAR LIRA 042315Z 15003KT CAVOK 18/15 Q1020=
201110042245 METAR LIRA 042245Z 16003KT CAVOK 18/15 Q1020=
201110042215 METAR LIRA 042215Z 16003KT CAVOK 19/16 Q1020=
201110042145 METAR LIRA 042145Z 15004KT CAVOK 19/16 Q1020=
201110042115 METAR LIRA 042115Z 16004KT CAVOK 19/16 Q1020=
201110042045 METAR LIRA 042045Z 16005KT CAVOK 19/17 Q1020=
201110042015 METAR LIRA 042015Z 17004KT CAVOK 20/17 Q1020=
201110041945 METAR LIRA 041945Z 17003KT CAVOK 20/17 Q1019=
201110041915 METAR LIRA 041915Z 18003KT CAVOK 20/17 Q1019=
201110041845 METAR LIRA 041845Z 18004KT CAVOK 21/17 Q1019=
201110041815 METAR LIRA 041815Z 19004KT CAVOK 21/18 Q1019=
201110041745 METAR LIRA 041745Z 19004KT CAVOK 21/19 Q1019=
201110041715 METAR LIRA 041715Z 22004KT CAVOK 22/18 Q1019=
201110041645 METAR LIRA 041645Z 23005KT CAVOK 23/17 Q1019=
201110041615 METAR LIRA 041615Z 24006KT 210V280 CAVOK 23/15 Q1020=
201110041545 METAR LIRA 041545Z 25007KT 210V300 CAVOK 24/14 Q1020=
201110041515 METAR LIRA 041515Z 26008KT 220V300 CAVOK 25/13 Q1020=
201110041445 METAR LIRA 041445Z 26009KT CAVOK 25/14 Q1020=
201110041415 METAR LIRA 041415Z 27010KT 200V310 CAVOK 26/16 Q1020=
201110041345 METAR LIRA 041345Z 27010KT 220V300 CAVOK 27/15 Q1020=
201110041315 METAR LIRA 041315Z 27009KT CAVOK 27/13 Q1020=
201110041245 METAR LIRA 041245Z 30005KT 260V010 CAVOK 28/09 Q1021=
201110041215 METAR LIRA 041215Z 33007KT CAVOK 27/08 Q1021=
201110041145 METAR LIRA 041145Z 32005KT 280V010 CAVOK 27/09 Q1021=
201110041115 METAR LIRA 041115Z 29005KT 250V340 CAVOK 27/10 Q1022=
201110041100 LIRA CONTUS=
201110041045 METAR LIRA 041045Z 32004KT CAVOK 26/09 Q1022=
201110041015 METAR LIRA 041015Z 33002KT CAVOK 26/10 Q1022=
201110040945 METAR LIRA 040945Z 34002KT CAVOK 24/11 Q1022=
201110040915 METAR LIRA 040915Z 32003KT CAVOK 22/10 Q1022=
201110040845 METAR LIRA 040845Z 01004KT CAVOK 21/10 Q1022=
201110040815 METAR LIRA 040815Z 01002KT CAVOK 20/10 Q1022=
201110040745 METAR LIRA 040745Z 01003KT CAVOK 18/11 Q1022=
201110040715 METAR LIRA 040715Z 04004KT CAVOK 17/11 Q1022=
201110040645 METAR LIRA 040645Z 01003KT CAVOK 17/11 Q1022=
201110040615 METAR LIRA 040615Z 01001KT CAVOK 15/10 Q1022=
201110040545 METAR LIRA 040545Z 08002KT CAVOK 14/10 Q1021=
201110040515 METAR LIRA 040515Z 09001KT CAVOK 13/10 Q1021=
201110040445 METAR LIRA 040445Z 02002KT 9999 FEW004 13/10 Q1021=
201110040415 METAR LIRA 040415Z 04006KT 9999 FEW004 13/10 Q1021=
201110040345 METAR LIRA 040345Z 03004KT CAVOK 13/09 Q1021=
201110040315 METAR LIRA 040315Z 03005KT CAVOK 13/10 Q1022=
201110040245 METAR LIRA 040245Z 04005KT CAVOK 14/10 Q1022=
201110040215 METAR LIRA 040215Z 04005KT CAVOK 14/10 Q1022=
201110040145 METAR LIRA 040145Z 02002KT CAVOK 14/11 Q1022=
201110040115 METAR LIRA 040115Z 02002KT CAVOK 14/10 Q1022=
201110040045 METAR LIRA 040045Z 05003KT CAVOK 15/11 Q1022=
201110040015 METAR LIRA 040015Z 05003KT CAVOK 15/10 Q1022=
201110032350 METAR LIRA 040045Z 05003KT CAVOK 15/11 Q1022=
201110032345 METAR LIRA 032345Z 01001KT CAVOK 16/09 Q1022=
201110032315 METAR LIRA 032315Z 05002KT CAVOK 16/09 Q1022=
201110032245 METAR LIRA 032245Z 05002KT CAVOK 16/09 Q1022=
201110032215 METAR LIRA 032215Z 11001KT CAVOK 17/10 Q1022=
201110032145 METAR LIRA 032145Z 09003KT CAVOK 17/10 Q1022=
201110032115 METAR LIRA 032115Z 10004KT CAVOK 17/10 Q1022=
201110032045 METAR LIRA 032045Z 08002KT CAVOK 18/09 Q1022=
201110032015 METAR LIRA 032015Z 10002KT CAVOK 18/09 Q1022=
201110031945 METAR LIRA 031945Z 09002KT CAVOK 19/10 Q1022=
201110031915 METAR LIRA 031915Z 11001KT CAVOK 19/11 Q1022=
201110031845 METAR LIRA 031845Z 12002KT CAVOK 20/11 Q1022=
201110031815 METAR LIRA 031815Z 19003KT CAVOK 21/11 Q1022=
201110031745 METAR LIRA 031745Z 20003KT CAVOK 22/10 Q1022=
201110031715 METAR LIRA 031715Z 22004KT CAVOK 23/09 Q1022=
201110031645 METAR LIRA 031645Z 23004KT CAVOK 24/08 Q1022=
201110031615 METAR LIRA 031615Z 24005KT CAVOK 24/07 Q1021=
201110031545 METAR LIRA 031545Z 24006KT CAVOK 25/08 Q1021=
201110031515 METAR LIRA 031515Z 22006KT 180V260 9999 FEW022 25/08 Q1021=
201110031445 METAR LIRA 031445Z 24006KT 9999 FEW022 26/08 Q1021=
201110031415 METAR LIRA 031415Z 24006KT 180V280 9999 FEW022 26/08 Q1021=
201110031345 METAR LIRA 031345Z 24006KT 210V280 9999 FEW022 27/09 Q1021=
201110031315 METAR LIRA 031315Z 23007KT 180V270 9999 FEW022 27/10 Q1022=
201110031245 METAR LIRA 031245Z 22007KT 170V270 9999 FEW022 27/12 Q1022=
201110031215 METAR LIRA 031215Z 25006KT 200V300 9999 FEW022 28/13 Q1022=
201110031145 METAR LIRA 031145Z 28004KT 230V300 9999 FEW022 27/12 Q1022=
201110031115 METAR LIRA 031115Z 27003KT 9999 FEW022 27/13 Q1022=
201110031045 METAR LIRA 031045Z 33004KT 9999 FEW022 25/13 Q1022=
201110031015 METAR LIRA 031015Z 03001KT CAVOK 25/14 Q1022=
201110030945 METAR LIRA 030945Z 33002KT CAVOK 24/13 Q1022=
201110030915 METAR LIRA 030915Z 34003KT CAVOK 23/12 Q1022=
201110030845 METAR LIRA 030845Z 03003KT CAVOK 22/13 Q1022=
201110030815 METAR LIRA 030815Z 03003KT CAVOK 21/14 Q1022=
201110030745 METAR LIRA 030745Z 02003KT CAVOK 20/13 Q1022=
201110030715 METAR LIRA 030715Z 02003KT CAVOK 18/12 Q1022=
201110030645 METAR LIRA 030645Z 36003KT CAVOK 17/12 Q1021=
201110030615 METAR LIRA 030615Z 01003KT CAVOK 16/13 Q1021=
201110030545 METAR LIRA 030545Z 02002KT CAVOK 15/13 Q1021=
201110030515 METAR LIRA 030515Z 06003KT CAVOK 15/14 Q1021=
201110030445 METAR LIRA 030445Z 03001KT CAVOK 15/14 Q1021=
201110030415 METAR LIRA 030415Z 04002KT CAVOK 15/15 Q1020=
201110030345 METAR LIRA 030345Z 00000KT CAVOK 15/15 Q1020=
201110030315 METAR LIRA 030315Z 05003KT CAVOK 15/15 Q1020=
201110030245 METAR LIRA 030245Z 02002KT CAVOK 16/15 Q1020=
201110030215 METAR LIRA 030215Z 00000KT CAVOK 16/15 Q1020=
201110030145 METAR LIRA 030145Z 00000KT CAVOK 16/15 Q1020=
201110030115 METAR LIRA 030115Z 00000KT CAVOK 17/15 Q1020=
201110030045 METAR LIRA 030045Z 00000KT CAVOK 17/15 Q1020=
201110030015 METAR LIRA 030015Z 33002KT CAVOK 18/15 Q1020=
201110022350 METAR LIRA 030045Z 00000KT CAVOK 17/15 Q1020=
201110022345 METAR LIRA 022345Z 32001KT CAVOK 18/15 Q1020=
201110022315 METAR LIRA 022315Z 20002KT CAVOK 19/14 Q1020=
201110022245 METAR LIRA 022245Z 11005KT CAVOK 19/15 Q1020=
201110022215 METAR LIRA 022215Z 13003KT CAVOK 19/15 Q1020=
201110022145 METAR LIRA 022145Z 12005KT CAVOK 19/16 Q1020=
201110022115 METAR LIRA 022115Z 12003KT CAVOK 20/16 Q1020=
201110022045 METAR LIRA 022045Z 13002KT CAVOK 20/16 Q1020=
201110022015 METAR LIRA 022015Z 15003KT CAVOK 20/16 Q1020=
201110021945 METAR LIRA 021945Z 14002KT CAVOK 20/17 Q1020=
201110021915 METAR LIRA 021915Z 25001KT CAVOK 21/17 Q1020=
201110021845 METAR LIRA 021845Z 17002KT CAVOK 21/17 Q1020=
201110021815 METAR LIRA 021815Z 20004KT CAVOK 22/18 Q1020=
201110021745 METAR LIRA 021745Z 24004KT CAVOK 23/18 Q1020=
201110021715 METAR LIRA 021715Z 23004KT CAVOK 24/19 Q1020=
201110021645 METAR LIRA 021645Z 22003KT CAVOK 25/16 Q1020=
201110021615 METAR LIRA 021615Z 24004KT CAVOK 25/16 Q1020=
201110021545 METAR LIRA 021545Z 21005KT 170V250 9999 FEW018 26/17 Q1020=
201110021515 METAR LIRA 021515Z 18005KT 150V250 9999 FEW018 26/16 Q1020=
201110021445 METAR LIRA 021445Z 23004KT 9999 FEW018 27/16 Q1020=
201110021415 METAR LIRA 021415Z 22005KT 190V260 9999 FEW018 27/16 Q1020=
201110021345 METAR LIRA 021345Z 23007KT 170V270 9999 FEW018 27/17 Q1020=
201110021315 METAR LIRA 021315Z 23007KT 190V260 9999 FEW018 27/17 Q1021=
201110021245 METAR LIRA 021245Z 20007KT 170V260 9999 FEW018 27/18 Q1021=
201110021215 METAR LIRA 021215Z 21008KT 180V270 9999 FEW018 27/16 Q1021=
201110021145 METAR LIRA 021145Z 18005KT 130V240 9999 FEW018 28/14 Q1021=
201110021115 METAR LIRA 021115Z 17005KT 120V220 9999 FEW018 27/15 Q1021=
201110021045 METAR LIRA 021045Z 20005KT 9999 FEW018 27/15 Q1022=
201110021015 METAR LIRA 021015Z 16004KT 130V220 CAVOK 27/16 Q1022=
201110020945 METAR LIRA 020945Z 01003KT CAVOK 25/16 Q1022=
201110020915 METAR LIRA 020915Z 33002KT CAVOK 25/16 Q1022=
201110020845 METAR LIRA 020845Z 01002KT CAVOK 22/16 Q1022=
201110020815 METAR LIRA 020815Z 01002KT CAVOK 20/14 Q1022=
201110020745 METAR LIRA 020745Z 01004KT CAVOK 19/15 Q1022=
201110020715 METAR LIRA 020715Z 03003KT CAVOK 18/14 Q1022=
201110020645 METAR LIRA 020645Z 02002KT CAVOK 17/14 Q1022=
201110020615 METAR LIRA 020615Z 04002KT CAVOK 16/13 Q1021=
201110020545 METAR LIRA 020545Z 07003KT CAVOK 15/14 Q1021=
201110020515 METAR LIRA 020515Z 05005KT CAVOK 15/14 Q1020=
201110020445 METAR LIRA 020445Z 04003KT CAVOK 15/14 Q1021=
201110020415 METAR LIRA 020415Z 03002KT CAVOK 15/14 Q1021=
201110020345 METAR LIRA 020345Z 05004KT CAVOK 15/14 Q1021=
201110020315 METAR LIRA 020315Z 04004KT CAVOK 15/14 Q1021=
201110020245 METAR LIRA 020245Z 02002KT CAVOK 15/15 Q1021=
201110020215 METAR LIRA 020215Z 05002KT CAVOK 16/15 Q1021=
201110020145 METAR LIRA 020145Z 07002KT CAVOK 16/14 Q1021=
201110020115 METAR LIRA 020115Z 03003KT CAVOK 17/15 Q1021=
201110020045 METAR LIRA 020045Z 04003KT CAVOK 17/15 Q1022=
201110020015 METAR LIRA 020015Z 09001KT CAVOK 18/15 Q1022=
201110012350 METAR LIRA 020045Z 04003KT CAVOK 17/15 Q1022=
201110012345 METAR LIRA 012345Z 09003KT CAVOK 18/14 Q1022=
201110012315 METAR LIRA 012315Z 07001KT CAVOK 18/15 Q1022=
201110012245 METAR LIRA 012245Z 13003KT CAVOK 18/15 Q1022=
201110012215 METAR LIRA 012215Z 15001KT CAVOK 18/16 Q1022=
201110012145 METAR LIRA 012145Z 15003KT CAVOK 19/17 Q1022=
201110012115 METAR LIRA 012115Z 17002KT CAVOK 19/17 Q1022=
201110012045 METAR LIRA 012045Z 18002KT CAVOK 21/18 Q1022=
201110012015 METAR LIRA 012015Z 18003KT CAVOK 21/18 Q1022=
201110011945 METAR LIRA 011945Z 17003KT CAVOK 21/17 Q1022=
201110011915 METAR LIRA 011915Z 17003KT CAVOK 21/18 Q1022=
201110011845 METAR LIRA 011845Z 17004KT CAVOK 21/17 Q1021=
201110011815 METAR LIRA 011815Z 19004KT CAVOK 22/17 Q1021=
201110011745 METAR LIRA 011745Z 22003KT CAVOK 22/16 Q1021=
201110011715 METAR LIRA 011715Z 23003KT CAVOK 23/16 Q1021=
201110011645 METAR LIRA 011645Z 25004KT CAVOK 23/16 Q1021=
201110011615 METAR LIRA 011615Z 27005KT 210V330 CAVOK 25/17 Q1021=
201110011545 METAR LIRA 011545Z 27006KT 230V300 CAVOK 26/16 Q1021=
201110011515 METAR LIRA 011515Z 26006KT 220V330 CAVOK 27/18 Q1021=
201110011445 METAR LIRA 011445Z 25005KT 9999 FEW025 27/19 Q1021=
201110011415 METAR LIRA 011415Z 23007KT 9999 FEW025 28/18 Q1022=
201110011345 METAR LIRA 011345Z 23006KT 210V270 9999 FEW022 28/17 Q1022=
201110011315 METAR LIRA 011315Z 29005KT 9999 FEW020 28/14 Q1022=
201110011245 METAR LIRA 011245Z 31006KT 270V330 9999 FEW020 28/15 Q1022=
201110011215 METAR LIRA 011215Z 23004KT 220V280 9999 FEW020 28/16 Q1023=
201110011145 METAR LIRA 011145Z 30004KT 250V300 9999 FEW020 27/16 Q1023=
201110011115 METAR LIRA 011115Z 22003KT 9999 FEW020 26/16 Q1024=
201110011045 METAR LIRA 011045Z 36002KT CAVOK 26/16 Q1024=
201110011015 METAR LIRA 011015Z 35003KT CAVOK 25/17 Q1024=
201110010945 METAR LIRA 010945Z 04002KT CAVOK 24/17 Q1024=
201110010915 METAR LIRA 010915Z 01002KT CAVOK 24/16 Q1024=
201110010845 METAR LIRA 010845Z 02003KT CAVOK 22/15 Q1024=
201110010815 METAR LIRA 010815Z 01004KT CAVOK 21/14 Q1024=
201110010745 METAR LIRA 010745Z 02003KT CAVOK 19/14 Q1024=
201110010715 METAR LIRA 010715Z 04004KT CAVOK 19/14 Q1024=
201110010645 METAR LIRA 010645Z 03002KT CAVOK 17/13 Q1023=
201110010615 METAR LIRA 010615Z 05002KT CAVOK 16/13 Q1023=
201110010545 METAR LIRA 010545Z 04002KT CAVOK 15/12 Q1023=
201110010515 METAR LIRA 010515Z 02002KT CAVOK 14/12 Q1022=
201110010445 METAR LIRA 010445Z 01002KT CAVOK 15/12 Q1022=
201110010415 METAR LIRA 010415Z 05002KT CAVOK 15/12 Q1022=
201110010345 METAR LIRA 010345Z 05004KT CAVOK 14/12 Q1022=
201110010315 METAR LIRA 010315Z 05004KT CAVOK 14/12 Q1022=
201110010245 METAR LIRA 010245Z 05003KT CAVOK 14/12 Q1023=
201110010215 METAR LIRA 010215Z 03002KT CAVOK 14/12 Q1023=
201110010145 METAR LIRA 010145Z 04004KT CAVOK 15/12 Q1023=
201110010115 METAR LIRA 010115Z 03003KT 9999 FEW070 15/12 Q1023=
201110010045 METAR LIRA 010045Z 05003KT 9999 FEW070 15/12 Q1023=
201110010015 METAR LIRA 010015Z 06003KT 9999 FEW070 15/12 Q1023=

</pre>

</body>
</html>
