##########################################################
# Query made at 11/10/2014 15:47:15 UTC
# Time interval: from 09/01/2010 00:00  to 10/01/2010 23:59  UTC
##########################################################

##########################################################
# LIRA, Roma / Ciampino (Italy)
# WMO index: 16239
# Latitude 41-47N. Longitude 012-35E. Altitude 129 m.
##########################################################

###################################
#  METAR/SPECI from LIRA
###################################
201010012350 METAR LIRA 020045Z 12004KT 9999 FEW080 14/11 Q1016=
201010012345 METAR LIRA 012345Z 10003KT 9999 FEW080 14/11 Q1016=
201010012315 METAR LIRA 012315Z 14003KT 9999 FEW080 15/11 Q1016=
201010012245 METAR LIRA 012245Z 15003KT 9999 FEW080 15/12 Q1016=
201010012215 METAR LIRA 012215Z 15003KT 9999 FEW023 16/13 Q1016=
201010012145 METAR LIRA 012145Z 13003KT 9999 FEW023 SCT080 16/13 Q1016=
201010012115 METAR LIRA 012115Z 12001KT 9999 FEW023 SCT070 17/14 Q1016=
201010012045 METAR LIRA 012045Z 10002KT 9999 FEW023 SCT070 18/15 Q1016=
201010012015 METAR LIRA 012015Z 19002KT 9999 FEW018 SCT070 18/16 Q1016=
201010011945 METAR LIRA 011945Z 17002KT 9999 FEW017 SCT070 18/16 Q1015=
201010011915 METAR LIRA 011915Z 17003KT 9999 FEW017 SCT070 18/16 Q1015=
201010011845 METAR LIRA 011845Z 21002KT 9999 FEW017 SCT070 18/16 Q1015=
201010011815 METAR LIRA 011815Z 20003KT 9999 FEW020 SCT035 18/16 Q1015=
201010011745 METAR LIRA 011745Z 20003KT 9999 FEW020 SCT035 18/15 Q1015=
201010011715 METAR LIRA 011715Z 21003KT 9999 FEW020 SCT035 19/15 Q1015=
201010011645 METAR LIRA 011645Z 22005KT 190V250 9999 FEW020 SCT035 19/15
                        Q1014=
201010011615 METAR LIRA 011615Z 20005KT 160V220 9999 FEW020 BKN080 20/14
                        Q1014=
201010011545 METAR LIRA 011545Z 20005KT 160V240 9999 FEW020 BKN090 20/14
                        Q1014=
201010011515 METAR LIRA 011515Z 22006KT 130V260 9999 FEW020 BKN090 21/13
                        Q1014=
201010011445 METAR LIRA 011445Z 23007KT 190V280 9999 FEW020 SCT090 21/14
                        Q1014=
201010011415 METAR LIRA 011415Z 22007KT 180V260 9999 FEW020 SCT035 BKN090
                        20/14 Q1014=
201010011345 METAR LIRA 011345Z 21007KT 160V270 9999 FEW018TCU SCT020
                        21/14 Q1014=
201010011315 METAR LIRA 011315Z 20009KT 150V260 9999 FEW018TCU SCT020
                        22/15 Q1014=
201010011245 METAR LIRA 011245Z 22008KT 150V260 9999 FEW017CB SCT020 23/14
                        Q1014=
201010011215 METAR LIRA 011215Z 22008KT 160V260 9999 FEW017CB SCT020 23/14
                        Q1014=
201010011145 METAR LIRA 011145Z 20007KT 150V270 9999 FEW017CB SCT020 22/13
                        Q1015=
201010011115 METAR LIRA 011115Z 20006KT 140V260 9999 FEW018TCU BKN020
                        22/13 Q1015=
201010011045 METAR LIRA 011045Z 18005KT 110V230 9999 FEW018TCU SCT020
                        22/13 Q1015=
201010011015 METAR LIRA 011015Z 19007KT 130V240 9999 SCT020 22/12 Q1015=
201010010945 METAR LIRA 010945Z 21005KT 150V270 9999 SCT020 21/13 Q1015=
201010010915 METAR LIRA 010915Z 20006KT 160V220 9999 SCT020 21/13 Q1015=
201010010845 METAR LIRA 010845Z 23003KT 9999 SCT020 20/14 Q1015=
201010010815 METAR LIRA 010815Z 16004KT 120V190 9999 SCT020 20/14 Q1015=
201010010745 METAR LIRA 010745Z 06002KT 9999 FEW020 SCT080 19/14 Q1015=
201010010715 METAR LIRA 010715Z 02001KT 9999 FEW020 SCT060 17/14 Q1014=
201010010645 METAR LIRA 010645Z 04002KT 9999 FEW018TCU SCT035 15/13 Q1014=
201010010615 METAR LIRA 010615Z 04001KT 9999 FEW018TCU SCT035 15/13 Q1014=
201010010545 METAR LIRA 010545Z 10004KT 9999 FEW018TCU SCT035 16/14 Q1014=
201010010515 METAR LIRA 010515Z 09004KT 9999 FEW020 SCT030 15/13 Q1014=
201010010445 METAR LIRA 010445Z 10005KT 9999 FEW018 SCT025 15/13 Q1014=
201010010415 METAR LIRA 010415Z 16002KT 9999 FEW020 14/12 Q1014=
201010010345 METAR LIRA 010345Z 10004KT 9999 FEW025 SCT070 14/12 Q1015=
201010010315 METAR LIRA 010315Z 07006KT 9999 FEW025 SCT070 14/12 Q1015=
201010010245 METAR LIRA 010245Z 13003KT 9999 FEW025 SCT070 14/12 Q1015=
201010010215 METAR LIRA 010215Z 14003KT 9999 FEW025 SCT070 14/12 Q1015=
201010010145 METAR LIRA 010145Z 13002KT 9999 FEW025 14/12 Q1015=
201010010115 METAR LIRA 010115Z 16001KT 9999 FEW030 14/12 Q1015=
201010010045 METAR LIRA 010045Z 10006KT 9999 FEW010 14/12 Q1016=
201010010015 METAR LIRA 010015Z 12002KT 9999 FEW010 14/12 Q1016=
201009302350 METAR LIRA 010045Z 10006KT 9999 FEW010 14/12 Q1016=
201009302345 METAR LIRA 302345Z 12002KT 9999 FEW010 14/12 Q1016=
201009302315 METAR LIRA 302315Z 12003KT 9999 FEW025 14/13 Q1016=
201009302245 METAR LIRA 302245Z 16004KT 9999 FEW025 15/13 Q1016=
201009302215 METAR LIRA 302215Z 16003KT 9999 SCT025 15/13 Q1016=
201009302145 METAR LIRA 302145Z 18003KT 9999 FEW025 16/13 Q1016=
201009302115 METAR LIRA 302115Z 20001KT 9999 SCT025 16/12 Q1016=
201009302045 METAR LIRA 302045Z 16003KT 9999 SCT025 SCT070 16/13 Q1016=
201009302015 METAR LIRA 302015Z 16002KT 9999 SCT025 15/13 Q1016=
201009301945 METAR LIRA 301945Z 11004KT 9999 SCT025 SCT070 15/13 Q1016=
201009301915 METAR LIRA 301915Z 12002KT 9999 SCT025 16/13 Q1016=
201009301845 METAR LIRA 301845Z 18001KT 9999 FEW070 17/14 Q1015=
201009301815 METAR LIRA 301815Z 18002KT 9999 FEW018 18/14 Q1015=
201009301745 METAR LIRA 301745Z 22002KT 9999 FEW018 SCT200 18/14 Q1015=
201009301715 METAR LIRA 301715Z 23003KT 9999 FEW018 SCT200 19/14 Q1015=
201009301645 METAR LIRA 301645Z 22006KT 160V250 9999 FEW018 SCT200 19/14
                        Q1015=
201009301615 METAR LIRA 301615Z 22006KT 190V280 9999 FEW018 SCT200 20/14
                        Q1015=
201009301545 METAR LIRA 301545Z 23007KT 160V260 9999 FEW018 20/14 Q1015=
201009301515 METAR LIRA 301515Z 22009KT 190V270 9999 FEW018 20/13 Q1015=
201009301445 METAR LIRA 301445Z 22011KT 200V280 9999 FEW018 21/12 Q1015=
201009301415 METAR LIRA 301415Z 22008KT 180V300 9999 FEW018 22/11 Q1015=
201009301345 METAR LIRA 301345Z 24010KT 180V300 9999 FEW018 23/10 Q1015=
201009301315 METAR LIRA 301315Z 24008KT 190V310 9999 SCT018 23/09 Q1016=
201009301245 METAR LIRA 301245Z 21007KT 160V310 9999 SCT018 23/10 Q1016=
201009301215 METAR LIRA 301215Z 18005KT 130V270 9999 SCT018 23/10 Q1016=
201009301145 METAR LIRA 301145Z 23005KT 9999 SCT018 23/09 Q1016=
201009301115 METAR LIRA 301115Z 24002KT 160V260 9999 SCT018 22/07 Q1016=
201009301045 METAR LIRA 301045Z 22004KT 9999 SCT018 22/08 Q1016=
201009301015 METAR LIRA 301015Z 18002KT 9999 FEW018 22/09 Q1016=
201009300945 METAR LIRA 300945Z 27004KT 9999 FEW018 21/10 Q1016=
201009300915 METAR LIRA 300915Z 28003KT 9999 FEW018 20/11 Q1016=
201009300845 METAR LIRA 300845Z 25004KT 210V310 9999 FEW018 19/11 Q1016=
201009300815 METAR LIRA 300815Z 31002KT 9999 FEW018 17/11 Q1016=
201009300745 METAR LIRA 300745Z 02002KT CAVOK 15/11 Q1016=
201009300715 METAR LIRA 300715Z 33001KT CAVOK 13/10 Q1016=
201009300645 METAR LIRA 300645Z 35002KT CAVOK 13/10 Q1016=
201009300615 METAR LIRA 300615Z 36003KT CAVOK 11/09 Q1016=
201009300545 METAR LIRA 300545Z 36002KT CAVOK 10/09 Q1016=
201009300515 METAR LIRA 300515Z 35001KT CAVOK 10/09 Q1016=
201009300445 METAR LIRA 300445Z 03003KT CAVOK 10/09 Q1016=
201009300415 METAR LIRA 300415Z 36002KT CAVOK 10/09 Q1016=
201009300345 METAR LIRA 300345Z 03004KT CAVOK 11/10 Q1016=
201009300315 METAR LIRA 300315Z 04004KT CAVOK 11/10 Q1016=
201009300245 METAR LIRA 300245Z 05004KT CAVOK 11/10 Q1016=
201009300215 METAR LIRA 300215Z 15001KT CAVOK 11/10 Q1016=
201009300145 METAR LIRA 300145Z 10001KT CAVOK 11/10 Q1016=
201009300115 METAR LIRA 300115Z 04002KT CAVOK 11/10 Q1016=
201009300045 METAR LIRA 300045Z 04002KT CAVOK 11/09 Q1016=
201009300015 METAR LIRA 300015Z 06001KT CAVOK 12/10 Q1016=
201009292350 METAR LIRA 300045Z 04002KT CAVOK 11/09 Q1016=
201009292345 METAR LIRA 292345Z 02003KT CAVOK 13/11 Q1016=
201009292245 METAR LIRA 292245Z 00000KT CAVOK 14/12 Q1015=
201009292215 METAR LIRA 292215Z 00000KT CAVOK 15/12 Q1015=
201009292145 METAR LIRA 292145Z 14002KT CAVOK 15/12 Q1015=
201009292115 METAR LIRA 292115Z 15002KT CAVOK 15/13 Q1015=
201009292045 METAR LIRA 292045Z 17002KT CAVOK 16/13 Q1015=
201009292015 METAR LIRA 292015Z 15002KT CAVOK 15/13 Q1015=
201009291945 METAR LIRA 291945Z 17003KT CAVOK 16/13 Q1015=
201009291915 METAR LIRA 291915Z 17004KT CAVOK 17/13 Q1015=
201009291845 METAR LIRA 291845Z 17004KT CAVOK 17/13 Q1015=
201009291815 METAR LIRA 291815Z 20005KT 140V250 9999 FEW080 17/12 Q1014=
201009291745 METAR LIRA 291745Z 20004KT CAVOK 17/12 Q1014=
201009291715 METAR LIRA 291715Z 18005KT 160V220 CAVOK 13/06 Q1014=
201009291645 METAR LIRA 291645Z 25006KT 190V300 CAVOK 18/11 Q1014=
201009291615 METAR LIRA 291615Z 26006KT 180V310 9999 FEW021 19/12 Q1014=
201009291545 METAR LIRA 291545Z 27011KT 230V330 CAVOK 20/11 Q1013=
201009291515 METAR LIRA 291515Z 27010KT 220V320 9999 FEW020 21/12 Q1013=
201009291445 METAR LIRA 291445Z 26010KT 210V310 9999 FEW020 22/10 Q1013=
201009291415 METAR LIRA 291415Z 27010KT 200V330 9999 FEW020 21/10 Q1013=
201009291345 METAR LIRA 291345Z 28009KT 220V010 9999 FEW020 22/10 Q1013=
201009291315 METAR LIRA 291315Z 28009KT 220V350 9999 FEW020 22/09 Q1013=
201009291245 METAR LIRA 291245Z 33010KT 290V040 9999 FEW020 22/05 Q1014=
201009291215 METAR LIRA 291215Z 34008KT 280V070 9999 FEW020 22/05 Q1014=
201009291145 METAR LIRA 291145Z 34006KT 290V040 9999 FEW020 21/09 Q1014=
201009291115 METAR LIRA 291115Z 36006KT 270V050 9999 FEW020 21/06 Q1014=
201009291100 METAR LIRA INT=
201009291045 METAR LIRA 291045Z 35005KT 280V060 9999 FEW020 20/08 Q1014=
201009291015 METAR LIRA 291015Z 33006KT 280V040 9999 FEW020 20/08 Q1014=
201009290945 METAR LIRA 290945Z 36005KT 300V100 9999 FEW020 18/09 Q1014=
201009290915 METAR LIRA 290915Z 35004KT 290V050 9999 FEW020 18/09 Q1014=
201009290845 METAR LIRA 290845Z 35005KT 310V070 9999 FEW020 17/09 Q1014=
201009290815 METAR LIRA 290815Z 36005KT 280V060 9999 FEW018 20/13 Q1014=
201009290745 METAR LIRA 290745Z 36007KT 310V050 9999 FEW070 15/09 Q1014=
201009290715 METAR LIRA 290715Z 01005KT 320V080 9999 FEW070 13/10 Q1014=
201009290645 METAR LIRA 290645Z 01004KT 9999 FEW070 12/10 Q1013=
201009290615 METAR LIRA 290615Z 03005KT 320V060 CAVOK 11/10 Q1013=
201009290545 METAR LIRA 290545Z 04003KT CAVOK 10/10 Q1013=
201009290515 METAR LIRA 290515Z 04003KT CAVOK 10/10 Q1013=
201009290445 METAR LIRA 290445Z 05003KT CAVOK 11/10 Q1013=
201009290415 METAR LIRA 290415Z 03004KT CAVOK 11/10 Q1013=
201009290345 METAR LIRA 290345Z 03003KT CAVOK 11/10 Q1013=
201009290315 METAR LIRA 290315Z 03004KT 9999 FEW080 11/10 Q1013=
201009290245 METAR LIRA 290245Z 03003KT 9999 FEW080 12/11 Q1013=
201009290215 METAR LIRA 290215Z 36003KT 9999 FEW080 13/12 Q1012=
201009290145 METAR LIRA 290145Z 10002KT 9999 FEW025 13/11 Q1013=
201009290115 METAR LIRA 290115Z 05002KT 9999 FEW025 SCT080 14/12 Q1013=
201009290045 METAR LIRA 290045Z 11001KT 9999 FEW025 BKN080 15/12 Q1013=
201009290015 METAR LIRA 290015Z 00000KT 9999 FEW025 BKN080 15/12 Q1013=
201009282350 METAR LIRA 290045Z 11001KT 9999 FEW025 BKN080 15/12 Q1013=
201009282345 METAR LIRA 282345Z 14003KT 9999 FEW025 BKN080 15/12 Q1014=
201009282315 METAR LIRA 282315Z 16004KT 9999 FEW020 SCT025 BKN060 15/12
                        Q1014=
201009282245 METAR LIRA 282245Z 16004KT 9999 FEW020 SCT025 BKN060 15/11
                        Q1014=
201009282215 METAR LIRA 282215Z 15002KT 9999 FEW025 BKN070 15/12 Q1014=
201009282145 METAR LIRA 282145Z 15002KT 9999 FEW025 BKN070 15/12 Q1014=
201009282115 METAR LIRA 282115Z 16002KT 9999 FEW020 SCT070 15/11 Q1014=
201009282045 METAR LIRA 282045Z 20002KT 9999 FEW020 SCT070 16/11 Q1014=
201009282015 METAR LIRA 282015Z 20001KT 9999 FEW020 SCT070 15/11 Q1014=
201009281945 METAR LIRA 281945Z 21002KT 9999 FEW020 16/12 Q1014=
201009281915 METAR LIRA 281915Z 23002KT 9999 FEW020 17/11 Q1014=
201009281845 METAR LIRA 281845Z 21002KT 9999 FEW020 17/10 Q1014=
201009281815 METAR LIRA 281815Z 21002KT 9999 FEW020 SCT025 18/10 Q1014=
201009281745 METAR LIRA 281745Z 17003KT 9999 FEW022 SCT025 18/10 Q1014=
201009281715 METAR LIRA 281715Z 19003KT 9999 FEW022 SCT025 18/10 Q1014=
201009281645 METAR LIRA 281645Z 22002KT 9999 SCT022 18/10 Q1014=
201009281615 METAR LIRA 281615Z 23004KT 9999 SCT022 19/10 Q1014=
201009281545 METAR LIRA 281545Z 21006KT 160V260 9999 SCT022 19/10 Q1014=
201009281515 METAR LIRA 281515Z 23007KT 170V290 9999 SCT022 20/10 Q1014=
201009281445 METAR LIRA 281445Z 22008KT 160V270 9999 SCT022 20/12 Q1014=
201009281415 METAR LIRA 281415Z 23008KT 150V270 9999 SCT022 21/11 Q1014=
201009281345 METAR LIRA 281345Z 22009KT 160V260 9999 SCT022 21/11 Q1014=
201009281315 METAR LIRA 281315Z 22007KT 120V240 9999 SCT018 20/10 Q1014=
201009281245 METAR LIRA 281245Z 22008KT 150V250 9999 BKN016 21/11 Q1014=
201009281215 METAR LIRA 281215Z 21009KT 160V260 9999 BKN016 21/11 Q1014=
201009281145 METAR LIRA 281145Z 20009KT 140V260 9999 BKN016 21/11 Q1014=
201009281115 METAR LIRA 281115Z 19008KT 140V250 9999 BKN016 21/12 Q1014=
201009281045 METAR LIRA 281045Z 22004KT 160V260 9999 BKN016 20/13 Q1014=
201009281015 METAR LIRA 281015Z 22004KT 9999 SCT016 SCT025 19/13 Q1014=
201009280945 METAR LIRA 280945Z 21004KT 150V270 9999 SCT016 SCT025 19/13
                        Q1014=
201009280915 METAR LIRA 280915Z 15004KT 9999 SCT018 SCT027 19/13 Q1014=
201009280845 METAR LIRA 280845Z 15004KT 9999 FEW018 SCT027 19/13 Q1014=
201009280815 METAR LIRA 280815Z 17003KT 9999 SCT018 BKN027 18/13 Q1014=
201009280745 METAR LIRA 280745Z 18003KT 9999 -DZ SCT016 BKN025 18/12 Q1014=
201009280715 METAR LIRA 280715Z 16004KT 9999 FEW018 BKN027 18/12 Q1014=
201009280645 METAR LIRA 280645Z 16004KT 9999 FEW018 BKN030 17/12 Q1014=
201009280615 METAR LIRA 280615Z 16004KT 9999 FEW020 SCT035 16/12 Q1014=
201009280600 METAR LIRA INTER CB ALL QUADS=
201009280545 METAR LIRA 280545Z 16005KT 9999 FEW020 SCT040 15/12 Q1014=
201009280515 METAR LIRA 280515Z 17005KT 9999 FEW020 15/12 Q1013=
201009280445 METAR LIRA 280445Z 16004KT 9999 FEW020 15/12 Q1013=
201009280415 METAR LIRA 280415Z 16004KT 9999 FEW020 15/12 Q1013=
201009280345 METAR LIRA 280345Z 14005KT 9999 FEW020 SCT030 15/12 Q1013=
201009280315 METAR LIRA 280315Z 16004KT 9999 FEW020 SCT030 15/12 Q1013=
201009280245 METAR LIRA 280245Z 14005KT 9999 FEW018TCU SCT020 15/12 Q1013=
201009280215 METAR LIRA 280215Z 13005KT 9999 FEW018TCU SCT020 14/12 Q1014=
201009280145 METAR LIRA 280145Z 14006KT 9999 FEW018TCU SCT020 15/12 Q1014=
201009280115 METAR LIRA 280115Z 15005KT 9999 FEW018TCU SCT020 15/12 Q1014=
201009280045 METAR LIRA 280045Z 16004KT 9999 SCT020 15/12 Q1014=
201009280015 METAR LIRA 280015Z 15005KT 9999 SCT020 15/12 Q1014=
201009272350 METAR LIRA 280045Z 16004KT 9999 SCT020 15/12 Q1014=
201009272345 METAR LIRA 272345Z 15004KT 9999 FEW018TCU SCT020 15/12 Q1014=
201009272315 METAR LIRA 272315Z 19005KT 9999 FEW017TCU 16/12 Q1013=
201009272245 METAR LIRA 272245Z 18005KT 9999 SCT018 SCT030 15/12 Q1013=
201009272215 METAR LIRA 272215Z 16005KT 9999 SCT018 SCT030 15/12 Q1013=
201009272145 METAR LIRA 272145Z 17004KT 9999 FEW018 SCT030 15/12 Q1013=
201009272115 METAR LIRA 272115Z 19005KT 150V240 9999 SCT018 15/11 Q1013=
201009272045 METAR LIRA 272045Z 15004KT 9999 FEW017TCU SCT018 15/11 Q1013=
201009272015 METAR LIRA 272015Z 17005KT 9999 SCT018 15/11 Q1013=
201009271945 METAR LIRA 271945Z 16006KT 140V200 9999 FEW018 15/11 Q1013=
201009271915 METAR LIRA 271915Z 14006KT 9999 FEW018 15/10 Q1013=
201009271845 METAR LIRA 271845Z 18006KT 160V220 9999 FEW018 16/11 Q1013=
201009271815 METAR LIRA 271815Z 18005KT 9999 FEW018 16/11 Q1012=
201009271745 METAR LIRA 271745Z 17004KT 9999 SCT018 16/10 Q1012=
201009271715 METAR LIRA 271715Z 18005KT 160V240 9999 FEW017 16/09 Q1013=
201009271645 METAR LIRA 271645Z 22004KT 9999 SCT018 17/11 Q1013=
201009271615 METAR LIRA 271615Z 22006KT 170V270 9999 BKN018 18/10 Q1013=
201009271545 METAR LIRA 271545Z 22008KT 170V270 9999 FEW018 SCT025 19/11
                        Q1013=
201009271515 METAR LIRA 271515Z 23009KT 170V280 9999 FEW018 SCT025 19/11
                        Q1013=
201009271445 METAR LIRA 271445Z 22009KT 160V270 9999 FEW018 SCT025 19/10
                        Q1012=
201009271415 METAR LIRA 271415Z 23010KT 180V280 9999 FEW018 SCT025 19/10
                        Q1012=
201009271345 METAR LIRA 271345Z 23011KT 180V260 9999 SCT018 BKN025 19/10
                        Q1012=
201009271315 METAR LIRA 271315Z 23011KT 180V290 9999 SCT018 BKN025 19/10
                        Q1012=
201009271245 METAR LIRA 271245Z 22011KT 170V270 9999 SCT018 BKN025 19/10
                        Q1012=
201009271215 METAR LIRA 271215Z 23011KT 160V290 9999 SCT018 SCT025 20/10
                        Q1012=
201009271145 METAR LIRA 271145Z 22010KT 160V290 9999 SCT018 SCT025 19/10
                        Q1012=
201009271115 METAR LIRA 271115Z 21011KT 160V260 9999 FEW018 BKN025 20/10
                        Q1012=
201009271045 METAR LIRA 271045Z 22010KT 160V270 9999 SCT018 SCT025 19/11
                        Q1012=
201009271015 METAR LIRA 271015Z 23010KT 190V300 9999 SCT018 SCT025 18/09
                        Q1012=
201009270945 METAR LIRA 270945Z 22008KT 9999 SCT018 SCT025 19/10 Q1012=
201009270915 METAR LIRA 270915Z 23009KT 190V300 9999 SCT018 SCT025 19/11
                        Q1012=
201009270845 METAR LIRA 270845Z 21009KT 160V270 9999 FEW018 SCT025 18/11
                        Q1012=
201009270815 METAR LIRA 270815Z 23010KT 190V280 9999 FEW018 SCT025 18/11
                        Q1011=
201009270745 METAR LIRA 270745Z 23009KT 200V310 9999 FEW018 SCT025 17/11
                        Q1011=
201009270715 METAR LIRA 270715Z 18004KT 9999 SCT016 SCT025 16/11 Q1011=
201009270645 METAR LIRA 270645Z 18004KT 9999 FEW016 BKN025 16/11 Q1010=
201009270615 METAR LIRA 270615Z 18004KT 9999 FEW016 BKN025 16/11 Q1010=
201009270600 METAR LIRA INTER CB NW/NE/SW=
201009270545 METAR LIRA 270545Z 18003KT 9999 FEW016 SCT025 15/11 Q1010=
201009270445 METAR LIRA 270445Z 17004KT 9999 FEW020 SCT025 15/11 Q1010=
201009270415 METAR LIRA 270415Z 17003KT 9999 FEW020 SCT025 15/11 Q1010=
201009270345 METAR LIRA 270345Z 19002KT 9999 FEW020 SCT030 15/11 Q1009=
201009270315 METAR LIRA 270315Z 22003KT 9999 FEW020 SCT030 15/11 Q1009=
201009270245 METAR LIRA 270245Z 19002KT 9999 FEW020 SCT030 15/11 Q1009=
201009270215 METAR LIRA 270215Z 18003KT 9999 FEW017 FEW022TCU SCT030 15/12
                        Q1009=
201009270145 METAR LIRA 270145Z 16003KT 9999 FEW017 FEW022TCU SCT030 15/11
                        Q1009=
201009270115 METAR LIRA 270115Z 17003KT 9999 FEW017 SCT030 15/11 Q1009=
201009270045 METAR LIRA 270045Z 16004KT 9999 SCT025 15/11 Q1009=
201009270015 METAR LIRA 270015Z 17004KT 9999 FEW017 SCT030 15/11 Q1009=
201009262350 METAR LIRA 270045Z 16004KT 9999 SCT025 15/11 Q1009=
201009262345 METAR LIRA 262345Z 17004KT 9999 FEW018 15/11 Q1009=
201009262315 METAR LIRA 262315Z 19004KT 160V230 9999 FEW018 15/10 Q1009=
201009262245 METAR LIRA 262245Z 21006KT 140V270 9999 FEW018 SCT030 15/10
                        Q1009=
201009262215 METAR LIRA 262215Z 23006KT 180V280 9999 FEW018 BKN030 15/10
                        Q1009=
201009262145 METAR LIRA 262145Z 23006KT 200V280 9999 FEW018 BKN030 15/10
                        Q1009=
201009262115 METAR LIRA 262115Z 23007KT 200V300 9999 FEW018 BKN030 16/11
                        Q1009=
201009262045 METAR LIRA 262045Z 23003KT 9999 FEW018 SCT030 16/12 Q1008=
201009262015 METAR LIRA 262015Z 22003KT 9999 FEW018TCU SCT030 16/13 Q1008=
201009261945 METAR LIRA 261945Z 18003KT 9999 FEW018TCU SCT030 15/12 Q1008=
201009261915 METAR LIRA 261915Z 18003KT 9999 FEW016 FEW020CB SCT030 16/13
                        Q1008=
201009261845 METAR LIRA 261845Z 16006KT 9999 -RA SCT015 FEW020CB SCT030
                        15/12 Q1008=
201009261815 METAR LIRA 261815Z 23003KT 9999 -RA SCT015 FEW020CB BKN030
                        18/12 Q1007=
201009261745 METAR LIRA 261745Z 19005KT 150V250 9999 SCT018 FEW020CB SCT030
                        17/11 Q1006=
201009261715 METAR LIRA 261715Z 18003KT 160V220 9999 SCT018 FEW020CB SCT030
                        17/10 Q1006=
201009261645 METAR LIRA 261645Z 18005KT 140V210 9999 SCT018 FEW020TCU
                        SCT030 18/10 Q1007=
201009261615 METAR LIRA 261615Z 23007KT 190V270 9999 SCT018 FEW020TCU
                        SCT030 18/09 Q1007=
201009261545 METAR LIRA 261545Z 22007KT 170V270 9999 SCT018 FEW020TCU
                        19/08 Q1007=
201009261515 METAR LIRA 261515Z 22010KT 180V270 9999 SCT018 FEW020TCU
                        19/08 Q1007=
201009261445 METAR LIRA 261445Z 22010KT 180V280 9999 SCT018 FEW020TCU
                        20/09 Q1006=
201009261415 METAR LIRA 261415Z 23011KT 170V270 9999 BKN018 FEW020TCU
                        20/11 Q1007=
201009261345 METAR LIRA 261345Z 23011KT 180V300 9999 BKN018 20/11 Q1006=
201009261315 METAR LIRA 261315Z 24009KT 190V310 9999 FEW017CB BKN018 20/12
                        Q1006=
201009261245 METAR LIRA 261245Z 22012KT 170V260 9999 FEW017CB BKN018 20/12
                        Q1006=
201009261215 METAR LIRA 261215Z 23011KT 180V280 9999 FEW017CB BKN018 20/13
                        Q1005=
201009261145 METAR LIRA 261145Z 23009KT 170V290 9999 FEW017CB BKN018 21/15
                        Q1005=
201009261115 METAR LIRA 261115Z 23013KT 190V300 9999 FEW017CB SCT018 21/14
                        Q1005=
201009261045 METAR LIRA 261045Z 20008KT 150V260 9999 FEW015 SCT017CB 21/15
                        Q1004=
201009261015 METAR LIRA 261015Z 19010KT 150V230 9999 SCT016CB SCT018 21/14
                        Q1004=
201009260945 METAR LIRA 260945Z 19007KT 150V250 9999 FEW018CB SCT020 21/13
                        Q1004=
201009260915 METAR LIRA 260915Z 18006KT 140V250 9999 FEW018TCU SCT020
                        21/13 Q1004=
201009260845 METAR LIRA 260845Z 18006KT 140V220 9999 FEW020TCU 20/11 Q1003=
201009260815 METAR LIRA 260815Z 17006KT 130V220 9999 FEW070 18/12 Q1003=
201009260745 METAR LIRA 260745Z 15001KT 9999 FEW080 17/11 Q1004=
201009260715 METAR LIRA 260715Z 13001KT 9999 SCT070 17/15 Q1003=
201009260645 METAR LIRA 260645Z 06002KT 9999 FEW025 15/13 Q1002=
201009260615 METAR LIRA 260615Z 00000KT 9999 FEW022TCU SCT070 14/12 Q1002=
201009260545 METAR LIRA 260545Z 12002KT 9999 FEW022CB 13/11 Q1001=
201009260515 METAR LIRA 260515Z 05003KT 9999 FEW025 SCT070 13/11 Q1001=
201009260445 METAR LIRA 260445Z 13004KT 9999 FEW020CB SCT025 13/12 Q1001=
201009260415 METAR LIRA 260415Z 14004KT 9999 FEW018 FEW020CB 14/13 Q1000=
201009260345 METAR LIRA 260345Z 10003KT 9999 FEW018 FEW020CB 14/13 Q1000=
201009260315 METAR LIRA 260315Z 13004KT 9999 -RA FEW018 FEW020CB BKN025
                        14/13 Q1000=
201009260245 METAR LIRA 260245Z 32001KT 9999 -RA FEW018 FEW020CB BKN025
                        14/12 Q1000=
201009260215 METAR LIRA 260215Z 04003KT 9999 FEW018 FEW020CB 14/12 Q1000=
201009260145 METAR LIRA 260145Z 06002KT 9999 FEW018 FEW020CB 15/12 Q1000=
201009260115 METAR LIRA 260115Z 15002KT 9999 FEW018 FEW020CB 15/12 Q0999=
201009260045 METAR LIRA 260045Z 15003KT 9999 FEW018 FEW020CB 16/12 Q0999=
201009260015 METAR LIRA 260015Z 12003KT 9999 FEW018 FEW020CB 16/13 Q0999=
201009252350 METAR LIRA 260045Z 15003KT 9999 FEW018 FEW020CB 16/12 Q0999=
201009252345 METAR LIRA 252345Z 12002KT 9999 FEW018 FEW020CB 16/13 Q0999=
201009252315 METAR LIRA 252315Z 15004KT 9999 FEW018 FEW020CB SCT025 15/13
                        Q0999=
201009252245 METAR LIRA 252245Z 14002KT 9999 FEW018 FEW020CB 15/13 Q0999=
201009252215 METAR LIRA 252215Z 17001KT 9999 FEW018 FEW020CB 15/13 Q0999=
201009252145 METAR LIRA 252145Z 18002KT 9999 TS FEW016 FEW018CB 16/13
                        Q0999=
201009252115 METAR LIRA 252115Z 22002KT 9999 TS FEW016 FEW018CB SCT025
                        16/13 Q0999=
201009252045 METAR LIRA 252045Z 19004KT 9999 TS FEW017 FEW018CB SCT025
                        16/12 Q0999=
201009252015 METAR LIRA 252015Z 21002KT 9999 FEW018 FEW020CB SCT030 16/12
                        Q0999=
201009251945 METAR LIRA 251945Z 00000KT 9999 FEW018 FEW020CB SCT030 16/12
                        Q0999=
201009251915 METAR LIRA 251915Z 24002KT 9999 FEW018 FEW020CB SCT030 17/13
                        Q0999=
201009251845 METAR LIRA 251845Z 36001KT 9999 FEW016 FEW018CB SCT030 17/12
                        Q0998=
201009251815 METAR LIRA 251815Z 05004KT 9999 FEW016 FEW018TCU SCT030 18/13
                        Q0998=
201009251745 METAR LIRA 251745Z 02004KT 340V060 9999 FEW016 FEW018TCU
                        SCT030 19/13 Q0998=
201009251715 METAR LIRA 251715Z 34004KT 310V020 9999 FEW016 FEW018TCU
                        SCT030 20/13 Q0997=
201009251645 METAR LIRA 251645Z 22003KT 9999 SCT016CB SCT030 20/12 Q0997=
201009251615 METAR LIRA 251615Z 22004KT 9999 FEW016 FEW018CB SCT070 20/11
                        Q0997=
201009251545 METAR LIRA 251545Z 22006KT 180V260 9999 FEW016 FEW020TCU
                        SCT080 21/12 Q0997=
201009251515 METAR LIRA 251515Z 22003KT 9999 FEW016 FEW020TCU SCT080 21/10
                        Q0997=
201009251445 METAR LIRA 251445Z 20006KT 150V270 9999 FEW016 FEW020TCU
                        SCT080 22/10 Q0997=
201009251415 METAR LIRA 251415Z 21007KT 150V270 9999 FEW016 FEW017TCU
                        22/11 Q0997=
201009251345 METAR LIRA 251345Z 18007KT 090V280 9999 FEW016 22/11 Q0997=
201009251315 METAR LIRA 251315Z 20008KT 150V280 9999 FEW016 22/12 Q0997=
201009251245 METAR LIRA 251245Z 21007KT 150V300 9999 FEW016 22/13 Q0997=
201009251215 METAR LIRA 251215Z 21009KT 150V260 9999 FEW016 SCT030 22/14
                        Q0997=
201009251145 METAR LIRA 251145Z 21008KT 150V260 9999 FEW016 FEW020TCU
                        SCT030 22/15 Q0997=
201009251115 METAR LIRA 251115Z 20005KT 140V260 9999 SCT016 FEW017TCU
                        21/15 Q0998=
201009251045 METAR LIRA 251045Z 16003KT 9999 SCT016 FEW017TCU 21/17 Q0998=
201009251015 METAR LIRA 251015Z 09002KT 9999 SCT016 FEW017TCU 21/17 Q0998=
201009250945 METAR LIRA 250945Z 30004KT 7000 SCT016 SCT025 20/16 Q0998=
201009250915 METAR LIRA 250915Z 26002KT 7000 FEW014 SCT025 19/16 Q0998=
201009250845 METAR LIRA 250845Z 30002KT 6000 SCT012 SCT025 19/17 Q0998=
201009250815 METAR LIRA 250815Z 27002KT 6000 SCT010 SCT023 18/17 Q0998=
201009250745 METAR LIRA 250745Z 30001KT 4500 BR SCT010 SCT023 17/16 Q0998=
201009250715 METAR LIRA 250715Z 36002KT 3500 BR SCT006 SCT020 17/16 Q0998=
201009250645 METAR LIRA 250645Z 36003KT 3500 BR SCT006 SCT020 16/15 Q0998=
201009250615 METAR LIRA 250615Z 36003KT 3500 BR SCT006 SCT020 16/15 Q0998=
201009250545 METAR LIRA 250545Z 33003KT 3500 BR FEW009 BKN020 16/15 Q0997=
201009250515 METAR LIRA 250515Z 35002KT 3500 BR SCT006 SCT020 16/16 Q0997=
201009250445 METAR LIRA 250445Z 05003KT 4000 BR SCT006 SCT020 16/15 Q0997=
201009250415 METAR LIRA 250415Z 36002KT 4000 -RA BR SCT007 SCT025 17/16
                        Q0997=
201009250345 METAR LIRA 250345Z 32002KT 5000 RA BR SCT007 SCT025 17/16
                        Q0997=
201009250315 METAR LIRA 250315Z 30001KT 5000 RA BR SCT008 SCT025 17/16
                        Q0997=
201009250245 METAR LIRA 250245Z 34002KT 6000 RA SCT008 SCT025 17/16 Q0997=
201009250215 METAR LIRA 250215Z 32004KT 5000 RA BR SCT005 SCT025 17/16
                        Q0998=
201009250145 METAR LIRA 250145Z 32005KT 4000 RA BR SCT001 SCT005 17/16
                        Q0998=
201009250115 METAR LIRA 250115Z 32004KT 8000 -DZ SCT015 SCT025 17/16 Q0999=
201009250045 METAR LIRA 250045Z 34003KT 8000 -DZ FEW015 SCT025 BKN070
                        17/16 Q0999=
201009250015 METAR LIRA 250015Z 27003KT 9999 -DZ FEW015 SCT025 BKN070
                        17/15 Q0999=
201009242350 METAR LIRA 250045Z 34003KT 8000 -DZ FEW015 SCT025 BKN070
                        17/16 Q0999=
201009242345 METAR LIRA 242345Z 21003KT 9999 -DZ FEW015 SCT025 BKN070
                        17/16 Q0999=
201009242315 METAR LIRA 242315Z 06006KT 010V090 9999 -DZ FEW020 SCT030
                        BKN070 17/16 Q1000=
201009242245 METAR LIRA 242245Z 05005KT 010V080 9999 -DZ FEW020 SCT030
                        BKN070 17/16 Q1000=
201009242215 METAR LIRA 242215Z 04004KT 9999 -DZ FEW020 SCT030 BKN070
                        17/16 Q1000=
201009242145 METAR LIRA 242145Z 05006KT 340V080 9999 FEW020 SCT030 BKN080
                        17/16 Q1001=
201009242115 METAR LIRA 242115Z 03003KT 9999 SCT018 SCT027 BKN060 17/16
                        Q1001=
201009242045 METAR LIRA 242045Z 06005KT 360V110 9999 -RA SCT016 SCT025
                        BKN060 18/16 Q1001=
201009242015 METAR LIRA 242015Z 05005KT 350V080 9999 -RA SCT016 SCT030
                        BKN060 18/17 Q1002=
201009241945 METAR LIRA 241945Z 18002KT 9999 SCT018 SCT030 BKN070 18/16
                        Q1002=
201009241915 METAR LIRA 241915Z 30002KT 9999 SCT013 SCT030 BKN070 18/16
                        Q1002=
201009241845 METAR LIRA 241845Z 04002KT 9999 FEW013TCU SCT030 BKN080 18/17
                        Q1002=
201009241815 METAR LIRA 241815Z 04003KT 9999 -RA FEW013TCU SCT028 BKN080
                        18/17 Q1002=
201009241745 METAR LIRA 241745Z 32002KT 9999 -RA FEW013TCU SCT028 BKN080
                        19/17 Q1002=
201009241715 METAR LIRA 241715Z 08002KT 9999 -RA FEW013TCU SCT028 BKN080
                        19/17 Q1002=
201009241645 METAR LIRA 241645Z 28002KT 9999 -RA SCT013 SCT030 BKN070
                        19/17 Q1003=
201009241615 METAR LIRA 241615Z 13005KT 100V170 9999 -RA SCT013 BKN030
                        19/17 Q1003=
201009241545 METAR LIRA 241545Z 13008KT 080V170 9999 -RA SCT015 BKN025
                        19/17 Q1004=
201009241515 METAR LIRA 241515Z 12008KT 090V180 9999 -RA SCT015 BKN025
                        19/16 Q1004=
201009241445 METAR LIRA 241445Z 12007KT 9999 -RA SCT015 SCT025 20/17 Q1004=
201009241415 METAR LIRA 241415Z 13007KT 9999 SCT015 BKN025 20/16 Q1005=
201009241345 METAR LIRA 241345Z 13007KT 9999 -RA SCT015 BKN025 20/15 Q1005=
201009241315 METAR LIRA 241315Z 12007KT 9999 SCT015 BKN025 20/16 Q1005=
201009241245 METAR LIRA 241245Z 14009KT 100V180 9999 SCT015 BKN025 21/16
                        Q1006=
201009241215 METAR LIRA 241215Z 14012KT 9999 SCT015 SCT070 21/16 Q1007=
201009241145 METAR LIRA 241145Z 14011KT 100V180 9999 SCT015 SCT070 21/18
                        Q1007=
201009241115 METAR LIRA 241115Z 13008KT 9999 SCT015 SCT025 21/17 Q1007=
201009241045 METAR LIRA 241045Z 12006KT 9999 SCT015 SCT025 20/17 Q1007=
201009241015 METAR LIRA 241015Z 12007KT 080V170 9999 -RA SCT015 FEW020CB
                        SCT025 19/17 Q1008=
201009240945 METAR LIRA 240945Z 15019KT 6000 2000S +RA BR SCT015 FEW020CB
                        SCT025 18/16 Q1008=
201009240915 METAR LIRA 240915Z 13009KT 090V170 9999 SCT018 SCT070 23/15
                        Q1009=
201009240845 METAR LIRA 240845Z 12011KT 9999 FEW018 BKN070 23/14 Q1009=
201009240815 METAR LIRA 240815Z 12006KT 080V170 9999 FEW018 SCT070 23/15
                        Q1009=
201009240745 METAR LIRA 240745Z 13007KT 090V180 9999 FEW018 SCT070 22/15
                        Q1009=
201009240715 METAR LIRA 240715Z 15006KT 090V200 9999 FEW018 SCT070 21/16
                        Q1009=
201009240645 METAR LIRA 240645Z 01002KT 9999 FEW018 SCT070 17/15 Q1009=
201009240615 METAR LIRA 240615Z 01002KT 9999 FEW018 SCT070 16/14 Q1010=
201009240600 METAR LIRA INTER CB NW-E=
201009240545 METAR LIRA 240545Z 02002KT 9999 FEW018 SCT070 15/14 Q1010=
201009240515 METAR LIRA 240515Z 02002KT 9999 FEW018 SCT070 15/13 Q1010=
201009240445 METAR LIRA 240445Z 02002KT 9999 FEW020 BKN200 15/14 Q1010=
201009240415 METAR LIRA 240415Z 07003KT 9999 FEW020 SCT200 15/14 Q1010=
201009240345 METAR LIRA 240345Z 04002KT 9999 FEW070 16/14 Q1011=
201009240315 METAR LIRA 240315Z 00000KT 9999 FEW060 16/14 Q1011=
201009240245 METAR LIRA 240245Z 27001KT 9999 FEW060 16/14 Q1011=
201009240215 METAR LIRA 240215Z 24003KT CAVOK 16/14 Q1011=
201009240145 METAR LIRA 240145Z 24001KT CAVOK 16/13 Q1011=
201009240115 METAR LIRA 240115Z 28001KT CAVOK 17/14 Q1012=
201009240045 METAR LIRA 240045Z 07003KT CAVOK 17/14 Q1012=
201009240015 METAR LIRA 240015Z 08003KT CAVOK 18/13 Q1012=
201009232350 METAR LIRA 240045Z 07003KT CAVOK 17/14 Q1012=
201009232345 METAR LIRA 232345Z 08002KT CAVOK 17/13 Q1012=
201009232315 METAR LIRA 232315Z 10003KT CAVOK 17/13 Q1013=
201009232245 METAR LIRA 232245Z 11003KT CAVOK 17/13 Q1013=
201009232215 METAR LIRA 232215Z 11002KT CAVOK 17/13 Q1014=
201009232145 METAR LIRA 232145Z 10004KT CAVOK 17/14 Q1014=
201009232115 METAR LIRA 232115Z 09004KT CAVOK 18/15 Q1014=
201009232045 METAR LIRA 232045Z 11003KT CAVOK 19/15 Q1015=
201009232015 METAR LIRA 232015Z 10003KT CAVOK 19/15 Q1015=
201009231945 METAR LIRA 231945Z 10002KT CAVOK 19/16 Q1015=
201009231915 METAR LIRA 231915Z 13001KT CAVOK 20/17 Q1015=
201009231845 METAR LIRA 231845Z 20002KT CAVOK 21/18 Q1014=
201009231815 METAR LIRA 231815Z 21003KT CAVOK 21/17 Q1015=
201009231745 METAR LIRA 231745Z 20003KT CAVOK 21/17 Q1015=
201009231715 METAR LIRA 231715Z 22003KT CAVOK 22/16 Q1014=
201009231645 METAR LIRA 231645Z 23004KT CAVOK 23/16 Q1015=
201009231615 METAR LIRA 231615Z 23006KT 180V270 CAVOK 24/16 Q1015=
201009231545 METAR LIRA 231545Z 22007KT 180V270 9999 FEW020 25/15 Q1015=
201009231515 METAR LIRA 231515Z 23007KT 180V280 9999 FEW020 25/14 Q1015=
201009231445 METAR LIRA 231445Z 24007KT 190V300 9999 FEW020 25/14 Q1015=
201009231415 METAR LIRA 231415Z 24008KT 180V290 9999 FEW020 25/14 Q1015=
201009231345 METAR LIRA 231345Z 23009KT 190V290 9999 SCT020 26/14 Q1015=
201009231315 METAR LIRA 231315Z 21007KT 150V270 9999 SCT020 26/15 Q1015=
201009231245 METAR LIRA 231245Z 23008KT 160V260 9999 BKN020 26/15 Q1015=
201009231215 METAR LIRA 231215Z 25006KT 160V260 9999 BKN020 25/14 Q1016=
201009231145 METAR LIRA 231145Z 25006KT 180V300 9999 BKN020 26/13 Q1016=
201009231115 METAR LIRA 231115Z 20006KT 140V250 9999 SCT020 26/13 Q1016=
201009231045 METAR LIRA 231045Z 26006KT 190V290 9999 SCT020 26/13 Q1017=
201009231015 METAR LIRA 231015Z 24004KT 140V260 9999 FEW020 25/13 Q1017=
201009230945 METAR LIRA 230945Z 21006KT 160V270 9999 FEW023 25/14 Q1017=
201009230915 METAR LIRA 230915Z 26003KT 9999 FEW025 24/14 Q1017=
201009230845 METAR LIRA 230845Z 32003KT 9999 FEW025 22/14 Q1017=
201009230815 METAR LIRA 230815Z 36003KT 9999 FEW025 21/13 Q1017=
201009230745 METAR LIRA 230745Z 03004KT CAVOK 19/14 Q1017=
201009230715 METAR LIRA 230715Z 02003KT CAVOK 18/13 Q1017=
201009230645 METAR LIRA 230645Z 03004KT CAVOK 17/13 Q1017=
201009230615 METAR LIRA 230615Z 04003KT CAVOK 15/13 Q1017=
201009230545 METAR LIRA 230545Z 04003KT CAVOK 14/13 Q1016=
201009230515 METAR LIRA 230515Z 04002KT CAVOK 14/13 Q1016=
201009230445 METAR LIRA 230445Z 02002KT CAVOK 14/13 Q1016=
201009230415 METAR LIRA 230415Z 03003KT CAVOK 14/13 Q1016=
201009230345 METAR LIRA 230345Z 02003KT CAVOK 15/13 Q1017=
201009230315 METAR LIRA 230315Z 02003KT CAVOK 15/13 Q1017=
201009230245 METAR LIRA 230245Z 34004KT CAVOK 15/13 Q1017=
201009230215 METAR LIRA 230215Z 03002KT CAVOK 15/13 Q1017=
201009230145 METAR LIRA 230145Z 03002KT CAVOK 15/13 Q1017=
201009230115 METAR LIRA 230115Z 04003KT CAVOK 15/13 Q1017=
201009230045 METAR LIRA 230045Z 01003KT CAVOK 16/13 Q1017=
201009230015 METAR LIRA 230015Z 02001KT CAVOK 16/13 Q1017=
201009222350 METAR LIRA 230045Z 01003KT CAVOK 16/13 Q1017=
201009222345 METAR LIRA 222345Z 04002KT CAVOK 17/13 Q1017=
201009222315 METAR LIRA 222315Z 10005KT CAVOK 17/13 Q1017=
201009222245 METAR LIRA 222245Z 11004KT CAVOK 17/13 Q1017=
201009222215 METAR LIRA 222215Z 09004KT CAVOK 18/13 Q1017=
201009222145 METAR LIRA 222145Z 10004KT CAVOK 18/12 Q1017=
201009222115 METAR LIRA 222115Z 11005KT CAVOK 18/13 Q1017=
201009222045 METAR LIRA 222045Z 15003KT CAVOK 18/14 Q1017=
201009222015 METAR LIRA 222015Z 12003KT CAVOK 18/15 Q1017=
201009221945 METAR LIRA 221945Z 11004KT CAVOK 19/15 Q1017=
201009221915 METAR LIRA 221915Z 16003KT CAVOK 20/15 Q1017=
201009221845 METAR LIRA 221845Z 17003KT CAVOK 20/14 Q1017=
201009221815 METAR LIRA 221815Z 21003KT CAVOK 21/14 Q1017=
201009221745 METAR LIRA 221745Z 23003KT 9999 FEW070 21/13 Q1017=
201009221715 METAR LIRA 221715Z 23002KT 9999 FEW070 23/13 Q1017=
201009221645 METAR LIRA 221645Z 25003KT 9999 FEW040 23/12 Q1017=
201009221615 METAR LIRA 221615Z 26004KT 9999 FEW040 SCT070 23/12 Q1017=
201009221545 METAR LIRA 221545Z 28005KT 210V310 9999 FEW020 SCT070 25/13
                        Q1017=
201009221515 METAR LIRA 221515Z 25004KT 9999 FEW020 SCT070 24/13 Q1017=
201009221445 METAR LIRA 221445Z 24005KT 200V280 9999 FEW020 SCT070 24/14
                        Q1017=
201009221415 METAR LIRA 221415Z 23006KT 190V270 9999 FEW020 SCT070 24/14
                        Q1017=
201009221345 METAR LIRA 221345Z 25007KT 200V310 9999 FEW020 BKN070 24/13
                        Q1017=
201009221315 METAR LIRA 221315Z 25006KT 200V310 9999 FEW020 BKN070 25/09
                        Q1017=
201009221245 METAR LIRA 221245Z 22005KT 160V280 9999 FEW020 SCT070 26/09
                        Q1017=
201009221215 METAR LIRA 221215Z 23004KT 9999 FEW020 SCT035 26/09 Q1017=
201009221145 METAR LIRA 221145Z 18003KT 9999 FEW020 SCT035 26/07 Q1018=
201009221115 METAR LIRA 221115Z 20004KT 9999 FEW020 SCT035 25/08 Q1018=
201009221045 METAR LIRA 221045Z 18004KT 9999 FEW020 SCT030 23/12 Q1018=
201009221015 METAR LIRA 221015Z 07001KT 9999 FEW018 SCT030 22/14 Q1018=
201009220945 METAR LIRA 220945Z 04002KT 9999 FEW018 SCT030 21/15 Q1018=
201009220915 METAR LIRA 220915Z 03003KT 9999 FEW018 SCT030 20/15 Q1018=
201009220845 METAR LIRA 220845Z 36004KT 9999 FEW018 SCT030 20/15 Q1017=
201009220815 METAR LIRA 220815Z 36002KT 9999 FEW018 SCT030 BKN060 19/15
                        Q1017=
201009220745 METAR LIRA 220745Z 02002KT 9999 FEW018 SCT030 BKN060 18/16
                        Q1017=
201009220715 METAR LIRA 220715Z 02002KT 9999 FEW018 SCT030 BKN060 18/16
                        Q1017=
201009220645 METAR LIRA 220645Z 03004KT 9999 FEW018 SCT035 BKN060 18/15
                        Q1017=
201009220615 METAR LIRA 220615Z 03004KT 360V050 9999 FEW018 SCT035 BKN060
                        18/15 Q1017=
201009220545 METAR LIRA 220545Z 02003KT 9999 FEW018 SCT035 BKN060 18/15
                        Q1017=
201009220515 METAR LIRA 220515Z 36002KT 9999 FEW018 SCT035 BKN060 18/15
                        Q1017=
201009220445 METAR LIRA 220445Z 35002KT 9999 FEW018 BKN070 17/16 Q1017=
201009220415 METAR LIRA 220415Z 01003KT 9999 FEW018 SCT070 18/16 Q1017=
201009220345 METAR LIRA 220345Z 01004KT 9999 FEW018 SCT025 17/16 Q1017=
201009220045 METAR LIRA 220045Z 36005KT 330V030 9999 FEW018TCU SCT025
                        19/15 Q1018=
201009220015 METAR LIRA 220015Z 02003KT 9999 FEW018 SCT025 19/16 Q1018=
201009212350 METAR LIRA 220045Z 36005KT 330V030 9999 FEW018TCU SCT025
                        19/15 Q1018=
201009212345 METAR LIRA 212345Z 03005KT 360V080 9999 FEW018TCU SCT025
                        19/15 Q1018=
201009212315 METAR LIRA 212315Z 03004KT 9999 BKN025 SCT070 19/16 Q1018=
201009212245 METAR LIRA 212245Z 04005KT 010V070 9999 FEW018TCU SCT025
                        BKN080 19/16 Q1018=
201009212215 METAR LIRA 212215Z 05006KT 020V090 9999 FEW018TCU SCT025
                        BKN080 19/17 Q1018=
201009212145 METAR LIRA 212145Z 04005KT 9999 FEW018TCU SCT025 BKN070 19/16
                        Q1018=
201009212115 METAR LIRA 212115Z 04006KT 360V090 9999 SCT025 SCT080 20/18
                        Q1018=
201009212045 METAR LIRA 212045Z 05005KT 020V100 9999 -RA SCT025 BKN070
                        19/18 Q1018=
201009212015 METAR LIRA 212015Z 04002KT 9999 -RA SCT025 BKN070 20/17 Q1018=
201009211945 METAR LIRA 211945Z 05002KT 9999 SCT025 SCT080 20/18 Q1018=
201009211915 METAR LIRA 211915Z 03002KT 9999 SCT025 SCT080 20/18 Q1018=
201009211845 METAR LIRA 211845Z 10001KT 9999 FEW017 SCT030 BKN080 20/18
                        Q1018=
201009211815 METAR LIRA 211815Z 20002KT 9999 -RA FEW016 SCT025 BKN080
                        21/18 Q1018=
201009211745 METAR LIRA 211745Z 22002KT 9999 FEW016 SCT025 BKN070 20/18
                        Q1018=
201009211715 METAR LIRA 211715Z 23002KT 9999 -RA FEW016TCU SCT025 BKN070
                        21/19 Q1018=
201009211645 METAR LIRA 211645Z 27004KT 230V300 9999 -RA FEW016TCU SCT025
                        BKN070 22/18 Q1018=
201009211615 METAR LIRA 211615Z 15005KT 250V320 9999 FEW017TCU SCT025
                        BKN070 22/18 Q1018=
201009211545 METAR LIRA 211545Z 28006KT 220V310 9999 FEW017TCU SCT060
                        23/18 Q1018=
201009211515 METAR LIRA 211515Z 27005KT 220V300 9999 FEW018 SCT080 23/18
                        Q1018=
201009211445 METAR LIRA 211445Z 24006KT 200V280 9999 FEW018 SCT080 23/19
                        Q1018=
201009211415 METAR LIRA 211415Z 23006KT 190V320 9999 SCT018 23/17 Q1018=
201009211345 METAR LIRA 211345Z 27004KT 9999 SCT018 24/18 Q1018=
201009211315 METAR LIRA 211315Z 26004KT 9999 SCT018 24/17 Q1018=
201009211245 METAR LIRA 211245Z 28004KT 9999 FEW018 24/17 Q1018=
201009211215 METAR LIRA 211215Z 30004KT 9999 FEW020 24/16 Q1018=
201009211145 METAR LIRA 211145Z 32004KT 9999 FEW020 24/16 Q1018=
201009211115 METAR LIRA 211115Z 31004KT 9999 FEW020 SCT030 23/16 Q1018=
201009211045 METAR LIRA 211045Z 33004KT 9999 FEW020 SCT030 23/16 Q1018=
201009211015 METAR LIRA 211015Z 34003KT 9999 FEW020 SCT060 23/15 Q1018=
201009210945 METAR LIRA 210945Z 36004KT 9999 FEW020 SCT060 21/14 Q1018=
201009210915 METAR LIRA 210915Z 36004KT 9999 FEW020 SCT060 21/15 Q1018=
201009210845 METAR LIRA 210845Z 03004KT 9999 FEW020 SCT060 18/13 Q1018=
201009210815 METAR LIRA 210815Z 01002KT 9999 SCT080 18/14 Q1018=
201009210745 METAR LIRA 210745Z 03003KT CAVOK 17/13 Q1017=
201009210715 METAR LIRA 210715Z 01003KT CAVOK 17/13 Q1017=
201009210615 METAR LIRA 210615Z 03003KT CAVOK 16/13 Q1017=
201009210545 METAR LIRA 210545Z 05003KT CAVOK 15/13 Q1017=
201009210515 METAR LIRA 210515Z 02002KT CAVOK 15/13 Q1017=
201009210445 METAR LIRA 210445Z 04001KT CAVOK 15/14 Q1017=
201009210415 METAR LIRA 210415Z 03003KT CAVOK 15/14 Q1017=
201009210345 METAR LIRA 210345Z 01002KT CAVOK 15/14 Q1017=
201009210315 METAR LIRA 210315Z 02003KT CAVOK 15/14 Q1017=
201009210245 METAR LIRA 210245Z 04003KT CAVOK 15/14 Q1017=
201009210215 METAR LIRA 210215Z 05003KT CAVOK 15/14 Q1017=
201009210145 METAR LIRA 210145Z 04004KT CAVOK 15/14 Q1017=
201009210115 METAR LIRA 210115Z 02003KT CAVOK 16/15 Q1017=
201009210045 METAR LIRA 210045Z 35002KT CAVOK 16/14 Q1017=
201009210015 METAR LIRA 210015Z 03002KT 9999 FEW080 16/14 Q1018=
201009202350 METAR LIRA 210045Z 35002KT CAVOK 16/14 Q1017=
201009202345 METAR LIRA 202345Z 04002KT 9999 FEW080 16/14 Q1018=
201009202315 METAR LIRA 202315Z 09002KT 9999 FEW080 17/14 Q1018=
201009202245 METAR LIRA 202245Z 09003KT 9999 FEW080 17/14 Q1018=
201009202215 METAR LIRA 202215Z 15002KT 9999 FEW080 18/15 Q1018=
201009202145 METAR LIRA 202145Z 13003KT 9999 FEW080 18/15 Q1018=
201009202115 METAR LIRA 202115Z 14003KT 9999 FEW080 SCT200 19/16 Q1017=
201009202045 METAR LIRA 202045Z 14005KT 9999 FEW080 19/16 Q1017=
201009202015 METAR LIRA 202015Z 14006KT 9999 FEW070 19/15 Q1017=
201009201945 METAR LIRA 201945Z 17004KT CAVOK 20/16 Q1017=
201009201915 METAR LIRA 201915Z 17004KT CAVOK 20/15 Q1017=
201009201845 METAR LIRA 201845Z 18004KT 9999 FEW030 20/15 Q1016=
201009201815 METAR LIRA 201815Z 21003KT 9999 FEW030 20/14 Q1016=
201009201745 METAR LIRA 201745Z 21004KT 9999 FEW030 22/14 Q1016=
201009201715 METAR LIRA 201715Z 23004KT 200V270 9999 FEW030 SCT080 22/15
                        Q1016=
201009201645 METAR LIRA 201645Z 20005KT 160V250 9999 FEW020 23/15 Q1016=
201009201615 METAR LIRA 201615Z 19006KT 150V240 9999 FEW020 24/16 Q1016=
201009201545 METAR LIRA 201545Z 22007KT 170V270 9999 FEW020 25/17 Q1016=
201009201515 METAR LIRA 201515Z 20007KT 190V260 9999 SCT020 25/17 Q1016=
201009201445 METAR LIRA 201445Z 20007KT 160V250 9999 SCT020 25/17 Q1016=
201009201415 METAR LIRA 201415Z 18008KT 140V260 9999 SCT018 FEW020TCU
                        25/17 Q1016=
201009201345 METAR LIRA 201345Z 18005KT 120V220 9999 SCT018 FEW020TCU
                        26/16 Q1016=
201009201315 METAR LIRA 201315Z 30004KT 230V350 9999 SCT018 FEW020TCU
                        27/14 Q1016=
201009201245 METAR LIRA 201245Z 22004KT 190V250 9999 SCT018 FEW020TCU
                        27/16 Q1016=
201009201215 METAR LIRA 201215Z 27004KT 210V320 9999 SCT018 27/16 Q1016=
201009201145 METAR LIRA 201145Z 31003KT 9999 SCT015 26/14 Q1016=
201009201115 METAR LIRA 201115Z 09003KT 9999 FEW015 25/15 Q1017=
201009201045 METAR LIRA 201045Z 35004KT 9999 FEW015 24/14 Q1017=
201009201015 METAR LIRA 201015Z 02004KT 310V040 9999 FEW015 23/14 Q1017=
201009200945 METAR LIRA 200945Z 02005KT 340V080 9999 FEW015 23/15 Q1017=
201009200915 METAR LIRA 200915Z 01006KT 300V110 9999 FEW015 21/13 Q1017=
201009200845 METAR LIRA 200845Z 01006KT 300V070 9999 FEW018 20/13 Q1017=
201009200815 METAR LIRA 200815Z 02007KT 320V090 9999 FEW018 19/13 Q1017=
201009200745 METAR LIRA 200745Z 04008KT 350V080 9999 FEW018 18/13 Q1017=
201009200715 METAR LIRA 200715Z 02005KT 330V070 9999 FEW018 16/12 Q1016=
201009200645 METAR LIRA 200645Z 03007KT 340V080 9999 FEW018 15/11 Q1016=
201009200615 METAR LIRA 200615Z 03006KT 350V080 9999 FEW008 14/12 Q1016=
201009200545 METAR LIRA 200545Z 03006KT 330V080 9999 FEW008 14/12 Q1015=
201009200515 METAR LIRA 200515Z 03005KT 350V050 8000 FEW005 14/13 Q1015=
201009200445 METAR LIRA 200445Z 02004KT 340V060 8000 FEW005 14/12 Q1015=
201009200415 METAR LIRA 200415Z 03005KT 310V090 8000 SCT005 14/12 Q1015=
201009200345 METAR LIRA 200345Z 02004KT 9999 SCT005 14/13 Q1015=
201009200315 METAR LIRA 200315Z 01004KT 9999 SCT005 15/13 Q1014=
201009200245 METAR LIRA 200245Z 02004KT 9999 SCT005 15/12 Q1014=
201009200215 METAR LIRA 200215Z 02005KT 320V060 9999 FEW005 SCT010 15/13
                        Q1014=
201009200145 METAR LIRA 200145Z 01006KT 320V080 9999 BKN010 15/13 Q1014=
201009200115 METAR LIRA 200115Z 36005KT 330V040 9999 SCT010 15/14 Q1014=
201009200045 METAR LIRA 200045Z 36004KT CAVOK 16/14 Q1014=
201009200015 METAR LIRA 200015Z 36004KT CAVOK 16/14 Q1014=
201009192350 METAR LIRA 200045Z 36004KT CAVOK 16/14 Q1014=
201009192345 METAR LIRA 192345Z 01005KT 310V060 CAVOK 17/14 Q1014=
201009192315 METAR LIRA 192315Z 35004KT CAVOK 17/15 Q1014=
201009192245 METAR LIRA 192245Z 35004KT CAVOK 17/15 Q1014=
201009192215 METAR LIRA 192215Z 36005KT CAVOK 18/14 Q1014=
201009192145 METAR LIRA 192145Z 36004KT CAVOK 18/15 Q1014=
201009192115 METAR LIRA 192115Z 36005KT 330V030 CAVOK 18/15 Q1014=
201009192045 METAR LIRA 192045Z 02004KT CAVOK 18/16 Q1014=
201009192015 METAR LIRA 192015Z 03003KT CAVOK 18/16 Q1014=
201009191945 METAR LIRA 191945Z 36004KT CAVOK 20/17 Q1013=
201009191915 METAR LIRA 191915Z 02002KT 9999 FEW017 20/17 Q1013=
201009191845 METAR LIRA 191845Z 32002KT 9999 FEW017 20/18 Q1012=
201009191815 METAR LIRA 191815Z 00000KT 9999 FEW016 FEW017TCU 21/19 Q1012=
201009191745 METAR LIRA 191745Z 00000KT 9999 FEW016 FEW017TCU SCT025 21/19
                        Q1012 RERA=
201009191715 METAR LIRA 191715Z 17001KT 9999 FEW016 SCT017CB 21/19 Q1012
                        RERA=
201009191645 METAR LIRA 191645Z 33010KT 300V020 9999 RA FEW016 FEW017CB
                        SCT025 22/19 Q1012=
201009191615 METAR COR LIRA 191615Z 23007KT 180V270 9999 FEW016 FEW017CB
                        SCT025 24/18 Q1011=
201009191545 METAR LIRA 191545Z 24007KT 170V300 9999 FEW017 FEW018TCU
                        SCT025 24/17 Q1011=
201009191515 METAR LIRA 191515Z 24008KT 190V290 9999 FEW017 FEW018TCU
                        SCT030 24/17 Q1011=
201009191445 METAR LIRA 191445Z 23008KT 160V270 9999 FEW015 FEW017TCU
                        SCT025 24/16 Q1011=
201009191415 METAR LIRA 191415Z 23008KT 160V280 9999 FEW015 FEW017TCU
                        SCT025 25/17 Q1011=
201009191345 METAR LIRA 191345Z 21008KT 160V250 9999 FEW015 SCT025 25/18
                        Q1011=
201009191315 METAR LIRA 191315Z 21007KT 150V270 9999 FEW015 SCT023 25/17
                        Q1011=
201009191245 METAR LIRA 191245Z 22007KT 160V300 9999 FEW015 BKN023 24/17
                        Q1011=
201009191145 METAR LIRA 191145Z 22007KT 160V270 9999 FEW015 BKN023 23/17
                        Q1011=
201009191115 METAR LIRA 191115Z 23007KT 180V300 9999 SCT015 SCT023 23/14
                        Q1011=
201009191045 METAR LIRA 191045Z 22005KT 140V260 9999 FEW015 BKN023 23/18
                        Q1011=
201009191015 METAR LIRA 191015Z 14008KT 090V180 9999 FEW015 SCT023 24/19
                        Q1011=
201009190945 METAR LIRA 190945Z 12006KT 080V150 9999 SCT015 SCT023 24/18
                        Q1011=
201009190915 METAR LIRA 190915Z 12005KT 9999 SCT015 FEW017TCU BKN023 22/19
                        Q1011=
201009190845 METAR LIRA 190845Z 18006KT 150V210 9999 SCT015 BKN023 23/20
                        Q1011=
201009190815 METAR LIRA 190815Z 18005KT 160V240 9999 FEW018 BKN025 22/18
                        Q1011=
201009190745 METAR LIRA 190745Z 19005KT 140V240 9999 FEW018 SCT025 22/18
                        Q1010=
201009190715 METAR LIRA 190715Z 17006KT 140V210 9999 FEW015 BKN030 22/18
                        Q1010=
201009190645 METAR LIRA 190645Z 18005KT 140V210 9999 FEW015 BKN030 21/19
                        Q1010=
201009190615 METAR LIRA 190615Z 20005KT 160V240 9999 FEW015 FEW017CB BKN023
                        20/17 Q1010=
201009190545 METAR LIRA 190545Z 21004KT 9999 FEW015 FEW017CB BKN023 20/17
                        Q1010=
201009190515 METAR LIRA 190515Z 22005KT 180V290 9999 FEW015 FEW017CB BKN023
                        20/16 Q1010=
201009190445 METAR LIRA 190445Z 23006KT 190V260 9999 FEW015 FEW017CB BKN023
                        20/16 Q1010=
201009190415 METAR LIRA 190415Z 25007KT 9999 FEW015 SCT025 20/16 Q1010=
201009190345 METAR LIRA 190345Z 24005KT 200V330 9999 FEW015 SCT025 22/18
                        Q1010=
201009190315 METAR LIRA 190315Z 23010KT 180V330 9999 FEW015 SCT025 22/18
                        Q1009=
201009190245 METAR LIRA 190245Z 22010KT 180V260 9999 VCTS FEW014CB SCT025
                        23/20 Q1009=
201009190215 METAR LIRA 190215Z 18010KT 140V230 9999 VCTS FEW014CB SCT020
                        23/22 Q1009=
201009190145 METAR LIRA 190145Z 18012KT 130V230 9999 VCTS FEW014CB SCT025
                        23/21 Q1009=
201009190115 METAR LIRA 190115Z 16013KT 140V210 9999 FEW014CB SCT025 23/22
                        Q1009=
201009190045 METAR LIRA 190045Z 16014KT 140V200 9999 FEW014 SCT060 24/22
                        Q1009=
201009190015 METAR LIRA 190015Z 17013KT 120V240 9999 SCT020 SCT025 24/21
                        Q1009=
201009182350 METAR LIRA 190045Z 16014KT 140V200 9999 FEW014 SCT060 24/22
                        Q1009=
201009182345 METAR LIRA 182345Z 16017KT 130V190 9999 SCT010 SCT015 24/21
                        Q1009=
201009182315 METAR LIRA 182315Z 15019KT 9999 SCT010 SCT015 23/20 Q1009=
201009182245 METAR LIRA 182245Z 15021KT 9999 FEW013 SCT018 23/20 Q1009=
201009182215 METAR LIRA 182215Z 14022KT 9999 FEW013 SCT018 23/20 Q1009=
201009182145 METAR LIRA 182145Z 15019KT 9999 FEW010 SCT015 23/20 Q1010=
201009182115 METAR LIRA 182115Z 15020KT 9999 FEW010 SCT015 23/20 Q1010=
201009182045 METAR LIRA 182045Z 15021KT 9999 FEW010 SCT015 23/20 Q1010=
201009182015 METAR LIRA 182015Z 15019KT 120V180 9999 FEW010 SCT015 23/20
                        Q1011=
201009181945 METAR LIRA 181945Z 15016KT 120V200 9999 FEW010 SCT015 22/20
                        Q1011=
201009181915 METAR LIRA 181915Z 16012KT 110V190 9999 FEW010 22/20 Q1011=
201009181845 METAR LIRA 181845Z 14010KT 090V190 9999 SCT010 22/20 Q1011=
201009181815 METAR LIRA 181815Z 16010KT 120V210 9999 SCT014 23/21 Q1011=
201009181745 METAR LIRA 181745Z 16011KT 120V190 9999 FEW014 23/20 Q1011=
201009181715 METAR LIRA 181715Z 15010KT 120V210 9999 FEW014 SCT060 23/20
                        Q1011=
201009181645 METAR LIRA 181645Z 15011KT 100V180 9999 FEW014 SCT080 24/19
                        Q1011=
201009181615 METAR LIRA 181615Z 14015KT 100V170 9999 FEW014 25/19 Q1010=
201009181545 METAR LIRA 181545Z 14017KT 110V200 9999 FEW014 24/20 Q1011=
201009181515 METAR LIRA 181515Z 14017KT 9999 FEW014 SCT030 BKN070 24/20
                        Q1012=
201009181445 METAR LIRA 181445Z 14014KT 110V200 9999 FEW014 BKN030 24/21
                        Q1012=
201009181415 METAR LIRA 181415Z 15015KT 110V180 8000 -RA FEW014 BKN025
                        22/20 Q1012=
201009181345 METAR LIRA 181345Z 15013KT 8000 -RA FEW014 BKN025 24/21 Q1014=
201009181315 METAR LIRA 181315Z 18011KT 130V240 8000 -RA FEW014 BKN025
                        25/20 Q1014=
201009181245 METAR LIRA 181245Z 15013KT 130V220 9999 -RA FEW014 BKN025
                        25/20 Q1014=
201009181215 METAR LIRA 181215Z 16015KT 120V210 9999 -RA FEW014 BKN025
                        25/20 Q1014=
201009181145 METAR LIRA 181145Z 16013KT 120V210 9999 FEW016 BKN030 27/20
                        Q1015=
201009181115 METAR LIRA 181115Z 16012KT 120V210 9999 FEW016 BKN030 26/19
                        Q1015=
201009181045 METAR LIRA 181045Z 16012KT 120V210 9999 FEW016 BKN030 26/20
                        Q1015=
201009181015 METAR LIRA 181015Z 15014KT 9999 FEW016 BKN030 26/19 Q1015=
201009180945 METAR LIRA 180945Z 15013KT 120V210 9999 FEW016 SCT030 26/19
                        Q1015=
201009180915 METAR LIRA 180915Z 15016KT 120V210 9999 FEW016 SCT035 26/19
                        Q1015=
201009180845 METAR LIRA 180845Z 13015KT 090V190 9999 FEW016 SCT035 26/19
                        Q1015=
201009180815 METAR LIRA 180815Z 15012KT 100V180 9999 FEW016 BKN030 25/19
                        Q1015=
201009180745 METAR LIRA 180745Z 15011KT 120V210 9999 FEW016 SCT030 25/19
                        Q1015=
201009180715 METAR LIRA 180715Z 15014KT 090V180 9999 FEW016 24/19 Q1014=
201009180645 METAR LIRA 180645Z 14013KT 9999 FEW016 SCT023 24/19 Q1014=
201009180615 METAR LIRA 180615Z 14012KT 090V180 9999 FEW016 23/19 Q1014=
201009180545 METAR LIRA 180545Z 13011KT 9999 FEW016 SCT080 22/19 Q1014=
201009180515 METAR LIRA 180515Z 13010KT 090V170 9999 FEW016 SCT080 22/19
                        Q1014=
201009180445 METAR LIRA 180445Z 12008KT 090V170 9999 FEW016 22/19 Q1014=
201009180415 METAR LIRA 180415Z 14013KT 090V180 9999 FEW018 22/20 Q1014=
201009180345 METAR LIRA 180345Z 13011KT 110V170 9999 FEW018 22/20 Q1014=
201009180315 METAR LIRA 180315Z 15011KT 110V180 9999 FEW018 22/20 Q1014=
201009180245 METAR LIRA 180245Z 15009KT 110V190 9999 FEW018 SCT025 22/20
                        Q1014=
201009180215 METAR LIRA 180215Z 14010KT 9999 FEW018 SCT025 22/20 Q1014=
201009180145 METAR LIRA 180145Z 15009KT 120V180 9999 FEW018 SCT025 22/20
                        Q1014=
201009180115 METAR LIRA 180115Z 14009KT 9999 FEW018 SCT025 23/19 Q1014=
201009180045 METAR LIRA 180045Z 14010KT 100V170 9999 FEW018 SCT025 23/20
                        Q1014=
201009180015 METAR LIRA 180015Z 13010KT 100V160 9999 FEW018 22/20 Q1015=
201009172350 METAR LIRA 180045Z 14010KT 100V170 9999 FEW018 SCT025 23/20
                        Q1014=
201009172345 METAR LIRA 172345Z 14009KT 100V170 9999 FEW018 22/20 Q1015=
201009172315 METAR LIRA 172315Z 14010KT 110V170 9999 FEW018 22/20 Q1015=
201009172245 METAR LIRA 172245Z 15010KT 110V200 9999 FEW018 22/20 Q1015=
201009172215 METAR LIRA 172215Z 14010KT 9999 FEW018 22/20 Q1015=
201009172145 METAR LIRA 172145Z 13008KT 110V180 CAVOK 22/20 Q1015=
201009172115 METAR LIRA 172115Z 14010KT 120V180 CAVOK 22/20 Q1015=
201009172045 METAR LIRA 172045Z 14009KT 110V180 CAVOK 22/20 Q1015=
201009172015 METAR LIRA 172015Z 14011KT 110V180 CAVOK 22/20 Q1015=
201009171945 METAR LIRA 171945Z 14012KT CAVOK 23/20 Q1015=
201009171915 METAR LIRA 171915Z 15011KT 100V180 CAVOK 23/19 Q1015=
201009171845 METAR LIRA 171845Z 17009KT 130V220 CAVOK 23/19 Q1015=
201009171815 METAR LIRA 171815Z 16010KT 130V220 CAVOK 23/19 Q1014=
201009171745 METAR LIRA 171745Z 16010KT 130V200 CAVOK 23/19 Q1014=
201009171715 METAR LIRA 171715Z 16013KT 9999 FEW018 24/19 Q1014=
201009171645 METAR LIRA 171645Z 16013KT 130V200 9999 FEW018 24/19 Q1014=
201009171615 METAR LIRA 171615Z 16014KT 140V200 9999 FEW018 24/19 Q1015=
201009171545 METAR LIRA 171545Z 15015KT 120V210 9999 FEW018 26/18 Q1014=
201009171515 METAR LIRA 171515Z 17011KT 110V220 9999 FEW018 26/13 Q1014=
201009171445 METAR LIRA 171445Z 19014KT 150V220 9999 FEW018 26/14 Q1014=
201009171415 METAR LIRA 171415Z 17012KT 110V240 9999 FEW018 27/14 Q1015=
201009171345 METAR LIRA 171345Z 17012KT 130V220 9999 FEW018 27/15 Q1015=
201009171315 METAR LIRA 171315Z 16014KT 120V220 9999 FEW018 27/15 Q1015=
201009171245 METAR LIRA 171245Z 17012KT 120V210 9999 FEW018 27/14 Q1015=
201009171215 METAR LIRA 171215Z 17012KT 120V230 9999 FEW017 28/15 Q1015=
201009171145 METAR LIRA 171145Z 18012KT 130V240 9999 FEW017 27/13 Q1015=
201009171115 METAR LIRA 171115Z 18012KT 140V240 9999 FEW016 27/13 Q1015=
201009171045 METAR LIRA 171045Z 17014KT 130V200 9999 FEW016 26/15 Q1015=
201009171015 METAR LIRA 171015Z 15014KT 9999 FEW016 25/15 Q1015=
201009170945 METAR LIRA 170945Z 15015KT 110V180 9999 FEW016 26/16 Q1015=
201009170915 METAR LIRA 170915Z 16013KT 130V200 9999 FEW016 25/17 Q1016=
201009170845 METAR LIRA 170845Z 16014KT 120V200 9999 SCT016 SCT200 24/17
                        Q1015=
201009170815 METAR LIRA 170815Z 15014KT 110V200 9999 FEW016 SCT023 24/18
                        Q1015=
201009170745 METAR LIRA 170745Z 16013KT 120V200 9999 FEW016 23/18 Q1015=
201009170715 METAR LIRA 170715Z 15011KT 120V200 9999 SCT016 23/18 Q1015=
201009170645 METAR LIRA 170645Z 14012KT 110V180 9999 FEW016 22/19 Q1015=
201009170615 METAR LIRA 170615Z 15010KT 090V180 9999 FEW014 21/19 Q1015=
201009170545 METAR LIRA 170545Z 16010KT 9999 FEW014 21/18 Q1014=
201009170515 METAR LIRA 170515Z 02009KT 130V190 9999 FEW014 20/19 Q1014=
201009170445 METAR LIRA 170445Z 14006KT 9999 FEW014 18/16 Q1014=
201009170415 METAR LIRA 170415Z 35002KT 9999 FEW070 17/14 Q1014=
201009170345 METAR LIRA 170345Z 18002KT 9999 FEW080 16/13 Q1014=
201009170315 METAR LIRA 170315Z 11002KT 9999 FEW080 16/13 Q1014=
201009170245 METAR LIRA 170245Z 09003KT CAVOK 16/13 Q1015=
201009170215 METAR LIRA 170215Z 09003KT CAVOK 16/13 Q1015=
201009170145 METAR LIRA 170145Z 00000KT CAVOK 17/14 Q1015=
201009170115 METAR LIRA 170115Z 09001KT CAVOK 17/15 Q1015=
201009170045 METAR LIRA 170045Z 14003KT CAVOK 17/15 Q1016=
201009170015 METAR LIRA 170015Z 16003KT CAVOK 18/15 Q1016=
201009162350 METAR LIRA 170045Z 14003KT CAVOK 17/15 Q1016=
201009162345 METAR LIRA 162345Z 12003KT CAVOK 17/13 Q1016=
201009162315 METAR LIRA 162315Z 17004KT CAVOK 19/14 Q1016=
201009162245 METAR LIRA 162245Z 14004KT CAVOK 17/13 Q1016=
201009162215 METAR LIRA 162215Z 05004KT CAVOK 17/13 Q1016=
201009162145 METAR LIRA 162145Z 14002KT CAVOK 18/15 Q1016=
201009162115 METAR LIRA 162115Z 00000KT CAVOK 19/15 Q1016=
201009162045 METAR LIRA 162045Z 20002KT CAVOK 19/15 Q1016=
201009162015 METAR LIRA 162015Z 00000KT CAVOK 19/15 Q1015=
201009161945 METAR LIRA 161945Z 16002KT CAVOK 20/15 Q1015=
201009161915 METAR LIRA 161915Z 13004KT CAVOK 19/15 Q1015=
201009161845 METAR LIRA 161845Z 13004KT CAVOK 20/15 Q1015=
201009161815 METAR LIRA 161815Z 17004KT CAVOK 22/15 Q1015=
201009161745 METAR LIRA 161745Z 20004KT CAVOK 23/15 Q1015=
201009161715 METAR LIRA 161715Z 22005KT 180V250 9999 FEW080 23/15 Q1015=
201009161645 METAR LIRA 161645Z 21005KT 150V260 9999 FEW018 23/14 Q1015=
201009161615 METAR LIRA 161615Z 19008KT 110V230 9999 FEW018 24/14 Q1015=
201009161545 METAR LIRA 161545Z 19009KT 140V250 9999 FEW018 25/16 Q1015=
201009161515 METAR LIRA 161515Z 18009KT 150V220 9999 SCT018 25/17 Q1015=
201009161445 METAR LIRA 161445Z 22009KT 170V320 9999 SCT017 FEW018TCU
                        25/17 Q1015=
201009161415 METAR LIRA 161415Z 22010KT 150V290 9999 SCT017 FEW018TCU
                        26/17 Q1015=
201009161345 METAR LIRA 161345Z 19009KT 110V250 9999 SCT017 FEW018TCU
                        26/17 Q1015=
201009161315 METAR LIRA 161315Z 22008KT 160V300 9999 SCT017 FEW018TCU
                        26/17 Q1015=
201009161245 METAR LIRA 161245Z 21010KT 150V260 9999 SCT018 FEW020TCU
                        26/17 Q1015=
201009161215 METAR LIRA 161215Z 20010KT 150V250 9999 SCT018 FEW020TCU
                        26/17 Q1015=
201009161145 METAR LIRA 161145Z 21008KT 160V260 9999 SCT018 FEW020TCU
                        25/15 Q1015=
201009161115 METAR LIRA 161115Z 22010KT 170V270 9999 BKN018 FEW020TCU
                        25/16 Q1015=
201009161045 METAR LIRA 161045Z 20007KT 100V280 9999 SCT018 FEW020TCU
                        25/16 Q1015=
201009161015 METAR LIRA 161015Z 18009KT 140V260 9999 SCT018 FEW020TCU
                        25/16 Q1015=
201009160945 METAR LIRA 160945Z 17011KT 140V220 9999 FEW018TCU SCT020
                        25/16 Q1015=
201009160915 METAR LIRA 160915Z 19010KT 150V230 9999 FEW018TCU SCT020
                        25/17 Q1015=
201009160845 METAR LIRA 160845Z 18007KT 130V230 9999 SCT020 24/16 Q1015=
201009160815 METAR LIRA 160815Z 17006KT 130V230 9999 SCT020 24/17 Q1015=
201009160745 METAR LIRA 160745Z 15005KT 110V210 9999 FEW020 23/17 Q1015=
201009160715 METAR LIRA 160715Z 11005KT 9999 FEW080 22/16 Q1015=
201009160645 METAR LIRA 160645Z 11004KT 9999 FEW020 20/15 Q1015=
201009160615 METAR LIRA 160615Z 11004KT 9999 FEW080 20/16 Q1015=
201009160545 METAR LIRA 160545Z 11003KT CAVOK 17/15 Q1015=
201009160515 METAR LIRA 160515Z 14004KT CAVOK 16/13 Q1015=
201009160445 METAR LIRA 160445Z 12003KT CAVOK 16/12 Q1015=
201009160415 METAR LIRA 160415Z 12002KT CAVOK 17/13 Q1015=
201009160345 METAR LIRA 160345Z 10005KT CAVOK 15/11 Q1016=
201009160315 METAR LIRA 160315Z 11004KT CAVOK 15/11 Q1016=
201009160245 METAR LIRA 160245Z 10003KT CAVOK 15/11 Q1016=
201009160215 METAR LIRA 160215Z 13003KT CAVOK 16/11 Q1016=
201009160145 METAR LIRA 160145Z 13002KT CAVOK 16/13 Q1016=
201009160115 METAR LIRA 160115Z 12004KT CAVOK 16/14 Q1016=
201009160045 METAR LIRA 160045Z 11003KT CAVOK 16/14 Q1016=
201009160015 METAR LIRA 160015Z 11002KT CAVOK 16/15 Q1016=
201009152350 METAR LIRA 160045Z 11003KT CAVOK 16/14 Q1016=
201009152345 METAR LIRA 152345Z 11004KT CAVOK 17/15 Q1016=
201009152315 METAR LIRA 152315Z 15005KT CAVOK 17/16 Q1017=
201009152245 METAR LIRA 152245Z 15005KT CAVOK 17/16 Q1017=
201009152215 METAR LIRA 152215Z 17003KT CAVOK 18/16 Q1017=
201009152145 METAR LIRA 152145Z 17003KT CAVOK 18/17 Q1017=
201009152115 METAR LIRA 152115Z 16003KT CAVOK 18/17 Q1017=
201009152045 METAR LIRA 152045Z 14004KT CAVOK 19/17 Q1016=
201009151945 METAR LIRA 151945Z 20003KT CAVOK 20/18 Q1016=
201009151915 METAR LIRA 151915Z 20003KT CAVOK 20/18 Q1016=
201009151745 METAR LIRA 151745Z 23005KT CAVOK 21/17 Q1016=
201009151515 METAR LIRA 151515Z 21008KT 160V270 9999 FEW018 25/16 Q1016=
201009151445 METAR LIRA 151445Z 20006KT 130V270 9999 FEW018 FEW020CB 25/16
                        Q1017=
201009151415 METAR LIRA 151415Z 18010KT 150V230 9999 FEW018 FEW020CB 25/16
                        Q1017=
201009151345 METAR LIRA 151345Z 20009KT 130V250 9999 FEW018 FEW020CB 25/16
                        Q1017=
201009151315 METAR LIRA 151315Z 22008KT 150V270 9999 FEW018 FEW020CB 26/16
                        Q1018=
201009151245 METAR LIRA 151245Z 22010KT 150V280 9999 SCT018 FEW020CB 26/16
                        Q1018=
201009151215 METAR LIRA 151215Z 20010KT 160V270 9999 SCT018 FEW020CB 26/16
                        Q1018=
201009151145 METAR LIRA 151145Z 20009KT 150V260 9999 SCT018 FEW020CB 26/15
                        Q1018=
201009151115 METAR LIRA 151115Z 19008KT 150V240 9999 SCT020 26/15 Q1018=
201009151045 METAR LIRA 151045Z 21007KT 130V280 9999 SCT020 26/16 Q1018=
201009151015 METAR LIRA 151015Z 18006KT 120V240 9999 SCT020 26/15 Q1018=
201009150945 METAR LIRA 150945Z 15006KT 130V240 9999 SCT018 26/15 Q1018=
201009150915 METAR LIRA 150915Z 18006KT 150V240 9999 FEW018 SCT080 25/15
                        Q1018=
201009150845 METAR LIRA 150845Z 02002KT 9999 FEW018 24/14 Q1018=
201009150815 METAR LIRA 150815Z 03004KT 9999 FEW080 23/14 Q1018=
201009150745 METAR LIRA 150745Z 04004KT 9999 FEW080 21/13 Q1018=
201009150715 METAR LIRA 150715Z 04005KT 9999 FEW018 20/14 Q1018=
201009150645 METAR LIRA 150645Z 04005KT 350V100 9999 FEW018 SCT080 18/13
                        Q1018=
201009150615 METAR LIRA 150615Z 04003KT 9999 FEW018 17/14 Q1017=
201009150545 METAR LIRA 150545Z 04003KT 9999 FEW080 15/13 Q1017=
201009150515 METAR LIRA 150515Z 04002KT 9999 FEW080 15/12 Q1017=
201009150445 METAR LIRA 150445Z 02002KT 9999 FEW018 15/12 Q1017=
201009150415 METAR LIRA 150415Z 33002KT CAVOK 15/13 Q1017=
201009150345 METAR LIRA 150345Z 05003KT CAVOK 15/13 Q1017=
201009150315 METAR LIRA 150315Z 03002KT CAVOK 15/13 Q1017=
201009150245 METAR LIRA 150245Z 02002KT CAVOK 16/13 Q1017=
201009150215 METAR LIRA 150215Z 02003KT CAVOK 17/14 Q1017=
201009150145 METAR LIRA 150145Z 01003KT CAVOK 17/13 Q1017=
201009150115 METAR LIRA 150115Z 04003KT CAVOK 16/13 Q1017=
201009150045 METAR LIRA 150045Z 07002KT CAVOK 16/14 Q1017=
201009150015 METAR LIRA 150015Z 04003KT CAVOK 17/14 Q1017=
201009142350 METAR LIRA 150045Z 07002KT CAVOK 16/14 Q1017=
201009142345 METAR LIRA 142345Z 01003KT CAVOK 17/14 Q1017=
201009142315 METAR LIRA 142315Z 04004KT CAVOK 17/13 Q1017=
201009142245 METAR LIRA 142245Z 08001KT CAVOK 18/13 Q1017=
201009142215 METAR LIRA 142215Z 00000KT CAVOK 19/13 Q1017=
201009142145 METAR LIRA 142145Z 08005KT CAVOK 19/13 Q1017=
201009142115 METAR LIRA 142115Z 10007KT CAVOK 19/13 Q1017=
201009142045 METAR LIRA 142045Z 11006KT CAVOK 20/13 Q1017=
201009142015 METAR LIRA 142015Z 10007KT CAVOK 20/15 Q1017=
201009141945 METAR LIRA 141945Z 12006KT CAVOK 20/17 Q1017=
201009141915 METAR LIRA 141915Z 16006KT 110V180 9999 FEW030 21/17 Q1017=
201009141845 METAR LIRA 141845Z 16006KT 9999 FEW030 22/15 Q1017=
201009141815 METAR LIRA 141815Z 17006KT 9999 FEW030 22/14 Q1017=
201009141745 METAR LIRA 141745Z 17006KT 9999 FEW030 22/14 Q1017=
201009141715 METAR LIRA 141715Z 19005KT 260V220 9999 FEW020 23/14 Q1017=
201009141645 METAR LIRA 141645Z 19007KT 150V230 9999 FEW020CB SCT070 23/14
                        Q1017=
201009141615 METAR LIRA 141615Z 18006KT 140V220 9999 FEW020CB SCT070 23/14
                        Q1017=
201009141545 METAR LIRA 141545Z 22007KT 180V260 9999 FEW018 FEW020CB SCT030
                        22/14 Q1017=
201009141515 METAR LIRA 141515Z 20007KT 150V270 9999 FEW018 FEW020CB SCT030
                        23/14 Q1017 RETS=
201009141445 METAR LIRA 141445Z 20007KT 150V260 9999 FEW017 FEW018CB SCT030
                        22/15 Q1017 RETS=
201009141415 METAR LIRA 141415Z 24008KT 190V290 9999 -TSRA FEW017 FEW018CB
                        SCT027 22/15 Q1017=
201009141345 METAR LIRA 141345Z 22008KT 140V260 9999 -RA FEW017 FEW018TCU
                        BKN027 25/13 Q1016=
201009141315 METAR LIRA 141315Z 16010KT 140V220 9999 FEW018 FEW020TCU
                        BKN030 27/11 Q1017=
201009141245 METAR LIRA 141245Z 35003KT 9999 FEW018 FEW020TCU SCT030 27/10
                        Q1017=
201009141215 METAR LIRA 141215Z 15003KT 9999 FEW018 BKN030 28/10 Q1017=
201009141200 METAR LIRA INTER=
201009141145 METAR LIRA 141145Z 30006KT 230V030 9999 FEW018 SCT027 28/10
                        Q1017=
201009141115 METAR LIRA 141115Z 05004KT 290V120 9999 FEW020 FEW024TCU
                        28/10 Q1017=
201009141045 METAR LIRA 141045Z 36003KT 320V050 9999 FEW020 27/10 Q1017=
201009141015 METAR LIRA 141015Z 01004KT 270V040 9999 FEW020 25/10 Q1017=
201009140945 METAR LIRA 140945Z 32007KT 290V010 9999 FEW070 25/12 Q1017=
201009140915 METAR LIRA 140915Z 36007KT 290V060 9999 FEW070 24/13 Q1017=
201009140845 METAR LIRA 140845Z 01004KT 340V070 9999 FEW070 23/14 Q1017=
201009140815 METAR LIRA 140815Z 02005KT 330V060 9999 FEW018 22/15 Q1017=
201009140800 METAR LIRA CONTUS CB NE S-NW=
201009140745 METAR LIRA 140745Z 02006KT 320V100 9999 FEW020 21/15 Q1017=
201009140715 METAR LIRA 140715Z 01007KT 300V060 9999 FEW018 SCT080 19/15
                        Q1017=
201009140700 LIRA INTER=
201009140645 METAR LIRA 140645Z 02005KT 330V060 9999 FEW018 FEW022TCU
                        SCT070 18/17 Q1016=
201009140615 METAR LIRA 140615Z 05006KT 350V060 9999 FEW018 SCT070 16/15
                        Q1016=
201009140600 METAR LIRA INTER CB ALL QUADS=
201009140545 METAR LIRA 140545Z 03003KT 9999 FEW018 SCT070 16/15 Q1016=
201009140515 METAR LIRA 140515Z 04005KT 9999 FEW018 SCT070 16/15 Q1016=
201009140445 METAR LIRA 140445Z 04003KT 9999 FEW020 SCT070 17/15 Q1015=
201009140415 METAR LIRA 140415Z 28001KT 9999 FEW030 SCT070 18/16 Q1015=
201009140345 METAR LIRA 140345Z 16005KT 9999 FEW020 SCT060 18/16 Q1015=
201009140315 METAR LIRA 140315Z 11002KT 9999 FEW015 SCT060 17/15 Q1015=
201009140245 METAR LIRA 140245Z 03002KT 9999 FEW018 SCT060 17/15 Q1015=
201009140215 METAR LIRA 140215Z 02005KT 9999 FEW060 17/16 Q1015=
201009140145 METAR LIRA 140145Z 03006KT 340V090 CAVOK 17/16 Q1015=
201009140115 METAR LIRA 140115Z 02005KT 330V060 9999 FEW070 17/16 Q1015=
201009140045 METAR LIRA 140045Z 01004KT 320V020 9999 FEW070 18/17 Q1015=
201009140015 METAR LIRA 140015Z 04004KT 9999 FEW025 SCT070 18/16 Q1015=
201009132350 METAR LIRA 140045Z 01004KT 320V020 9999 FEW070 18/17 Q1015=
201009132345 METAR LIRA 132345Z 04004KT 9999 FEW020 SCT070 19/16 Q1015=
201009132315 METAR LIRA 132315Z 35007KT 300V060 9999 SCT018 FEW020TCU
                        SCT060 19/16 Q1015=
201009132245 METAR LIRA 132245Z 32007KT 290V360 9999 FEW018 FEW020TCU
                        SCT060 19/16 Q1015=
201009132215 METAR LIRA 132215Z 25003KT 9999 FEW010 SCT060 20/17 Q1015=
201009132145 METAR LIRA 132145Z 07003KT 9999 FEW020 SCT060 20/17 Q1015=
201009132115 METAR LIRA 132115Z 14003KT 9999 FEW020 SCT060 20/17 Q1015=
201009132045 METAR LIRA 132045Z 13003KT 9999 FEW015 SCT060 21/18 Q1015=
201009132015 METAR LIRA 132015Z 12004KT 9999 FEW025 SCT060 20/17 Q1015=
201009131945 METAR LIRA 131945Z 14005KT 9999 FEW025 SCT060 21/18 Q1015=
201009131915 METAR LIRA 131915Z 17005KT 9999 FEW018 FEW020CB SCT080 21/18
                        Q1015=
201009131845 METAR LIRA 131845Z 19005KT 150V220 9999 FEW018 FEW020CB SCT080
                        21/17 Q1015=
201009131815 METAR LIRA 131815Z 19006KT 150V220 9999 FEW018 FEW020CB 21/17
                        Q1015=
201009131745 METAR LIRA 131745Z 22006KT 180V260 9999 FEW018 FEW020CB 21/17
                        Q1015=
201009131715 METAR LIRA 131715Z 19010KT 140V240 9999 FEW018 FEW020CB 22/17
                        Q1015=
201009131645 METAR LIRA 131645Z 19009KT 160V240 9999 FEW018 FEW020TCU
                        23/17 Q1015=
201009131615 METAR LIRA 131615Z 20010KT 150V240 9999 FEW018 FEW020TCU
                        24/17 Q1015=
201009131545 METAR LIRA 131545Z 19010KT 150V240 9999 FEW018 FEW020TCU
                        24/17 Q1015=
201009131515 METAR LIRA 131515Z 19012KT 150V260 9999 FEW018 FEW020TCU
                        24/17 Q1015=
201009131445 METAR LIRA 131445Z 19009KT 130V240 9999 FEW015 FEW020TCU
                        25/17 Q1015=
201009131415 METAR LIRA 131415Z 20010KT 120V240 9999 FEW015 FEW020TCU
                        26/17 Q1015=
201009131345 METAR LIRA 131345Z 19009KT 140V240 9999 FEW015 FEW020TCU
                        26/17 Q1015=
201009131315 METAR LIRA 131315Z 22010KT 160V260 9999 FEW015 26/16 Q1015=
201009131245 METAR LIRA 131245Z 21008KT 160V280 9999 FEW015 27/15 Q1015=
201009131215 METAR LIRA 131215Z 20007KT 150V270 9999 FEW015 27/15 Q1016=
201009131145 METAR LIRA 131145Z 20006KT 140V250 9999 FEW015 27/16 Q1016=
201009131115 METAR LIRA 131115Z 19004KT 150V270 9999 FEW015 27/12 Q1016=
201009131045 METAR LIRA 131045Z 22009KT 150V300 9999 FEW015 27/13 Q1016=
201009131015 METAR LIRA 131015Z 25005KT 210V310 9999 FEW015 27/14 Q1016=
201009130945 METAR LIRA 130945Z 19007KT 130V250 9999 FEW015 27/14 Q1016=
201009130915 METAR COR LIRA 130915Z 19006KT 120V230 9999 FEW015 30/17
                        Q1017=
201009130845 METAR LIRA 130845Z 05004KT 9999 FEW015 25/16 Q1017=
201009130815 METAR LIRA 130815Z 31001KT 9999 FEW015 22/15 Q1017=
201009130800 METAR LIRA INT CB AQ=
201009130745 METAR LIRA 130745Z 01002KT CAVOK 21/15 Q1017=
201009130715 METAR LIRA 130715Z 33002KT CAVOK 19/14 Q1016=
201009130645 METAR LIRA 130645Z 34003KT CAVOK 18/14 Q1016=
201009130615 METAR LIRA 130615Z 02002KT CAVOK 16/13 Q1016=
201009130545 METAR LIRA 130545Z 05003KT CAVOK 16/13 Q1016=
201009130515 METAR LIRA 130515Z 05002KT CAVOK 15/13 Q1016=
201009130445 METAR LIRA 130445Z 05004KT CAVOK 15/12 Q1016=
201009130415 METAR LIRA 130415Z 03003KT CAVOK 15/13 Q1016=
201009130345 METAR LIRA 130345Z 05002KT CAVOK 15/13 Q1016=
201009130315 METAR LIRA 130315Z 04002KT CAVOK 15/13 Q1017=
201009130245 METAR LIRA 130245Z 01003KT CAVOK 16/13 Q1017=
201009130215 METAR LIRA 130215Z 03001KT CAVOK 16/13 Q1017=
201009130145 METAR LIRA 130145Z 03001KT CAVOK 16/13 Q1017=
201009130115 METAR LIRA 130115Z 06004KT CAVOK 17/13 Q1017=
201009130045 METAR LIRA 130045Z 06004KT CAVOK 17/13 Q1017=
201009130015 METAR LIRA 130015Z 09003KT CAVOK 17/12 Q1017=
201009122350 METAR LIRA 130045Z 06004KT CAVOK 17/13 Q1017=
201009122345 METAR LIRA 122345Z 09003KT CAVOK 17/13 Q1017=
201009122315 METAR LIRA 122315Z 09002KT CAVOK 17/13 Q1017=
201009122245 METAR LIRA 122245Z 09006KT CAVOK 18/13 Q1016=
201009122215 METAR LIRA 122215Z 08005KT CAVOK 18/14 Q1016=
201009122145 METAR LIRA 122145Z 15002KT CAVOK 19/16 Q1016=
201009122115 METAR LIRA 122115Z 16002KT CAVOK 20/17 Q1016=
201009122045 METAR LIRA 122045Z 19005KT CAVOK 21/17 Q1016=
201009122015 METAR LIRA 122015Z 20003KT CAVOK 22/16 Q1016=
201009121945 METAR LIRA 121945Z 18002KT CAVOK 22/16 Q1016=
201009121915 METAR LIRA 121915Z 16003KT 9999 FEW070 22/16 Q1015=
201009121845 METAR LIRA 121845Z 13004KT 9999 FEW070 23/16 Q1015=
201009121815 METAR LIRA 121815Z 16004KT CAVOK 24/16 Q1015=
201009121745 METAR LIRA 121745Z 18004KT CAVOK 24/16 Q1015=
201009121715 METAR LIRA 121715Z 21003KT CAVOK 25/15 Q1015=
201009121645 METAR LIRA 121645Z 24007KT 190V330 9999 FEW030 26/14 Q1015=
201009121615 METAR LIRA 121615Z 25005KT 210V310 9999 FEW020 26/12 Q1015=
201009121545 METAR LIRA 121545Z 24008KT 200V300 9999 FEW020 26/12 Q1015=
201009121515 METAR LIRA 121515Z 26007KT 200V300 9999 FEW020 27/12 Q1015=
201009121445 METAR LIRA 121445Z 23007KT 190V310 9999 FEW020 28/13 Q1015=
201009121415 METAR LIRA 121415Z 24006KT 180V300 9999 FEW018 28/13 Q1015=
201009121345 METAR LIRA 121345Z 03003KT 9999 FEW018 28/10 Q1015=
201009121315 METAR LIRA 121315Z 33008KT 290V040 9999 FEW018 28/11 Q1015=
201009121245 METAR LIRA 121245Z 29002KT 9999 FEW018 27/11 Q1015=
201009121215 METAR LIRA 121215Z 30008KT 240V330 9999 FEW018 27/12 Q1015=
201009121145 METAR LIRA 121145Z 07002KT 9999 FEW018 27/14 Q1016=
201009121115 METAR LIRA 121115Z 27002KT 9999 FEW018 26/14 Q1016=
201009121045 METAR LIRA 121045Z 30006KT 240V360 9999 FEW018 26/14 Q1016=
201009121015 METAR LIRA 121015Z 36002KT 300V040 9999 FEW018 25/13 Q1016=
201009120945 METAR LIRA 120945Z 01005KT 330V070 9999 FEW018 25/13 Q1016=
201009120915 METAR LIRA 120915Z 03007KT 300V060 9999 FEW018 24/13 Q1016=
201009120845 METAR LIRA 120845Z 03004KT 320V070 9999 FEW018 23/14 Q1016=
201009120815 METAR LIRA 120815Z 02008KT 320V070 9999 FEW018 22/13 Q1016=
201009120745 METAR LIRA 120745Z 02007KT 300V060 9999 FEW018 20/13 Q1015=
201009120715 METAR LIRA 120715Z 02006KT 330V070 9999 FEW018 19/13 Q1015=
201009120645 METAR LIRA 120645Z 02007KT 330V060 9999 FEW018 18/13 Q1015=
201009120615 METAR LIRA 120615Z 03008KT 330V070 9999 FEW018 17/13 Q1015=
201009120545 METAR LIRA 120545Z 04005KT 9999 FEW018 16/13 Q1015=
201009120515 METAR LIRA 120515Z 03005KT 9999 FEW018 16/13 Q1015=
201009120445 METAR LIRA 120445Z 01004KT 330V060 9999 FEW018 16/13 Q1015=
201009120415 METAR LIRA 120415Z 04004KT 9999 FEW018 16/13 Q1015=
201009120345 METAR LIRA 120345Z 05005KT 9999 FEW023 16/13 Q1015=
201009120315 METAR LIRA 120315Z 04003KT 360V090 9999 FEW023 16/13 Q1015=
201009120245 METAR LIRA 120245Z 03005KT 9999 FEW023 17/13 Q1015=
201009120215 METAR LIRA 120215Z 02004KT 9999 FEW023 17/13 Q1015=
201009120145 METAR LIRA 120145Z 02004KT 330V080 CAVOK 17/13 Q1014=
201009120115 METAR LIRA 120115Z 02006KT 330V080 CAVOK 17/13 Q1014=
201009120045 METAR LIRA 120045Z 02005KT 320V100 CAVOK 18/13 Q1014=
201009120015 METAR LIRA 120015Z 04006KT CAVOK 18/14 Q1014=
201009112350 METAR LIRA 120045Z 02005KT 320V100 CAVOK 18/13 Q1014=
201009112345 METAR LIRA 112345Z 04005KT 360V080 CAVOK 19/14 Q1014=
201009112315 METAR LIRA 112315Z 03004KT 360V060 CAVOK 19/14 Q1014=
201009112245 METAR LIRA 112245Z 36004KT CAVOK 19/13 Q1014=
201009112215 METAR LIRA 112215Z 35004KT CAVOK 20/14 Q1014=
201009112145 METAR LIRA 112145Z 34004KT 9999 FEW080 20/13 Q1014=
201009112115 METAR LIRA 112115Z 01003KT 9999 FEW080 20/13 Q1014=
201009112045 METAR LIRA 112045Z 01005KT 330V050 9999 FEW080 21/13 Q1014=
201009112015 METAR LIRA 112015Z 35006KT 320V030 9999 FEW030 21/13 Q1014=
201009111945 METAR LIRA 111945Z 35004KT 320V040 9999 FEW030 22/13 Q1014=
201009111915 METAR LIRA 111915Z 34005KT 300V030 9999 FEW030 23/13 Q1013=
201009111845 METAR LIRA 111845Z 33005KT 300V040 9999 FEW030 23/13 Q1013=
201009111815 METAR LIRA 111815Z 32005KT 9999 FEW030 24/12 Q1013=
201009111745 METAR LIRA 111745Z 31007KT 270V020 9999 FEW030 25/12 Q1012=
201009111715 METAR LIRA 111715Z 32008KT 260V010 9999 FEW030 25/11 Q1012=
201009111645 METAR LIRA 111645Z 33011KT 280V010 9999 FEW025 SCT030 26/11
                        Q1012=
201009111615 METAR LIRA 111615Z 34011KT 290V040 9999 FEW025 SCT030 27/11
                        Q1011=
201009111545 METAR LIRA 111545Z 36009KT 260V090 9999 FEW025 SCT030 28/11
                        Q1011=
201009111515 METAR LIRA 111515Z 34009KT 270V080 9999 FEW025 SCT030 28/11
                        Q1011=
201009111445 METAR LIRA 111445Z 06005KT 9999 FEW025 SCT030 28/11 Q1011=
201009111415 METAR LIRA 111415Z 34008KT 300V030 9999 SCT030 28/10 Q1011=
201009111345 METAR LIRA 111345Z 34010KT 290V010 9999 SCT030 29/11 Q1011=
201009111315 METAR LIRA 111315Z 33012KT 290V030 9999 SCT030 28/11 Q1011=
201009111245 METAR LIRA 111245Z 35010KT 290V040 9999 SCT030 28/11 Q1011=
201009111215 METAR LIRA 111215Z 36011KT 300V050 9999 SCT030 28/11 Q1011=
201009111145 METAR LIRA 111145Z 33014KT 300V030 9999 SCT030 28/11 Q1011=
201009111115 METAR LIRA 111115Z 34016KT 290V050 9999 FEW030 27/11 Q1011=
201009111045 METAR LIRA 111045Z 34013KT 300V040 9999 FEW030 27/12 Q1011=
201009111015 METAR LIRA 111015Z 33013KT 280V010 CAVOK 26/12 Q1011=
201009110945 METAR LIRA 110945Z 34010KT 290V040 CAVOK 25/12 Q1011=
201009110915 METAR LIRA 110915Z 34010KT 280V080 CAVOK 24/12 Q1011=
201009110845 METAR LIRA 110845Z 35011KT 270V050 CAVOK 24/13 Q1011=
201009110815 METAR LIRA 110815Z 36010KT 310V060 CAVOK 24/13 Q1011=
201009110745 METAR LIRA 110745Z 36009KT 310V080 9999 FEW070 22/13 Q1011=
201009110715 METAR LIRA 110715Z 02008KT 310V070 9999 FEW070 21/13 Q1011=
201009110645 METAR LIRA 110645Z 02009KT 340V070 9999 FEW070 20/13 Q1011=
201009110615 METAR LIRA 110615Z 04005KT 360V090 9999 FEW040 19/13 Q1011=
201009110545 METAR LIRA 110545Z 04004KT 320V070 9999 FEW040 18/13 Q1010=
201009110515 METAR LIRA 110515Z 01004KT 010V100 9999 FEW040 16/12 Q1010=
201009110445 METAR LIRA 110445Z 05004KT 9999 FEW035 17/12 Q1010=
201009110415 METAR LIRA 110415Z 02008KT 290V070 9999 FEW070 17/12 Q1010=
201009110345 METAR LIRA 110345Z 02004KT 9999 FEW080 17/12 Q1011=
201009110315 METAR LIRA 110315Z 03006KT 310V060 9999 FEW018 17/11 Q1011=
201009110245 METAR LIRA 110245Z 03007KT 320V070 9999 FEW018 17/11 Q1011=
201009110215 METAR LIRA 110215Z 01005KT 330V060 9999 FEW018 17/11 Q1011=
201009110145 METAR LIRA 110145Z 36006KT 300V060 9999 FEW018 SCT080 17/11
                        Q1011=
201009110115 METAR LIRA 110115Z 36006KT 320V060 9999 FEW018 SCT080 17/11
                        Q1011=
201009110045 METAR LIRA 110045Z 36005KT 330V050 9999 FEW018 SCT080 17/11
                        Q1011=
201009110015 METAR LIRA 110015Z 36006KT 320V070 9999 FEW018 SCT070 17/11
                        Q1011=
201009102350 METAR LIRA 110045Z 36005KT 330V050 9999 FEW018 SCT080 17/11
                        Q1011=
201009102345 METAR LIRA 102345Z 35009KT 300V080 9999 FEW018 SCT070 17/11
                        Q1012=
201009102315 METAR LIRA 102315Z 35007KT 310V020 9999 FEW018 SCT070 18/11
                        Q1012=
201009102245 METAR LIRA 102245Z 34010KT 300V020 9999 FEW018 SCT070 18/12
                        Q1012=
201009102215 METAR LIRA 102215Z 01008KT 310V070 9999 FEW018 SCT070 18/12
                        Q1012=
201009102145 METAR LIRA 102145Z 36007KT 270V060 9999 FEW018 SCT070 17/11
                        Q1012=
201009102115 METAR LIRA 102115Z 35010KT 310V030 9999 FEW018 SCT070 18/12
                        Q1012=
201009102045 METAR LIRA 102045Z 34009KT 300V040 9999 FEW018 SCT080 18/12
                        Q1011=
201009102015 METAR LIRA 102015Z 36013KT 300V040 9999 FEW018 19/12 Q1011=
201009101945 METAR LIRA 101945Z 35011KT 290V050 9999 FEW018 SCT030 19/12
                        Q1011=
201009101915 METAR LIRA 101915Z 35016KT 300V030 9999 FEW018 SCT030 19/12
                        Q1011=
201009101845 METAR LIRA 101845Z 36012KT 310V040 9999 FEW018 SCT030 20/12
                        Q1011=
201009101815 METAR LIRA 101815Z 36013KT 300V040 9999 FEW018 SCT030 20/12
                        Q1011=
201009101745 METAR LIRA 101745Z 35013KT 300V040 9999 FEW017 SCT080 20/12
                        Q1011=
201009101715 METAR LIRA 101715Z 36012KT 300V040 9999 FEW017 SCT080 21/12
                        Q1011=
201009101645 METAR LIRA 101645Z 36009KT 300V050 9999 FEW017 BKN080 22/13
                        Q1011=
201009101615 METAR LIRA 101615Z 34012KT 300V030 9999 SCT017 FEW020TCU
                        SCT080 22/12 Q1011=
201009101545 METAR LIRA 101545Z 35016KT 300V040 9999 SCT017 FEW020TCU
                        SCT080 23/12 Q1011=
201009101515 METAR LIRA 101515Z 35014KT 290V030 9999 SCT017 FEW020TCU
                        SCT080 24/12 Q1011=
201009101445 METAR LIRA 101445Z 35012KT 300V020 9999 SCT017 FEW020CB SCT080
                        24/11 Q1011=
201009101415 METAR LIRA 101415Z 35010KT 290V050 9999 SCT017 FEW020CB SCT080
                        24/11 Q1011=
201009101345 METAR LIRA 101345Z 34010KT 280V010 9999 SCT017 FEW020CB SCT080
                        25/11 Q1011=
201009101315 METAR LIRA 101315Z 34011KT 280V070 9999 SCT017 FEW020CB SCT080
                        25/11 Q1012=
201009101245 METAR LIRA 101245Z 02008KT 300V110 9999 SCT017 FEW020CB 25/10
                        Q1012=
201009101215 METAR LIRA 101215Z 36007KT 300V060 9999 SCT017 25/10 Q1012=
201009101145 METAR LIRA 101145Z 35002KT 310V010 9999 SCT017 25/11 Q1012=
201009101115 METAR LIRA 101115Z 01002KT 340V110 9999 SCT017 25/12 Q1013=
201009101045 METAR LIRA 101045Z 36004KT 350V080 9999 FEW017 SCT080 24/12
                        Q1013=
201009101015 METAR LIRA 101015Z 04005KT 330V090 9999 FEW017 23/13 Q1013=
201009100945 METAR LIRA 100945Z 03007KT 320V090 9999 FEW017 23/13 Q1013=
201009100915 METAR LIRA 100915Z 36006KT 300V080 9999 FEW017 SCT080 22/13
                        Q1013=
201009100845 METAR LIRA 100845Z 36008KT 270V060 9999 SCT080 21/13 Q1013=
201009100815 METAR LIRA 100815Z 35006KT 300V070 9999 FEW030 SCT070 19/13
                        Q1013=
201009100745 METAR LIRA 100745Z 36005KT 300V060 9999 FEW030 SCT070 19/13
                        Q1013=
201009100715 METAR LIRA 100715Z 02003KT 9999 FEW018 SCT070 17/14 Q1013=
201009100645 METAR LIRA 100645Z 04006KT 350V090 9999 FEW018 SCT070 16/14
                        Q1013=
201009100615 METAR LIRA 100615Z 01007KT 320V040 9999 FEW018 SCT070 15/13
                        Q1013=
201009100545 METAR LIRA 100545Z 36005KT 9999 FEW018 SCT070 15/13 Q1013=
201009100515 METAR LIRA 100515Z 01003KT 9999 FEW018 SCT070 15/13 Q1013=
201009100445 METAR LIRA 100445Z 05004KT 9999 SCT070 14/13 Q1013=
201009100415 METAR LIRA 100415Z 05004KT 9999 SCT070 14/13 Q1013=
201009100345 METAR LIRA 100345Z 02006KT 330V060 9999 FEW080 15/14 Q1013=
201009100315 METAR LIRA 100315Z 01004KT 9999 FEW070 15/14 Q1013=
201009100245 METAR LIRA 100245Z 07003KT 9999 FEW070 15/14 Q1013=
201009100215 METAR LIRA 100215Z 03004KT 9999 FEW070 15/14 Q1013=
201009100145 METAR LIRA 100145Z 04003KT 9999 FEW070 15/14 Q1013=
201009100115 METAR LIRA 100115Z 03002KT CAVOK 16/14 Q1013=
201009100045 METAR LIRA 100045Z 25002KT 9999 FEW070 16/14 Q1014=
201009100015 METAR LIRA 100015Z 13001KT 9999 FEW070 17/14 Q1014=
201009092350 METAR LIRA 100045Z 25002KT 9999 FEW070 16/14 Q1014=
201009092345 METAR LIRA 092345Z 09003KT 9999 FEW025 17/14 Q1014=
201009092315 METAR LIRA 092315Z 08003KT CAVOK 18/15 Q1014=
201009092245 METAR LIRA 092245Z 06003KT CAVOK 18/16 Q1014=
201009092215 METAR LIRA 092215Z 11003KT CAVOK 18/16 Q1015=
201009092145 METAR LIRA 092145Z 14005KT 9999 FEW025 19/17 Q1015=
201009092115 METAR LIRA 092115Z 15005KT 9999 FEW080 19/16 Q1015=
201009092045 METAR LIRA 092045Z 14005KT 9999 FEW025 19/16 Q1015=
201009092015 METAR LIRA 092015Z 16005KT CAVOK 19/15 Q1015=
201009091945 METAR LIRA 091945Z 16004KT CAVOK 19/15 Q1015=
201009091915 METAR LIRA 091915Z 16004KT CAVOK 20/15 Q1014=
201009091845 METAR LIRA 091845Z 17004KT CAVOK 20/15 Q1014=
201009091815 METAR LIRA 091815Z 18005KT 150V220 CAVOK 21/16 Q1014=
201009091745 METAR LIRA 091745Z 19006KT 150V250 CAVOK 22/15 Q1014=
201009091715 METAR LIRA 091715Z 19006KT 150V230 9999 FEW018 23/15 Q1014=
201009091645 METAR LIRA 091645Z 19008KT 160V240 9999 FEW018TCU 23/15 Q1014=
201009091615 METAR LIRA 091615Z 20009KT 160V270 9999 FEW018 FEW020CB 24/15
                        Q1014=
201009091545 METAR LIRA 091545Z 19010KT 160V230 9999 FEW018 SCT030 23/15
                        Q1014=
201009091515 METAR LIRA 091515Z 19012KT 150V240 9999 FEW018 SCT030 23/14
                        Q1014=
201009091445 METAR LIRA 091445Z 19010KT 140V220 9999 FEW018 SCT030 23/15
                        Q1014=
201009091415 METAR LIRA 091415Z 19010KT 150V240 9999 SCT018 24/14 Q1014=
201009091345 METAR LIRA 091345Z 21008KT 150V270 9999 SCT018 SCT080 25/12
                        Q1014=
201009091315 METAR LIRA 091315Z 19010KT 140V240 9999 FEW018 SCT030 25/13
                        Q1015=
201009091245 METAR LIRA 091245Z 20010KT 150V270 9999 FEW018 SCT030 25/12
                        Q1015=
201009091115 METAR LIRA 091115Z 19010KT 130V260 9999 FEW018 SCT080 25/14
                        Q1015=
201009091045 METAR LIRA 091045Z 18009KT 130V230 9999 FEW018 SCT080 24/14
                        Q1015=
201009091015 METAR LIRA 091015Z 18011KT 140V240 9999 FEW018 SCT080 25/14
                        Q1015=
201009090945 METAR LIRA 090945Z 19008KT 160V230 9999 FEW018 SCT080 24/13
                        Q1014=
201009090915 METAR LIRA 090915Z 21006KT 150V270 9999 SCT030 SCT200 24/13
                        Q1014=
201009090845 METAR LIRA 090845Z 21005KT 140V260 9999 FEW018 SCT030 24/15
                        Q1014=
201009090815 METAR LIRA 090815Z 23006KT 160V270 9999 FEW018 SCT030 23/16
                        Q1014=
201009090745 METAR LIRA 090745Z 21004KT 9999 FEW018 SCT200 22/17 Q1014=
201009090715 METAR LIRA 090715Z 16002KT 9999 FEW018 SCT200 21/16 Q1014=
201009090645 METAR LIRA 090645Z 24003KT 9999 SCT018 SCT200 21/17 Q1013=
201009090615 METAR LIRA 090615Z 18003KT 9999 SCT018 SCT200 21/18 Q1013=
201009090545 METAR LIRA 090545Z 20003KT 9999 FEW018 SCT070 20/18 Q1013=
201009090515 METAR LIRA 090515Z 19005KT 9999 SCT018 19/17 Q1012=
201009090445 METAR LIRA 090445Z 19005KT 160V220 9999 FEW018 19/17 Q1012=
201009090415 METAR LIRA 090415Z 17006KT 9999 FEW018 19/18 Q1012=
201009090345 METAR LIRA 090345Z 18006KT 9999 FEW018 20/18 Q1012=
201009090315 METAR LIRA 090315Z 18005KT 9999 FEW018 20/18 Q1012=
201009090245 METAR LIRA 090245Z 19005KT 150V230 9999 SCT018 20/18 Q1012=
201009090215 METAR LIRA 090215Z 19005KT 180V240 9999 SCT018 21/18 Q1012=
201009090145 METAR LIRA 090145Z 16006KT 130V190 9999 SCT018 21/18 Q1012=
201009090115 METAR LIRA 090115Z 15008KT 120V190 9999 FEW015 SCT030 21/18
                        Q1012=
201009090045 METAR LIRA 090045Z 15009KT 9999 FEW018 SCT030 21/18 Q1012=
201009090015 METAR LIRA 090015Z 15009KT 9999 FEW007 SCT030 21/18 Q1012=
201009082350 METAR LIRA 090045Z 15009KT 9999 FEW018 SCT030 21/18 Q1012=
201009082345 METAR LIRA 082345Z 15008KT 9999 FEW015 SCT025 21/17 Q1012=
201009082315 METAR LIRA 082315Z 16008KT 9999 FEW015 SCT060 21/17 Q1012=
201009082245 METAR LIRA 082245Z 15010KT 9999 FEW015 SCT060 21/18 Q1012=
201009082215 METAR LIRA 082215Z 15010KT 9999 FEW025 SCT060 21/18 Q1012=
201009082145 METAR LIRA 082145Z 16009KT 9999 FEW015 SCT060 21/18 Q1012=
201009082115 METAR LIRA 082115Z 16008KT 130V190 9999 FEW015 SCT060 21/18
                        Q1012=
201009082045 METAR LIRA 082045Z 17007KT 130V220 9999 FEW015 SCT060 21/18
                        Q1012=
201009082015 METAR LIRA 082015Z 18006KT 140V210 9999 FEW016 SCT025 20/17
                        Q1012=
201009081945 METAR LIRA 081945Z 17004KT 9999 FEW016 SCT025 21/17 Q1012=
201009081915 METAR LIRA 081915Z 16006KT 140V200 9999 FEW016 SCT025 21/16
                        Q1011=
201009081845 METAR LIRA 081845Z 13007KT 9999 FEW025 SCT070 20/16 Q1011=
201009081815 METAR LIRA 081815Z 17004KT 160V220 9999 FEW016 SCT018CB 20/16
                        Q1011=
201009081745 METAR LIRA 081745Z 16009KT 130V200 9999 FEW010 SCT018CB 20/16
                        Q1011=
201009081715 METAR LIRA 081715Z 15009KT 130V190 9999 FEW018 FEW020CB SCT025
                        20/16 Q1010=
201009081645 METAR LIRA 081645Z 17010KT 130V220 9999 FEW014 FEW017CB SCT025
                        20/17 Q1010=
201009081615 METAR LIRA 081615Z 15011KT 120V180 9999 FEW014 FEW018CB SCT025
                        19/17 Q1010 RETS=
201009081545 METAR LIRA 081545Z 20010KT 150V240 9999 FEW014 FEW017CB SCT025
                        19/18 Q1010 RETS=
201009081515 METAR LIRA 081515Z 15014KT 100V200 7000 -TSRA FEW014 FEW017CB
                        BKN025 19/18 Q1010=
201009081445 METAR LIRA 081445Z 20013G24KT 160V260 4000 TSRA BR FEW014
                        FEW017CB BKN023 25/21 Q1010=
201009081415 METAR LIRA 081415Z 20013KT 150V260 9000 FEW015 FEW017CB BKN025
                        25/20 Q1010=
201009081345 METAR LIRA 081345Z 19017KT 150V240 9000 FEW015 FEW017TCU
                        SCT025 26/20 Q1009=
201009081315 METAR LIRA 081315Z 20016KT 150V250 9000 FEW015 FEW017TCU
                        SCT025 26/20 Q1010=
201009081245 METAR LIRA 081245Z 19016KT 150V240 9000 FEW015 FEW017TCU
                        SCT025 27/20 Q1009=
201009081215 METAR LIRA 081215Z 19014KT 150V250 9000 SCT018 27/20 Q1009=
201009081145 METAR LIRA 081145Z 19018KT 150V250 9000 FEW014 FEW017TCU
                        SCT025 27/21 Q1009=
201009081115 METAR LIRA 081115Z 18017KT 140V230 9000 FEW014 FEW017TCU
                        SCT025 27/21 Q1009=
201009081045 METAR LIRA 081045Z 18017KT 150V240 8000 FEW014 FEW017TCU
                        BKN025 28/21 Q1009=
201009081015 METAR LIRA 081015Z 18018KT 140V240 8000 FEW014 FEW017TCU
                        BKN025 28/22 Q1009=
201009080945 METAR LIRA 080945Z 17016KT 130V210 7000 FEW014 FEW017TCU
                        SCT025 28/23 Q1009=
201009080915 METAR LIRA 080915Z 17015KT 130V200 7000 FEW014 FEW017TCU
                        SCT025 27/23 Q1009=
201009080845 METAR LIRA 080845Z 16016KT 130V190 7000 FEW014 FEW017TCU
                        SCT025 27/23 Q1009=
201009080815 METAR LIRA 080815Z 17014KT 130V200 7000 FEW014 SCT025 26/22
                        Q1008=
201009080745 METAR LIRA 080745Z 17010KT 140V200 8000 FEW014 26/22 Q1008=
201009080715 METAR LIRA 080715Z 16011KT 130V200 7000 FEW014 SCT025 25/22
                        Q1008=
201009080645 METAR LIRA 080645Z 16011KT 140V220 6000 FEW010 FEW017CB SCT023
                        24/23 Q1008=
201009080615 METAR LIRA 080615Z 16012KT 6000 FEW014 FEW017CB SCT025 24/23
                        Q1007=
201009080545 METAR LIRA 080545Z 17012KT 120V210 6000 FEW010 FEW017CB SCT080
                        24/23 Q1007=
201009080515 METAR LIRA 080515Z 16012KT 120V210 8000 FEW017CB FEW018TCU
                        24/22 Q1007=
201009080445 METAR LIRA 080445Z 16014KT 8000 FEW017CB FEW018TCU 24/22
                        Q1007=
201009080415 METAR LIRA 080415Z 15014KT 9999 FEW017CB SCT030 24/22 Q1006=
201009080345 METAR LIRA 080345Z 15015KT 9999 VCTS FEW017CB 24/21 Q1006=
201009080315 METAR LIRA 080315Z 15015KT 9999 VCTS FEW017CB SCT030 24/21
                        Q1006=
201009080245 METAR LIRA 080245Z 14017KT 9999 VCTS FEW017CB 25/20 Q1007=
201009080215 METAR LIRA 080215Z 14015KT 9999 FEW018 24/16 Q1007=
201009080145 METAR LIRA 080145Z 14017KT 9999 FEW017 25/14 Q1007=
201009080115 METAR LIRA 080115Z 14015G26KT 120V180 9999 FEW018 25/12 Q1007=
201009080045 METAR LIRA 080045Z 14016KT 9999 FEW017TCU 25/12 Q1008=
201009080015 METAR LIRA 080015Z 13014KT 9999 FEW017TCU SCT025 25/12 Q1008=
201009072350 METAR LIRA 080045Z 14016KT 9999 FEW017TCU 25/12 Q1008=
201009072345 METAR LIRA 072345Z 14016KT 9999 FEW017TCU SCT025 25/12 Q1008=
201009072315 METAR LIRA 072315Z 14013KT 9999 FEW017TCU SCT025 25/10 Q1009=
201009072245 METAR LIRA 072245Z 15011KT 120V180 9999 FEW017TCU SCT025
                        25/10 Q1009=
201009072215 METAR LIRA 072215Z 15012KT 110V180 9999 FEW017TCU SCT025
                        25/10 Q1009=
201009072145 METAR LIRA 072145Z 14011KT 110V200 9999 FEW017TCU SCT025
                        25/10 Q1009=
201009072115 METAR LIRA 072115Z 13009KT 100V170 9999 FEW017TCU SCT030
                        24/12 Q1009=
201009072045 METAR LIRA 072045Z 10003KT 9999 FEW017TCU SCT030 23/16 Q1009=
201009072015 METAR LIRA 072015Z 11008KT 060V130 9999 FEW017TCU SCT030
                        22/16 Q1009=
201009071945 METAR LIRA 071945Z 16015KT 110V190 9999 -SHRA FEW015 FEW017TCU
                        SCT030 26/12 Q1009=
201009071915 METAR LIRA 071915Z 13009KT 100V160 9999 SCT030 SCT060 25/13
                        Q1009=
201009071845 METAR LIRA 071845Z 13010KT 9999 FEW017 SCT030 25/13 Q1009=
201009071815 METAR LIRA 071815Z 15009KT 110V180 9999 FEW017 SCT030 25/14
                        Q1009=
201009071745 METAR LIRA 071745Z 14009KT 120V180 9999 FEW017 SCT070 25/17
                        Q1009=
201009071715 METAR LIRA 071715Z 16009KT 120V190 9999 FEW017 26/18 Q1010=
201009071645 METAR LIRA 071645Z 13011KT 110V170 9999 FEW017 SCT030 26/16
                        Q1010=
201009071615 METAR LIRA 071615Z 16012KT 120V190 9999 FEW017 BKN035 26/17
                        Q1010=
201009071545 METAR LIRA 071545Z 16014KT 9999 FEW017 BKN035 26/16 Q1010=
201009071515 METAR LIRA 071515Z 16014KT 9999 FEW017 BKN035 27/16 Q1010=
201009071445 METAR LIRA 071445Z 16012KT 140V200 9999 FEW017 BKN035 27/15
                        Q1010=
201009071415 METAR LIRA 071415Z 18012KT 130V230 9999 FEW017 SCT035 28/13
                        Q1010=
201009071345 METAR LIRA 071345Z 14013KT 120V200 9999 SCT015 29/15 Q1011=
201009071315 METAR LIRA 071315Z 16010KT 9999 SCT015 28/15 Q1011=
201009071245 METAR LIRA 071245Z 18015KT 120V220 9999 SCT015 28/16 Q1011=
201009071215 METAR LIRA 071215Z 15015KT 110V210 9999 SCT015 SCT200 28/17
                        Q1011=
201009071145 METAR LIRA 071145Z 14013KT 110V210 9999 SCT015 28/16 Q1012=
201009071115 METAR LIRA 071115Z 15012KT 120V200 9999 SCT015 28/17 Q1012=
201009071045 METAR LIRA 071045Z 14014KT 110V180 9999 SCT015 28/17 Q1012=
201009071015 METAR LIRA 071015Z 15010KT 100V210 9999 SCT018 27/16 Q1012=
201009070945 METAR LIRA 070945Z 15012KT 090V200 9999 SCT015 27/16 Q1013=
201009070915 METAR LIRA 070915Z 17012KT 060V210 9999 SCT015 27/16 Q1013=
201009070845 METAR LIRA 070845Z 15011KT 100V180 9999 FEW015 BKN200 26/17
                        Q1013=
201009070815 METAR LIRA 070815Z 14012KT 100V180 9999 FEW015 25/17 Q1013=
201009070745 METAR LIRA 070745Z 16009KT 120V200 9999 FEW015 25/17 Q1013=
201009070715 METAR LIRA 070715Z 15008KT 100V180 9999 FEW015 24/17 Q1013=
201009070645 METAR LIRA 070645Z 06002KT 9999 FEW015 23/19 Q1013=
201009070615 METAR LIRA 070615Z 06002KT 9999 FEW015 21/18 Q1013=
201009070545 METAR LIRA 070545Z 08003KT 9999 FEW015 19/17 Q1013=
201009070515 METAR LIRA 070515Z 09002KT 9999 FEW015 18/17 Q1012=
201009070445 METAR LIRA 070445Z 08004KT 9999 FEW015 18/16 Q1012=
201009070415 METAR LIRA 070415Z 10005KT 9999 FEW015 17/15 Q1013=
201009070345 METAR LIRA 070345Z 10004KT 9999 FEW070 18/16 Q1013=
201009070315 METAR LIRA 070315Z 08004KT 9999 FEW070 18/17 Q1013=
201009070245 METAR LIRA 070245Z 08005KT 9999 FEW070 19/17 Q1013=
201009070215 METAR LIRA 070215Z 10005KT 9999 FEW070 19/17 Q1013=
201009070145 METAR LIRA 070145Z 10005KT 9999 FEW020 19/17 Q1013=
201009070115 METAR LIRA 070115Z 10005KT 9999 FEW020 20/17 Q1013=
201009070045 METAR LIRA 070045Z 10004KT 9999 FEW014 SCT070 20/18 Q1014=
201009070015 METAR LIRA 070015Z 10004KT 9999 FEW014 SCT070 19/17 Q1014=
201009062350 METAR LIRA 070045Z 10004KT 9999 FEW014 SCT070 20/18 Q1014=
201009062345 METAR LIRA 062345Z 08004KT 9999 FEW014 SCT070 19/17 Q1014=
201009062315 METAR LIRA 062315Z 07002KT 9999 FEW070 20/17 Q1014=
201009062245 METAR LIRA 062245Z 10004KT 9999 FEW070 20/18 Q1014=
201009062215 METAR LIRA 062215Z 10004KT 9999 FEW070 20/19 Q1014=
201009062145 METAR LIRA 062145Z 14005KT 9999 FEW070 21/19 Q1014=
201009062115 METAR LIRA 062115Z 17005KT 9999 FEW070 22/19 Q1014=
201009062045 METAR LIRA 062045Z 17005KT 9999 FEW017 22/19 Q1014=
201009062015 METAR LIRA 062015Z 17005KT 9999 FEW017 22/19 Q1014=
201009061945 METAR LIRA 061945Z 17005KT 9999 FEW017 22/19 Q1014=
201009061915 METAR LIRA 061915Z 16002KT 9999 FEW017 FEW020TCU 22/19 Q1014=
201009061845 METAR LIRA 061845Z 21003KT 9999 FEW014 FEW020CB 23/18 Q1013=
201009061815 METAR LIRA 061815Z 22003KT 9999 FEW014 FEW020CB 24/18 Q1013=
201009061745 METAR LIRA 061745Z 22003KT 9999 FEW014 FEW020CB 24/18 Q1013=
201009061715 METAR LIRA 061715Z 22005KT 9999 FEW014 FEW020CB 24/18 Q1013=
201009061645 METAR LIRA 061645Z 20006KT 150V250 9999 FEW014 FEW020CB 25/19
                        Q1013=
201009061615 METAR LIRA 061615Z 22009KT 140V270 9999 FEW013 FEW020CB 25/19
                        Q1013=
201009061545 METAR LIRA 061545Z 21008KT 150V250 9999 FEW018 FEW020CB 26/19
                        Q1013=
201009061515 METAR LIRA 061515Z 22009KT 170V290 9999 SCT018 FEW020CB 26/19
                        Q1013=
201009061445 METAR LIRA 061445Z 22009KT 160V270 9999 SCT018 FEW020CB 27/19
                        Q1013=
201009061415 METAR LIRA 061415Z 20009KT 160V250 9999 SCT018 FEW020CB 27/19
                        Q1013=
201009061345 METAR LIRA 061345Z 19010KT 150V250 9999 SCT018 FEW020CB 27/19
                        Q1013=
201009061315 METAR LIRA 061315Z 19008KT 120V270 9999 SCT018 FEW020CB 27/18
                        Q1013=
201009061245 METAR LIRA 061245Z 21008KT 150V270 9999 SCT018 FEW020CB 28/17
                        Q1013=
201009061215 METAR LIRA 061215Z 23010KT 160V310 9999 SCT018 FEW020CB 28/17
                        Q1014=
201009061145 METAR LIRA 061145Z 23008KT 180V280 9999 SCT020 28/15 Q1014=
201009061115 METAR LIRA 061115Z 22006KT 140V300 9999 BKN020 27/16 Q1014=
201009061045 METAR LIRA 061045Z 20006KT 150V260 9999 BKN020 27/18 Q1014=
201009061015 METAR LIRA 061015Z 18005KT 150V230 9999 SCT020 27/17 Q1014=
201009060945 METAR LIRA 060945Z 18004KT 120V260 9999 SCT020 27/17 Q1015=
201009060915 METAR LIRA 060915Z 15006KT 100V210 9999 FEW020 27/17 Q1015=
201009060845 METAR LIRA 060845Z 18004KT 130V190 9999 FEW020 25/18 Q1015=
201009060815 METAR LIRA 060815Z 16004KT 150V230 9999 FEW020 24/18 Q1015=
201009060745 METAR LIRA 060745Z 22002KT 9999 FEW020 23/20 Q1015=
201009060715 METAR LIRA 060715Z 34001KT 9999 FEW020 21/16 Q1015=
201009060645 METAR LIRA 060645Z 34001KT 9999 FEW010 20/15 Q1014=
201009060615 METAR LIRA 060615Z 36001KT CAVOK 19/15 Q1014=
201009060545 METAR LIRA 060545Z 05002KT 9999 FEW080 18/13 Q1014=
201009060515 METAR LIRA 060515Z 08003KT 9999 FEW070 18/13 Q1014=
201009060445 METAR LIRA 060445Z 09004KT 9999 FEW080 17/13 Q1014=
201009060415 METAR LIRA 060415Z 05003KT 9999 FEW070 17/13 Q1014=
201009060345 METAR LIRA 060345Z 09003KT 9999 FEW070 17/14 Q1014=
201009060315 METAR LIRA 060315Z 06002KT 9999 FEW070 18/15 Q1014=
201009060245 METAR LIRA 060245Z 00000KT CAVOK 18/14 Q1014=
201009060215 METAR LIRA 060215Z 11003KT 9999 FEW070 18/14 Q1014=
201009060145 METAR LIRA 060145Z 08002KT 9999 FEW070 18/13 Q1014=
201009060115 METAR LIRA 060115Z 10005KT CAVOK 18/13 Q1014=
201009060045 METAR LIRA 060045Z 11005KT 9999 FEW010 18/13 Q1015=
201009060015 METAR LIRA 060015Z 13003KT 9999 FEW010 20/14 Q1015=
201009052350 METAR LIRA 060045Z 11005KT 9999 FEW010 18/13 Q1015=
201009052345 METAR LIRA 052345Z 15003KT CAVOK 19/15 Q1015=
201009052315 METAR LIRA 052315Z 15003KT CAVOK 19/16 Q1015=
201009052245 METAR LIRA 052245Z 14002KT CAVOK 19/14 Q1015=
201009052215 METAR LIRA 052215Z 13093KT CAVOK 20/14 Q1015=
201009052145 METAR LIRA 052145Z 10003KT CAVOK 19/14 Q1015=
201009052115 METAR LIRA 052115Z 11002KT CAVOK 20/15 Q1015=
201009052045 METAR LIRA 052045Z 12004KT CAVOK 20/15 Q1015=
201009052015 METAR LIRA 052015Z 14003KT CAVOK 21/15 Q1015=
201009051945 METAR LIRA 051945Z 00000KT CAVOK 22/15 Q1015=
201009051915 METAR LIRA 051915Z 22002KT CAVOK 22/15 Q1015=
201009051845 METAR LIRA 051845Z 19002KT 9999 FEW020CB 22/13 Q1015=
201009051815 METAR LIRA 051815Z 20002KT 9999 FEW020CB 23/13 Q1015=
201009051745 METAR LIRA 051745Z 23003KT 9999 FEW020CB 24/13 Q1015=
201009051715 METAR LIRA 051715Z 23005KT 200V260 9999 FEW018 FEW020CB 25/11
                        Q1015=
201009051645 METAR LIRA 051645Z 26006KT 190V340 9999 FEW018 FEW020CB 25/13
                        Q1015=
201009051615 METAR LIRA 051615Z 23006KT 190V300 9999 FEW020 FEW021CB 25/15
                        Q1015=
201009051545 METAR LIRA 051545Z 24009KT 190V280 9999 FEW017 27/14 Q1015=
201009051515 METAR LIRA 051515Z 21009KT 170V260 9999 FEW017 27/14 Q1015=
201009051445 METAR LIRA 051445Z 26009KT 190V310 9999 FEW017 27/13 Q1015=
201009051415 METAR LIRA 051415Z 26008KT 190V310 9999 FEW017 28/13 Q1015=
201009051345 METAR LIRA 051345Z 23008KT 160V280 9999 FEW017 28/12 Q1015=
201009051315 METAR LIRA 051315Z 26008KT 180V310 9999 FEW017 28/13 Q1015=
201009051245 METAR LIRA 051245Z 24007KT 200V330 9999 FEW017 28/13 Q1016=
201009051215 METAR LIRA 051215Z 25008KT 190V330 9999 FEW017 29/13 Q1016=
201009051145 METAR LIRA 051145Z 27006KT 210V320 9999 FEW017 29/13 Q1016=
201009051115 METAR LIRA 051115Z 26005KT 160V280 9999 FEW017 29/13 Q1016=
201009051045 METAR LIRA 051045Z 23004KT 220V340 9999 FEW017 28/12 Q1016=
201009051015 METAR LIRA 051015Z 14002KT 9999 FEW017 27/11 Q1016=
201009050945 METAR LIRA 050945Z 34003KT 9999 FEW017 26/11 Q1016=
201009050915 METAR LIRA 050915Z 29003KT CAVOK 25/13 Q1016=
201009050845 METAR LIRA 050845Z 20002KT CAVOK 25/16 Q1016=
201009050815 METAR LIRA 050815Z 29002KT CAVOK 24/15 Q1016=
201009050745 METAR LIRA 050745Z 30002KT CAVOK 22/15 Q1015=
201009050715 METAR LIRA 050715Z 35002KT CAVOK 21/15 Q1015=
201009050645 METAR LIRA 050645Z 36002KT CAVOK 20/15 Q1015=
201009050615 METAR LIRA 050615Z 31002KT CAVOK 19/14 Q1015=
201009050545 METAR LIRA 050545Z 09001KT CAVOK 18/14 Q1015=
201009050515 METAR LIRA 050515Z 09002KT CAVOK 17/13 Q1015=
201009050445 METAR LIRA 050445Z 00000KT CAVOK 16/13 Q1014=
201009050415 METAR LIRA 050415Z 01003KT 9999 FEW080 17/14 Q1014=
201009050345 METAR LIRA 050345Z 15001KT 9999 FEW080 17/15 Q1014=
201009050315 METAR LIRA 050315Z 00000KT CAVOK 17/14 Q1014=
201009050245 METAR LIRA 050245Z 15003KT CAVOK 18/15 Q1014=
201009050215 METAR LIRA 050215Z 14003KT CAVOK 18/16 Q1014=
201009050145 METAR LIRA 050145Z 15002KT CAVOK 18/16 Q1014=
201009050115 METAR LIRA 050115Z 15004KT CAVOK 18/16 Q1014=
201009050045 METAR LIRA 050045Z 16003KT CAVOK 19/16 Q1014=
201009050015 METAR LIRA 050015Z 16003KT CAVOK 20/16 Q1015=
201009042350 METAR LIRA 050045Z 16003KT CAVOK 19/16 Q1014=
201009042345 METAR LIRA 042345Z 16003KT CAVOK 20/18 Q1015=
201009042315 METAR LIRA 042315Z 16004KT CAVOK 19/16 Q1015=
201009042245 METAR LIRA 042245Z 16003KT CAVOK 20/16 Q1015=
201009042215 METAR LIRA 042215Z 15004KT CAVOK 20/17 Q1015=
201009042145 METAR LIRA 042145Z 17002KT CAVOK 21/19 Q1015=
201009042115 METAR LIRA 042115Z 17003KT CAVOK 22/20 Q1015=
201009042045 METAR LIRA 042045Z 18005KT CAVOK 22/20 Q1014=
201009042015 METAR LIRA 042015Z 17003KT CAVOK 22/20 Q1014=
201009041945 METAR LIRA 041945Z /////KT CAVOK 22/20 Q1014=
201009041915 METAR LIRA 041915Z 19001KT CAVOK 23/20 Q1014=
201009041845 METAR LIRA 041845Z 17002KT CAVOK 23/20 Q1014=
201009041815 METAR LIRA 041815Z 22004KT CAVOK 23/19 Q1013=
201009041745 METAR LIRA 041745Z 25005KT CAVOK 24/18 Q1013=
201009041715 METAR LIRA 041715Z 23005KT 190V280 CAVOK 25/17 Q1013=
201009041645 METAR LIRA 041645Z 25005KT 190V300 9999 FEW020 25/17 Q1013=
201009041615 METAR LIRA 041615Z 26007KT 190V320 9999 FEW020 26/16 Q1013=
201009041545 METAR LIRA 041545Z 26007KT 180V300 9999 SCT020 27/15 Q1013=
201009041515 METAR LIRA 041515Z 27007KT 200V340 9999 SCT020 28/14 Q1013=
201009041445 METAR LIRA 041445Z 24006KT 180V310 9999 SCT020 28/15 Q1013=
201009041415 METAR LIRA 041415Z 26008KT 180V310 9999 SCT020 28/16 Q1013=
201009041345 METAR LIRA 041345Z 24005KT 180V290 9999 SCT020 28/16 Q1014=
201009041315 METAR LIRA 041315Z 19007KT 150V300 9999 SCT020 28/17 Q1014=
201009041245 METAR LIRA 041245Z 22007KT 140V280 9999 SCT020 27/18 Q1014=
201009041215 METAR LIRA 041215Z 20004KT 140V270 9999 SCT020 27/16 Q1014=
201009041145 METAR LIRA 041145Z 23006KT 170V270 9999 SCT020 26/17 Q1015=
201009041115 METAR LIRA 041115Z 30006KT 240V310 9999 SCT020 28/15 Q1015=
201009041045 METAR LIRA 041045Z 25005KT 200V310 9999 SCT020 27/15 Q1015=
201009041015 METAR LIRA 041015Z 22003KT 9999 SCT020 23/11 Q1015=
201009040945 METAR LIRA 040945Z 15003KT 9999 SCT020 27/15 Q1015=
201009040915 METAR LIRA 040915Z 30002KT 9999 FEW021 26/15 Q1015=
201009040845 METAR LIRA 040845Z 25001KT CAVOK 24/13 Q1014=
201009040815 METAR LIRA 040815Z 01003KT CAVOK 24/12 Q1014=
201009040745 METAR LIRA 040745Z 01004KT CAVOK 23/14 Q1014=
201009040715 METAR LIRA 040715Z 35002KT CAVOK 20/13 Q1014=
201009040645 METAR LIRA 040645Z 36003KT CAVOK 20/14 Q1014=
201009040615 METAR LIRA 040615Z 05002KT CAVOK 18/13 Q1014=
201009040545 METAR LIRA 040545Z 04002KT CAVOK 18/14 Q1014=
201009040515 METAR LIRA 040515Z 03003KT CAVOK 16/13 Q1013=
201009040445 METAR LIRA 040445Z 05003KT CAVOK 16/12 Q1013=
201009040415 METAR LIRA 040415Z 04003KT CAVOK 17/12 Q1013=
201009040345 METAR LIRA 040345Z 10002KT CAVOK 17/12 Q1013=
201009040315 METAR LIRA 040315Z 09002KT CAVOK 18/12 Q1013=
201009040245 METAR LIRA 040245Z 12003KT CAVOK 18/12 Q1013=
201009040215 METAR LIRA 040215Z 10002KT CAVOK 18/13 Q1014=
201009040145 METAR LIRA 040145Z 10005KT CAVOK 18/13 Q1014=
201009040115 METAR LIRA 040115Z 10006KT CAVOK 18/13 Q1014=
201009040045 METAR LIRA 040045Z 10005KT CAVOK 18/14 Q1014=
201009040015 METAR LIRA 040015Z 09004KT CAVOK 18/14 Q1014=
201009032350 METAR LIRA 040045Z 10005KT CAVOK 18/14 Q1014=
201009032345 METAR LIRA 032345Z 13005KT CAVOK 19/15 Q1014=
201009032315 METAR LIRA 032315Z 13005KT CAVOK 19/15 Q1014=
201009032245 METAR LIRA 032245Z 15004KT CAVOK 20/15 Q1014=
201009032215 METAR LIRA 032215Z 17002KT CAVOK 21/15 Q1014=
201009032145 METAR LIRA 032145Z 17005KT CAVOK 22/15 Q1014=
201009032115 METAR LIRA 032115Z 18006KT CAVOK 21/14 Q1013=
201009032045 METAR LIRA 032045Z 18005KT CAVOK 22/14 Q1013=
201009032015 METAR LIRA 032015Z 18005KT CAVOK 22/14 Q1013=
201009031945 METAR LIRA 031945Z 18005KT 9999 SCT035 23/14 Q1013=
201009031915 METAR LIRA 031915Z 19004KT 9999 SCT035 23/15 Q1013=
201009031845 METAR LIRA 031845Z 16005KT 9999 FEW035 23/15 Q1013=
201009031815 METAR LIRA 031815Z 20004KT 9999 FEW030 23/13 Q1012=
201009031745 METAR LIRA 031745Z 22004KT 200V290 9999 FEW025 24/13 Q1012=
201009031715 METAR LIRA 031715Z 23004KT 180V290 9999 FEW020 25/13 Q1012=
201009031645 METAR LIRA 031645Z 23006KT 190V300 9999 FEW018 25/12 Q1012=
201009031615 METAR LIRA 031615Z 27007KT 200V310 9999 FEW018 26/13 Q1012=
201009031545 METAR LIRA 031545Z 27008KT 210V280 9999 FEW018 27/12 Q1012=
201009031515 METAR LIRA 031515Z 25008KT 200V310 9999 FEW020 28/11 Q1012=
201009031445 METAR LIRA 031445Z 30011KT 210V320 9999 FEW020 29/11 Q1012=
201009031415 METAR LIRA 031415Z 30004KT 260V360 9999 FEW020 29/09 Q1012=
201009031345 METAR LIRA 031345Z 33005KT 280V020 9999 FEW020 29/09 Q1012=
201009031315 METAR LIRA 031315Z 32007KT 270V360 9999 FEW020 29/09 Q1012=
201009031245 METAR LIRA 031245Z 14001KT 9999 FEW020 28/09 Q1013=
201009031215 METAR LIRA 031215Z 32004KT CAVOK 28/09 Q1013=
201009031145 METAR LIRA 031145Z 01004KT 010V100 CAVOK 28/09 Q1013=
201009031115 METAR LIRA 031115Z 02003KT CAVOK 27/10 Q1013=
201009031045 METAR LIRA 031045Z 07004KT CAVOK 27/10 Q1013=
201009031015 METAR LIRA 031015Z 30005KT CAVOK 25/09 Q1013=
201009030945 METAR LIRA 030945Z 34003KT CAVOK 25/10 Q1013=
201009030915 METAR LIRA 030915Z 02005KT CAVOK 24/11 Q1013=
201009030845 METAR LIRA 030845Z 04005KT 350V090 CAVOK 22/12 Q1013=
201009030815 METAR LIRA 030815Z 02006KT 310V080 9999 SCT070 20/12 Q1013=
201009030745 METAR LIRA 030745Z 04005KT 360V090 9999 SCT070 19/13 Q1013=
201009030715 METAR LIRA 030715Z 02004KT 340V060 9999 SCT070 18/12 Q1013=
201009030645 METAR LIRA 030645Z 03004KT 9999 SCT070 17/13 Q1013=
201009030615 METAR LIRA 030615Z 05004KT 9999 SCT070 17/13 Q1013=
201009030545 METAR LIRA 030545Z 03004KT 9999 SCT070 16/13 Q1013=
201009030515 METAR LIRA 030515Z 36003KT 350V070 9999 SCT070 16/13 Q1012=
201009030445 METAR LIRA 030445Z 05005KT 9999 SCT070 16/13 Q1012=
201009030415 METAR LIRA 030415Z 04005KT 9999 SCT070 16/13 Q1012=
201009030345 METAR LIRA 030345Z 04005KT 360V060 9999 FEW080 16/13 Q1013=
201009030315 METAR LIRA 030315Z 04005KT 9999 FEW080 16/13 Q1013=
201009030245 METAR LIRA 030245Z 04005KT CAVOK 16/14 Q1013=
201009030215 METAR LIRA 030215Z 06002KT CAVOK 16/13 Q1013=
201009030145 METAR LIRA 030145Z 00000KT CAVOK 17/14 Q1014=
201009030115 METAR LIRA 030115Z 05003KT CAVOK 17/13 Q1014=
201009030045 METAR LIRA 030045Z 05003KT CAVOK 17/13 Q1014=
201009030015 METAR LIRA 030015Z 09002KT CAVOK 18/13 Q1014=
201009022350 METAR LIRA 030045Z 05003KT CAVOK 17/13 Q1014=
201009022345 METAR LIRA 022345Z 14002KT CAVOK 18/13 Q1014=
201009022315 METAR LIRA 022315Z 10002KT CAVOK 19/13 Q1015=
201009022245 METAR LIRA 022245Z 00000KT CAVOK 19/14 Q1015=
201009022215 METAR LIRA 022215Z 08001KT CAVOK 19/14 Q1015=
201009022145 METAR LIRA 022145Z 05004KT CAVOK 20/13 Q1015=
201009022115 METAR LIRA 022115Z 36003KT CAVOK 20/13 Q1015=
201009022045 METAR LIRA 022045Z 05003KT CAVOK 20/13 Q1015=
201009022015 METAR LIRA 022015Z 15002KT CAVOK 20/12 Q1015=
201009021945 METAR LIRA 021945Z 34001KT CAVOK 21/12 Q1015=
201009021915 METAR LIRA 021915Z 00000KT CAVOK 22/11 Q1015=
201009021845 METAR LIRA 021845Z 23002KT CAVOK 23/11 Q1015=
201009021815 METAR LIRA 021815Z 20003KT CAVOK 24/11 Q1015=
201009021745 METAR LIRA 021745Z 19006KT 140V230 CAVOK 24/11 Q1015=
201009021715 METAR LIRA 021715Z 17008KT 140V230 CAVOK 25/11 Q1015=
201009021645 METAR LIRA 021645Z 21007KT 140V280 9999 FEW025 26/10 Q1015=
201009021615 METAR LIRA 021615Z 22006KT 130V260 9999 FEW025 26/10 Q1015=
201009021545 METAR LIRA 021545Z 21008KT 170V280 9999 FEW020 26/09 Q1015=
201009021515 METAR LIRA 021515Z 22007KT 160V280 9999 FEW018 26/10 Q1015=
201009021445 METAR LIRA 021445Z 22009KT 180V270 9999 FEW020 26/10 Q1015=
201009021415 METAR LIRA 021415Z 20009KT 130V280 9999 FEW018 27/11 Q1015=
201009021345 METAR LIRA 021345Z 19005KT 120V270 9999 FEW018 27/12 Q1015=
201009021315 METAR LIRA 021315Z 22009KT 110V270 9999 FEW018 28/12 Q1015=
201009021245 METAR LIRA 021245Z 20006KT 120V240 9999 FEW018 27/11 Q1015=
201009021215 METAR LIRA 021215Z 16007KT 120V240 9999 FEW018 27/11 Q1015=
201009021145 METAR LIRA 021145Z 21006KT 140V270 9999 FEW018 27/11 Q1016=
201009021115 METAR LIRA 021115Z 18007KT 150V260 9999 FEW018 27/10 Q1016=
201009021045 METAR LIRA 021045Z 15006KT 110V230 9999 FEW018 26/10 Q1016=
201009021015 METAR LIRA 021015Z 15009KT 110V240 9999 FEW018 27/09 Q1016=
201009020945 METAR LIRA 020945Z 17003KT 120V240 9999 FEW018 26/10 Q1016=
201009020915 METAR LIRA 020915Z 16006KT 150V250 9999 FEW018 26/09 Q1016=
201009020845 METAR LIRA 020845Z 19007KT 130V240 9999 FEW080 25/10 Q1016=
201009020815 METAR LIRA 020815Z 19005KT 140V240 9999 FEW080 24/12 Q1015=
201009020745 METAR LIRA 020745Z 34002KT 9999 FEW070 22/13 Q1015=
201009020715 METAR LIRA 020715Z 01002KT 9999 FEW070 21/13 Q1015=
201009020645 METAR LIRA 020645Z 03003KT 9999 FEW070 20/12 Q1015=
201009020615 METAR LIRA 020615Z 04002KT 9999 FEW070 18/12 Q1015=
201009020545 METAR LIRA 020545Z 09002KT 9999 FEW070 15/11 Q1015=
201009020515 METAR LIRA 020515Z 10003KT 9999 FEW070 14/10 Q1015=
201009020445 METAR LIRA 020445Z 07003KT 9999 FEW070 14/12 Q1015=
201009020415 METAR LIRA 020415Z 04003KT CAVOK 14/12 Q1015=
201009020345 METAR LIRA 020345Z 33002KT CAVOK 14/12 Q1015=
201009020315 METAR LIRA 020315Z 35003KT CAVOK 15/11 Q1015=
201009020245 METAR LIRA 020245Z 03003KT CAVOK 15/10 Q1015=
201009020215 METAR LIRA 020215Z 06002KT CAVOK 16/09 Q1015=
201009020145 METAR LIRA 020145Z 10004KT CAVOK 16/09 Q1015=
201009020115 METAR LIRA 020115Z 10004KT CAVOK 17/10 Q1015=
201009020045 METAR LIRA 020045Z 10002KT CAVOK 17/10 Q1015=
201009020015 METAR LIRA 020015Z 15001KT CAVOK 17/11 Q1015=
201009012350 METAR LIRA 020045Z 10002KT CAVOK 17/10 Q1015=
201009012345 METAR LIRA 012345Z 13002KT CAVOK 17/12 Q1015=
201009012315 METAR LIRA 012315Z 13003KT CAVOK 17/13 Q1015=
201009012245 METAR LIRA 012245Z 11002KT CAVOK 17/13 Q1015=
201009012215 METAR LIRA 012215Z 11003KT CAVOK 18/14 Q1015=
201009012145 METAR LIRA 012145Z 10003KT CAVOK 18/14 Q1015=
201009012115 METAR LIRA 012115Z 13002KT CAVOK 19/14 Q1015=
201009012045 METAR LIRA 012045Z 17002KT CAVOK 20/14 Q1015=
201009012015 METAR LIRA 012015Z 17003KT CAVOK 20/14 Q1015=
201009011945 METAR LIRA 011945Z 17003KT CAVOK 20/14 Q1015=
201009011915 METAR LIRA 011915Z 18004KT CAVOK 21/14 Q1015=
201009011845 METAR LIRA 011845Z 19004KT 9999 FEW018 21/14 Q1014=
201009011815 METAR LIRA 011815Z 22004KT 9999 FEW018 21/15 Q1014=
201009011745 METAR LIRA 011745Z 21004KT 180V250 9999 FEW018 23/15 Q1014=
201009011715 METAR LIRA 011715Z 21006KT 170V250 9999 FEW018 23/14 Q1014=
201009011645 METAR LIRA 011645Z 23008KT 200V290 9999 FEW018 24/12 Q1014=
201009011615 METAR LIRA 011615Z 23010KT 200V300 9999 FEW018 25/12 Q1014=
201009011545 METAR LIRA 011545Z 22009KT 170V270 9999 FEW018 26/12 Q1014=
201009011515 METAR LIRA 011515Z 20009KT 150V260 9999 FEW018 26/09 Q1013=
201009011445 METAR LIRA 011445Z 21010KT 160V260 9999 FEW018 25/09 Q1013=
201009011415 METAR LIRA 011415Z 21010KT 130V270 9999 FEW018 26/09 Q1014=
201009011345 METAR LIRA 011345Z 22008KT 140V310 9999 SCT018 27/08 Q1014=
201009011315 METAR LIRA 011315Z 21009KT 140V290 9999 SCT018 27/07 Q1014=
201009011245 METAR LIRA 011245Z 20009KT 150V260 9999 SCT018 27/08 Q1014=
201009011215 METAR LIRA 011215Z 21008KT 100V300 9999 SCT018 27/08 Q1014=
201009011145 METAR LIRA 011145Z 23007KT 170V330 9999 SCT018 27/08 Q1014=
201009011115 METAR LIRA 011115Z 24008KT 180V310 CAVOK 27/07 Q1014=
201009011045 METAR LIRA 011045Z 23007KT 180V310 9999 SCT018 27/07 Q1014=
201009011015 METAR LIRA 011015Z 20005G15KT 170V290 9999 FEW018 27/07 Q1014=
201009010945 METAR LIRA 010945Z 25006KT 190V310 9999 FEW018 26/07 Q1014=
201009010915 METAR LIRA 010915Z 26004KT 9999 FEW018 25/08 Q1014=
201009010845 METAR LIRA 010845Z 36003KT 9999 FEW020 24/08 Q1014=
201009010815 METAR LIRA 010815Z 01004KT CAVOK 24/07 Q1014=
201009010745 METAR LIRA 010745Z 36003KT CAVOK 21/07 Q1014=
201009010715 METAR LIRA 010715Z 03003KT CAVOK 20/09 Q1014=
201009010645 METAR LIRA 010645Z 02003KT CAVOK 18/09 Q1013=
201009010615 METAR LIRA 010615Z 01003KT CAVOK 17/10 Q1013=
201009010545 METAR LIRA 010545Z 05002KT CAVOK 15/09 Q1013=
201009010515 METAR LIRA 010515Z 04003KT CAVOK 14/09 Q1013=
201009010445 METAR LIRA 010445Z 04004KT CAVOK 14/09 Q1012=
201009010415 METAR LIRA 010415Z 02003KT CAVOK 14/09 Q1012=
201009010345 METAR LIRA 010345Z 04004KT CAVOK 14/09 Q1012=
201009010315 METAR LIRA 010315Z 04003KT CAVOK 14/08 Q1012=
201009010245 METAR LIRA 010245Z 05003KT CAVOK 14/08 Q1012=
201009010215 METAR LIRA 010215Z 03003KT CAVOK 15/08 Q1012=
201009010145 METAR LIRA 010145Z 05002KT CAVOK 15/08 Q1012=
201009010115 METAR LIRA 010115Z 32004KT CAVOK 16/07 Q1012=
201009010045 METAR LIRA 010045Z 31004KT CAVOK 16/07 Q1012=
201009010015 METAR LIRA 010015Z 03002KT CAVOK 16/07 Q1012=

</pre>

</body>
</html>
