##########################################################
# Query made at 11/10/2014 17:05:53 UTC
# Time interval: from 09/01/2012 00:00  to 10/01/2012 23:59  UTC
##########################################################

##########################################################
# LIRA, Roma / Ciampino (Italy)
# WMO index: 16239
# Latitude 41-47N. Longitude 012-35E. Altitude 129 m.
##########################################################

###################################
#  METAR/SPECI from LIRA
###################################
201210012350 METAR LIRA 020045Z 10003KT 9999 FEW015 SCT020 19/17 Q1016=
201210012345 METAR LIRA 012345Z 16002KT 9999 FEW020 BKN070 19/17 Q1017=
201210012315 METAR LIRA 012315Z 10003KT 9999 FEW023 BKN070 18/16 Q1017=
201210012245 METAR LIRA 012245Z 14001KT 9999 FEW023 SCT070 18/17 Q1017=
201210012215 METAR LIRA 012215Z 16002KT 9999 FEW023 SCT070 18/17 Q1017=
201210012145 METAR LIRA 012145Z 00000KT 9999 FEW023 SCT070 18/17 Q1017=
201210012115 METAR LIRA 012115Z 00000KT 9999 FEW023 SCT070 19/17 Q1017=
201210012045 METAR LIRA 012045Z 17002KT 9999 FEW030 SCT070 19/18 Q1017=
201210012015 METAR LIRA 012015Z 16002KT 9999 FEW030 SCT070 19/17 Q1016=
201210011945 METAR LIRA 011945Z 17001KT 9999 FEW030 19/18 Q1016=
201210011915 METAR LIRA 011915Z 22001KT 9999 FEW030 SCT070 20/18 Q1016=
201210011845 METAR LIRA 011845Z 00000KT 9999 FEW030 SCT070 20/18 Q1016=
201210011815 METAR LIRA 011815Z 25002KT 9999 FEW020CB SCT070 21/18 Q1016=
201210011745 METAR LIRA 011745Z 00000KT 9999 FEW020CB SCT060 21/18 Q1016=
201210011715 METAR LIRA 011715Z 30001KT 9999 FEW020TCU SCT060 21/18 Q1016=
201210011645 METAR LIRA 011645Z 26002KT 9999 FEW020TCU SCT025 21/18 Q1016=
201210011615 METAR LIRA 011615Z 27003KT 9999 FEW020TCU SCT025 22/18 Q1015=
201210011545 METAR LIRA 011545Z 27003KT 9999 FEW020TCU SCT060 22/18 Q1015=
201210011515 METAR LIRA 011515Z 22002KT 9999 FEW030 SCT060 23/19 Q1015=
201210011445 METAR LIRA 011445Z 23003KT 9999 FEW030 SCT060 23/19 Q1015=
201210011415 METAR LIRA 011415Z 23005KT 9999 SCT030 BKN070 23/19 Q1016=
201210011345 METAR LIRA 011345Z 23003KT 9999 SCT030 BKN070 23/19 Q1016=
201210011315 METAR LIRA 011315Z 22004KT 9999 SCT030 BKN070 24/20 Q1016=
201210011245 METAR LIRA 011245Z 24004KT 9999 SCT030 BKN070 23/19 Q1016=
201210011215 METAR LIRA 011215Z 27005KT 230V300 9999 SCT030 BKN070 24/20
                        Q1016=
201210011145 METAR LIRA 011145Z 26003KT 9999 FEW040 BKN080 24/20 Q1016=
201210011115 METAR LIRA 011115Z 30002KT 9999 FEW040 BKN080 23/19 Q1016=
201210011045 METAR LIRA 011045Z 30002KT 9999 FEW040 BKN080 23/18 Q1016=
201210011015 METAR LIRA 011015Z 30001KT 9999 FEW040 BKN080 23/19 Q1016=
201210010945 METAR LIRA 010945Z 36002KT 9999 FEW040 BKN080 21/19 Q1016=
201210010915 METAR LIRA 010915Z 01002KT 9999 FEW040 20/18 Q1016=
201210010845 METAR LIRA 010845Z 01001KT 9999 SCT040 19/18 Q1016=
201210010815 METAR LIRA 010815Z 02003KT 9999 SCT040 SCT080 18/16 Q1016=
201210010745 METAR LIRA 010745Z 01002KT 9999 SCT040 SCT080 17/16 Q1016=
201210010715 METAR LIRA 010715Z 33002KT 9999 SCT040 SCT080 17/15 Q1016=
201210010645 METAR LIRA 010645Z 36002KT 9999 SCT040 SCT080 17/15 Q1016=
201210010615 METAR LIRA 010615Z 04001KT 9999 FEW040 16/14 Q1016=
201210010545 METAR LIRA 010545Z 05002KT 9999 FEW080 15/14 Q1016=
201210010515 METAR LIRA 010515Z 36001KT CAVOK 16/14 Q1015=
201210010445 METAR LIRA 010445Z 01001KT CAVOK 16/14 Q1015=
201210010415 METAR LIRA 010415Z 36002KT CAVOK 16/14 Q1015=
201210010345 METAR LIRA 010345Z 02003KT CAVOK 16/14 Q1015=
201210010315 METAR LIRA 010315Z 04004KT CAVOK 16/14 Q1015=
201210010245 METAR LIRA 010245Z 04002KT CAVOK 16/14 Q1015=
201210010215 METAR LIRA 010215Z 02003KT CAVOK 16/15 Q1015=
201210010145 METAR LIRA 010145Z 03002KT 9999 FEW020 16/15 Q1015=
201210010115 METAR LIRA 010115Z 01001KT 9999 FEW020 SCT070 17/15 Q1016=
201210010045 METAR LIRA 010045Z 01002KT 9999 FEW020 SCT070 17/15 Q1016=
201210010015 METAR LIRA 010015Z 04003KT 9999 FEW020 SCT070 17/15 Q1016=
201209302350 METAR LIRA 010045Z 01002KT 9999 FEW020 SCT070 17/15 Q1016=
201209302345 METAR LIRA 302345Z 03005KT 9999 FEW020 SCT070 17/15 Q1016=
201209302315 METAR LIRA 302315Z 04004KT 9999 FEW020 SCT070 17/15 Q1016=
201209302245 METAR LIRA 302245Z 03004KT 9999 FEW020 SCT070 17/15 Q1016=
201209302215 METAR LIRA 302215Z 36004KT 9999 FEW020 SCT070 17/15 Q1016=
201209302145 METAR LIRA 302145Z 35003KT 9999 FEW020 SCT070 17/15 Q1016=
201209302115 METAR LIRA 302115Z 04004KT 9999 FEW020 SCT030 17/16 Q1017=
201209302045 METAR LIRA 302045Z 04004KT 9999 FEW017 SCT030 18/16 Q1017=
201209302015 METAR LIRA 302015Z 03005KT 9999 FEW017 SCT030 18/16 Q1017=
201209301945 METAR LIRA 301945Z 36005KT 9999 FEW017 FEW023CB SCT030 18/16
                        Q1016 RETS=
201209301915 METAR LIRA 301915Z 04004KT 9999 FEW017 FEW023CB SCT030 18/17
                        Q1016 RETS=
201209301845 METAR LIRA 301845Z 09007KT 8000 -TSRA FEW015 FEW020CB SCT025
                        18/16 Q1016=
201209301815 METAR LIRA 301815Z 08007KT 6000 -TSRA FEW015 SCT020CB BKN025
                        17/16 Q1017=
201209301745 METAR LIRA 301745Z 04003KT 6000 -TSRA FEW015 SCT020CB BKN025
                        18/16 Q1017=
201209301715 METAR LIRA 301715Z 09002KT 6000 -TSRA FEW015 FEW020CB BKN025
                        18/16 Q1017=
201209301645 METAR LIRA 301645Z 24005KT 220V300 6000 -TSRA FEW015 FEW020CB
                        SCT030 18/16 Q1017=
201209301615 METAR LIRA 301615Z 07009KT 8000 -RA FEW015 FEW020CB SCT030
                        19/17 Q1014 RETS=
201209301545 METAR LIRA 301545Z 10008KT 6000 -TSRA FEW015 FEW020CB BKN030
                        19/18 Q1016=
201209301515 METAR LIRA 301515Z 23004KT 6000 -TSRA FEW015 FEW020CB BKN030
                        20/18 Q1017=
201209301445 METAR LIRA 301445Z 14003KT 8000 -TSRA FEW022CB SCT030 20/18
                        Q1016=
201209301415 METAR LIRA 301415Z 07002KT 8000 -TSRA FEW015 FEW022CB SCT030
                        20/18 Q1016=
201209301345 METAR LIRA 301345Z 29004KT 7000 -TSRA FEW015 FEW022CB SCT030
                        20/18 Q1016=
201209301315 METAR LIRA 301315Z 09011KT 9999 FEW022CB SCT030 21/18 Q1015=
201209301245 METAR LIRA 301245Z 09008KT 7000 -SHRA FEW019 FEW022CB SCT030
                        21/19 Q1016=
201209301215 METAR LIRA 301215Z 21008KT 8000 -SHRA FEW016 FEW022CB SCT030
                        22/19 Q1018=
201209301145 METAR LIRA 301145Z 13009KT 090V160 9999 -SHRA FEW016 FEW022CB
                        SCT030 23/18 Q1016=
201209301115 METAR LIRA 301115Z 15009KT 9999 FEW022CB SCT030 22/19 Q1016=
201209301045 METAR LIRA 301045Z 16014KT 9999 -SHRA FEW022CB SCT030 23/20
                        Q1017=
201209301015 METAR LIRA 301015Z 17009KT 9999 FEW022CB SCT070 24/19 Q1017=
201209300945 METAR LIRA 300945Z 20007KT 170V240 9999 FEW022CB SCT070 24/19
                        Q1016=
201209300915 METAR LIRA 300915Z 17005KT 150V210 9999 FEW022CB SCT070 24/20
                        Q1016=
201209300845 METAR LIRA 300845Z 23005KT 180V240 9999 FEW022 SCT070 24/20
                        Q1016=
201209300815 METAR LIRA 300815Z 06003KT 9999 FEW030 SCT080 24/21 Q1015=
201209300745 METAR LIRA 300745Z 09003KT 9999 FEW020 SCT080 22/20 Q1015=
201209300715 METAR LIRA 300715Z 32002KT 9999 FEW020 SCT080 21/19 Q1015=
201209300645 METAR LIRA 300645Z 36006KT 9999 FEW020 FEW022CB SCT080 21/19
                        Q1015=
201209300615 METAR LIRA 300615Z 15006KT 9999 -RA FEW020 SCT080 22/18 Q1015=
201209300545 METAR LIRA 300545Z 24005KT 130V250 9999 -RA FEW020CB SCT080
                        20/19 Q1015=
201209300515 METAR LIRA 300515Z 22002KT 9999 FEW020CB SCT080 20/19 Q1015=
201209300445 METAR LIRA 300445Z 24004KT 9999 FEW020 SCT070 20/19 Q1014=
201209300415 METAR LIRA 300415Z 04004KT 9999 FEW020 21/19 Q1014=
201209300345 METAR LIRA 300345Z 06007KT 9999 FEW030 SCT070 20/19 Q1014=
201209300315 METAR LIRA 300315Z 06006KT 9999 FEW018 SCT030 20/19 Q1014=
201209300245 METAR LIRA 300245Z 05008KT 9999 FEW017 FEW018CB SCT030 20/19
                        Q1015 RETS=
201209300215 METAR LIRA 300215Z 03005KT 9999 FEW017 FEW018CB BKN030 20/19
                        Q1016 RETS=
201209300145 METAR LIRA 300145Z 26001KT 9999 -TSRA FEW017 FEW018CB BKN030
                        20/19 Q1016=
201209300115 METAR LIRA 300115Z 23012G25KT 170V270 8000 -TSRA FEW017 FEW018CB
                        BKN030 22/21 Q1016=
201209300045 METAR LIRA 300045Z 20009KT 9999 FEW017 FEW018CB BKN030 23/21
                        Q1015=
201209300015 METAR LIRA 300015Z 18005KT 9999 FEW018 SCT030 BKN070 23/21
                        Q1014=
201209292350 METAR LIRA 300045Z 20009KT 9999 FEW017 FEW018CB BKN030 23/21
                        Q1015=
201209292215 METAR LIRA 292215Z 16003KT 9999 FEW030 SCT070 23/21 Q1014=
201209292145 METAR LIRA 292145Z 19006KT 9999 FEW030 SCT070 24/21 Q1014=
201209292115 METAR LIRA 292115Z 18006KT 9999 FEW033 SCT070 24/21 Q1014=
201209292045 METAR LIRA 292045Z 16007KT 9999 FEW033 SCT070 24/21 Q1014=
201209292015 METAR LIRA 292015Z 18006KT 9999 FEW033 BKN070 24/21 Q1014=
201209291945 METAR LIRA 291945Z 19007KT 9999 FEW033 SCT070 24/21 Q1014=
201209291915 METAR LIRA 291915Z 16011KT 9999 FEW033 SCT070 25/20 Q1013=
201209291845 METAR LIRA 291845Z 16011KT 9999 FEW033 SCT070 25/20 Q1013=
201209291815 METAR LIRA 291815Z 19010KT 9999 FEW033 SCT070 25/19 Q1013=
201209291745 METAR LIRA 291745Z 17011KT 9999 FEW030 BKN070 25/18 Q1013=
201209291715 METAR LIRA 291715Z 18010KT 9999 FEW030 BKN070 26/17 Q1012=
201209291645 METAR LIRA 291645Z 17012KT 9999 FEW030 SCT070 27/14 Q1012=
201209291615 METAR LIRA 291615Z 17013KT 9999 FEW030 SCT070 28/13 Q1012=
201209291545 METAR LIRA 291545Z 18012KT 9999 FEW030 SCT070 28/11 Q1014=
201209291515 METAR LIRA 291515Z 15013KT 9999 FEW030 SCT070 29/11 Q1013=
201209291445 METAR LIRA 291445Z 16013KT 9999 FEW030 SCT070 29/11 Q1014=
201209291415 METAR LIRA 291415Z 17018KT 9999 FEW030 SCT070 31/08 Q1014=
201209291345 METAR LIRA 291345Z 17016KT 9999 FEW030 SCT070 31/08 Q1014=
201209291315 METAR LIRA 291315Z 16018G28KT 9999 SCT070 SCT200 32/08 Q1014=
201209291245 METAR LIRA 291245Z 16021KT 9999 SCT070 SCT200 32/08 Q1014=
201209291215 METAR LIRA 291215Z 16021G34KT 9999 SCT070 SCT200 32/09 Q1014=
201209291145 METAR LIRA 291145Z 14021KT 9999 SCT070 BKN200 32/09 Q1014=
201209291115 METAR LIRA 291115Z 14020KT 9999 FEW020 SCT070 32/09 Q1014=
201209291045 METAR LIRA 291045Z 13020G30KT 9999 FEW020 SCT070 31/08 Q1014=
201209291015 METAR LIRA 291015Z 13021KT 9999 FEW020 SCT070 31/08 Q1014=
201209291000 METAR LIRA INT CB SW/NE=
201209290945 METAR LIRA 290945Z 14018G28KT 9999 FEW020 SCT070 31/08 Q1014=
201209290915 METAR LIRA 290915Z 14017KT 9999 FEW020 SCT070 31/09 Q1014=
201209290845 METAR LIRA 290845Z 14018KT 9999 FEW020 SCT070 31/09 Q1014=
201209290815 METAR LIRA 290815Z 14018KT 9999 FEW020 SCT070 30/10 Q1014=
201209290800 LIRA CONTUS CB SW-NW=
201209290745 METAR LIRA 290745Z 14019G29KT 9999 FEW020 BKN070 30/09 Q1014=
201209290715 METAR LIRA 290715Z 14017KT 9999 FEW020 BKN070 29/08 Q1014=
201209290645 METAR LIRA 290645Z 15014KT 9999 FEW020 SCT070 29/08 Q1014=
201209290615 METAR LIRA 290615Z 14013KT 9999 SCT070 28/08 Q1014=
201209290545 METAR LIRA 290545Z 14009KT 9999 FEW070 26/09 Q1013=
201209290515 METAR LIRA 290515Z 03001KT 9999 FEW070 20/12 Q1013=
201209290445 METAR LIRA 290445Z 31003KT 9999 FEW070 20/12 Q1013=
201209290415 METAR LIRA 290415Z 35003KT 9999 FEW070 20/11 Q1013=
201209290345 METAR LIRA 290345Z 05001KT CAVOK 20/12 Q1014=
201209290315 METAR LIRA 290315Z 31003KT CAVOK 20/12 Q1014=
201209290245 METAR LIRA 290245Z 34003KT CAVOK 20/12 Q1014=
201209290215 METAR LIRA 290215Z 01001KT CAVOK 20/12 Q1014=
201209290145 METAR LIRA 290145Z 36001KT CAVOK 20/12 Q1014=
201209290115 METAR LIRA 290115Z 33003KT CAVOK 20/14 Q1014=
201209290045 METAR LIRA 290045Z 00000KT CAVOK 19/13 Q1015=
201209290015 METAR LIRA 290015Z 31001KT CAVOK 20/14 Q1015=
201209282350 METAR LIRA 290045Z 00000KT CAVOK 19/13 Q1015=
201209282345 METAR LIRA 282345Z 00000KT CAVOK 20/14 Q1015=
201209282315 METAR LIRA 282315Z 04001KT CAVOK 20/14 Q1015=
201209282245 METAR LIRA 282245Z 00000KT CAVOK 20/14 Q1015=
201209282215 METAR LIRA 282215Z 25002KT CAVOK 21/14 Q1015=
201209282145 METAR LIRA 282145Z 16001KT 9999 FEW070 21/15 Q1015=
201209282115 METAR LIRA 282115Z 00000KT 9999 FEW070 22/16 Q1016=
201209282045 METAR LIRA 282045Z 00000KT 9999 FEW040 SCT070 22/16 Q1016=
201209282015 METAR LIRA 282015Z 00000KT 9999 FEW040 SCT070 23/16 Q1016=
201209281945 METAR LIRA 281945Z 34002KT 9999 FEW050 SCT070 24/17 Q1016=
201209281915 METAR LIRA 281915Z 04001KT 9999 FEW050 SCT070 24/18 Q1016=
201209281845 METAR LIRA 281845Z 35002KT 9999 FEW050 25/18 Q1016=
201209281815 METAR LIRA 281815Z 31001KT 9999 FEW050 SCT070 25/19 Q1016=
201209281745 METAR LIRA 281745Z 20001KT 9999 SCT050 SCT070 26/19 Q1016=
201209281715 METAR LIRA 281715Z 21003KT 9999 SCT050 SCT070 27/17 Q1015=
201209281645 METAR LIRA 281645Z 21002KT 9999 SCT030 SCT070 28/12 Q1015=
201209281615 METAR LIRA 281615Z 12004KT 9999 SCT030 SCT070 29/11 Q1015=
201209281545 METAR LIRA 281545Z 13005KT 9999 SCT030 SCT070 29/12 Q1016=
201209281515 METAR LIRA 281515Z 14005KT 9999 FEW020 SCT070 30/11 Q1016=
201209281445 METAR LIRA 281445Z 13006KT 9999 FEW020 SCT070 30/10 Q1016=
201209281415 METAR LIRA 281415Z 14006KT 9999 FEW020 SCT070 30/12 Q1016=
201209281345 METAR LIRA 281345Z 13007KT 9999 FEW020 SCT070 30/12 Q1016=
201209281315 METAR LIRA 281315Z 14007KT 100V170 9999 FEW020 BKN070 30/12
                        Q1016=
201209281245 METAR LIRA 281245Z 17003KT 9999 FEW020 BKN070 29/12 Q1016=
201209281215 METAR LIRA 281215Z 17007KT 9999 FEW020 BKN070 29/13 Q1017=
201209281145 METAR LIRA 281145Z 17011KT 9999 FEW020 BKN070 29/15 Q1017=
201209281115 METAR LIRA 281115Z 16012KT 9999 FEW020 BKN070 28/14 Q1017=
201209281045 METAR LIRA 281045Z 16014KT 9999 FEW020 BKN070 28/13 Q1016=
201209281015 METAR LIRA 281015Z 16013KT 9999 FEW020 BKN070 27/13 Q1016=
201209280945 METAR LIRA 280945Z 15012KT 9999 FEW020 BKN070 27/14 Q1017=
201209280915 METAR LIRA 280915Z 15011KT 9999 FEW020 BKN070 26/15 Q1017=
201209280845 METAR LIRA 280845Z 12004KT 9999 FEW020 BKN070 26/18 Q1017=
201209280815 METAR LIRA 280815Z 06002KT 9999 FEW020 BKN070 24/19 Q1016=
201209280745 METAR LIRA 280745Z 31004KT 9999 FEW020 BKN070 24/19 Q1016=
201209280715 METAR LIRA 280715Z 32005KT 9999 FEW020 SCT070 23/19 Q1016=
201209280645 METAR LIRA 280645Z 34003KT 9999 FEW030 SCT070 21/19 Q1015=
201209280615 METAR LIRA 280615Z 32003KT 9999 FEW030 SCT070 20/18 Q1015=
201209280545 METAR LIRA 280545Z 01002KT 9999 FEW030 SCT070 19/17 Q1015=
201209280515 METAR LIRA 280515Z 31003KT 9999 FEW030 SCT070 19/16 Q1015=
201209280445 METAR LIRA 280445Z 01003KT 9999 FEW030 SCT070 19/14 Q1015=
201209280415 METAR LIRA 280415Z 15002KT 9999 FEW030 19/15 Q1015=
201209280345 METAR LIRA 280345Z 17001KT CAVOK 19/15 Q1015=
201209280315 METAR LIRA 280315Z 14001KT CAVOK 19/16 Q1015=
201209280245 METAR LIRA 280245Z 12001KT 9999 FEW080 19/16 Q1015=
201209280215 METAR LIRA 280215Z 13001KT 9999 FEW080 20/17 Q1015=
201209280145 METAR LIRA 280145Z 13001KT 9999 FEW080 20/17 Q1015=
201209280115 METAR LIRA 280115Z 34003KT 9999 FEW080 21/16 Q1016=
201209280045 METAR LIRA 280045Z 35003KT 9999 SCT080 21/16 Q1016=
201209280015 METAR LIRA 280015Z 16001KT 9999 SCT080 21/17 Q1016=
201209272350 METAR LIRA 280045Z 35003KT 9999 SCT080 21/16 Q1016=
201209272345 METAR LIRA 272345Z 00000KT 9999 BKN080 21/17 Q1016=
201209272315 METAR LIRA 272315Z 11002KT CAVOK 21/18 Q1016=
201209272245 METAR LIRA 272245Z 07001KT CAVOK 21/19 Q1016=
201209272215 METAR LIRA 272215Z 00000KT CAVOK 21/18 Q1016=
201209272145 METAR LIRA 272145Z 12001KT CAVOK 21/18 Q1016=
201209272115 METAR LIRA 272115Z 00000KT CAVOK 22/19 Q1016=
201209272045 METAR LIRA 272045Z 14004KT CAVOK 22/18 Q1016=
201209272015 METAR LIRA 272015Z 16003KT CAVOK 24/20 Q1016=
201209271945 METAR LIRA 271945Z 17005KT CAVOK 24/20 Q1016=
201209271915 METAR LIRA 271915Z 14005KT CAVOK 24/20 Q1016=
201209271845 METAR LIRA 271845Z 14010KT CAVOK 24/21 Q1016=
201209271815 METAR LIRA 271815Z 17006KT CAVOK 24/21 Q1016=
201209271745 METAR LIRA 271745Z 18006KT 9999 FEW020 SCT200 24/21 Q1015=
201209271715 METAR LIRA 271715Z 17009KT 9999 FEW020 SCT200 25/22 Q1015=
201209271645 METAR LIRA 271645Z 15010KT 9999 FEW020 SCT200 25/21 Q1015=
201209271615 METAR LIRA 271615Z 16012KT 9999 FEW020 25/22 Q1015=
201209271545 METAR LIRA 271545Z 16015KT 9999 FEW020 26/22 Q1014=
201209271515 METAR LIRA 271515Z 17014KT 9999 FEW025 26/22 Q1014=
201209271445 METAR LIRA 271445Z 18014KT 9999 FEW025 27/22 Q1014=
201209271415 METAR LIRA 271415Z 19013KT 9999 FEW020 29/21 Q1014=
201209271345 METAR LIRA 271345Z 18011KT 140V220 9999 FEW018 29/20 Q1014=
201209271315 METAR LIRA 271315Z 17010KT 9999 FEW018 29/18 Q1014=
201209271245 METAR LIRA 271245Z 14011KT 9999 FEW018 29/21 Q1014=
201209271215 METAR LIRA 271215Z 16012KT 9999 FEW018 28/21 Q1014=
201209271145 METAR LIRA 271145Z 17011KT 9999 FEW018 28/21 Q1015=
201209271115 METAR LIRA 271115Z 16011KT 9999 FEW018 28/20 Q1015=
201209271045 METAR LIRA 271045Z 17013KT 9999 SCT016 27/21 Q1015=
201209271015 METAR LIRA 271015Z 17010KT 140V210 9999 SCT016 27/22 Q1015=
201209270915 METAR COR LIRA 270915Z 17010KT 140V200 9999 SCT016 26/22
                        Q1015=
201209270845 METAR LIRA 270845Z 16011KT 9999 SCT016 25/23 Q1015=
201209270815 METAR LIRA 270815Z 18010KT 150V210 9999 SCT016 24/23 Q1015=
201209270745 METAR LIRA 270745Z 18010KT 160V230 9999 SCT016 24/22 Q1015=
201209270715 METAR LIRA 270715Z 17010KT 9999 SCT016 24/22 Q1014=
201209270645 METAR LIRA 270645Z 17008KT 9999 FEW016 23/21 Q1014=
201209270615 METAR LIRA 270615Z 17007KT 9999 FEW016 23/21 Q1014=
201209270545 METAR LIRA 270545Z 18008KT 9999 FEW016 22/20 Q1013=
201209270515 METAR LIRA 270515Z 17008KT 9999 FEW016 22/20 Q1013=
201209270445 METAR LIRA 270445Z 17008KT 9999 SCT016 22/21 Q1013=
201209270415 METAR LIRA 270415Z 18008KT 9999 FEW016 23/21 Q1013=
201209270345 METAR LIRA 270345Z 16009KT 9999 FEW016 23/21 Q1013=
201209270315 METAR LIRA 270315Z 16009KT 9999 FEW016 23/21 Q1013=
201209270245 METAR LIRA 270245Z 17010KT 9999 SCT020 23/21 Q1013=
201209270215 METAR LIRA 270215Z 17010KT 9999 SCT020 23/21 Q1012=
201209270145 METAR LIRA 270145Z 16010KT 9999 SCT020 24/20 Q1013=
201209270115 METAR LIRA 270115Z 16012KT 9999 SCT020 24/20 Q1013=
201209270045 METAR LIRA 270045Z 17012KT 9999 SCT020 24/20 Q1013=
201209270015 METAR LIRA 270015Z 15014KT 9999 FEW020 24/19 Q1013=
201209262350 METAR LIRA 270045Z 17012KT 9999 SCT020 24/20 Q1013=
201209262345 METAR LIRA 262345Z 15016KT 9999 FEW020 24/18 Q1013=
201209262315 METAR LIRA 262315Z 17015KT 9999 FEW020 SCT080 24/17 Q1013=
201209262245 METAR LIRA 262245Z 17015KT 9999 SCT080 25/16 Q1012=
201209262215 METAR LIRA 262215Z 16018KT 9999 FEW080 25/14 Q1012=
201209262145 METAR LIRA 262145Z 16019KT 9999 FEW070 25/13 Q1012=
201209262115 METAR LIRA 262115Z 16015G25KT 9999 FEW020 SCT070 26/12 Q1012=
201209262045 METAR LIRA 262045Z 15017G28KT 9999 FEW020 SCT070 26/12 Q1012=
201209262015 METAR LIRA 262015Z 15018KT 9999 FEW020 SCT060 26/12 Q1012=
201209261945 METAR LIRA 261945Z 15018KT 9999 FEW020 SCT060 26/13 Q1012=
201209261915 METAR LIRA 261915Z 15018KT 9999 FEW020 SCT060 26/13 Q1012=
201209261845 METAR LIRA 261845Z 15016KT 9999 FEW020 SCT060 26/14 Q1012=
201209261815 METAR LIRA 261815Z 15015KT 9999 FEW020 SCT080 25/15 Q1012=
201209261745 METAR LIRA 261745Z 16013KT 9999 FEW020 BKN080 25/16 Q1012=
201209261715 METAR LIRA 261715Z 16011KT 9999 FEW018 BKN080 26/15 Q1012=
201209261645 METAR LIRA 261645Z 15012G22KT 9999 FEW018 SCT060 26/15 Q1012=
201209261615 METAR LIRA 261615Z 13013KT 9999 FEW018 BKN070 26/16 Q1012=
201209261545 METAR LIRA 261545Z 14012KT 9999 FEW030 SCT070 25/17 Q1013=
201209261515 METAR LIRA 261515Z 13011KT 9999 SCT030 BKN070 25/16 Q1013=
201209261445 METAR LIRA 261445Z 13014KT 9999 SCT030 SCT070 25/17 Q1013=
201209261415 METAR LIRA 261415Z 13016KT 9999 SCT030 SCT070 25/17 Q1013=
201209261345 METAR LIRA 261345Z 13015KT 9999 SCT030 SCT070 25/19 Q1013=
201209261315 METAR LIRA 261315Z 15015KT 110V170 9999 -RA FEW020 BKN030
                        24/19 Q1014=
201209261245 METAR LIRA 261245Z 15018KT 9999 -RA FEW020 BKN030 25/19 Q1014=
201209261215 METAR LIRA 261215Z 16017KT 9999 FEW020 BKN030 25/19 Q1014=
201209261145 METAR LIRA 261145Z 15015KT 9999 FEW020 BKN030 25/18 Q1014=
201209261115 METAR LIRA 261115Z 15018G28KT 130V190 9999 FEW023 BKN040
                        24/17 Q1014=
201209261045 METAR LIRA 261045Z 15020G32KT 130V190 9999 FEW023 BKN040
                        26/17 Q1014=
201209261015 METAR LIRA 261015Z 15024G34KT 9999 FEW025 BKN040 25/18 Q1014=
201209260945 METAR LIRA 260945Z 15022G33KT 9999 FEW025 BKN040 24/18 Q1014=
201209260915 METAR LIRA 260915Z 14024KT 9999 BKN040 SCT070 24/19 Q1014=
201209260845 METAR LIRA 260845Z 15017KT 9999 BKN040 SCT070 24/19 Q1014=
201209260815 METAR LIRA 260815Z 15018KT 9999 BKN028 SCT070 24/19 Q1014=
201209260745 METAR LIRA 260745Z 15017KT 9999 FEW018CB BKN028 24/20 Q1014=
201209260715 METAR LIRA 260715Z 14018KT 9999 FEW018CB BKN028 23/20 Q1013=
201209260645 METAR LIRA 260645Z 14020G30KT 9999 FEW018CB BKN028 23/20
                        Q1013=
201209260615 METAR LIRA 260615Z 15013KT 9999 FEW018CB SCT030 23/19 Q1013=
201209260545 METAR LIRA 260545Z 15013KT 9999 FEW018TCU SCT025 22/19 Q1013=
201209260515 METAR LIRA 260515Z 15013KT 9999 FEW018TCU SCT070 22/18 Q1013=
201209260445 METAR LIRA 260445Z 19001KT 9999 FEW030 SCT070 20/18 Q1013=
201209260415 METAR LIRA 260415Z 00000KT 9999 FEW030 SCT070 20/18 Q1013=
201209260345 METAR LIRA 260345Z 08001KT 9999 FEW030 SCT070 20/18 Q1013=
201209260315 METAR LIRA 260315Z 08004KT 9999 FEW018 SCT070 20/19 Q1013=
201209260245 METAR LIRA 260245Z 16004KT 9999 SCT018 SCT070 21/20 Q1013=
201209260215 METAR LIRA 260215Z 14005KT 9999 SCT018 SCT070 21/20 Q1013=
201209260145 METAR LIRA 260145Z 14006KT 9999 SCT018 SCT070 22/20 Q1013=
201209260115 METAR LIRA 260115Z 16008KT 9999 SCT018 SCT070 22/20 Q1013=
201209260045 METAR LIRA 260045Z 16007KT 8000 SCT018 SCT070 21/20 Q1013=
201209260015 METAR LIRA 260015Z 16009KT 8000 SCT018 SCT070 21/20 Q1013
                        RERA=
201209252350 METAR LIRA 260045Z 16007KT 8000 SCT018 SCT070 21/20 Q1013=
201209252345 METAR LIRA 252345Z 18005KT 8000 SCT018 SCT070 21/20 Q1013
                        RERA=
201209252315 METAR LIRA 252315Z 18010KT 6000 RA SCT015 FEW018CB BKN025
                        21/20 Q1013=
201209252245 METAR LIRA 252245Z 18011KT 9999 -RA FEW018 SCT025 BKN070
                        22/20 Q1013=
201209252215 METAR LIRA 252215Z 17011KT 9999 FEW018 BKN080 23/20 Q1013=
201209252145 METAR LIRA 252145Z 15010KT 9999 FEW018 SCT080 23/21 Q1013=
201209252115 METAR LIRA 252115Z 16012KT 9999 FEW018 SCT080 23/21 Q1013=
201209252045 METAR LIRA 252045Z 15015KT 9999 FEW018 SCT070 23/20 Q1013=
201209252015 METAR LIRA 252015Z 15013KT 9999 FEW018 SCT070 23/20 Q1013=
201209251945 METAR LIRA 251945Z 15013KT 9999 FEW018 SCT030 22/20 Q1012=
201209251915 METAR LIRA 251915Z 15016KT 9999 FEW018 22/20 Q1012=
201209251845 METAR LIRA 251845Z 15014KT 9999 FEW018 22/19 Q1012=
201209251815 METAR LIRA 251815Z 15015KT 9999 FEW015 FEW018TCU SCT025 22/19
                        Q1012=
201209251745 METAR LIRA 251745Z 15015KT 9999 FEW015 FEW018CB SCT025 22/20
                        Q1012 RERA=
201209251715 METAR LIRA 251715Z 16015KT 8000 -RA FEW015 FEW017CB BKN025
                        22/20 Q1012 RERA=
201209251645 METAR LIRA 251645Z 16015KT 9999 FEW018 FEW020TCU SCT035 24/18
                        Q1012=
201209251615 METAR LIRA 251615Z 15013KT 9999 FEW018 SCT035 24/18 Q1012=
201209251545 METAR LIRA 251545Z 17013KT 9999 FEW018 SCT035 24/18 Q1012=
201209251515 METAR LIRA 251515Z 16013KT 9999 FEW018 SCT035 24/17 Q1012=
201209251445 METAR LIRA 251445Z 17011KT 130V200 9999 FEW018 SCT060 25/18
                        Q1012=
201209251415 METAR LIRA 251415Z 15013KT 9999 SCT018 25/16 Q1013=
201209251345 METAR LIRA 251345Z 18011KT 150V210 9999 FEW018 25/16 Q1013=
201209251315 METAR LIRA 251315Z 17013KT 140V200 9999 FEW018 25/16 Q1013=
201209251245 METAR LIRA 251245Z 17012KT 9999 FEW017 26/17 Q1013=
201209251215 METAR LIRA 251215Z 19013KT 9999 FEW017 25/16 Q1013=
201209251145 METAR LIRA 251145Z 18011KT 130V220 9999 FEW017 25/17 Q1013=
201209251115 METAR LIRA 251115Z 18007KT 140V210 9999 FEW017 SCT080 25/18
                        Q1013=
201209251045 METAR LIRA 251045Z 17008KT 9999 FEW017 SCT080 24/17 Q1013=
201209251015 METAR LIRA 251015Z 20008KT 150V230 9999 SCT017 SCT080 24/17
                        Q1013=
201209250945 METAR LIRA 250945Z 18006KT 130V210 9999 SCT017 SCT080 24/17
                        Q1013=
201209250915 METAR LIRA 250915Z 17006KT 9999 SCT017 23/17 Q1013=
201209250845 METAR LIRA 250845Z 16005KT 090V180 9999 SCT016 23/18 Q1013=
201209250815 METAR LIRA 250815Z 17005KT 130V200 9999 FEW016 22/18 Q1013=
201209250745 METAR LIRA 250745Z 18007KT 9999 FEW016 SCT080 22/19 Q1013=
201209250715 METAR LIRA 250715Z 19006KT 160V220 9999 FEW016 21/19 Q1012=
201209250645 METAR LIRA 250645Z 17006KT 9999 FEW018 21/19 Q1012=
201209250615 METAR LIRA 250615Z 15005KT 9999 SCT018 SCT080 20/18 Q1012=
201209250545 METAR LIRA 250545Z 17006KT 9999 SCT018 SCT080 20/18 Q1012=
201209250515 METAR LIRA 250515Z 15006KT 9999 SCT017 SCT070 19/18 Q1011=
201209250445 METAR LIRA 250445Z 15006KT 9999 SCT017 SCT070 20/18 Q1011=
201209250415 METAR LIRA 250415Z 16007KT 9999 SCT018 SCT030 20/19 Q1011=
201209250345 METAR LIRA 250345Z 17006KT 9999 SCT018 SCT030 20/18 Q1011=
201209250315 METAR LIRA 250315Z 17006KT 9999 SCT018 SCT030 19/18 Q1011=
201209250245 METAR LIRA 250245Z 14005KT 9999 SCT018 SCT030 19/18 Q1011=
201209250215 METAR LIRA 250215Z 15004KT 9999 SCT018 SCT030 19/17 Q1011=
201209250145 METAR LIRA 250145Z 16005KT 9999 FEW018 SCT030 19/17 Q1011=
201209250115 METAR LIRA 250115Z 02006KT 9999 FEW018 SCT030 19/18 Q1011=
201209250045 METAR LIRA 250045Z 17004KT 9999 SCT018 SCT030 20/18 Q1011=
201209250015 METAR LIRA 250015Z 15003KT 9999 SCT018 SCT030 20/19 Q1011=
201209242350 METAR LIRA 250045Z 17004KT 9999 SCT018 SCT030 20/18 Q1011=
201209242345 METAR LIRA 242345Z 17003KT 9999 SCT018 SCT030 21/19 Q1011=
201209242315 METAR LIRA 242315Z 02003KT 9999 SCT018 SCT030 21/19 Q1011=
201209242245 METAR LIRA 242245Z 17004KT 9999 FEW018 SCT070 21/19 Q1011=
201209242215 METAR LIRA 242215Z 17004KT 9999 FEW018 SCT070 21/19 Q1011=
201209242145 METAR LIRA 242145Z 21005KT 9999 FEW021 SCT070 21/19 Q1011=
201209242115 METAR LIRA 242115Z 21004KT 9999 FEW018 SCT070 21/19 Q1011=
201209242045 METAR LIRA 242045Z 23004KT 9999 FEW015 SCT070 23/20 Q1011=
201209242015 METAR LIRA 242015Z 24005KT 9999 FEW015 SCT070 23/20 Q1011=
201209241945 METAR LIRA 241945Z 21007KT 9999 FEW015 SCT070 24/22 Q1010=
201209241915 METAR LIRA 241915Z 19006KT 9999 FEW015 SCT080 23/22 Q1010=
201209241845 METAR LIRA 241845Z 17008KT 9999 FEW015 SCT080 24/22 Q1009=
201209241815 METAR LIRA 241815Z 17011KT 9999 SCT015 SCT070 24/22 Q1009=
201209241745 METAR LIRA 241745Z 16014KT 9999 SCT015 SCT070 25/23 Q1009=
201209241715 METAR LIRA 241715Z 16011KT 9999 SCT015 SCT070 25/23 Q1009=
201209241645 METAR LIRA 241645Z 16015KT 9999 FEW018 SCT070 25/22 Q1009=
201209241615 METAR LIRA 241615Z 18012KT 9999 FEW018 BKN070 25/22 Q1009=
201209241545 METAR LIRA 241545Z 18011KT 9999 FEW018 BKN070 26/22 Q1009=
201209241515 METAR LIRA 241515Z 19011G22KT 160V230 9999 FEW018 BKN080
                        26/22 Q1009=
201209241445 METAR LIRA 241445Z 18013KT 9999 FEW018 BKN080 27/20 Q1008=
201209241415 METAR LIRA 241415Z 16016KT 9999 FEW018 BKN070 28/19 Q1008=
201209241345 METAR LIRA 241345Z 16022G32KT 9999 FEW018 BKN070 27/20 Q1008=
201209241315 METAR LIRA 241315Z 15022G34KT 9999 FEW018 BKN080 26/19 Q1007=
201209241245 METAR LIRA 241245Z 16023KT 9999 FEW018 BKN080 26/21 Q1007=
201209241215 METAR LIRA 241215Z 16018G32KT 9999 FEW018 BKN080 25/22 Q1008=
201209241145 METAR LIRA 241145Z 17021KT 9999 FEW018 BKN080 26/22 Q1010=
201209241115 METAR LIRA 241115Z 17017G29KT 9999 FEW018 BKN030 27/22 Q1010=
201209241045 METAR LIRA 241045Z 17012KT 140V210 9999 FEW018 SCT030 28/21
                        Q1010=
201209241015 METAR LIRA 241015Z 13010KT 9999 FEW018 SCT030 29/20 Q1010=
201209240945 METAR LIRA 240945Z 15012KT 130V190 9999 FEW020 28/21 Q1010=
201209240915 METAR LIRA 240915Z 06002KT 9999 FEW020 27/20 Q1011=
201209240845 METAR LIRA 240845Z 15014KT 120V180 9999 FEW020 26/21 Q1011=
201209240745 METAR LIRA 240745Z 36002KT 9999 FEW020 24/20 Q1011=
201209240715 METAR LIRA 240715Z 09005G15KT 9999 FEW020 24/20 Q1011=
201209240645 METAR LIRA 240645Z 09004KT 9999 FEW020 21/20 Q1011=
201209240615 METAR LIRA 240615Z 09003KT 9999 FEW020 20/19 Q1011=
201209240545 METAR LIRA 240545Z 32002KT CAVOK 19/18 Q1011=
201209240515 METAR LIRA 240515Z 07001KT CAVOK 18/17 Q1011=
201209240445 METAR LIRA 240445Z 00000KT CAVOK 19/17 Q1011=
201209240415 METAR LIRA 240415Z 00000KT CAVOK 19/18 Q1012=
201209240345 METAR LIRA 240345Z 03002KT CAVOK 19/17 Q1012=
201209240315 METAR LIRA 240315Z 06003KT CAVOK 20/17 Q1012=
201209240245 METAR LIRA 240245Z 06002KT CAVOK 21/18 Q1012=
201209240215 METAR LIRA 240215Z 10004KT CAVOK 21/19 Q1012=
201209240145 METAR LIRA 240145Z 13007KT 9999 FEW030 21/19 Q1012=
201209240115 METAR LIRA 240115Z 12005KT 080V150 9999 FEW030 21/18 Q1013=
201209240045 METAR LIRA 240045Z 09004KT CAVOK 21/18 Q1013=
201209240015 METAR LIRA 240015Z 09004KT CAVOK 21/18 Q1013=
201209232350 METAR LIRA 240045Z 09004KT CAVOK 21/18 Q1013=
201209232345 METAR LIRA 232345Z 12002KT CAVOK 21/18 Q1013=
201209232315 METAR LIRA 232315Z 13004KT CAVOK 21/18 Q1013=
201209232245 METAR LIRA 232245Z 14007KT CAVOK 22/18 Q1014=
201209232215 METAR LIRA 232215Z 15005KT CAVOK 22/17 Q1014=
201209232145 METAR LIRA 232145Z 12005KT CAVOK 21/19 Q1014=
201209232115 METAR LIRA 232115Z 14002KT CAVOK 23/19 Q1014=
201209232045 METAR LIRA 232045Z 14008KT 100V160 CAVOK 23/19 Q1014=
201209232015 METAR LIRA 232015Z 15013KT 120V180 CAVOK 24/18 Q1014=
201209231945 METAR LIRA 231945Z 18008KT CAVOK 24/18 Q1014=
201209231915 METAR LIRA 231915Z 18009KT CAVOK 24/19 Q1014=
201209231845 METAR LIRA 231845Z 18007KT CAVOK 24/19 Q1014=
201209231815 METAR LIRA 231815Z 15008KT CAVOK 25/20 Q1014=
201209231745 METAR LIRA 231745Z 16009KT CAVOK 25/20 Q1014=
201209231715 METAR LIRA 231715Z 18008KT CAVOK 24/20 Q1014=
201209231645 METAR LIRA 231645Z 18010KT CAVOK 25/21 Q1014=
201209231615 METAR LIRA 231615Z 17012KT CAVOK 25/19 Q1014=
201209231545 METAR LIRA 231545Z 17012KT 9999 FEW080 25/18 Q1015=
201209231515 METAR LIRA 231515Z 17015KT 9999 FEW020 26/20 Q1015=
201209231445 METAR LIRA 231445Z 17013KT 9999 FEW020 26/19 Q1015=
201209231415 METAR LIRA 231415Z 17012KT 9999 FEW020 26/19 Q1015=
201209231345 METAR LIRA 231345Z 17015KT 9999 FEW020 26/19 Q1016=
201209231315 METAR LIRA 231315Z 17012KT 110V200 9999 FEW020 26/18 Q1016=
201209231245 METAR LIRA 231245Z 16011KT 9999 FEW020 26/18 Q1016=
201209231215 METAR LIRA 231215Z 16014KT 9999 FEW020 SCT030 26/17 Q1017=
201209231145 METAR LIRA 231145Z 15012KT 120V200 9999 FEW020 SCT070 26/16
                        Q1017=
201209231115 METAR LIRA 231115Z 15011KT 9999 FEW020 SCT070 26/16 Q1017=
201209231045 METAR LIRA 231045Z 16012KT 9999 FEW020 SCT070 25/16 Q1017=
201209231015 METAR LIRA 231015Z 17012KT 130V210 9999 FEW020 26/16 Q1017=
201209230945 METAR LIRA 230945Z 17013KT 9999 FEW020 26/18 Q1017=
201209230915 METAR LIRA 230915Z 17011KT 9999 FEW020 SCT070 25/19 Q1017=
201209230845 METAR LIRA 230845Z 28003KT 9999 FEW020 SCT070 24/19 Q1017=
201209230815 METAR LIRA 230815Z 32005KT 9999 FEW030 SCT070 23/19 Q1017=
201209230745 METAR LIRA 230745Z 33003KT 9999 FEW030 SCT070 22/19 Q1017=
201209230715 METAR LIRA 230715Z 35002KT 9999 FEW030 SCT070 21/19 Q1017=
201209230645 METAR LIRA 230645Z 00000KT 9999 SCT030 SCT070 20/18 Q1017=
201209230615 METAR LIRA 230615Z 23001KT 9999 SCT030 SCT070 19/17 Q1017=
201209230545 METAR LIRA 230545Z 00000KT 9999 FEW030 18/16 Q1017=
201209230515 METAR LIRA 230515Z 00000KT 9999 FEW030 18/16 Q1017=
201209230445 METAR LIRA 230445Z 16001KT 9999 FEW030 19/17 Q1016=
201209230415 METAR LIRA 230415Z 09001KT 9999 FEW030 19/17 Q1016=
201209230345 METAR LIRA 230345Z 09003KT 9999 FEW033 19/17 Q1016=
201209230315 METAR LIRA 230315Z 16002KT 9999 FEW033 20/18 Q1017=
201209230245 METAR LIRA 230245Z 12006KT 9999 SCT033 20/17 Q1017=
201209230215 METAR LIRA 230215Z 00000KT 9999 BKN032 20/17 Q1017=
201209230145 METAR LIRA 230145Z 05001KT 9999 BKN032 21/18 Q1017=
201209230115 METAR LIRA 230115Z 36001KT 9999 BKN030 21/18 Q1017=
201209230045 METAR LIRA 230045Z 36001KT 9999 BKN030 21/18 Q1017=
201209230015 METAR LIRA 230015Z 07002KT 9999 BKN030 21/17 Q1017=
201209222350 METAR LIRA 230045Z 36001KT 9999 BKN030 21/18 Q1017=
201209222345 METAR LIRA 222345Z 07002KT 9999 BKN030 21/18 Q1017=
201209222315 METAR LIRA 222315Z 19003KT 9999 BKN030 22/18 Q1017=
201209222245 METAR LIRA 222245Z 20003KT 9999 BKN030 22/18 Q1017=
201209222215 METAR LIRA 222215Z 20002KT 9999 BKN030 22/18 Q1017=
201209222145 METAR LIRA 222145Z 00000KT 9999 BKN026 22/18 Q1017=
201209222115 METAR LIRA 222115Z 00000KT 9999 BKN026 22/18 Q1017=
201209222045 METAR LIRA 222045Z 19003KT 9999 BKN024 22/19 Q1017=
201209222015 METAR LIRA 222015Z 11006KT 9999 FEW018 SCT024 22/18 Q1017=
201209221945 METAR LIRA 221945Z 12008KT 9999 FEW018 SCT024 22/18 Q1017=
201209221915 METAR LIRA 221915Z 15007KT 9999 FEW019 22/18 Q1017=
201209221845 METAR LIRA 221845Z 15009KT 9999 SCT026 22/18 Q1017=
201209221815 METAR LIRA 221815Z 15008KT 9999 SCT027 22/18 Q1017=
201209221745 METAR LIRA 221745Z 19006KT 9999 SCT027 22/18 Q1017=
201209221715 METAR LIRA 221715Z 20005KT 9999 SCT030 22/18 Q1017=
201209221645 METAR LIRA 221645Z 14006KT 9999 FEW030 23/18 Q1017=
201209221615 METAR LIRA 221615Z 17007KT 9999 FEW016 24/18 Q1017=
201209221545 METAR LIRA 221545Z 17008KT 9999 FEW016 SCT030 24/18 Q1017=
201209221515 METAR LIRA 221515Z 17008KT 9999 SCT020 24/18 Q1017=
201209221445 METAR LIRA 221445Z 18010KT 9999 SCT020 24/19 Q1017=
201209221415 METAR LIRA 221415Z 18010KT 9999 FEW016 SCT025 24/19 Q1017=
201209221345 METAR LIRA 221345Z 17010KT 140V220 9999 SCT016 SCT025 24/19
                        Q1017=
201209221315 METAR LIRA 221315Z 18007KT 150V230 9999 SCT016 SCT025 25/19
                        Q1017=
201209221245 METAR LIRA 221245Z 18007KT 140V220 9999 SCT016 SCT025 25/19
                        Q1018=
201209221215 METAR LIRA 221215Z 18009KT 9999 SCT016 SCT025 25/19 Q1018=
201209221145 METAR LIRA 221145Z 18008KT 150V210 9999 SCT019 SCT025 25/19
                        Q1018=
201209221115 METAR LIRA 221115Z 16009KT 120V190 9999 SCT016 SCT025 24/18
                        Q1018=
201209221045 METAR LIRA 221045Z 17010KT 150V220 9999 SCT016 SCT025 24/18
                        Q1018=
201209221015 METAR LIRA 221015Z 18010KT 140V200 9999 SCT016 SCT025 24/17
                        Q1018=
201209220945 METAR LIRA 220945Z 17008KT 130V200 9999 FEW016 SCT025 23/17
                        Q1018=
201209220915 METAR LIRA 220915Z 14009KT 9999 FEW016 SCT030 23/18 Q1018=
201209220845 METAR LIRA 220845Z 16010KT 9999 FEW016 SCT030 23/18 Q1018=
201209220815 METAR LIRA 220815Z 16010KT 9999 FEW016 22/19 Q1018=
201209220745 METAR LIRA 220745Z 16007KT 9999 FEW016 21/18 Q1018=
201209220715 METAR LIRA 220715Z 13007KT 090V190 9999 FEW016 21/19 Q1018=
201209220645 METAR LIRA 220645Z 34001KT 9999 FEW016 18/17 Q1018=
201209220615 METAR LIRA 220615Z 00000KT 9999 FEW016 17/15 Q1018=
201209220545 METAR LIRA 220545Z 00000KT 9999 FEW016 15/13 Q1018=
201209220515 METAR LIRA 220515Z 02001KT 9999 FEW016 15/13 Q1018=
201209220445 METAR LIRA 220445Z 02001KT 9999 FEW016 15/13 Q1018=
201209220415 METAR LIRA 220415Z 09001KT CAVOK 15/13 Q1018=
201209220345 METAR LIRA 220345Z 10001KT CAVOK 14/12 Q1018=
201209220315 METAR LIRA 220315Z 10001KT CAVOK 15/13 Q1018=
201209220245 METAR LIRA 220245Z 00000KT CAVOK 15/12 Q1018=
201209220215 METAR LIRA 220215Z 11002KT CAVOK 15/12 Q1019=
201209220145 METAR LIRA 220145Z 09002KT CAVOK 15/12 Q1019=
201209220115 METAR LIRA 220115Z 12003KT CAVOK 15/13 Q1019=
201209220045 METAR LIRA 220045Z 00000KT CAVOK 15/13 Q1019=
201209220015 METAR LIRA 220015Z 12001KT CAVOK 15/13 Q1019=
201209212350 METAR LIRA 220045Z 00000KT CAVOK 15/13 Q1019=
201209212345 METAR LIRA 212345Z 12002KT CAVOK 15/13 Q1019=
201209212315 METAR LIRA 212315Z 00000KT CAVOK 16/13 Q1019=
201209212245 METAR LIRA 212245Z 14001KT CAVOK 16/13 Q1020=
201209212215 METAR LIRA 212215Z 11001KT CAVOK 16/13 Q1020=
201209212145 METAR LIRA 212145Z 14001KT CAVOK 16/14 Q1020=
201209212115 METAR LIRA 212115Z 12002KT CAVOK 16/14 Q1020=
201209212045 METAR LIRA 212045Z 11002KT CAVOK 17/15 Q1020=
201209212015 METAR LIRA 212015Z 11005KT CAVOK 17/15 Q1020=
201209211945 METAR LIRA 211945Z 13003KT CAVOK 17/15 Q1020=
201209211915 METAR LIRA 211915Z 13003KT CAVOK 17/15 Q1020=
201209211845 METAR LIRA 211845Z 18004KT CAVOK 18/16 Q1020=
201209211815 METAR LIRA 211815Z 19004KT CAVOK 19/16 Q1020=
201209211745 METAR LIRA 211745Z 20004KT CAVOK 19/15 Q1020=
201209211715 METAR LIRA 211715Z 21004KT CAVOK 20/16 Q1020=
201209211645 METAR LIRA 211645Z 21005KT 9999 FEW020 21/16 Q1020=
201209211615 METAR LIRA 211615Z 20005KT 170V240 9999 FEW020 21/16 Q1020=
201209211545 METAR LIRA 211545Z 21006KT 180V240 9999 FEW020 23/17 Q1020=
201209211515 METAR LIRA 211515Z 21007KT 170V240 9999 FEW020 23/14 Q1020=
201209211445 METAR LIRA 211445Z 23005KT 9999 FEW020 24/15 Q1020=
201209211415 METAR LIRA 211415Z 23005KT 9999 FEW020 24/15 Q1020=
201209211345 METAR LIRA 211345Z 18003KT 9999 SCT020 24/15 Q1020=
201209211315 METAR LIRA 211315Z 20002KT 9999 SCT020 24/14 Q1021=
201209211245 METAR LIRA 211245Z 14001KT 9999 SCT020 24/14 Q1021=
201209211215 METAR LIRA 211215Z 18003KT 9999 FEW020 24/14 Q1021=
201209211145 METAR LIRA 211145Z 19004KT 9999 FEW020 23/14 Q1021=
201209211115 METAR LIRA 211115Z 09002KT 9999 FEW020 23/15 Q1021=
201209211045 METAR LIRA 211045Z 14002KT 9999 FEW020 23/15 Q1022=
201209211015 METAR LIRA 211015Z 28002KT 9999 FEW020 SCT200 23/15 Q1022=
201209210945 METAR LIRA 210945Z 22001KT 9999 FEW020 22/15 Q1022=
201209210915 METAR LIRA 210915Z 00000KT 9999 FEW025 21/14 Q1022=
201209210845 METAR LIRA 210845Z 34003KT 9999 FEW025 20/13 Q1022=
201209210815 METAR LIRA 210815Z 03003KT 9999 FEW025 SCT200 19/14 Q1021=
201209210745 METAR LIRA 210745Z 01003KT 9999 FEW025 17/12 Q1021=
201209210715 METAR LIRA 210715Z 36003KT CAVOK 15/12 Q1021=
201209210645 METAR LIRA 210645Z 01003KT CAVOK 14/11 Q1021=
201209210615 METAR LIRA 210615Z 03003KT CAVOK 14/11 Q1021=
201209210545 METAR LIRA 210545Z 03002KT CAVOK 13/10 Q1021=
201209210515 METAR LIRA 210515Z 02001KT CAVOK 12/11 Q1020=
201209210445 METAR LIRA 210445Z 02001KT CAVOK 12/10 Q1020=
201209210415 METAR LIRA 210415Z 04001KT CAVOK 13/10 Q1020=
201209210345 METAR LIRA 210345Z 02001KT CAVOK 12/10 Q1021=
201209210315 METAR LIRA 210315Z 03001KT CAVOK 13/11 Q1021=
201209210245 METAR LIRA 210245Z 00000KT CAVOK 13/10 Q1021=
201209210215 METAR LIRA 210215Z 00000KT CAVOK 13/10 Q1021=
201209210145 METAR LIRA 210145Z 00000KT CAVOK 13/09 Q1021=
201209210115 METAR LIRA 210115Z 36001KT CAVOK 13/09 Q1021=
201209210045 METAR LIRA 210045Z 36003KT CAVOK 14/10 Q1021=
201209210015 METAR LIRA 210015Z 00000KT CAVOK 14/10 Q1021=
201209202350 METAR LIRA 210045Z 36003KT CAVOK 14/10 Q1021=
201209202345 METAR LIRA 202345Z 36003KT CAVOK 14/10 Q1021=
201209202315 METAR LIRA 202315Z 00000KT CAVOK 14/10 Q1020=
201209202245 METAR LIRA 202245Z 02001KT CAVOK 15/09 Q1020=
201209202215 METAR LIRA 202215Z 04002KT CAVOK 15/08 Q1020=
201209202145 METAR LIRA 202145Z 02001KT CAVOK 15/08 Q1020=
201209202115 METAR LIRA 202115Z 05002KT CAVOK 15/07 Q1020=
201209202045 METAR LIRA 202045Z 10003KT CAVOK 16/06 Q1020=
201209202015 METAR LIRA 202015Z 04003KT CAVOK 16/06 Q1019=
201209201945 METAR LIRA 201945Z 02003KT CAVOK 17/05 Q1019=
201209201915 METAR LIRA 201915Z 35004KT CAVOK 17/05 Q1019=
201209201845 METAR LIRA 201845Z 05003KT CAVOK 19/06 Q1019=
201209201815 METAR LIRA 201815Z 03003KT CAVOK 19/05 Q1018=
201209201745 METAR LIRA 201745Z 01005KT CAVOK 20/05 Q1018=
201209201715 METAR LIRA 201715Z 36005KT CAVOK 22/05 Q1018=
201209201645 METAR LIRA 201645Z 34006KT CAVOK 23/06 Q1017=
201209201615 METAR LIRA 201615Z 33006KT CAVOK 23/05 Q1017=
201209201545 METAR LIRA 201545Z 34007KT 280V350 CAVOK 24/06 Q1017=
201209201515 METAR LIRA 201515Z 33007KT 9999 FEW030 24/07 Q1017=
201209201445 METAR LIRA 201445Z 35008KT 300V010 9999 FEW030 25/08 Q1017=
201209201415 METAR LIRA 201415Z 34006KT 9999 FEW025TCU 25/08 Q1017=
201209201345 METAR LIRA 201345Z 33007KT 310V010 9999 FEW025TCU 25/08 Q1017=
201209201315 METAR LIRA 201315Z 32011KT 9999 FEW030 25/10 Q1017=
201209201245 METAR LIRA 201245Z 35005KT 330V060 9999 FEW030 25/12 Q1017=
201209201215 METAR LIRA 201215Z 35007KT 320V030 9999 FEW030 24/14 Q1017=
201209201145 METAR LIRA 201145Z 35007KT 300V040 9999 FEW025 24/16 Q1017=
201209201115 METAR LIRA 201115Z 01007KT 310V070 9999 FEW025 24/16 Q1017=
201209201045 METAR LIRA 201045Z 35007KT 320V040 9999 FEW025 23/17 Q1016=
201209201015 METAR LIRA 201015Z 33009KT 320V030 9999 FEW025 23/17 Q1016=
201209200945 METAR LIRA 200945Z 34007KT 300V060 9999 FEW025 21/17 Q1016=
201209200915 METAR LIRA 200915Z 01007KT 340V050 9999 FEW025 20/17 Q1016=
201209200845 METAR LIRA 200845Z 04006KT 360V100 9999 FEW015 SCT025 20/18
                        Q1016=
201209200815 METAR LIRA 200815Z 05007KT 360V070 8000 FEW010 18/17 Q1016=
201209200745 METAR LIRA 200745Z 03005KT 010V080 6000 SCT007 SCT025 17/16
                        Q1015=
201209200715 METAR LIRA 200715Z 04005KT 020V080 4000 BR SCT005 BKN025
                        17/16 Q1015=
201209200645 METAR LIRA 200645Z 01007KT 330V050 3000 BR SCT005 BKN025
                        17/16 Q1014=
201209200615 METAR LIRA 200615Z 02006KT 350V050 3000 BR SCT005 SCT025
                        17/16 Q1014=
201209200545 METAR LIRA 200545Z 03002KT 3000 BR SCT005 17/16 Q1014=
201209200515 METAR LIRA 200515Z 02003KT 3000 BR SCT004 17/16 Q1014=
201209200445 METAR LIRA 200445Z 01002KT 0600 R15/0600 FG BKN002 17/16
                        Q1013=
201209200415 METAR LIRA 200415Z 02002KT 2000 BR SCT002 17/16 Q1013=
201209200345 METAR LIRA 200345Z 36002KT 1500 0400 FG SCT002 18/16 Q1012=
201209200315 METAR LIRA 200315Z 08001KT 4000 BR FEW005 18/16 Q1012=
201209200245 METAR LIRA 200245Z 00000KT 9999 FEW005 18/17 Q1012=
201209200215 METAR LIRA 200215Z 00000KT 9999 FEW015 SCT025 18/17 Q1012=
201209200145 METAR LIRA 200145Z 00000KT 9999 FEW015 FEW018CB SCT025 18/17
                        Q1012=
201209200115 METAR LIRA 200115Z 00000KT 9999 FEW015 FEW018CB SCT025 19/17
                        Q1012=
201209200045 METAR LIRA 200045Z 18001KT 9999 FEW015 FEW018CB SCT025 19/17
                        Q1012=
201209200015 METAR LIRA 200015Z 18002KT 9999 FEW015 FEW018CB SCT025 19/17
                        Q1012=
201209192350 METAR LIRA 200045Z 18001KT 9999 FEW015 FEW018CB SCT025 19/17
                        Q1012=
201209192345 METAR LIRA 192345Z 18002KT 9999 FEW015 FEW018CB SCT025 19/17
                        Q1012=
201209192315 METAR LIRA 192315Z 24001KT 9999 FEW015 FEW020CB SCT025 19/17
                        Q1012=
201209192245 METAR LIRA 192245Z 14003KT 9000 FEW015 FEW018CB SCT025 18/17
                        Q1012=
201209192215 METAR LIRA 192215Z 05005KT 8000 SCT015 FEW018CB SCT025 18/17
                        Q1012=
201209192145 METAR LIRA 192145Z 00000KT 8000 -RA SCT015 SCT025 19/18 Q1012=
201209192115 METAR LIRA 192115Z 32003KT 5000 -RA BR SCT015 SCT025 19/18
                        Q1012=
201209192045 METAR LIRA 192045Z 28002KT 9999 FEW015 SCT070 19/18 Q1012=
201209192015 METAR LIRA 192015Z 10003KT 9999 FEW015 SCT070 19/18 Q1012=
201209191945 METAR LIRA 191945Z 06002KT 9999 FEW015 SCT025 19/18 Q1012=
201209191915 METAR LIRA 191915Z 05002KT 9999 FEW015 SCT025 20/18 Q1012=
201209191845 METAR LIRA 191845Z 17003KT 9999 SCT015 SCT025 19/18 Q1012=
201209191815 METAR LIRA 191815Z 18003KT 9999 SCT015 SCT025 19/18 Q1012=
201209191745 METAR LIRA 191745Z 18002KT 9999 SCT015 FEW020CB BKN025 19/18
                        Q1012=
201209191715 METAR LIRA 191715Z 18004KT 9999 SCT015 FEW020CB BKN025 19/18
                        Q1012 RETS=
201209191645 METAR LIRA 191645Z 16008KT 9999 SCT015 FEW020CB BKN025 19/18
                        Q1012 RETS=
201209191615 METAR LIRA 191615Z 18012KT 8000 -TSRA SCT012 FEW015CB BKN025
                        19/17 Q1012=
201209191545 METAR LIRA 191545Z 19007KT 160V220 4000 -TSRA SCT012 SCT015CB
                        BKN025 19/18 Q1011 RETS=
201209191515 METAR LIRA 191515Z 17010KT 9999 FEW018 FEW020CB SCT025 21/19
                        Q1012=
201209191445 METAR LIRA 191445Z 16009KT 9999 -RA FEW018 FEW020CB SCT025
                        21/19 Q1012=
201209191415 METAR LIRA 191415Z 16010KT 9999 FEW018 FEW020CB SCT025 22/19
                        Q1012=
201209191345 METAR LIRA 191345Z 19008KT 9999 FEW017 FEW018CB BKN025 22/19
                        Q1012=
201209191315 METAR LIRA 191315Z 16013KT 9999 FEW017 FEW018CB BKN025 22/19
                        Q1012=
201209191245 METAR LIRA 191245Z 18010KT 9999 FEW017 FEW018CB BKN025 22/18
                        Q1013=
201209191215 METAR LIRA 191215Z 16009KT 9999 FEW018 SCT025 BKN070 23/18
                        Q1013=
201209191145 METAR LIRA 191145Z 17011KT 120V190 9999 FEW018 SCT030 BKN080
                        22/18 Q1014=
201209191115 METAR LIRA 191115Z 17008KT 120V200 9999 FEW018 SCT030 BKN080
                        23/18 Q1014=
201209191045 METAR LIRA 191045Z 17009KT 9999 FEW018 SCT030 BKN080 22/18
                        Q1014=
201209191015 METAR LIRA 191015Z 16006KT 9999 FEW018 SCT030 BKN080 21/17
                        Q1014=
201209190945 METAR LIRA 190945Z 17008KT 9999 SCT035 BKN080 22/16 Q1013=
201209190915 METAR LIRA 190915Z 19004KT 9999 SCT035 BKN080 21/14 Q1013=
201209190845 METAR LIRA 190845Z 00000KT 9999 SCT035 BKN080 20/14 Q1013=
201209190815 METAR LIRA 190815Z 35001KT 9999 SCT035 SCT080 20/14 Q1013=
201209190745 METAR LIRA 190745Z 02001KT 9999 SCT035 SCT080 19/14 Q1013=
201209190715 METAR LIRA 190715Z 06001KT 9999 SCT035 SCT080 17/15 Q1013=
201209190645 METAR LIRA 190645Z 04004KT 9999 SCT035 SCT080 17/14 Q1013=
201209190615 METAR LIRA 190615Z 06002KT 9999 SCT035 SCT080 16/14 Q1013=
201209190545 METAR LIRA 190545Z 07002KT 9999 SCT035 SCT080 16/13 Q1013=
201209190515 METAR LIRA 190515Z 07002KT 9999 SCT035 SCT080 15/12 Q1013=
201209190445 METAR LIRA 190445Z 08002KT 9999 SCT035 SCT080 15/13 Q1013=
201209190415 METAR LIRA 190415Z 07002KT 9999 FEW030 SCT080 15/13 Q1012=
201209190345 METAR LIRA 190345Z 00000KT 9999 SCT070 16/13 Q1012=
201209190315 METAR LIRA 190315Z 00000KT 9999 FEW080 16/13 Q1013=
201209190245 METAR LIRA 190245Z 09002KT 9999 FEW080 16/13 Q1013=
201209190215 METAR LIRA 190215Z 13001KT 9999 FEW080 16/13 Q1013=
201209190145 METAR LIRA 190145Z 14002KT CAVOK 16/12 Q1013=
201209190115 METAR LIRA 190115Z 13002KT CAVOK 17/13 Q1014=
201209190045 METAR LIRA 190045Z 14001KT CAVOK 17/12 Q1014=
201209190015 METAR LIRA 190015Z 00000KT CAVOK 17/12 Q1014=
201209182350 METAR LIRA 190045Z 14001KT CAVOK 17/12 Q1014=
201209182345 METAR LIRA 182345Z 13001KT CAVOK 16/12 Q1014=
201209182315 METAR LIRA 182315Z 12002KT CAVOK 16/12 Q1014=
201209182245 METAR LIRA 182245Z 12002KT CAVOK 16/12 Q1014=
201209182215 METAR LIRA 182215Z 11003KT CAVOK 16/12 Q1015=
201209182145 METAR LIRA 182145Z 11003KT CAVOK 17/13 Q1015=
201209182115 METAR LIRA 182115Z 14002KT CAVOK 18/13 Q1015=
201209182045 METAR LIRA 182045Z 14001KT CAVOK 18/14 Q1015=
201209182015 METAR LIRA 182015Z 11002KT CAVOK 18/15 Q1015=
201209181945 METAR LIRA 181945Z 14004KT CAVOK 18/16 Q1015=
201209181915 METAR LIRA 181915Z 18003KT CAVOK 19/16 Q1015=
201209181845 METAR LIRA 181845Z 18003KT CAVOK 20/17 Q1015=
201209181815 METAR LIRA 181815Z 21003KT CAVOK 20/16 Q1014=
201209181745 METAR LIRA 181745Z 20004KT CAVOK 21/17 Q1014=
201209181715 METAR LIRA 181715Z 20005KT CAVOK 21/17 Q1014=
201209181645 METAR LIRA 181645Z 21004KT CAVOK 23/18 Q1014=
201209181615 METAR LIRA 181615Z 23007KT 200V260 CAVOK 23/18 Q1014=
201209181545 METAR LIRA 181545Z 25006KT 220V290 9999 FEW020 23/17 Q1014=
201209181515 METAR LIRA 181515Z 25005KT 9999 FEW020 23/16 Q1014=
201209181445 METAR LIRA 181445Z 24007KT 220V300 9999 FEW020 24/16 Q1014=
201209181415 METAR LIRA 181415Z 23008KT 160V280 9999 FEW020 24/17 Q1014=
201209181345 METAR LIRA 181345Z 23007KT 210V280 9999 SCT020 25/16 Q1014=
201209181315 METAR LIRA 181315Z 24006KT 190V300 9999 SCT020 SCT200 25/16
                        Q1014=
201209181245 METAR LIRA 181245Z 25007KT 200V310 9999 SCT020 24/16 Q1014=
201209181215 METAR LIRA 181215Z 25007KT 190V310 9999 SCT020 24/17 Q1015=
201209181145 METAR LIRA 181145Z 26005KT 200V310 9999 SCT020 25/15 Q1015=
201209181115 METAR LIRA 181115Z 21004KT 9999 SCT020 25/16 Q1015=
201209181045 METAR LIRA 181045Z 20003KT 9999 SCT020 25/16 Q1015=
201209181015 METAR LIRA 181015Z 29002KT 9999 FEW022 24/16 Q1015=
201209180945 METAR LIRA 180945Z 25003KT 9999 FEW022 23/15 Q1016=
201209180915 METAR LIRA 180915Z 20002KT 9999 FEW022 23/16 Q1016=
201209180845 METAR LIRA 180845Z 24003KT 9999 FEW080 22/15 Q1016=
201209180815 METAR LIRA 180815Z 21003KT 9999 FEW080 21/16 Q1016=
201209180745 METAR LIRA 180745Z 24002KT 9999 FEW080 21/16 Q1015=
201209180715 METAR LIRA 180715Z 28002KT 9999 FEW080 19/15 Q1015=
201209180645 METAR LIRA 180645Z 08001KT 9999 FEW080 18/14 Q1015=
201209180615 METAR LIRA 180615Z 10001KT 9999 SCT080 16/14 Q1015=
201209180545 METAR LIRA 180545Z 03001KT 9999 FEW020 SCT070 15/13 Q1015=
201209180515 METAR LIRA 180515Z 11002KT 9999 FEW020 SCT070 14/13 Q1015=
201209180445 METAR LIRA 180445Z 00000KT 9999 SCT070 15/13 Q1015=
201209180415 METAR LIRA 180415Z 24002KT 9999 SCT070 15/13 Q1015=
201209180345 METAR LIRA 180345Z 10001KT 9999 SCT070 16/14 Q1014=
201209180315 METAR LIRA 180315Z 00000KT 9999 SCT070 16/14 Q1014=
201209180245 METAR LIRA 180245Z 00000KT 9999 SCT070 16/14 Q1014=
201209180215 METAR LIRA 180215Z 00000KT 9999 SCT070 16/14 Q1015=
201209180145 METAR LIRA 180145Z 16002KT 9999 SCT070 17/15 Q1015=
201209180115 METAR LIRA 180115Z 15002KT 9999 SCT070 17/15 Q1015=
201209180045 METAR LIRA 180045Z 16003KT 9999 SCT070 17/15 Q1015=
201209180015 METAR LIRA 180015Z 16003KT CAVOK 17/14 Q1015=
201209172350 METAR LIRA 180045Z 16003KT 9999 SCT070 17/15 Q1015=
201209172345 METAR LIRA 172345Z 16002KT CAVOK 17/15 Q1015=
201209172315 METAR LIRA 172315Z 15004KT CAVOK 17/14 Q1015=
201209172245 METAR LIRA 172245Z 16002KT CAVOK 17/13 Q1015=
201209172215 METAR LIRA 172215Z 16001KT CAVOK 17/13 Q1015=
201209172145 METAR LIRA 172145Z 11002KT CAVOK 17/13 Q1015=
201209172115 METAR LIRA 172115Z 15003KT CAVOK 17/13 Q1015=
201209172045 METAR LIRA 172045Z 15003KT CAVOK 18/14 Q1015=
201209172015 METAR LIRA 172015Z 16004KT CAVOK 18/15 Q1015=
201209171945 METAR LIRA 171945Z 15005KT CAVOK 18/15 Q1015=
201209171915 METAR LIRA 171915Z 16003KT CAVOK 20/16 Q1015=
201209171845 METAR LIRA 171845Z 17003KT CAVOK 20/16 Q1015=
201209171815 METAR LIRA 171815Z 19003KT CAVOK 20/16 Q1014=
201209171745 METAR LIRA 171745Z 24002KT CAVOK 22/14 Q1014=
201209171715 METAR LIRA 171715Z 25004KT CAVOK 22/12 Q1014=
201209171645 METAR LIRA 171645Z 26004KT CAVOK 22/13 Q1014=
201209171615 METAR LIRA 171615Z 26004KT 9999 FEW017 23/13 Q1014=
201209171545 METAR LIRA 171545Z 28007KT 230V310 9999 FEW017 SCT025 24/13
                        Q1014=
201209171515 METAR LIRA 171515Z 27008KT 230V300 9999 FEW017 SCT025 23/13
                        Q1014=
201209171445 METAR LIRA 171445Z 29003KT 9999 FEW020 25/12 Q1013=
201209171415 METAR LIRA 171415Z 29004KT 9999 FEW020 25/12 Q1013=
201209171345 METAR LIRA 171345Z 14003KT 9999 FEW020 24/11 Q1013=
201209171315 METAR LIRA 171315Z 28004KT 9999 FEW020 24/11 Q1014=
201209171245 METAR LIRA 171245Z 33003KT 9999 FEW020 24/11 Q1014=
201209171215 METAR LIRA 171215Z 33003KT 9999 FEW030 24/11 Q1014=
201209171145 METAR LIRA 171145Z 18003KT 9999 FEW020 24/12 Q1014=
201209171115 METAR LIRA 171115Z 26004KT 9999 FEW020 24/11 Q1014=
201209171045 METAR LIRA 171045Z 31004KT 9999 FEW017 23/13 Q1014=
201209171015 METAR LIRA 171015Z 10003KT 9999 FEW016 SCT200 23/13 Q1014=
201209170945 METAR LIRA 170945Z 29004KT 9999 FEW016 22/14 Q1014=
201209170915 METAR LIRA 170915Z 33002KT 9999 FEW016 21/13 Q1014=
201209170845 METAR LIRA 170845Z 33001KT 9999 FEW016 20/13 Q1014=
201209170815 METAR LIRA 170815Z 35001KT 9999 FEW016 20/15 Q1014=
201209170745 METAR LIRA 170745Z 01002KT 9999 FEW016 18/15 Q1014=
201209170715 METAR LIRA 170715Z 03003KT 9999 FEW016 17/14 Q1014=
201209170645 METAR LIRA 170645Z 04003KT 9999 FEW018 17/14 Q1014=
201209170615 METAR LIRA 170615Z 04003KT 9999 FEW018 16/14 Q1014=
201209170545 METAR LIRA 170545Z 03003KT 9999 FEW018 14/13 Q1014=
201209170515 METAR LIRA 170515Z 04002KT 9999 FEW018 14/12 Q1013=
201209170445 METAR LIRA 170445Z 06002KT 9999 FEW018 14/12 Q1013=
201209170415 METAR LIRA 170415Z 07002KT 9999 FEW020 14/13 Q1013=
201209170345 METAR LIRA 170345Z 04001KT CAVOK 14/12 Q1013=
201209170315 METAR LIRA 170315Z 03002KT CAVOK 15/12 Q1013=
201209170245 METAR LIRA 170245Z 04003KT CAVOK 15/13 Q1013=
201209170215 METAR LIRA 170215Z 06003KT CAVOK 15/13 Q1013=
201209170145 METAR LIRA 170145Z 06003KT CAVOK 15/12 Q1013=
201209170115 METAR LIRA 170115Z 01002KT CAVOK 16/12 Q1014=
201209170045 METAR LIRA 170045Z 36002KT CAVOK 16/13 Q1014=
201209170015 METAR LIRA 170015Z 06003KT CAVOK 16/13 Q1014=
201209162350 METAR LIRA 170045Z 36002KT CAVOK 16/13 Q1014=
201209162345 METAR LIRA 162345Z 06003KT CAVOK 16/13 Q1014=
201209162315 METAR LIRA 162315Z 03002KT CAVOK 17/15 Q1013=
201209162245 METAR LIRA 162245Z 06003KT CAVOK 17/15 Q1013=
201209162215 METAR LIRA 162215Z 09001KT CAVOK 18/16 Q1013=
201209162145 METAR LIRA 162145Z 00000KT CAVOK 18/17 Q1013=
201209162115 METAR LIRA 162115Z 13002KT 9999 FEW012 19/17 Q1013=
201209162045 METAR LIRA 162045Z 17001KT 9999 FEW080 19/17 Q1013=
201209162015 METAR LIRA 162015Z 17002KT 9999 FEW080 19/17 Q1013=
201209161945 METAR LIRA 161945Z 26001KT 9999 FEW080 20/18 Q1013=
201209161915 METAR LIRA 161915Z 19003KT 9999 FEW070 21/18 Q1013=
201209161815 METAR LIRA 161815Z 22003KT 9999 FEW025 21/18 Q1013=
201209161745 METAR LIRA 161745Z 20003KT 9999 FEW025 22/18 Q1013=
201209161715 METAR LIRA 161715Z 22004KT 9999 FEW025 23/18 Q1012=
201209161645 METAR LIRA 161645Z 22005KT 9999 FEW025 23/17 Q1012=
201209161615 METAR LIRA 161615Z 20007KT 9999 FEW025 23/18 Q1012=
201209161545 METAR LIRA 161545Z 22005KT 9999 SCT025 FEW030TCU 24/18 Q1012=
201209161515 METAR LIRA 161515Z 21005KT 170V250 9999 SCT025 FEW030TCU
                        24/17 Q1012=
201209161445 METAR LIRA 161445Z 20007KT 9999 SCT025 FEW030TCU 24/17 Q1012=
201209161415 METAR LIRA 161415Z 20008KT 160V230 9999 SCT025 25/18 Q1012=
201209161345 METAR LIRA 161345Z 19007KT 160V230 9999 BKN025 24/18 Q1012=
201209161315 METAR LIRA 161315Z 19007KT 9999 BKN025 24/17 Q1013=
201209161245 METAR LIRA 161245Z 22006KT 180V270 9999 BKN025 FEW030TCU
                        24/17 Q1013=
201209161215 METAR LIRA 161215Z 23005KT 9999 SCT025 FEW030TCU 24/16 Q1013=
201209161145 METAR LIRA 161145Z 27002KT 9999 SCT025 FEW030TCU 24/15 Q1013=
201209161115 METAR LIRA 161115Z 35003KT 9999 SCT025 FEW030TCU 25/16 Q1013=
201209161045 METAR LIRA 161045Z 07002KT 9999 SCT025 FEW030TCU 24/16 Q1013=
201209161015 METAR LIRA 161015Z 04003KT 9999 SCT025 FEW030TCU 24/16 Q1013=
201209160945 METAR LIRA 160945Z 36003KT 9999 SCT025 FEW030TCU 24/16 Q1013=
201209160915 METAR LIRA 160915Z 03005KT 9999 SCT025 22/16 Q1013=
201209160845 METAR LIRA 160845Z 02005KT 340V060 9999 SCT025 22/16 Q1013=
201209160815 METAR LIRA 160815Z 04006KT 360V070 9999 SCT025 21/16 Q1013=
201209160745 METAR LIRA 160745Z 02004KT 9999 SCT025 19/16 Q1013=
201209160715 METAR LIRA 160715Z 04005KT 340V100 9999 BKN025 17/15 Q1013=
201209160645 METAR LIRA 160645Z 03005KT 360V070 9999 BKN025 16/14 Q1013=
201209160615 METAR LIRA 160615Z 03003KT 9999 BKN023 16/14 Q1013=
201209160545 METAR LIRA 160545Z 04003KT 9999 BKN023 15/13 Q1013=
201209160515 METAR LIRA 160515Z 05004KT 9999 BKN023 15/13 Q1012=
201209160445 METAR LIRA 160445Z 05004KT 9999 SCT023 16/14 Q1012=
201209160415 METAR LIRA 160415Z 06003KT 9999 SCT023 16/14 Q1012=
201209160345 METAR LIRA 160345Z 06003KT 9999 SCT023 16/13 Q1012=
201209160315 METAR LIRA 160315Z 04004KT 9999 SCT023 16/14 Q1012=
201209160245 METAR LIRA 160245Z 00000KT 9999 FEW020 16/13 Q1012=
201209160215 METAR LIRA 160215Z 00000KT 9999 FEW020 17/14 Q1012=
201209160145 METAR LIRA 160145Z 00000KT CAVOK 17/14 Q1012=
201209160115 METAR LIRA 160115Z 00000KT CAVOK 18/14 Q1012=
201209160045 METAR LIRA 160045Z 02004KT CAVOK 18/15 Q1012=
201209160015 METAR LIRA 160015Z 02003KT CAVOK 18/14 Q1012=
201209152350 METAR LIRA 160045Z 02004KT CAVOK 18/15 Q1012=
201209152345 METAR LIRA 152345Z 01004KT CAVOK 19/15 Q1012=
201209152315 METAR LIRA 152315Z 01004KT CAVOK 19/15 Q1012=
201209152245 METAR LIRA 152245Z 02003KT CAVOK 19/15 Q1012=
201209152215 METAR LIRA 152215Z 02006KT CAVOK 19/15 Q1012=
201209152145 METAR LIRA 152145Z 01004KT CAVOK 19/15 Q1012=
201209152115 METAR LIRA 152115Z 03005KT CAVOK 20/15 Q1011=
201209152045 METAR LIRA 152045Z 06005KT 030V120 CAVOK 20/15 Q1011=
201209152015 METAR LIRA 152015Z 07006KT 050V110 CAVOK 20/16 Q1011=
201209151945 METAR LIRA 151945Z 28003KT CAVOK 20/16 Q1011=
201209151915 METAR LIRA 151915Z 09003KT CAVOK 20/16 Q1011=
201209151845 METAR LIRA 151845Z 16002KT 9999 FEW070 22/17 Q1010=
201209151815 METAR LIRA 151815Z 16002KT 9999 FEW070 22/17 Q1010=
201209151745 METAR LIRA 151745Z 17003KT 9999 FEW022 24/16 Q1009=
201209151715 METAR LIRA 151715Z 23005KT 9999 FEW022 24/15 Q1009=
201209151645 METAR LIRA 151645Z 23005KT 9999 FEW022 25/15 Q1009=
201209151615 METAR LIRA 151615Z 21004KT 9999 FEW022 25/16 Q1009=
201209151545 METAR LIRA 151545Z 23006KT 9999 FEW022 26/16 Q1009=
201209151515 METAR LIRA 151515Z 25006KT 200V300 9999 FEW022 27/15 Q1009=
201209151445 METAR LIRA 151445Z 05002KT 9999 FEW022 26/12 Q1009=
201209151415 METAR LIRA 151415Z 01004KT 9999 FEW020TCU SCT022 27/12 Q1008=
201209151345 METAR LIRA 151345Z 36004KT 330V070 9999 FEW020TCU SCT022
                        27/13 Q1008=
201209151315 METAR LIRA 151315Z 02003KT 9999 SCT020 27/13 Q1008=
201209151245 METAR LIRA 151245Z 03005KT 360V070 9999 SCT020 27/12 Q1008=
201209151215 METAR LIRA 151215Z 04004KT 9999 FEW020 26/13 Q1008=
201209151145 METAR LIRA 151145Z 02005KT 010V080 9999 FEW020 25/13 Q1008=
201209151115 METAR LIRA 151115Z 03004KT 9999 FEW020 25/15 Q1009=
201209151045 METAR LIRA 151045Z 02005KT 350V060 9999 FEW020 24/15 Q1009=
201209151015 METAR LIRA 151015Z 04006KT 010V070 9999 FEW020 23/16 Q1009=
201209150945 METAR LIRA 150945Z 02005KT 320V080 CAVOK 22/16 Q1009=
201209150915 METAR LIRA 150915Z 36006KT 320V030 CAVOK 21/16 Q1009=
201209150845 METAR LIRA 150845Z 03006KT 340V080 CAVOK 20/16 Q1008=
201209150815 METAR LIRA 150815Z 02007KT 350V060 CAVOK 19/15 Q1008=
201209150745 METAR LIRA 150745Z 03006KT 360V060 9999 FEW080 19/16 Q1008=
201209150715 METAR LIRA 150715Z 03004KT 9999 FEW080 18/15 Q1008=
201209150645 METAR LIRA 150645Z 04004KT 9999 FEW070 17/15 Q1007=
201209150615 METAR LIRA 150615Z 06005KT 030V090 9999 FEW070 16/14 Q1007=
201209150545 METAR LIRA 150545Z 06003KT 9999 FEW070 15/14 Q1007=
201209150515 METAR LIRA 150515Z 07006KT 9999 SCT070 14/13 Q1007=
201209150445 METAR LIRA 150445Z 06004KT 9999 FEW030 14/13 Q1007=
201209150415 METAR LIRA 150415Z 03006KT 9999 FEW030 14/13 Q1006=
201209150345 METAR LIRA 150345Z 01002KT CAVOK 14/12 Q1005=
201209150315 METAR LIRA 150315Z 02004KT CAVOK 14/12 Q1005=
201209150245 METAR LIRA 150245Z 05006KT 030V100 9999 FEW070 14/12 Q1005=
201209150215 METAR LIRA 150215Z 05006KT 9999 FEW070 14/12 Q1005=
201209150145 METAR LIRA 150145Z 05003KT 9999 FEW070 14/12 Q1005=
201209150115 METAR LIRA 150115Z 04004KT 9999 FEW070 14/12 Q1005=
201209150045 METAR LIRA 150045Z 02003KT 9999 FEW070 14/12 Q1005=
201209150015 METAR LIRA 150015Z 01004KT 9999 FEW070 14/12 Q1005=
201209142350 METAR LIRA 150045Z 02003KT 9999 FEW070 14/12 Q1005=
201209142345 METAR LIRA 142345Z 03004KT 9999 FEW070 14/12 Q1005=
201209142315 METAR LIRA 142315Z 06005KT 9999 FEW070 14/13 Q1005=
201209142245 METAR LIRA 142245Z 06006KT 9999 FEW070 14/13 Q1005=
201209142215 METAR LIRA 142215Z 05005KT 9999 FEW070 15/13 Q1005=
201209142145 METAR LIRA 142145Z 06005KT 9999 FEW070 15/13 Q1005=
201209142115 METAR LIRA 142115Z 05005KT 9999 FEW070 15/13 Q1005=
201209142045 METAR LIRA 142045Z 02002KT 9999 FEW070 15/13 Q1004=
201209142015 METAR LIRA 142015Z 04002KT 9999 FEW070 15/13 Q1003=
201209141945 METAR LIRA 141945Z 02005KT 350V070 9999 FEW025 15/13 Q1003=
201209141915 METAR LIRA 141915Z 01007KT 9999 FEW018 15/13 Q1002=
201209141845 METAR LIRA 141845Z 05006KT 9999 FEW018 15/13 Q1002=
201209141815 METAR LIRA 141815Z 04006KT 9999 FEW018 15/13 Q1002=
201209141745 METAR LIRA 141745Z 36005KT 9999 FEW015 FEW020CB SCT025 16/14
                        Q1002=
201209141715 METAR LIRA 141715Z 01005KT 310V070 9999 FEW015 FEW020CB SCT025
                        16/14 Q1002=
201209141645 METAR LIRA 141645Z 36007KT 320V040 9999 FEW015 FEW018CB SCT027
                        17/15 Q1002=
201209141615 METAR LIRA 141615Z 02008KT 330V060 9999 FEW015 FEW020CB SCT070
                        16/14 Q1001=
201209141545 METAR LIRA 141545Z 01008KT 310V040 9999 FEW015 FEW020CB SCT025
                        17/15 Q1001=
201209141515 METAR LIRA 141515Z 04007KT 9999 FEW015 FEW020CB SCT025 16/15
                        Q1000=
201209141445 METAR LIRA 141445Z 03007KT 360V060 9999 FEW015 SCT025 16/14
                        Q1000=
201209141415 METAR LIRA 141415Z 03007KT 350V060 9999 -RA SCT015 BKN025
                        16/14 Q1001=
201209141345 METAR LIRA 141345Z 02006KT 330V050 9999 -RA SCT015 BKN025
                        15/14 Q1000=
201209141315 METAR LIRA 141315Z 02007KT 340V060 9999 -RA SCT015 BKN025
                        16/14 Q1000=
201209141245 METAR LIRA 141245Z 01006KT 330V040 9999 SCT015 BKN025 16/14
                        Q1000=
201209141215 METAR LIRA 141215Z 01007KT 330V050 9999 SCT015 BKN025 16/14
                        Q1000=
201209141145 METAR LIRA 141145Z 14001KT 9999 -RA SCT015 BKN025 16/14 Q1000=
201209141115 METAR LIRA 141115Z 13001KT 9999 -RA SCT015 BKN025 16/14 Q1000=
201209141045 METAR LIRA 141045Z 03003KT 9999 -RA SCT015 BKN025 16/14 Q1000=
201209141015 METAR LIRA 141015Z 36004KT 9999 -RA SCT015 BKN025 15/14 Q1000=
201209140945 METAR LIRA 140945Z 36005KT 330V050 9999 -RA FEW014 SCT022
                        15/13 Q1000=
201209140915 METAR LIRA 140915Z 36007KT 330V040 9999 -RA FEW014 SCT022
                        15/13 Q1000=
201209140845 METAR LIRA 140845Z 35008KT 330V030 7000 -RA FEW008 SCT014
                        BKN022 14/13 Q1000=
201209140815 METAR LIRA 140815Z 34010KT 300V360 6000 -RA FEW008 SCT014
                        BKN022 14/12 Q1000=
201209140745 METAR LIRA 140745Z 01006KT 320V040 6000 -RA SCT014 BKN022
                        14/12 Q1000=
201209140715 METAR LIRA 140715Z 36008KT 310V030 8000 -RA SCT015 BKN023
                        14/12 Q1000=
201209140645 METAR LIRA 140645Z 36008KT 8000 -RA SCT015 BKN023 14/12 Q1000=
201209140615 METAR LIRA 140615Z 35008KT 320V030 6000 -RA SCT015 BKN023
                        14/12 Q1000=
201209140545 METAR LIRA 140545Z 03003KT 6000 -RA SCT015 BKN023 14/12 Q1001=
201209140515 METAR LIRA 140515Z 06004KT 8000 -RA SCT015 BKN025 14/12 Q1000=
201209140445 METAR LIRA 140445Z 03003KT 9999 -RA SCT015 BKN025 14/12 Q1000=
201209140415 METAR LIRA 140415Z 05005KT 9999 -RA FEW018 BKN025 14/12 Q1000=
201209140345 METAR LIRA 140345Z 04005KT 350V080 9999 -RA FEW018 SCT025
                        14/13 Q1001=
201209140315 METAR LIRA 140315Z 03008KT 330V070 9999 FEW018 SCT025 14/12
                        Q1001=
201209140245 METAR LIRA 140245Z 03008KT 330V070 9999 FEW018 SCT025 14/12
                        Q1001=
201209140215 METAR LIRA 140215Z 02008KT 320V040 9999 FEW018 SCT025 14/12
                        Q1001=
201209140145 METAR LIRA 140145Z 01008KT 330V090 9999 FEW018 SCT025 14/12
                        Q1001=
201209140115 METAR LIRA 140115Z 01009KT 310V060 9999 FEW018 SCT025 14/13
                        Q1001=
201209140045 METAR LIRA 140045Z 02009KT 9999 FEW018 SCT025 14/13 Q1001=
201209140015 METAR LIRA 140015Z 02009KT 9999 FEW018 SCT025 14/13 Q1001=
201209132350 METAR LIRA 140045Z 02009KT 9999 FEW018 SCT025 14/13 Q1001=
201209132345 METAR LIRA 132345Z 01009KT 9999 FEW018 SCT025 15/13 Q1001=
201209132315 METAR LIRA 132315Z 01009KT 330V050 9999 SCT018 FEW020CB SCT025
                        15/13 Q1001=
201209132245 METAR LIRA 132245Z 01010KT 330V060 9999 FEW018 15/13 Q1001=
201209132215 METAR LIRA 132215Z 01010G22KT 330V050 9999 FEW018 16/13 Q1001=
201209132145 METAR LIRA 132145Z 36007KT 320V040 9999 FEW018 16/13 Q1001=
201209132115 METAR LIRA 132115Z 35009KT 9999 FEW018 FEW020CB SCT025 16/13
                        Q1001=
201209132045 METAR LIRA 132045Z 36007KT 300V040 9999 FEW018 FEW020CB 16/14
                        Q1000=
201209132015 METAR LIRA 132015Z 01005KT 9999 FEW018 FEW020CB 17/14 Q1000=
201209131945 METAR LIRA 131945Z 04006KT 9999 FEW018 FEW020CB 17/14 Q1000=
201209131915 METAR LIRA 131915Z 03004KT 9999 FEW017 FEW020CB 17/14 Q1000=
201209131845 METAR LIRA 131845Z 05006KT 010V090 9999 FEW015 FEW018CB 17/15
                        Q1000 RETS=
201209131815 METAR LIRA 131815Z 04006KT 340V060 9999 FEW015 FEW018CB SCT025
                        17/15 Q1000 RETS=
201209131745 METAR LIRA 131745Z 04006KT 010V080 9999 TS FEW015 FEW018CB
                        SCT026 18/15 Q1000=
201209131715 METAR LIRA 131715Z 04003KT 9999 TS FEW015 FEW018CB SCT025
                        18/16 Q1000=
201209131645 METAR LIRA 131645Z 32006KT 9999 TS FEW015 FEW018CB SCT025
                        18/15 Q1000=
201209131615 METAR LIRA 131615Z 32007KT 270V350 9999 TS FEW015 FEW018CB
                        SCT025 19/16 Q1000=
201209131545 METAR LIRA 131545Z 34006KT 9999 TS FEW015 FEW017CB BKN025
                        20/16 Q0999=
201209131515 METAR LIRA 131515Z 16002KT 8000 TS FEW015 FEW017CB BKN025
                        21/16 Q0999=
201209131445 METAR LIRA 131445Z 09003KT 9000 TS FEW015 FEW018CB BKN025
                        19/15 Q1000=
201209131415 METAR LIRA 131415Z 12008KT 9999 -TSRA FEW015 FEW018CB BKN025
                        19/15 Q1000=
201209131345 METAR COR LIRA 131345Z 11008KT 7000 -TSRA FEW015 FEW017CB
                        BKN025 19/16 Q1000=
201209131315 METAR LIRA 131315Z 09005KT 9000 -TSRA FEW015 FEW017CB BKN025
                        19/17 Q1000=
201209131245 METAR LIRA 131245Z 35008KT 8000 RA FEW015 FEW017CB BKN025
                        20/18 Q1000=
201209131215 METAR LIRA 131215Z 24005KT 180V340 9999 FEW018 FEW020CB SCT030
                        24/16 Q1000=
201209131145 METAR LIRA 131145Z 22005KT 9999 SCT018 SCT030 23/18 Q1000=
201209131115 METAR LIRA 131115Z 22006KT 190V260 9999 FEW018 BKN030 22/18
                        Q1000=
201209131045 METAR LIRA 131045Z 22006KT 180V260 9999 FEW018 BKN030 22/17
                        Q1000=
201209131015 METAR LIRA 131015Z 22006KT 180V260 9999 FEW018 BKN030 21/17
                        Q1000=
201209130945 METAR LIRA 130945Z 23007KT 180V260 9999 FEW018 BKN030 21/17
                        Q1000=
201209130915 METAR LIRA 130915Z 21007KT 170V230 9999 FEW018 BKN027 21/17
                        Q1000=
201209130845 METAR LIRA 130845Z 21006KT 180V260 9999 FEW018 BKN027 21/16
                        Q1001=
201209130815 METAR LIRA 130815Z 21005KT 9999 FEW018 BKN030 20/16 Q1001=
201209130745 METAR LIRA 130745Z 19007KT 160V240 9999 FEW018 BKN027 20/18
                        Q1001=
201209130715 METAR LIRA 130715Z 17006KT 9999 -RA FEW018 BKN027 19/17 Q1002=
201209130645 METAR LIRA 130645Z 16006KT 9999 -RA FEW018 BKN027 18/17 Q1002=
201209130615 METAR LIRA 130615Z 18005KT 9999 FEW018 SCT027 18/17 Q1002=
201209130545 METAR LIRA 130545Z 19005KT 9000 -RA FEW018 BKN027 18/17 Q1003=
201209130515 METAR LIRA 130515Z 19004KT 8000 -RA SCT018 BKN025 18/17 Q1003=
201209130445 METAR LIRA 130445Z 22004KT 6000 -RA SCT014 FEW017CB BKN023
                        18/17 Q1003=
201209130415 METAR LIRA 130415Z 20005G15KT 8000 -RA FEW017 FEW018CB BKN025
                        19/17 Q1003=
201209130345 METAR LIRA 130345Z 17004KT 8000 -RA FEW017CB BKN025 19/18
                        Q1003=
201209130315 METAR LIRA 130315Z 23003KT 8000 -RA FEW017CB BKN025 19/17
                        Q1003=
201209130245 METAR LIRA 130245Z 24006KT 210V280 8000 -RA FEW017CB BKN025
                        20/18 Q1004=
201209130215 METAR LIRA 130215Z 28007KT 240V310 8000 -RA FEW017CB BKN025
                        21/18 Q1004=
201209130145 METAR LIRA 130145Z 26007KT 220V310 8000 -RA FEW017CB BKN025
                        22/20 Q1004 RETS=
201209130115 METAR LIRA 130115Z 24009KT 200V270 8000 FEW017CB BKN025 22/20
                        Q1005 RETS=
201209130045 METAR LIRA 130045Z 23011KT 200V260 8000 TS FEW017CB BKN025
                        22/20 Q1005=
201209130015 METAR LIRA 130015Z 24012KT 200V270 8000 -TSRA FEW017CB BKN025
                        23/20 Q1005=
201209122350 METAR LIRA 130045Z 23011KT 200V260 8000 TS FEW017CB BKN025
                        22/20 Q1005=
201209122345 METAR LIRA 122345Z 18013G27KT 8000 -TSRA FEW017CB BKN025
                        23/21 Q1005=
201209122315 METAR LIRA 122315Z 17012KT 9999 FEW017CB SCT025 22/20 Q1006=
201209122245 METAR LIRA 122245Z 17013KT 9999 FEW017CB SCT025 23/21 Q1006=
201209122215 METAR LIRA 122215Z 17012KT 9999 FEW017CB SCT025 23/21 Q1007=
201209122145 METAR LIRA 122145Z 16014KT 9999 FEW017CB SCT025 22/20 Q1007=
201209122115 METAR LIRA 122115Z 16015KT 9999 FEW013 FEW017CB SCT025 22/20
                        Q1007=
201209122045 METAR LIRA 122045Z 16014KT 8000 TS FEW013 FEW017CB BKN025
                        22/20 Q1008=
201209122015 METAR LIRA 122015Z 16013KT 8000 TS FEW013 FEW017CB BKN025
                        23/20 Q1009=
201209121945 METAR LIRA 121945Z 17012KT 8000 FEW013 FEW017CB SCT025 23/20
                        Q1009=
201209121915 METAR LIRA 121915Z 17010KT 8000 FEW013 FEW017TCU SCT025 23/21
                        Q1009=
201209121845 METAR LIRA 121845Z 17009KT 8000 FEW013 FEW017TCU SCT025 23/20
                        Q1009=
201209121815 METAR LIRA 121815Z 17010KT 8000 FEW013 FEW017TCU BKN025 23/20
                        Q1009=
201209121745 METAR LIRA 121745Z 17010KT 9999 FEW017TCU BKN025 23/20 Q1009=
201209121715 METAR LIRA 121715Z 20008KT 9999 FEW017 BKN030 24/21 Q1009=
201209121645 METAR LIRA 121645Z 18011KT 9999 FEW020 SCT030 24/20 Q1009=
201209121615 METAR LIRA 121615Z 19011KT 9999 SCT017 SCT030 25/21 Q1010=
201209121545 METAR LIRA 121545Z 20011KT 9999 SCT017 SCT030 25/20 Q1010=
201209121515 METAR LIRA 121515Z 19010KT 9999 SCT017 SCT030 25/20 Q1011=
201209121445 METAR LIRA 121445Z 19009KT 150V220 9999 SCT018 SCT030 26/21
                        Q1011=
201209121415 METAR LIRA 121415Z 20010KT 170V230 9999 SCT018 SCT030 26/20
                        Q1011=
201209121345 METAR LIRA 121345Z 20009KT 160V230 9999 SCT018 SCT030 26/20
                        Q1012=
201209121315 METAR LIRA 121315Z 19011KT 160V230 9999 SCT018 SCT030 27/20
                        Q1012=
201209121245 METAR LIRA 121245Z 21009KT 160V250 9999 SCT018 SCT030 27/19
                        Q1012=
201209121215 METAR LIRA 121215Z 21010KT 170V260 9999 SCT018 SCT030 27/20
                        Q1013=
201209121145 METAR LIRA 121145Z 22010KT 9999 SCT018 SCT030 27/19 Q1013=
201209121115 METAR LIRA 121115Z 23008KT 180V260 9999 FEW015 SCT030 28/18
                        Q1013=
201209121045 METAR LIRA 121045Z 21008KT 160V260 9999 FEW015 SCT030 27/17
                        Q1013=
201209121015 METAR LIRA 121015Z 19008KT 170V230 9999 FEW017 27/18 Q1013=
201209120945 METAR LIRA 120945Z 21005KT 170V240 9999 FEW017 27/17 Q1013=
201209120915 METAR LIRA 120915Z 19005KT 150V220 9999 FEW017 26/18 Q1014=
201209120845 METAR LIRA 120845Z 17002KT 9999 FEW017 25/20 Q1014=
201209120815 METAR LIRA 120815Z 19002KT 9000 FEW017 24/19 Q1014=
201209120745 METAR LIRA 120745Z 14002KT 9000 SCT017 23/21 Q1014=
201209120715 METAR LIRA 120715Z 12002KT 9000 SCT017 23/20 Q1014=
201209120645 METAR LIRA 120645Z 11003KT 8000 FEW007 SCT017 22/20 Q1014=
201209120615 METAR LIRA 120615Z 11004KT 8000 FEW010 SCT015 20/18 Q1015=
201209120545 METAR LIRA 120545Z 11005KT 8000 FEW010 SCT016 20/19 Q1015=
201209120515 METAR LIRA 120515Z 11002KT 8000 FEW010 SCT016 20/19 Q1015=
201209120445 METAR LIRA 120445Z 12002KT 7000 FEW010 SCT015 20/19 Q1015=
201209120415 METAR LIRA 120415Z 23001KT 7000 FEW010 SCT025 21/19 Q1015=
201209120345 METAR LIRA 120345Z 18004KT 8000 FEW020 SCT025 21/19 Q1015=
201209120315 METAR LIRA 120315Z 17003KT 8000 FEW020 SCT025 20/19 Q1015=
201209120245 METAR LIRA 120245Z 17003KT 8000 FEW020 SCT025 21/19 Q1015=
201209120215 METAR LIRA 120215Z 16003KT 8000 SCT025 21/19 Q1015=
201209120145 METAR LIRA 120145Z 17003KT 8000 SCT025 21/19 Q1015=
201209120115 METAR LIRA 120115Z 15005KT 8000 SCT025 21/19 Q1015=
201209120045 METAR LIRA 120045Z 16001KT 8000 SCT025 21/20 Q1015=
201209120015 METAR LIRA 120015Z 23002KT 9999 SCT030 22/20 Q1016=
201209112350 METAR LIRA 120045Z 16001KT 8000 SCT025 21/20 Q1015=
201209112345 METAR LIRA 112345Z 23001KT 9999 SCT030 22/20 Q1016=
201209112315 METAR LIRA 112315Z 20002KT CAVOK 22/21 Q1016=
201209112245 METAR LIRA 112245Z 16003KT CAVOK 21/20 Q1016=
201209112215 METAR LIRA 112215Z 17003KT CAVOK 22/20 Q1016=
201209112145 METAR LIRA 112145Z 18002KT CAVOK 22/20 Q1016=
201209112115 METAR LIRA 112115Z 17003KT CAVOK 22/20 Q1016=
201209112045 METAR LIRA 112045Z 17004KT CAVOK 22/20 Q1016=
201209112015 METAR LIRA 112015Z 19002KT CAVOK 22/20 Q1016=
201209111945 METAR LIRA 111945Z 20004KT CAVOK 23/20 Q1016=
201209111915 METAR LIRA 111915Z 17003KT CAVOK 23/20 Q1016=
201209111845 METAR LIRA 111845Z 18003KT CAVOK 23/20 Q1016=
201209111815 METAR LIRA 111815Z 22003KT CAVOK 23/19 Q1016=
201209111745 METAR LIRA 111745Z 23004KT CAVOK 24/19 Q1016=
201209111715 METAR LIRA 111715Z 23004KT 9999 FEW017CB 25/19 Q1016=
201209111645 METAR LIRA 111645Z 26006KT 230V300 9999 FEW017CB 26/17 Q1016=
201209111615 METAR LIRA 111615Z 27006KT 230V310 9999 FEW017CB 26/18 Q1016=
201209111545 METAR LIRA 111545Z 26007KT 190V320 9999 FEW017CB 26/18 Q1016=
201209111515 METAR LIRA 111515Z 26009KT 220V300 9999 FEW017CB 27/18 Q1016=
201209111445 METAR LIRA 111445Z 26008KT 220V300 9999 FEW017CB 26/18 Q1016=
201209111415 METAR LIRA 111415Z 28010KT 260V330 9999 FEW017CB 27/20 Q1016=
201209111345 METAR LIRA 111345Z 26007KT 220V310 9999 FEW017TCU 27/20 Q1016=
201209111315 METAR LIRA 111315Z 27008KT 220V310 9999 FEW017TCU 27/20 Q1016=
201209111245 METAR LIRA 111245Z 27008KT 220V310 9999 SCT017TCU 28/19 Q1017=
201209111215 METAR LIRA 111215Z 29006KT 270V340 9999 FEW020TCU BKN200
                        28/17 Q1017=
201209111145 METAR LIRA 111145Z 30005KT 250V020 9999 FEW020 28/17 Q1017=
201209111115 METAR LIRA 111115Z 31004KT 250V020 9999 FEW020 BKN200 28/16
                        Q1017=
201209111045 METAR LIRA 111045Z 31005KT 280V340 9999 FEW020 27/17 Q1017=
201209111015 METAR LIRA 111015Z 35003KT 8000 FEW020 27/18 Q1018=
201209111000 METAR LIRA CONTUS CB ALQUADS=
201209110945 METAR LIRA 110945Z 32004KT 8000 FEW007 26/18 Q1018=
201209110915 METAR LIRA 110915Z 34003KT 8000 FEW007 25/18 Q1018=
201209110845 METAR LIRA 110845Z 03004KT 8000 FEW007 25/18 Q1018=
201209110815 METAR LIRA 110815Z 03003KT 8000 FEW007 24/19 Q1018=
201209110745 METAR LIRA 110745Z 01004KT 8000 FEW007 23/18 Q1018=
201209110715 METAR LIRA 110715Z 02003KT 8000 FEW007 22/18 Q1018=
201209110645 METAR LIRA 110645Z 01002KT 8000 FEW007 20/18 Q1018=
201209110615 METAR LIRA 110615Z 02002KT 8000 FEW007 20/18 Q1018=
201209110545 METAR LIRA 110545Z 04001KT 8000 FEW007 19/17 Q1018=
201209110515 METAR LIRA 110515Z 03002KT 8000 FEW007 18/16 Q1018=
201209110445 METAR LIRA 110445Z 05002KT 8000 FEW007 18/16 Q1018=
201209110415 METAR LIRA 110415Z 00000KT 7000 FEW007 18/16 Q1017=
201209110345 METAR LIRA 110345Z 00000KT 6000 FEW007 18/17 Q1017=
201209110315 METAR LIRA 110315Z 00000KT 7000 NSC 19/17 Q1017=
201209110245 METAR LIRA 110245Z 00000KT 8000 NSC 19/17 Q1017=
201209110215 METAR LIRA 110215Z 00000KT 8000 NSC 19/17 Q1017=
201209110145 METAR LIRA 110145Z 00000KT 8000 NSC 19/17 Q1017=
201209110115 METAR LIRA 110115Z 11004KT 8000 NSC 19/18 Q1018=
201209110045 METAR LIRA 110045Z 14003KT 7000 NSC 20/19 Q1018=
201209110015 METAR LIRA 110015Z 15002KT 7000 NSC 20/19 Q1018=
201209102350 METAR LIRA 110045Z 14003KT 7000 NSC 20/19 Q1018=
201209102345 METAR LIRA 102345Z 15002KT 8000 FEW080 21/19 Q1018=
201209102315 METAR LIRA 102315Z 15003KT 8000 FEW080 21/20 Q1018=
201209102245 METAR LIRA 102245Z 12001KT 8000 FEW080 21/20 Q1018=
201209102215 METAR LIRA 102215Z 00000KT 8000 FEW080 22/20 Q1018=
201209102145 METAR LIRA 102145Z 17002KT 8000 FEW080 22/21 Q1018=
201209102115 METAR LIRA 102115Z 16002KT 8000 SKC 22/20 Q1018=
201209102045 METAR LIRA 102045Z 17002KT 8000 SKC 22/20 Q1018=
201209102015 METAR LIRA 102015Z 17001KT 8000 NSC 22/20 Q1018=
201209101945 METAR LIRA 101945Z 22002KT 8000 NSC 22/20 Q1018=
201209101915 METAR LIRA 101915Z 22003KT 8000 NSC 22/20 Q1018=
201209101845 METAR LIRA 101845Z 20003KT CAVOK 23/20 Q1018=
201209101815 METAR LIRA 101815Z 23002KT CAVOK 23/20 Q1018=
201209101745 METAR LIRA 101745Z 25002KT CAVOK 24/20 Q1018=
201209101715 METAR LIRA 101715Z 26004KT CAVOK 24/19 Q1018=
201209101645 METAR LIRA 101645Z 25004KT 9999 FEW030 25/19 Q1017=
201209101615 METAR LIRA 101615Z 26005KT 9999 FEW018 FEW022CB 26/19 Q1017=
201209101545 METAR LIRA 101545Z 24006KT 210V290 9999 FEW018 FEW022CB 26/19
                        Q1017=
201209101515 METAR LIRA 101515Z 24008KT 9999 FEW018 FEW022CB 26/20 Q1017=
201209101445 METAR LIRA 101445Z 23009KT 190V260 9999 FEW018 FEW020CB 26/20
                        Q1017=
201209101415 METAR LIRA 101415Z 23008KT 200V280 9999 FEW018 FEW020CB 27/20
                        Q1017=
201209101345 METAR LIRA 101345Z 24008KT 220V310 9999 SCT018 27/19 Q1017=
201209101315 METAR LIRA 101315Z 24007KT 220V280 9999 SCT018 28/19 Q1018=
201209101245 METAR LIRA 101245Z 24007KT 190V290 9999 SCT018 28/18 Q1018=
201209101215 METAR LIRA 101215Z 27007KT 230V310 9999 SCT018 28/18 Q1018=
201209101145 METAR LIRA 101145Z 28006KT 210V330 9999 SCT018 28/18 Q1018=
201209101115 METAR LIRA 101115Z 25005KT 210V290 9999 SCT018 27/18 Q1018=
201209101045 METAR LIRA 101045Z 28006KT 8000 FEW018 27/18 Q1018=
201209101015 METAR LIRA 101015Z 27004KT 8000 FEW020 26/15 Q1018=
201209100915 METAR LIRA 100915Z 29003KT 7000 FEW020 26/17 Q1018=
201209100845 METAR LIRA 100845Z 24004KT 6000 FEW005 24/16 Q1018=
201209100815 METAR LIRA 100815Z 29002KT 6000 FEW005 24/20 Q1018=
201209100745 METAR LIRA 100745Z 36001KT 5000 BR FEW005 23/20 Q1018=
201209100715 METAR LIRA 100715Z 00000KT 4000 BR FEW005 SCT070 22/20 Q1018=
201209100645 METAR LIRA 100645Z 06001KT 4000 BR FEW005 SCT070 21/19 Q1017=
201209100615 METAR LIRA 100615Z 02001KT 6000 FEW020 20/18 Q1017=
201209100545 METAR LIRA 100545Z 08001KT 8000 FEW020 19/17 Q1017=
201209100515 METAR LIRA 100515Z 09002KT 8000 FEW020 19/17 Q1017=
201209100445 METAR LIRA 100445Z 33001KT 7000 FEW010 19/17 Q1017=
201209100415 METAR LIRA 100415Z 14001KT 8000 FEW010 19/17 Q1017=
201209100345 METAR LIRA 100345Z 14002KT 8000 FEW010 SCT020 20/18 Q1017=
201209100315 METAR LIRA 100315Z 16003KT 9000 FEW010 SCT030 20/18 Q1017=
201209100245 METAR LIRA 100245Z 16002KT 9000 FEW010 SCT070 19/18 Q1017=
201209100215 METAR LIRA 100215Z 18001KT 9000 SCT010 20/19 Q1017=
201209100145 METAR LIRA 100145Z 13001KT 9000 SCT010 20/19 Q1017=
201209100115 METAR LIRA 100115Z 10004KT 8000 SCT010 20/19 Q1017=
201209100045 METAR LIRA 100045Z 12001KT 8000 SCT010 21/20 Q1017=
201209100015 METAR LIRA 100015Z 00000KT 7000 SCT010 21/20 Q1017=
201209092350 METAR LIRA 100045Z 12001KT 8000 SCT010 21/20 Q1017=
201209092345 METAR LIRA 092345Z 15002KT 7000 SCT010 20/19 Q1018=
201209092315 METAR LIRA 092315Z 13002KT 8000 FEW010 20/19 Q1018=
201209092245 METAR LIRA 092245Z 12003KT 8000 FEW010 21/19 Q1018=
201209092215 METAR LIRA 092215Z 14003KT 9000 FEW018 21/20 Q1018=
201209092145 METAR LIRA 092145Z 15002KT 9000 SCT018 22/20 Q1017=
201209092115 METAR LIRA 092115Z 00000KT 9000 SCT025 22/20 Q1017=
201209092045 METAR LIRA 092045Z 17001KT 9999 FEW020 22/20 Q1017=
201209092015 METAR LIRA 092015Z 18002KT 9999 FEW030 22/20 Q1017=
201209091945 METAR LIRA 091945Z 22002KT 9999 FEW030 22/20 Q1017=
201209091915 METAR LIRA 091915Z 22003KT 9999 FEW020 SCT200 22/20 Q1017=
201209091845 METAR LIRA 091845Z 21003KT 9999 FEW030 23/20 Q1017=
201209091815 METAR LIRA 091815Z 21003KT 9999 FEW030 23/21 Q1017=
201209091745 METAR LIRA 091745Z 22004KT 9999 FEW030 24/21 Q1017=
201209091715 METAR LIRA 091715Z 23004KT 9999 FEW030 25/20 Q1017=
201209091645 METAR LIRA 091645Z 23006KT 200V270 9999 FEW030 26/21 Q1017=
201209091615 METAR LIRA 091615Z 23006KT 9999 FEW030 26/20 Q1017=
201209091545 METAR LIRA 091545Z 22006KT 9999 FEW030 27/20 Q1017=
201209091515 METAR LIRA 091515Z 25006KT 170V310 9999 FEW020 27/20 Q1017=
201209091445 METAR LIRA 091445Z 24008KT 9999 FEW020 27/19 Q1017=
201209091415 METAR LIRA 091415Z 22008KT 180V260 9999 FEW020 28/19 Q1017=
201209091345 METAR LIRA 091345Z 22007KT 200V260 9999 FEW020 28/19 Q1017=
201209091315 METAR LIRA 091315Z 22008KT 170V260 9999 FEW020 28/20 Q1017=
201209091245 METAR LIRA 091245Z 24007KT 200V290 9999 SCT020 28/19 Q1017=
201209091215 METAR LIRA 091215Z 23007KT 190V270 9999 SCT020 29/19 Q1017=
201209091145 METAR LIRA 091145Z 25006KT 210V300 9999 SCT020 29/19 Q1017=
201209091115 METAR LIRA 091115Z 21004KT 9999 SCT018 29/18 Q1017=
201209091045 METAR LIRA 091045Z 24004KT 220V280 9999 SCT018 28/19 Q1018=
201209091015 METAR LIRA 091015Z 24006KT 9999 SCT018 27/20 Q1018=
201209090945 METAR LIRA 090945Z 25005KT 210V300 9999 SCT018 27/19 Q1018=
201209090915 METAR LIRA 090915Z 22004KT 9999 FEW018 27/20 Q1018=
201209090845 METAR LIRA 090845Z 22002KT 9999 FEW017 26/19 Q1018=
201209090815 METAR LIRA 090815Z 26002KT CAVOK 26/20 Q1018=
201209090745 METAR LIRA 090745Z 00000KT CAVOK 25/20 Q1018=
201209090715 METAR LIRA 090715Z 07002KT 8000 NSC 24/20 Q1017=
201209090645 METAR LIRA 090645Z 10003KT 8000 NSC 23/20 Q1017=
201209090615 METAR LIRA 090615Z 11004KT 8000 NSC 22/20 Q1017=
201209090545 METAR LIRA 090545Z 11006KT 8000 NSC 21/19 Q1017=
201209090515 METAR LIRA 090515Z 00000KT 7000 FEW010 20/18 Q1017=
201209090445 METAR LIRA 090445Z 10002KT 6000 SCT009 20/18 Q1017=
201209090415 METAR LIRA 090415Z 12002KT 7000 FEW009 SCT015 20/19 Q1017=
201209090345 METAR LIRA 090345Z 10005KT 8000 FEW007 SCT016 20/18 Q1017=
201209090315 METAR LIRA 090315Z 10004KT 8000 BKN007 20/19 Q1017=
201209090245 METAR LIRA 090245Z 12002KT 7000 BKN007 21/19 Q1017=
201209090215 METAR LIRA 090215Z 16003KT 7000 BKN007 21/19 Q1017=
201209090145 METAR LIRA 090145Z 15003KT 8000 BKN007 20/18 Q1017=
201209090115 METAR LIRA 090115Z 16002KT 9000 BKN007 20/18 Q1017=
201209090045 METAR LIRA 090045Z 16002KT 9999 SCT007 20/18 Q1017=
201209090015 METAR LIRA 090015Z 11001KT CAVOK 20/18 Q1017=
201209082350 METAR LIRA 090045Z 16002KT 9999 SCT007 20/18 Q1017=
201209082345 METAR LIRA 082345Z 13002KT CAVOK 20/18 Q1017=
201209082315 METAR LIRA 082315Z 12002KT CAVOK 21/18 Q1017=
201209082245 METAR LIRA 082245Z 15003KT CAVOK 21/18 Q1017=
201209082215 METAR LIRA 082215Z 15003KT CAVOK 22/19 Q1017=
201209082145 METAR LIRA 082145Z 15004KT CAVOK 22/19 Q1017=
201209082115 METAR LIRA 082115Z 17003KT CAVOK 23/18 Q1017=
201209082045 METAR LIRA 082045Z 16003KT CAVOK 23/19 Q1017=
201209082015 METAR LIRA 082015Z 17003KT CAVOK 23/19 Q1017=
201209081945 METAR LIRA 081945Z 18004KT CAVOK 23/19 Q1017=
201209081915 METAR LIRA 081915Z 19003KT CAVOK 24/19 Q1017=
201209081845 METAR LIRA 081845Z 18003KT CAVOK 24/18 Q1017=
201209081815 METAR LIRA 081815Z 20004KT CAVOK 24/18 Q1017=
201209081745 METAR LIRA 081745Z 23003KT CAVOK 25/18 Q1017=
201209081715 METAR LIRA 081715Z 26003KT 9999 FEW080 26/17 Q1017=
201209081645 METAR LIRA 081645Z 25005KT 210V300 CAVOK 26/17 Q1017=
201209081615 METAR LIRA 081615Z 27007KT 220V310 CAVOK 27/16 Q1017=
201209081545 METAR LIRA 081545Z 26007KT 220V310 9999 FEW020 28/14 Q1017=
201209081515 METAR LIRA 081515Z 27006KT 230V320 9999 FEW020 28/15 Q1017=
201209081445 METAR LIRA 081445Z 25007KT 210V310 9999 FEW020 29/15 Q1017=
201209081415 METAR LIRA 081415Z 24007KT 200V270 9999 FEW020 29/15 Q1017=
201209081345 METAR LIRA 081345Z 26007KT 220V320 9999 FEW020 29/14 Q1017=
201209081315 METAR LIRA 081315Z 30008KT 220V330 9999 FEW020 29/14 Q1018=
201209081245 METAR LIRA 081245Z 27007KT 200V330 9999 FEW020 29/12 Q1018=
201209081215 METAR LIRA 081215Z 26002KT 9999 FEW020 29/08 Q1018=
201209081145 METAR LIRA 081145Z 31005KT 260V330 9999 FEW020 28/09 Q1018=
201209081115 METAR LIRA 081115Z 17003KT 280V010 9999 FEW020 28/09 Q1019=
201209081045 METAR LIRA 081045Z 30002KT 9999 FEW020 28/16 Q1019=
201209081015 METAR LIRA 081015Z 34002KT 9999 FEW020 27/14 Q1019=
201209080945 METAR LIRA 080945Z 31003KT 9999 FEW020 26/14 Q1019=
201209080915 METAR LIRA 080915Z 32003KT 9999 FEW020 25/15 Q1019=
201209080845 METAR LIRA 080845Z 01003KT CAVOK 24/16 Q1019=
201209080815 METAR LIRA 080815Z 02003KT CAVOK 24/17 Q1019=
201209080745 METAR LIRA 080745Z 35003KT CAVOK 23/19 Q1019=
201209080715 METAR LIRA 080715Z 03004KT CAVOK 21/18 Q1019=
201209080645 METAR LIRA 080645Z 04004KT CAVOK 20/18 Q1019=
201209080615 METAR LIRA 080615Z 02004KT CAVOK 19/17 Q1019=
201209080545 METAR LIRA 080545Z 35003KT 9000 SKC 18/17 Q1018=
201209080515 METAR LIRA 080515Z 34002KT 9000 SKC 18/17 Q1018=
201209080445 METAR LIRA 080445Z 36002KT CAVOK 18/17 Q1018=
201209080415 METAR LIRA 080415Z 02003KT CAVOK 18/17 Q1019=
201209080345 METAR LIRA 080345Z 03002KT CAVOK 18/17 Q1019=
201209080315 METAR LIRA 080315Z 04003KT CAVOK 18/17 Q1019=
201209080245 METAR LIRA 080245Z 02002KT CAVOK 19/17 Q1019=
201209080215 METAR LIRA 080215Z 33002KT CAVOK 19/17 Q1019=
201209080145 METAR LIRA 080145Z 00000KT CAVOK 19/17 Q1019=
201209080115 METAR LIRA 080115Z 09001KT CAVOK 19/18 Q1019=
201209080045 METAR LIRA 080045Z 10003KT CAVOK 19/18 Q1019=
201209080015 METAR LIRA 080015Z 11002KT CAVOK 20/18 Q1019=
201209072350 METAR LIRA 080045Z 10003KT CAVOK 19/18 Q1019=
201209072345 METAR LIRA 072345Z 15002KT CAVOK 21/20 Q1019=
201209072315 METAR LIRA 072315Z 00000KT CAVOK 21/19 Q1020=
201209072245 METAR LIRA 072245Z 10002KT CAVOK 22/20 Q1020=
201209072215 METAR LIRA 072215Z 15002KT CAVOK 22/20 Q1020=
201209072145 METAR LIRA 072145Z 16003KT CAVOK 22/20 Q1020=
201209072115 METAR LIRA 072115Z 18003KT CAVOK 23/20 Q1020=
201209072045 METAR LIRA 072045Z 18003KT CAVOK 23/20 Q1020=
201209072015 METAR LIRA 072015Z 17005KT CAVOK 23/20 Q1020=
201209071945 METAR LIRA 071945Z 19004KT CAVOK 23/19 Q1019=
201209071915 METAR LIRA 071915Z 18005KT CAVOK 23/19 Q1019=
201209071845 METAR LIRA 071845Z 18005KT CAVOK 24/19 Q1019=
201209071815 METAR LIRA 071815Z 20003KT CAVOK 24/19 Q1019=
201209071745 METAR LIRA 071745Z 20003KT CAVOK 26/17 Q1019=
201209071715 METAR LIRA 071715Z 23005KT CAVOK 26/18 Q1019=
201209071645 METAR LIRA 071645Z 23007KT CAVOK 27/18 Q1019=
201209071615 METAR LIRA 071615Z 23007KT 200V270 9999 FEW018 28/18 Q1019=
201209071545 METAR LIRA 071545Z 24007KT 200V270 9999 FEW018 28/18 Q1019=
201209071515 METAR LIRA 071515Z 24007KT 220V300 9999 FEW018 28/18 Q1019=
201209071445 METAR LIRA 071445Z 25008KT 220V280 9999 FEW018 28/18 Q1019=
201209071415 METAR LIRA 071415Z 23009KT 200V260 9999 FEW018 29/19 Q1019=
201209071345 METAR LIRA 071345Z 24008KT 210V290 9999 FEW018 29/19 Q1019=
201209071315 METAR LIRA 071315Z 24009KT 9999 SCT017 29/18 Q1019=
201209071245 METAR LIRA 071245Z 12003KT 9999 SCT017 30/15 Q1019=
201209071215 METAR LIRA 071215Z 36003KT 9999 SCT017 29/14 Q1019=
201209071145 METAR LIRA 071145Z 31004KT 9999 SCT017 29/15 Q1019=
201209071115 METAR LIRA 071115Z 33004KT 280V360 9999 FEW018 29/16 Q1020=
201209071045 METAR LIRA 071045Z 27005KT 9999 FEW020 28/16 Q1020=
201209071015 METAR LIRA 071015Z 34003KT 9999 FEW020 28/16 Q1020=
201209070945 METAR LIRA 070945Z 03002KT 9999 FEW020 27/16 Q1020=
201209070915 METAR LIRA 070915Z 00000KT CAVOK 26/16 Q1020=
201209070900 LIRA CB ALQUADS=
201209070845 METAR LIRA 070845Z 30002KT CAVOK 25/17 Q1020=
201209070815 METAR LIRA 070815Z 35003KT CAVOK 24/17 Q1020=
201209070745 METAR LIRA 070745Z 03003KT CAVOK 23/17 Q1020=
201209070715 METAR LIRA 070715Z 04003KT CAVOK 23/18 Q1020=
201209070645 METAR LIRA 070645Z 02002KT CAVOK 21/17 Q1020=
201209070615 METAR LIRA 070615Z 00000KT CAVOK 20/17 Q1020=
201209070545 METAR LIRA 070545Z 00000KT CAVOK 19/17 Q1019=
201209070515 METAR LIRA 070515Z 00000KT 9999 FEW030 19/17 Q1019=
201209070445 METAR LIRA 070445Z 26001KT 9999 FEW030 19/17 Q1019=
201209070415 METAR LIRA 070415Z 00000KT 9999 FEW030 19/17 Q1019=
201209070345 METAR LIRA 070345Z 32001KT 9999 SCT070 19/18 Q1019=
201209070315 METAR LIRA 070315Z 00000KT 9999 SCT060 20/18 Q1019=
201209070245 METAR LIRA 070245Z 01001KT 9999 FEW030 SCT070 20/18 Q1019=
201209070215 METAR LIRA 070215Z 01002KT 9999 SCT060 20/18 Q1019=
201209070145 METAR LIRA 070145Z 01003KT 9999 FEW030 20/18 Q1019=
201209070115 METAR LIRA 070115Z 00000KT 9999 FEW030 20/19 Q1018=
201209070045 METAR LIRA 070045Z 35002KT 9999 FEW040 SCT060 21/19 Q1018=
201209070015 METAR LIRA 070015Z 00000KT 9999 SCT050 21/19 Q1018=
201209062350 METAR LIRA 070045Z 35002KT 9999 FEW040 SCT060 21/19 Q1018=
201209062345 METAR LIRA 062345Z 00000KT 9999 SCT060 21/19 Q1018=
201209062315 METAR LIRA 062315Z 20001KT 9999 FEW060 21/19 Q1018=
201209062245 METAR LIRA 062245Z 19002KT CAVOK 22/19 Q1018=
201209062215 METAR LIRA 062215Z 14001KT CAVOK 22/19 Q1017=
201209062145 METAR LIRA 062145Z 04003KT CAVOK 22/19 Q1017=
201209062115 METAR LIRA 062115Z 30002KT CAVOK 22/19 Q1017=
201209062045 METAR LIRA 062045Z 10002KT CAVOK 23/20 Q1017=
201209062015 METAR LIRA 062015Z 05001KT CAVOK 23/20 Q1017=
201209061945 METAR LIRA 061945Z 11005KT CAVOK 23/20 Q1016=
201209061915 METAR LIRA 061915Z 15004KT CAVOK 24/21 Q1016=
201209061845 METAR LIRA 061845Z 13005KT 9999 FEW080 24/20 Q1016=
201209061815 METAR LIRA 061815Z 15006KT 9999 FEW080 24/22 Q1015 WS RWY
                        15=
201209061745 METAR LIRA 061745Z 17008KT 9999 FEW035 25/22 Q1015 RMK WS
                        RWY 15=
201209061715 METAR LIRA 061715Z 24003KT 9999 FEW023 26/21 Q1015=
201209061645 METAR LIRA 061645Z 23006KT 9999 FEW020TCU SCT070 27/22 Q1015=
201209061615 METAR LIRA 061615Z 18008KT 110V250 9999 FEW020CB SCT070 27/22
                        Q1015=
201209061545 METAR LIRA 061545Z 30009KT 9999 FEW023TCU SCT025 29/21 Q1015=
201209061515 METAR LIRA 061515Z 29009KT 220V330 9999 FEW023TCU SCT025
                        29/21 Q1014=
201209061445 METAR LIRA 061445Z 26009KT 230V310 9999 FEW023TCU SCT030
                        29/21 Q1014=
201209061415 METAR LIRA 061415Z 26008KT 220V340 9999 FEW023TCU SCT030
                        29/20 Q1015=
201209061345 METAR LIRA 061345Z 26009KT 200V310 9999 FEW025TCU SCT030
                        29/17 Q1015=
201209061315 METAR LIRA 061315Z 29006KT 240V350 9999 FEW025TCU SCT030
                        29/18 Q1015=
201209061245 METAR LIRA 061245Z 32006KT 260V340 9999 SCT030 29/19 Q1015=
201209061215 METAR LIRA 061215Z 29007KT 270V330 9999 SCT030 28/19 Q1015=
201209061145 METAR LIRA 061145Z 02004KT 270V030 9999 FEW030 28/20 Q1015=
201209061115 METAR LIRA 061115Z 32007KT 9999 FEW030 27/20 Q1015=
201209061045 METAR LIRA 061045Z 33006KT 280V020 9999 FEW030 SCT070 26/19
                        Q1015=
201209061015 METAR LIRA 061015Z 31005KT 9999 FEW030 SCT070 25/19 Q1015=
201209060945 METAR LIRA 060945Z 32004KT 9999 FEW030 SCT070 24/20 Q1015=
201209060915 METAR LIRA 060915Z 03004KT 020V090 9999 FEW030 SCT070 24/20
                        Q1015=
201209060845 METAR LIRA 060845Z 01005KT 310V070 9000 FEW015 SCT030 23/21
                        Q1015=
201209060815 METAR LIRA 060815Z 01007KT 340V040 9000 FEW015 SCT030 22/20
                        Q1015=
201209060745 METAR LIRA 060745Z 36008KT 330V030 9000 FEW010 SCT030 21/19
                        Q1014=
201209060645 METAR LIRA 060645Z 35001KT 8000 FEW010 SCT070 19/18 Q1014=
201209060615 METAR LIRA 060615Z 33001KT 7000 FEW008 SCT030 19/17 Q1014=
201209060545 METAR LIRA 060545Z 29003KT 7000 FEW008 SCT030 19/17 Q1014=
201209060515 METAR LIRA 060515Z 26002KT 7000 FEW008 SCT030 19/17 Q1014=
201209060445 METAR LIRA 060445Z 00000KT 7000 FEW008 SCT030 19/17 Q1014=
201209060415 METAR LIRA 060415Z 32001KT 7000 FEW008 FEW017CB SCT030 19/17
                        Q1013=
201209060345 METAR LIRA 060345Z 35001KT 7000 FEW008 SCT030 19/17 Q1013=
201209060315 METAR LIRA 060315Z 34002KT 9999 FEW017 SCT030 19/17 Q1013=
201209060245 METAR LIRA 060245Z 34002KT 9999 -RA FEW017 SCT030 19/18 Q1013=
201209060215 METAR LIRA 060215Z 01004KT 9999 -RA FEW017 SCT025 19/18 Q1013=
201209060145 METAR LIRA 060145Z 35003KT 9999 FEW017 SCT080 19/18 Q1013=
201209060115 METAR LIRA 060115Z 36003KT 9999 FEW017 SCT080 19/18 Q1013=
201209060045 METAR LIRA 060045Z 02002KT 9999 FEW017 SCT080 19/18 Q1013=
201209060015 METAR LIRA 060015Z 02002KT 9999 FEW015 FEW017CB BKN030 19/18
                        Q1013=
201209052350 METAR LIRA 060045Z 02002KT 9999 FEW017 SCT080 19/18 Q1013=
201209052345 METAR LIRA 052345Z 02003KT 9999 FEW015 FEW017CB BKN030 19/18
                        Q1013=
201209052315 METAR LIRA 052315Z 01002KT 9999 FEW015 BKN030 19/18 Q1013=
201209052245 METAR LIRA 052245Z 34009KT 310V010 9999 FEW015 FEW017CB BKN025
                        19/18 Q1013 RETS=
201209052215 METAR LIRA 052215Z 01007KT 340V050 8000 -RA SCT015 FEW017CB
                        BKN025 19/18 Q1013 RETS=
201209052145 METAR LIRA 052145Z 34009KT 7000 -TSRA SCT015 FEW017CB BKN025
                        20/19 Q1013=
201209052115 METAR LIRA 052115Z 01006KT 310V050 9999 -TSRA SCT015 FEW017CB
                        BKN030 20/19 Q1013=
201209052045 METAR LIRA 052045Z 35007KT 310V020 9999 -TSRA SCT015 FEW017CB
                        BKN030 20/19 Q1013=
201209052015 METAR LIRA 052015Z 02008KT 9999 -RA FEW015 FEW017CB BKN030
                        21/19 Q1012=
201209051945 METAR LIRA 051945Z 03005KT 9999 FEW015 FEW017CB SCT030 22/19
                        Q1012=
201209051915 METAR LIRA 051915Z 01001KT 9999 FEW015 FEW017CB SCT070 22/19
                        Q1012=
201209051845 METAR LIRA 051845Z 04002KT 9999 FEW015 FEW017CB SCT070 22/19
                        Q1012=
201209051815 METAR LIRA 051815Z 07003KT 9999 FEW015 FEW017CB SCT070 22/19
                        Q1012=
201209051745 METAR LIRA 051745Z 12005KT 9999 FEW015 FEW017CB SCT070 23/19
                        Q1012=
201209051715 METAR LIRA 051715Z 15008KT 9999 SCT015 FEW017CB SCT070 23/19
                        Q1012=
201209051645 METAR LIRA 051645Z 17008KT 9999 SCT015 FEW017CB SCT070 23/19
                        Q1012=
201209051615 METAR LIRA 051615Z 16008KT 9999 SCT015 FEW017CB SCT060 24/19
                        Q1012=
201209051545 METAR LIRA 051545Z 16009KT 9999 SCT015 FEW017CB SCT060 24/19
                        Q1012=
201209051515 METAR LIRA 051515Z 14010KT 9999 SCT015 FEW017CB SCT070 24/19
                        Q1012=
201209051445 METAR LIRA 051445Z 15009KT 120V190 9999 SCT015 FEW017CB SCT070
                        25/18 Q1012=
201209051415 METAR LIRA 051415Z 15010KT 9999 SCT015 FEW017CB SCT070 25/19
                        Q1012=
201209051345 METAR LIRA 051345Z 16011KT 9999 SCT015 FEW017TCU SCT070 25/19
                        Q1012=
201209051315 METAR LIRA 051315Z 16013KT 9999 SCT015 FEW018TCU SCT060 25/18
                        Q1012=
201209051245 METAR LIRA 051245Z 16013KT 130V200 9999 SCT015 FEW018TCU
                        SCT060 24/19 Q1012=
201209051215 METAR LIRA 051215Z 15012KT 9999 SCT015 FEW018CB SCT080 25/19
                        Q1012=
201209051145 METAR LIRA 051145Z 15013KT 9999 SCT015 FEW018CB SCT080 24/19
                        Q1012=
201209051115 METAR LIRA 051115Z 17014KT 9999 SCT015 FEW018CB SCT070 24/19
                        Q1012=
201209051100 LIRA INTER FREQUENT DIST LGT NW NE S-SW=
201209051045 METAR LIRA 051045Z 15013KT 9999 SCT015 FEW018CB SCT070 25/19
                        Q1012=
201209051015 METAR LIRA 051015Z 16007KT 120V200 9999 SCT015 FEW018CB SCT080
                        25/19 Q1012=
201209050945 METAR LIRA 050945Z 16011KT 9999 SCT015 FEW018CB SCT070 24/18
                        Q1012=
201209050915 METAR LIRA 050915Z 11006KT 070V190 9999 FEW015 FEW018CB SCT070
                        25/20 Q1012=
201209050845 METAR LIRA 050845Z 11011G21KT 9999 FEW015 SCT030 22/19 Q1012=
201209050815 METAR LIRA 050815Z 09008KT 9999 FEW015 SCT030 21/19 Q1012=
201209050745 METAR LIRA 050745Z 07007KT 360V100 9999 FEW015 SCT025 20/18
                        Q1012=
201209050715 METAR LIRA 050715Z 10003KT 9999 -RA FEW015 FEW018CB SCT025
                        20/18 Q1012=
201209050645 METAR LIRA 050645Z 12009KT 100V170 9999 -RA FEW015 FEW018CB
                        SCT025 21/18 Q1012=
201209050615 METAR LIRA 050615Z 10011KT 9999 FEW015 SCT025 21/19 Q1011=
201209050545 METAR LIRA 050545Z 11008KT 9999 FEW015 SCT070 20/18 Q1011=
201209050515 METAR LIRA 050515Z 06005KT 9999 FEW015 SCT022 19/18 Q1011=
201209050445 METAR LIRA 050445Z 08005KT 9999 FEW015 FEW018CB SCT022 19/18
                        Q1011 RETS=
201209050415 METAR LIRA 050415Z 06004KT 9999 -RA SCT015 FEW018CB SCT025
                        19/18 Q1011=
201209050345 METAR LIRA 050345Z 11004KT 9999 -TSRA SCT016 FEW020CB 19/17
                        Q1011=
201209050315 METAR LIRA 050315Z 07007KT 9999 TS SCT016 FEW020CB 20/18
                        Q1011=
201209050245 METAR LIRA 050245Z 09007KT 9999 SCT016 FEW020CB 20/18 Q1011=
201209050215 METAR LIRA 050215Z 10009KT 9999 FEW016 FEW020CB SCT025 20/18
                        Q1011 RETS=
201209050145 METAR LIRA 050145Z 07006KT 9999 SCT016 FEW020CB 20/18 Q1011
                        RETS=
201209050115 METAR LIRA 050115Z 08008KT 9999 -TSRA FEW018 FEW020CB SCT025
                        20/17 Q1011=
201209050045 METAR LIRA 050045Z 10010KT 9999 -TSRA FEW018 FEW020CB SCT025
                        20/18 Q1011=
201209050015 METAR LIRA 050015Z 10004KT 9999 FEW018 FEW020CB 19/17 Q1011=
201209042350 METAR LIRA 050045Z 10010KT 9999 -TSRA FEW018 FEW020CB SCT025
                        20/18 Q1011=
201209042345 METAR LIRA 042345Z 06007KT 9999 FEW018 FEW020CB 19/18 Q1011=
201209042315 METAR LIRA 042315Z 07004KT 9999 FEW018 FEW020CB SCT025 19/18
                        Q1011=
201209042245 METAR LIRA 042245Z 08005KT 9999 -RA FEW018 FEW020CB 19/18
                        Q1011=
201209042215 METAR LIRA 042215Z 14009KT 9999 -RA FEW018 FEW020CB SCT030
                        21/19 Q1011=
201209042145 METAR LIRA 042145Z 05005KT 9999 FEW015 19/16 Q1011=
201209042115 METAR LIRA 042115Z 09006KT 040V140 9999 FEW015 FEW018CB SCT070
                        21/18 Q1011=
201209042045 METAR LIRA 042045Z 12006KT 080V160 9999 FEW020 FEW022CB 20/18
                        Q1011=
201209042015 METAR LIRA 042015Z 12005KT 9999 FEW020 21/19 Q1011=
201209041945 METAR LIRA 041945Z 12007KT 9999 FEW020 20/18 Q1011=
201209041915 METAR LIRA 041915Z 11008KT 9999 FEW020 20/18 Q1011=
201209041845 METAR LIRA 041845Z 12007KT 9999 SCT015 FEW020CB SCT025 20/18
                        Q1011=
201209041815 METAR LIRA 041815Z 11003KT 9999 SCT015 FEW020CB SCT025 20/18
                        Q1010=
201209041745 METAR LIRA 041745Z 11010KT 9999 -RA SCT015 FEW020CB SCT025
                        20/17 Q1010=
201209041715 METAR LIRA 041715Z 10010KT 9999 FEW015 FEW020CB SCT025 20/18
                        Q1010=
201209041645 METAR LIRA 041645Z 08009KT 9999 FEW015 FEW020CB SCT025 20/18
                        Q1010=
201209041615 METAR LIRA 041615Z 08007KT 9999 FEW015 FEW020CB SCT025 21/19
                        Q1010=
201209041545 METAR LIRA 041545Z 11009KT 9999 SCT015 FEW020CB SCT025 20/18
                        Q1010 RERA=
201209041515 METAR LIRA 041515Z 09011KT 9999 -RA SCT015 FEW017CB BKN025
                        20/19 Q1010=
201209041445 METAR LIRA 041445Z 06004KT 9999 -RA SCT015 FEW017CB BKN025
                        20/19 Q1011=
201209041415 METAR LIRA 041415Z 10003KT 5000 RA BR SCT015 FEW017CB BKN025
                        20/18 Q1011=
201209041345 METAR LIRA 041345Z 09011KT 060V120 6000 RA SCT017 FEW018CB
                        BKN030 20/18 Q1010 RETS=
201209041315 METAR LIRA 041315Z 09013KT 060V120 9999 FEW017 FEW018CB BKN030
                        20/18 Q1010 RETS=
201209041245 METAR LIRA 041245Z 10017KT 9999 -TSRA FEW017 FEW018CB BKN030
                        20/18 Q1010=
201209041215 METAR LIRA 041215Z 11014G24KT 9999 -RA FEW017 FEW018CB BKN030
                        21/19 Q1010=
201209041145 METAR LIRA 041145Z 10016G27KT 9999 -RA FEW017 FEW018CB BKN030
                        21/17 Q1010=
201209041115 METAR LIRA 041115Z 10015G25KT 9999 FEW018 SCT030 BKN080 21/19
                        Q1010=
201209041045 METAR LIRA 041045Z 08011G21KT 040V130 9999 FEW018 SCT030
                        BKN080 20/18 Q1011=
201209041015 METAR LIRA 041015Z 05010KT 9999 FEW018 SCT030 BKN080 19/17
                        Q1011=
201209040945 METAR LIRA 040945Z 08010KT 9999 -RA FEW018 FEW020CB BKN035
                        20/18 Q1011=
201209040915 METAR LIRA 040915Z 07004KT 9999 -RA FEW018 FEW020CB BKN035
                        20/18 Q1011=
201209040845 METAR LIRA 040845Z 08009KT 050V120 9999 -RA FEW018 FEW020CB
                        BKN035 20/17 Q1011 RETS=
201209040815 METAR LIRA 040815Z 09010KT 9999 -RA FEW018 FEW020CB BKN035
                        20/17 Q1011 RETS=
201209040745 METAR LIRA 040745Z 04007KT 350V070 9999 TS FEW016 FEW018CB
                        BKN035 20/17 Q1010=
201209040715 METAR LIRA 040715Z 02005KT 9999 TS FEW016 FEW018CB BKN035
                        20/18 Q1010=
201209040645 METAR LIRA 040645Z 04005KT 9999 FEW016 FEW018CB BKN050 19/18
                        Q1010=
201209040615 METAR LIRA 040615Z 06006KT 9999 -RA FEW016 FEW020CB BKN050
                        19/18 Q1011=
201209040545 METAR LIRA 040545Z 05002KT 8000 -RA FEW016 FEW020CB BKN050
                        19/17 Q1011=
201209040515 METAR LIRA 040515Z 17002KT 8000 -RA FEW016 FEW020CB BKN050
                        19/18 Q1010=
201209040445 METAR LIRA 040445Z 30001KT 8000 -RA FEW016 FEW020CB BKN050
                        19/17 Q1010=
201209040415 METAR LIRA 040415Z 09005KT 8000 -RA FEW016 FEW020CB BKN050
                        20/18 Q1010=
201209040345 METAR LIRA 040345Z 07007KT 9999 FEW016 FEW020CB BKN050 19/17
                        Q1010=
201209040315 METAR LIRA 040315Z 02001KT 9999 -RA VCTS SCT016 FEW020CB
                        BKN070 19/17 Q1010 RETS=
201209040245 METAR LIRA 040245Z 00000KT 9999 -RA SCT016 FEW020CB BKN070
                        19/17 Q1011 RETS=
201209040215 METAR LIRA 040215Z 08001KT 9999 -TSRA FEW016 FEW020CB SCT070
                        19/17 Q1012=
201209040145 METAR LIRA 040145Z 07004KT 9999 -TSRA SCT016 BKN020CB 20/17
                        Q1012=
201209040115 METAR LIRA 040115Z 05003KT 9999 -TSRA SCT016 BKN020CB 20/17
                        Q1012=
201209040045 METAR LIRA 040045Z 06005KT 9999 -TSRA SCT016 BKN020CB 20/17
                        Q1012=
201209040015 METAR LIRA 040015Z 09001KT 9999 VCTS FEW016 FEW020CB 19/17
                        Q1012=
201209032350 METAR LIRA 040045Z 06005KT 9999 -TSRA SCT016 BKN020CB 20/17
                        Q1012=
201209032345 METAR LIRA 032345Z 00000KT 9999 VCTS FEW016 FEW020CB 19/17
                        Q1012=
201209032315 METAR COR LIRA 032315Z 04001KT 9999 VCTS FEW018 FEW020CB
                        19/17 Q1012=
201209032245 METAR LIRA 032245Z 05002KT 9999 VCTS FEW018 FEW020CB SCT060
                        20/17 Q1012=
201209032215 METAR LIRA 032215Z 01004KT 9999 VCTS FEW018 FEW020CB SCT060
                        20/18 Q1013=
201209032145 METAR LIRA 032145Z 06003KT 9999 VCTS FEW020CB SCT060 21/18
                        Q1013=
201209032115 METAR LIRA 032115Z 07001KT 9999 FEW020TCU SCT060 21/18 Q1013=
201209032045 METAR LIRA 032045Z 00000KT 9999 FEW020TCU SCT060 21/18 Q1013=
201209032015 METAR LIRA 032015Z 08003KT 9999 FEW030 SCT060 21/18 Q1013=
201209031945 METAR LIRA 031945Z 08003KT 9999 FEW030 SCT060 21/18 Q1013=
201209031915 METAR LIRA 031915Z 10003KT 9999 FEW016 SCT060 22/18 Q1013=
201209031845 METAR LIRA 031845Z 15002KT 9999 FEW016 SCT070 22/18 Q1013=
201209031815 METAR LIRA 031815Z 17005KT 9999 FEW016 SCT030 22/17 Q1013=
201209031745 METAR LIRA 031745Z 17006KT 9999 FEW016 FEW017TCU SCT025 23/17
                        Q1012=
201209031715 METAR LIRA 031715Z 18005KT 9999 FEW016 FEW017TCU FEW020CB
                        23/17 Q1012=
201209031645 METAR LIRA 031645Z 18008KT 9999 FEW016 FEW017TCU FEW020CB
                        23/17 Q1012=
201209031615 METAR LIRA 031615Z 17009KT 9999 FEW016 FEW017TCU FEW020CB
                        SCT070 24/17 Q1012=
201209031545 METAR LIRA 031545Z 16010KT 9999 SCT016 FEW020CB 24/15 Q1013=
201209031515 METAR LIRA 031515Z 17008KT 120V200 9999 SCT016 FEW020CB 25/16
                        Q1013=
201209031445 METAR LIRA 031445Z 18006KT 110V210 9999 SCT016 FEW020CB 23/17
                        Q1013=
201209031415 METAR LIRA 031415Z 14005KT 9999 BKN016 FEW020CB 23/17 Q1013=
201209031345 METAR LIRA 031345Z 13006KT 9999 SCT016 FEW020CB 23/17 Q1013
                        RETS=
201209031315 METAR LIRA 031315Z 11003KT 9999 BKN016 FEW020CB 23/18 Q1013
                        RETS=
201209031245 METAR LIRA 031245Z 23007KT 180V250 9999 TS BKN016 FEW020CB
                        23/16 Q1013=
201209031215 METAR LIRA 031215Z 17009KT 130V210 9999 TS BKN016 FEW020CB
                        23/17 Q1013=
201209031145 METAR LIRA 031145Z 19007KT 9999 -TSRA BKN016 FEW020CB 21/18
                        Q1013=
201209031115 METAR LIRA 031115Z 19006KT 4000 TSRA SCT017 FEW020CB 22/19
                        Q1013=
201209031045 METAR LIRA 031045Z 23009KT 180V250 9999 SCT016 FEW020CB 23/18
                        Q1013=
201209031015 METAR LIRA 031015Z 21006KT 160V240 9999 SCT017 FEW022CB 24/17
                        Q1013=
201209030945 METAR LIRA 030945Z 19005G16KT 9999 SCT017 FEW022CB 24/17
                        Q1013=
201209030915 METAR LIRA 030915Z 17010KT 9999 SCT017 FEW022CB 24/16 Q1013=
201209030845 METAR LIRA 030845Z 15011KT 9999 SCT020 FEW022CB 24/16 Q1013=
201209030815 METAR LIRA 030815Z 15010KT 9999 SCT020CB 24/16 Q1012=
201209030745 METAR LIRA 030745Z 14010KT 9999 FEW020 FEW022CB 22/16 Q1012=
201209030715 METAR LIRA 030715Z 14008KT 9999 SCT020CB SCT070 21/16 Q1013=
201209030645 METAR LIRA 030645Z 13007KT 9999 FEW020 FEW022CB SCT070 20/16
                        Q1013=
201209030615 METAR LIRA 030615Z 05001KT 9999 FEW020 FEW022CB SCT070 18/16
                        Q1013=
201209030545 METAR LIRA 030545Z 05001KT 9999 FEW020 SCT070 17/15 Q1013=
201209030515 METAR LIRA 030515Z 04001KT 9999 FEW020 SCT070 17/16 Q1013=
201209030445 METAR LIRA 030445Z 04002KT 9999 FEW020 SCT070 17/16 Q1013=
201209030415 METAR LIRA 030415Z 06002KT 9999 FEW020 BKN070 17/16 Q1013
                        RERA=
201209030345 METAR LIRA 030345Z 06005KT 9999 FEW020 BKN070 17/17 Q1013
                        RERA=
201209030315 METAR LIRA 030315Z 06006KT 9999 -RA FEW020 BKN070 17/17 Q1013=
201209030245 METAR LIRA 030245Z 00000KT 9999 RA FEW017 SCT040 BKN080 17/16
                        Q1013=
201209030215 METAR LIRA 030215Z 00000KT 9999 RA FEW015 BKN040 17/16 Q1013=
201209030145 METAR LIRA 030145Z 22007KT 6000 RA FEW015 BKN030 18/17 Q1013=
201209030115 METAR LIRA 030115Z 23007KT 6000 RA FEW015 BKN030 18/17 Q1013=
201209030045 METAR LIRA 030045Z 27004KT 8000 RA FEW015 BKN070 18/17 Q1013=
201209030015 METAR LIRA 030015Z 26004KT 8000 RA FEW015 BKN070 18/17 Q1013=
201209022350 METAR LIRA 030045Z 27004KT 8000 RA FEW015 BKN070 18/17 Q1013=
201209022345 METAR LIRA 022345Z 01001KT 9999 RA FEW020 BKN070 18/17 Q1014=
201209022315 METAR LIRA 022315Z 00000KT 9000 RA SCT025 BKN080 18/17 Q1014=
201209022245 METAR LIRA 022245Z 06002KT 9000 RA SCT025 BKN080 18/17 Q1014=
201209022215 METAR LIRA 022215Z 05006KT 8000 RA FEW014 SCT025 BKN080 19/17
                        Q1014=
201209022145 METAR LIRA 022145Z 17003KT 8000 RA FEW014 BKN070 19/17 Q1015=
201209022115 METAR LIRA 022115Z 05001KT 8000 RA SCT025 BKN070 19/17 Q1015=
201209022045 METAR LIRA 022045Z 20001KT 8000 RA SCT025 SCT070 19/17 Q1015=
201209022015 METAR LIRA 022015Z 24003KT 8000 RA SCT025 SCT070 19/18 Q1015=
201209021945 METAR LIRA 021945Z 11005KT 190V270 8000 RA BKN070 21/18 Q1014=
201209021915 METAR LIRA 021915Z 06003KT 9999 SCT070 21/17 Q1014=
201209021845 METAR LIRA 021845Z 05004KT 9999 SCT070 21/18 Q1015=
201209021815 METAR LIRA 021815Z 01005KT 330V030 9999 FEW025 SCT070 22/18
                        Q1015=
201209021745 METAR LIRA 021745Z 01005KT 9999 FEW025 SCT070 22/18 Q1015=
201209021715 METAR LIRA 021715Z 01005KT 9999 FEW025 SCT070 21/19 Q1015=
201209021645 METAR LIRA 021645Z 34004KT 9999 FEW030 SCT070 22/20 Q1015=
201209021615 METAR LIRA 021615Z 33004KT 9999 FEW017 SCT030 22/20 Q1016=
201209021545 METAR LIRA 021545Z 33003KT 9999 -RA FEW017 SCT030 BKN070
                        22/19 Q1016=
201209021515 METAR LIRA 021515Z 29003KT 9999 FEW016 SCT030 BKN060 22/20
                        Q1016=
201209021445 METAR LIRA 021445Z 27004KT 9999 FEW018 SCT035 BKN070 22/20
                        Q1016=
201209021415 METAR LIRA 021415Z 26005KT 9999 FEW018 SCT035 BKN070 22/19
                        Q1016=
201209021345 METAR LIRA 021345Z 26005KT 9999 FEW018 FEW020CB BKN035 23/20
                        Q1016=
201209021315 METAR LIRA 021315Z 27003KT 9999 FEW018 FEW020CB BKN035 23/20
                        Q1016=
201209021245 METAR LIRA 021245Z 25004KT 210V280 9999 FEW018 SCT030 23/20
                        Q1017=
201209021215 METAR LIRA 021215Z 23007KT 190V260 9999 FEW018 FEW020CB SCT030
                        23/20 Q1017=
201209021145 METAR LIRA 021145Z 23008KT 100V260 9999 -RA FEW018 FEW020CB
                        SCT030 23/19 Q1017=
201209021115 METAR LIRA 021115Z 18007KT 99999 -RA FEW018 FEW020CB SCT030
                        25/14 Q1017=
201209021100 METAR LIRA INTER=
201209021045 METAR LIRA 021045Z 19008KT 170V230 9999 FEW018 FEW020CB SCT040
                        25/13 Q1017=
201209021015 METAR LIRA 021015Z 13008KT 9999 FEW018 FEW020TCU SCT070 25/13
                        Q1017=
201209020945 METAR LIRA 020945Z 12006KT 9999 FEW018 SCT070 25/14 Q1017=
201209020915 METAR LIRA 020915Z 14008KT 110V180 9999 FEW020 SCT070 25/14
                        Q1017=
201209020845 METAR LIRA 020845Z 16009KT 100V180 9999 FEW025 SCT080 24/14
                        Q1017=
201209020815 METAR LIRA 020815Z 14012KT 110V170 9999 FEW025 SCT080 25/15
                        Q1017=
201209020800 METAR LIRA INTER CB SE/S-W=
201209020745 METAR LIRA 020745Z 11003KT 9999 FEW030 23/15 Q1017=
201209020715 METAR LIRA 020715Z 01005KT 9999 FEW040 21/14 Q1017=
201209020645 METAR LIRA 020645Z 03004KT 9999 FEW040 20/14 Q1016=
201209020615 METAR LIRA 020615Z 05004KT 9999 FEW040 19/14 Q1016=
201209020545 METAR LIRA 020545Z 04004KT 9999 FEW040 17/14 Q1016=
201209020515 METAR LIRA 020515Z 04003KT 9999 FEW040 SCT060 17/13 Q1016=
201209020445 METAR LIRA 020445Z 09001KT 9999 FEW020 SCT060 17/14 Q1016=
201209020415 METAR LIRA 020415Z 06003KT 9999 FEW020 SCT070 16/15 Q1015=
201209020345 METAR LIRA 020345Z 04003KT 9999 SCT070 17/15 Q1015=
201209020315 METAR LIRA 020315Z 01002KT 9999 FEW018 SCT070 17/15 Q1015=
201209020245 METAR LIRA 020245Z 04003KT 9999 FEW018 SCT060 17/15 Q1016=
201209020215 METAR LIRA 020215Z 30002KT 9999 -RA FEW020 SCT060 18/15 Q1016=
201209020145 METAR LIRA 020145Z 21002KT 9999 -RA FEW020 SCT060 19/14 Q1015=
201209020115 METAR LIRA 020115Z 00000KT 9999 FEW020 SCT060 18/14 Q1015=
201209020045 METAR LIRA 020045Z 34002KT 9999 FEW020 SCT070 17/14 Q1015=
201209020015 METAR LIRA 020015Z 05003KT 9999 FEW020 SCT070 17/14 Q1015=
201209012350 METAR LIRA 020045Z 34002KT 9999 FEW020 SCT070 17/14 Q1015=
201209012345 METAR LIRA 012345Z 08005KT 9999 FEW020 17/13 Q1016=
201209012315 METAR LIRA 012315Z 07004KT 9999 FEW022 17/13 Q1016=
201209012245 METAR LIRA 012245Z 10003KT 9999 FEW022TCU 18/14 Q1016=
201209012215 METAR LIRA 012215Z 09003KT 9999 FEW070 18/14 Q1016=
201209012145 METAR LIRA 012145Z 10003KT 9999 FEW060 18/14 Q1016=
201209012115 METAR LIRA 012115Z 10001KT 9999 FEW070 18/14 Q1016=
201209012045 METAR LIRA 012045Z 11002KT 9999 FEW060 18/14 Q1016=
201209012015 METAR LIRA 012015Z 17001KT 9999 FEW080 19/14 Q1015=
201209011945 METAR LIRA 011945Z 15002KT 9999 FEW070 19/14 Q1015=
201209011915 METAR LIRA 011915Z 15001KT 9999 FEW080 20/13 Q1015=
201209011845 METAR LIRA 011845Z 24002KT 9999 FEW017 20/14 Q1015=
201209011815 METAR LIRA 011815Z 25002KT 9999 FEW017 21/14 Q1015=
201209011745 METAR LIRA 011745Z 23002KT 9999 FEW017 22/14 Q1015=
201209011715 METAR LIRA 011715Z 18003KT 9999 FEW016 22/14 Q1014=
201209011645 METAR LIRA 011645Z 20004KT 180V240 9999 FEW016 SCT080 23/14
                        Q1014=
201209011615 METAR LIRA 011615Z 23004KT 9999 FEW016 23/14 Q1014=
201209011545 METAR LIRA 011545Z 20004KT 140V220 9999 FEW025 22/13 Q1014=
201209011515 METAR LIRA 011515Z 20006KT 180V260 9999 FEW025 23/13 Q1014=
201209011445 METAR LIRA 011445Z 24007KT 190V260 9999 FEW025 23/13 Q1014=
201209011415 METAR LIRA 011415Z 21007KT 150V250 9999 FEW025 23/13 Q1014=
201209011345 METAR LIRA 011345Z 21007KT 160V260 9999 FEW025 23/12 Q1014=
201209011315 METAR LIRA 011315Z 20009KT 9999 FEW020 23/14 Q1014=
201209011245 METAR LIRA 011245Z 22008KT 180V250 9999 FEW020 SCT025 24/14
                        Q1014=
201209011215 METAR LIRA 011215Z 22007KT 160V280 9999 FEW020 SCT025 BKN200
                        24/14 Q1014=
201209011145 METAR LIRA 011145Z 22007KT 170V270 9999 FEW020 SCT025 24/14
                        Q1014=
201209011115 METAR LIRA 011115Z 23009KT 170V260 9999 FEW020 SCT025 23/14
                        Q1014=
201209011045 METAR LIRA 011045Z 19010KT 160V230 9999 FEW025 24/14 Q1014=
201209011015 METAR LIRA 011015Z 20008KT 160V240 9999 FEW025 24/14 Q1014=
201209010945 METAR LIRA 010945Z 19009KT 160V230 9999 FEW025 23/14 Q1014=
201209010915 METAR LIRA 010915Z 19009KT 140V240 9999 SCT025 SCT080 23/14
                        Q1013=
201209010900 LIRA CONTUS CB N-E/W=
201209010845 METAR LIRA 010845Z 20009KT 170V240 9999 SCT025 SCT080 23/13
                        Q1013=
201209010815 METAR LIRA 010815Z 18012KT 150V250 9999 SCT025 SCT080 22/14
                        Q1013=
201209010800 LIRA INTER CB ALL QUADS=
201209010745 METAR LIRA 010745Z 19009KT 170V230 9000 FEW025 22/15 Q1013=
201209010715 METAR LIRA 010715Z 18007KT 150V220 7000 FEW007 SCT200 21/16
                        Q1013=
201209010645 METAR LIRA 010645Z 17006KT 9999 FEW025 21/16 Q1013=
201209010615 METAR LIRA 010615Z 17006KT 9999 SCT030 SCT080 21/15 Q1013=
201209010545 METAR LIRA 010545Z 16006KT 9999 SCT030 SCT080 20/16 Q1013=
201209010515 METAR LIRA 010515Z 15005KT 9999 SCT030 SCT080 20/16 Q1013=
201209010445 METAR LIRA 010445Z 16006KT 9999 FEW020 SCT040 20/15 Q1012=
201209010415 METAR LIRA 010415Z 16005KT 9999 FEW020 SCT040 20/15 Q1012=
201209010345 METAR LIRA 010345Z 17006KT 9999 FEW030 SCT080 20/15 Q1012=
201209010315 METAR LIRA 010315Z 17006KT 9999 FEW030 SCT080 20/15 Q1012=
201209010245 METAR LIRA 010245Z 18006KT 9999 FEW030 SCT080 20/14 Q1012=
201209010215 METAR LIRA 010215Z 17006KT 9999 FEW030 SCT080 20/15 Q1013=
201209010145 METAR LIRA 010145Z 18006KT 9999 FEW030 SCT080 20/15 Q1013=
201209010115 METAR LIRA 010115Z 16007KT 9999 SCT080 20/15 Q1013=
201209010045 METAR LIRA 010045Z 16007KT 9999 SCT080 20/15 Q1013=
201209010015 METAR LIRA 010015Z 16006KT 9999 SCT080 20/15 Q1013=

</pre>

</body>
</html>
