##########################################################
# Query made at 11/10/2014 14:30:45 UTC
# Time interval: from 09/01/2008 00:00  to 10/01/2008 23:59  UTC
##########################################################

##########################################################
# LIRA, Roma / Ciampino (Italy)
# WMO index: 16239
# Latitude 41-47N. Longitude 012-35E. Altitude 129 m.
##########################################################

###################################
#  METAR/SPECI from LIRA
###################################
200810012350 METAR LIRA 020045Z 13004KT CAVOK 13/09 Q1014=
200810012345 METAR LIRA 012345Z 12005KT CAVOK 14/09 Q1014=
200810012315 METAR LIRA 012315Z 14002KT CAVOK 14/09 Q1014=
200810012245 METAR LIRA 012245Z 11002KT CAVOK 14/12 Q1014=
200810012215 METAR LIRA 012215Z 17003KT CAVOK 15/12 Q1014=
200810012145 METAR LIRA 012145Z 13002KT CAVOK 15/12 Q1014=
200810012115 METAR LIRA 012115Z 12004KT CAVOK 15/12 Q1014=
200810012045 METAR LIRA 012045Z 12004KT CAVOK 16/13 Q1014=
200810012015 METAR LIRA 012015Z 13003KT CAVOK 17/14 Q1014=
200810011945 METAR LIRA 011945Z 11002KT CAVOK 17/13 Q1014=
200810011915 METAR LIRA 011915Z 20003KT CAVOK 17/13 Q1014=
200810011845 METAR LIRA 011845Z 19004KT CAVOK 18/13 Q1014=
200810011815 METAR LIRA 011815Z 23003KT 9999 FEW070 19/12 Q1014=
200810011745 METAR LIRA 011745Z 23003KT 9999 FEW080 19/12 Q1014=
200810011715 METAR LIRA 011715Z 24004KT 9999 FEW080 20/12 Q1013=
200810011645 METAR LIRA 011645Z 24004KT 9999 FEW080 21/10 Q1013=
200810011615 METAR LIRA 011615Z 24005KT 9999 FEW020 22/10 Q1013=
200810011545 METAR LIRA 011545Z 25005KT 200V280 9999 FEW020 22/10 Q1014=
200810011515 METAR LIRA 011515Z 24007KT 190V310 9999 FEW018 22/08 Q1014=
200810011445 METAR LIRA 011445Z 24007KT 190V290 9999 FEW018 SCT200 23/08
                        Q1014=
200810011415 METAR LIRA 011415Z 22003KT 160V270 9999 FEW018 SCT200 23/09
                        Q1014=
200810011345 METAR LIRA 011345Z 23005KT 180V290 9999 FEW017 SCT200 24/10
                        Q1014=
200810011315 METAR LIRA 011315Z 22005KT 150V270 9999 SCT017 SCT200 24/09
                        Q1014=
200810011245 METAR LIRA 011245Z 25008KT 190V300 9999 SCT017 SCT200 22/09
                        Q1014=
200810011215 METAR LIRA 011215Z 20006KT 160V260 9999 SCT017 SCT200 23/10
                        Q1014=
200810011145 METAR LIRA 011145Z 19006KT 130V240 9999 SCT018 SCT200 23/11
                        Q1015=
200810011115 METAR LIRA 011115Z 19008KT 170V260 9999 SCT018 SCT200 23/11
                        Q1015=
200810011045 METAR LIRA 011045Z 21008KT 130V270 9999 SCT018 SCT200 22/11
                        Q1015=
200810011015 METAR LIRA 011015Z 20007KT 110V240 9999 SCT018 SCT200 22/11
                        Q1015=
200810010945 METAR LIRA 010945Z 20007KT 150V280 9999 SCT018 SCT200 22/12
                        Q1015=
200810010915 METAR LIRA 010915Z 17006KT 120V240 9999 FEW018 SCT200 21/12
                        Q1015=
200810010845 METAR LIRA 010845Z 18006KT 140V220 9999 FEW018 SCT200 20/13
                        Q1014=
200810010815 METAR LIRA 010815Z 20007KT 150V230 9999 FEW018 20/13 Q1014=
200810010745 METAR LIRA 010745Z 18007KT 130V240 9999 FEW018 18/15 Q1014=
200810010715 METAR LIRA 010715Z 14002KT 9999 FEW020 17/15 Q1014=
200810010645 METAR LIRA 010645Z 00000KT 9999 FEW020 15/13 Q1014=
200810010615 METAR LIRA 010615Z 16002KT 9999 FEW020 14/13 Q1014=
200810010545 METAR LIRA 010545Z 30002KT 9999 FEW020 15/13 Q1014=
200810010515 METAR LIRA 010515Z 04001KT 9999 FEW020 16/14 Q1013=
200810010445 METAR LIRA 010445Z 07003KT 9999 FEW025 17/15 Q1013=
200810010415 METAR LIRA 010415Z 05003KT 9999 FEW025 SCT070 18/15 Q1013=
200810010345 METAR LIRA 010345Z 21002KT 280V350 9999 SCT025 SCT070 17/14
                        Q1014=
200810010315 METAR LIRA 010315Z 16008KT 130V190 9999 SCT025 SCT070 17/15
                        Q1013=
200810010245 METAR LIRA 010245Z 16006KT 9999 SCT025 SCT070 17/13 Q1013=
200810010215 METAR LIRA 010215Z 15009KT 130V190 9999 FEW025 15/11 Q1013=
200810010145 METAR LIRA 010145Z 16009KT 140V210 9999 FEW025 SCT070 15/11
                        Q1014=
200810010115 METAR LIRA 010115Z 28001KT 9999 FEW025 SCT070 15/11 Q1014=
200810010045 METAR LIRA 010045Z 00000KT 9999 FEW025 15/10 Q1014=
200810010015 METAR LIRA 010015Z 09004KT 9999 FEW025 SCT070 16/11 Q1014=
200809302345 METAR LIRA 302345Z 11002KT 9999 FEW025 SCT070 17/11 Q1014=
200809302315 METAR LIRA 302315Z 16001KT 9999 SCT025 SCT070 17/11 Q1014=
200809302245 METAR LIRA 302245Z 02003KT 9999 SCT025 SCT070 17/10 Q1015=
200809302215 METAR LIRA 302215Z 07002KT 9999 SCT025 SCT070 18/11 Q1015=
200809302145 METAR LIRA 302145Z 11003KT 9999 SCT025 SCT070 17/10 Q1015=
200809302115 METAR LIRA 302115Z 08005KT 9999 SCT025 SCT070 18/12 Q1015=
200809302045 METAR LIRA 302045Z 05002KT 9999 SCT025 SCT070 18/12 Q1015=
200809301945 METAR LIRA 301945Z 14005KT 9999 SCT025 SCT070 17/11 Q1015=
200809301915 METAR LIRA 301915Z 16005KT 110V180 9999 SCT025 SCT070 18/11
                        Q1015=
200809301845 METAR LIRA 301845Z 15005KT 9999 FEW030 SCT070 18/08 Q1015=
200809301815 METAR LIRA 301815Z 17004KT 9999 FEW030 SCT070 19/08 Q1015=
200809301745 METAR LIRA 301745Z 22004KT 9999 FEW020 20/08 Q1015=
200809301715 METAR LIRA 301715Z 21001KT 9999 FEW020 20/07 Q1015=
200809301645 METAR LIRA 301645Z 26004KT 9999 FEW020CB SCT030 20/07 Q1015=
200809301615 METAR LIRA 301615Z 19003KT 9999 FEW020CB SCT030 20/06 Q1015=
200809301545 METAR LIRA 301545Z 18002KT 9999 FEW020CB SCT030 20/06 Q1015=
200809301515 METAR LIRA 301515Z 24002KT 9999 FEW020 SCT080 20/06 Q1016=
200809301445 METAR LIRA 301445Z 24006KT 190V280 9999 FEW020 SCT080 21/07
                        Q1016=
200809301415 METAR LIRA 301415Z 20005KT 170V240 9999 FEW020 SCT030 21/07
                        Q1016=
200809301345 METAR LIRA 301345Z 19005KT 9999 FEW020 SCT070 21/06 Q1016=
200809301315 METAR LIRA 301315Z 24006KT 180V290 9999 FEW018 SCT030 22/05
                        Q1016=
200809301245 METAR LIRA 301245Z 20009KT 170V270 9999 FEW018 SCT080 21/04
                        Q1017=
200809301215 METAR LIRA 301215Z 28004KT 220V330 9999 FEW018 SCT080 21/04
                        Q1017=
200809301145 METAR LIRA 301145Z 21002KT 150V250 9999 FEW018 SCT080 21/05
                        Q1017=
200809301115 METAR LIRA 301115Z 15004KT 9999 FEW070 20/04 Q1017=
200809301045 METAR LIRA 301045Z 19002KT 9999 FEW080 20/06 Q1017=
200809301015 METAR LIRA 301015Z 34001KT CAVOK 19/07 Q1017=
200809300945 METAR LIRA 300945Z 17002KT CAVOK 18/08 Q1018=
200809300915 METAR LIRA 300915Z 12002KT 9999 FEW080 16/08 Q1018=
200809300845 METAR LIRA 300845Z 01003KT CAVOK 16/08 Q1018=
200809300815 METAR LIRA 300815Z 04004KT CAVOK 13/09 Q1018=
200809300745 METAR LIRA 300745Z 35004KT CAVOK 12/09 Q1018=
200809300715 METAR LIRA 300715Z 36001KT CAVOK 11/08 Q1018=
200809300645 METAR LIRA 300645Z 10001KT CAVOK 10/08 Q1017=
200809300615 METAR LIRA 300615Z 36003KT CAVOK 10/09 Q1017=
200809300545 METAR LIRA 300545Z 04002KT 9000 SKC 08/08 Q1017=
200809300515 METAR LIRA 300515Z 03002KT 9000 SKC 08/07 Q1017=
200809300445 METAR LIRA 300445Z 05003KT CAVOK 08/07 Q1017=
200809300415 METAR LIRA 300415Z 03003KT CAVOK 09/07 Q1017=
200809300345 METAR LIRA 300345Z 10003KT CAVOK 10/08 Q1017=
200809300315 METAR LIRA 300315Z 09004KT CAVOK 10/08 Q1017=
200809300245 METAR LIRA 300245Z 06002KT CAVOK 10/08 Q1017=
200809300215 METAR LIRA 300215Z 09002KT CAVOK 10/08 Q1018=
200809300145 METAR LIRA 300145Z 05002KT CAVOK 10/09 Q1018=
200809300115 METAR LIRA 300115Z 05002KT CAVOK 10/09 Q1018=
200809300045 METAR LIRA 300045Z 06002KT CAVOK 10/09 Q1018=
200809300015 METAR LIRA 300015Z 01001KT 9999 FEW020 11/09 Q1018=
200809292350 METAR LIRA 300045Z 06002KT CAVOK 10/09 Q1018=
200809292345 METAR LIRA 292345Z 33002KT 9999 FEW020 11/09 Q1018=
200809292315 METAR LIRA 292315Z 31002KT 9999 FEW020 12/09 Q1018=
200809292215 METAR LIRA 292215Z 00000KT 9999 FEW020 12/09 Q1018=
200809292145 METAR LIRA 292145Z 00000KT 9999 FEW020 12/09 Q1018=
200809292115 METAR LIRA 292115Z 00000KT 9999 FEW020 13/09 Q1018=
200809292045 METAR LIRA 292045Z 07001KT 9999 FEW020 13/10 Q1018=
200809292015 METAR LIRA 292015Z 12003KT 9999 FEW020 14/10 Q1018=
200809291945 METAR LIRA 291945Z 09002KT 9999 FEW020 14/10 Q1018=
200809291915 METAR LIRA 291915Z 00000KT 9999 FEW020 15/10 Q1018=
200809291845 METAR LIRA 291845Z 21001KT 9999 FEW020 15/10 Q1018=
200809291815 METAR LIRA 291815Z 17002KT 9999 FEW020 16/11 Q1018=
200809291745 METAR LIRA 291745Z 24003KT 9999 FEW020 17/10 Q1018=
200809291715 METAR LIRA 291715Z 26002KT 9999 FEW020 18/10 Q1018=
200809291645 METAR LIRA 291645Z 24004KT 9999 FEW020 18/10 Q1018=
200809291615 METAR LIRA 291615Z 24005KT 220V300 9999 FEW020 18/09 Q1018=
200809291545 METAR LIRA 291545Z 23006KT 200V270 9999 FEW020 19/07 Q1018=
200809291515 METAR LIRA 291515Z 23008KT 200V320 9999 FEW020 19/06 Q1018=
200809291445 METAR LIRA 291445Z 24008KT 190V280 9999 FEW020 20/04 Q1018=
200809291415 METAR LIRA 291415Z 21007KT 180V300 9999 FEW020 20/04 Q1018=
200809291345 METAR LIRA 291345Z 25008KT 180V310 9999 FEW020 20/04 Q1018=
200809291315 METAR LIRA 291315Z 23008KT 160V280 9999 FEW020 20/04 Q1018=
200809291245 METAR LIRA 291245Z 23010KT 180V310 9999 SCT020 22/04 Q1018=
200809291215 METAR LIRA 291215Z 22009KT 170V270 9999 SCT020 22/05 Q1018=
200809291145 METAR LIRA 291145Z 21009KT 170V260 9999 SCT020 20/04 Q1018=
200809291115 METAR LIRA 291115Z 24007KT 170V290 9999 FEW020 20/05 Q1019=
200809291045 METAR LIRA 291045Z 23004KT 190V290 9999 FEW020 19/05 Q1019=
200809291015 METAR LIRA 291015Z 27005KT 9999 FEW020 19/07 Q1019=
200809290945 METAR LIRA 290945Z 30001KT 9999 FEW020 17/09 Q1019=
200809290915 METAR LIRA 290915Z 33002KT 9999 FEW020 17/10 Q1019=
200809290845 METAR LIRA 290845Z 34001KT 9999 FEW020 16/10 Q1019=
200809290815 METAR LIRA 290815Z 36003KT 9999 FEW020 14/09 Q1019=
200809290745 METAR LIRA 290745Z 01003KT 9999 FEW020 13/09 Q1019=
200809290715 METAR LIRA 290715Z 05004KT 360V070 9999 FEW020 12/09 Q1019=
200809290645 METAR LIRA 290645Z 03003KT 360V080 9999 FEW020 10/08 Q1019=
200809290615 METAR LIRA 290615Z 05004KT 9999 FEW020 09/08 Q1019=
200809290545 METAR LIRA 290545Z 06003KT 9999 FEW020 09/07 Q1019=
200809290515 METAR LIRA 290515Z 04003KT 9999 FEW010 09/07 Q1019=
200809290445 METAR LIRA 290445Z 05003KT 9999 FEW010 09/07 Q1019=
200809290415 METAR LIRA 290415Z 05002KT CAVOK 09/08 Q1019=
200809290345 METAR LIRA 290345Z 04003KT CAVOK 09/08 Q1019=
200809290315 METAR LIRA 290315Z 04003KT CAVOK 10/08 Q1019=
200809290245 METAR LIRA 290245Z 06003KT CAVOK 10/08 Q1019=
200809290215 METAR LIRA 290215Z 05004KT CAVOK 10/08 Q1019=
200809290145 METAR LIRA 290145Z 04004KT CAVOK 10/08 Q1019=
200809290115 METAR LIRA 290115Z 04003KT CAVOK 11/09 Q1019=
200809290045 METAR LIRA 290045Z 05004KT CAVOK 11/10 Q1020=
200809290015 METAR LIRA 290015Z 05002KT 9999 FEW080 11/10 Q1020=
200809282345 METAR LIRA 282345Z 05002KT 9999 FEW080 11/10 Q1020=
200809282315 METAR LIRA 282315Z 07003KT 9999 FEW080 11/10 Q1020=
200809282245 METAR LIRA 282245Z 13001KT 9999 FEW080 12/10 Q1020=
200809282215 METAR LIRA 282215Z 26001KT 9999 FEW080 12/10 Q1020=
200809282145 METAR LIRA 282145Z 10004KT 9999 FEW025 12/10 Q1020=
200809282115 METAR LIRA 282115Z 18001KT 9999 FEW070 13/11 Q1020=
200809282045 METAR LIRA 282045Z 18002KT 9999 FEW060 14/11 Q1020=
200809282015 METAR LIRA 282015Z 00000KT 9999 FEW060 14/11 Q1019=
200809281945 METAR LIRA 281945Z 00000KT 9999 FEW070 15/11 Q1019=
200809281915 METAR LIRA 281915Z 17003KT CAVOK 16/11 Q1019=
200809281845 METAR LIRA 281845Z 18005KT 9999 FEW060 16/12 Q1019=
200809281815 METAR LIRA 281815Z 18005KT 9999 FEW060 16/12 Q1019=
200809281745 METAR LIRA 281745Z 18006KT 9999 FEW030 SCT060 16/12 Q1019=
200809281715 METAR LIRA 281715Z 18007KT 9999 FEW020CB 17/12 Q1019=
200809281645 METAR LIRA 281645Z 18009KT 160V220 9999 FEW020CB 18/12 Q1019=
200809281615 METAR LIRA 281615Z 19008KT 160V230 9999 FEW018 FEW020CB 18/13
                        Q1020=
200809281545 METAR LIRA 281545Z 18009KT 150V220 9999 FEW018 FEW020CB 19/11
                        Q1019=
200809281515 METAR LIRA 281515Z 22008KT 180V270 9999 SCT018 FEW020CB 19/11
                        Q1019=
200809281445 METAR LIRA 281445Z 27005KT 210V310 9999 SCT018 FEW020CB 19/11
                        Q1019=
200809281415 METAR LIRA 281415Z 20005KT 170V240 9999 SCT018 FEW020TCU
                        19/12 Q1020=
200809281345 METAR LIRA 281345Z 22005KT 180V270 9999 SCT018 FEW020TCU
                        19/12 Q1020=
200809281315 METAR LIRA 281315Z 23008KT 180V270 9999 SCT018 FEW020TCU
                        20/11 Q1020=
200809281245 METAR LIRA 281245Z 24006KT 170V300 9999 SCT018 FEW020TCU
                        20/10 Q1020=
200809281215 METAR LIRA 281215Z 15003KT 9999 SCT018 FEW020TCU 20/10 Q1020=
200809281145 METAR LIRA 281145Z 33002KT 9999 SCT018 20/11 Q1020=
200809281115 METAR LIRA 281115Z 28006KT 240V320 9999 SCT018 20/11 Q1020=
200809281045 METAR LIRA 281045Z 33003KT 270V360 9999 FEW018 SCT200 18/10
                        Q1021=
200809281015 METAR LIRA 281015Z 28003KT 9999 FEW018 SCT200 18/10 Q1020=
200809280945 METAR LIRA 280945Z 33002KT 9999 FEW018 SCT200 16/09 Q1020=
200809280915 METAR LIRA 280915Z 02003KT 9999 SCT018 14/08 Q1020=
200809280845 METAR LIRA 280845Z 03004KT 9999 FEW018 13/09 Q1020=
200809280815 METAR LIRA 280815Z 06005KT 9999 FEW018 SCT030 12/08 Q1020=
200809280745 METAR LIRA 280745Z 03005KT 9999 FEW018 SCT035 11/08 Q1020=
200809280715 METAR LIRA 280715Z 06006KT 350V100 9999 FEW018 SCT035 11/08
                        Q1020=
200809280645 METAR LIRA 280645Z 03003KT 9999 SCT018 SCT035 10/08 Q1020=
200809280615 METAR LIRA 280615Z 05003KT 9999 SCT018 FEW020TCU 10/07 Q1020=
200809280545 METAR LIRA 280545Z 03004KT 360V080 9999 FEW018 FEW020TCU
                        10/08 Q1020=
200809280515 METAR LIRA 280515Z 04003KT 9999 FEW018 FEW020TCU 10/08 Q1020=
200809280445 METAR LIRA 280445Z 04004KT 9999 FEW018 FEW020TCU 10/07 Q1020=
200809280415 METAR LIRA 280415Z 04005KT 9999 SCT018 FEW020TCU 10/08 Q1020=
200809280345 METAR LIRA 280345Z 05004KT 9999 FEW020TCU SCT035 10/08 Q1020=
200809280315 METAR LIRA 280315Z 06004KT 9999 SCT030 SCT060 11/08 Q1020=
200809280245 METAR LIRA 280245Z 06003KT 9999 FEW035 SCT060 10/08 Q1020=
200809280215 METAR LIRA 280215Z 06003KT 9999 FEW060 10/08 Q1020=
200809280145 METAR LIRA 280145Z 07004KT 9999 FEW060 11/08 Q1020=
200809280115 METAR LIRA 280115Z 03003KT 9999 FEW035 11/08 Q1020=
200809280045 METAR LIRA 280045Z 03003KT 9999 FEW030 11/08 Q1020=
200809280015 METAR LIRA 280015Z 02003KT CAVOK 12/09 Q1020=
200809272345 METAR LIRA 272345Z 03003KT 010V090 CAVOK 12/09 Q1020=
200809272315 METAR LIRA 272315Z 03004KT CAVOK 12/09 Q1020=
200809272245 METAR LIRA 272245Z 05003KT CAVOK 12/09 Q1020=
200809272215 METAR LIRA 272215Z 05003KT 9999 FEW060 13/09 Q1020=
200809272145 METAR LIRA 272145Z 02001KT 9999 FEW060 13/09 Q1020=
200809272115 METAR LIRA 272115Z 05002KT 9999 FEW060 14/10 Q1021=
200809272045 METAR LIRA 272045Z 31003KT 9999 FEW060 14/10 Q1021=
200809272015 METAR LIRA 272015Z 23002KT 9999 FEW060 14/10 Q1020=
200809271945 METAR LIRA 271945Z 25001KT 9999 FEW060 15/10 Q1020=
200809271915 METAR LIRA 271915Z 19001KT 9999 SCT060 15/10 Q1020=
200809271845 METAR LIRA 271845Z 11005KT 9999 SCT060 16/10 Q1020=
200809271815 METAR LIRA 271815Z 13004KT 9999 FEW030 SCT060 16/10 Q1019=
200809271745 METAR LIRA 271745Z 15004KT 9999 FEW030 SCT060 18/10 Q1019=
200809271715 METAR LIRA 271715Z 17005KT 130V200 9999 FEW020TCU SCT060
                        18/11 Q1019=
200809271645 METAR LIRA 271645Z 15007KT 120V220 9999 FEW020TCU SCT040
                        18/10 Q1019=
200809271615 METAR LIRA 271615Z 21002KT 9999 FEW020CB SCT035 18/09 Q1019=
200809271545 METAR LIRA 271545Z 27006KT 190V320 9999 FEW016CB FEW018TCU
                        18/08 Q1019=
200809271515 METAR LIRA 271515Z 33005KT 300V060 9999 FEW016CB SCT020 21/06
                        Q1019=
200809271445 METAR LIRA 271445Z 11002KT 9999 FEW016CB SCT020 21/06 Q1019=
200809271415 METAR LIRA 271415Z 05004KT 340V080 9999 FEW015 FEW016CB SCT020
                        21/06 Q1019=
200809271345 METAR LIRA 271345Z 35003KT 9999 -SHRA FEW017 FEW018CB SCT020
                        22/07 Q1019=
200809271315 METAR LIRA 271315Z 29002KT 9999 FEW018CB SCT020 21/06 Q1019=
200809271245 METAR LIRA 271245Z 07003KT 9999 SCT018 FEW020CB 22/07 Q1019=
200809271215 METAR LIRA 271215Z 32002KT 9999 SCT018 FEW020TCU 22/07 Q1019=
200809271145 METAR LIRA 271145Z 35003KT 9999 SCT018 FEW020TCU 22/07 Q1020=
200809271115 METAR LIRA 271115Z 33004KT 310V030 9999 SCT018 21/07 Q1020=
200809271045 METAR LIRA 271045Z 32002KT 9999 SCT018 21/07 Q1020=
200809271015 METAR LIRA 271015Z 32003KT 310V050 9999 SCT018 20/08 Q1020=
200809270945 METAR LIRA 270945Z 35006KT 320V110 9999 FEW018 19/08 Q1020=
200809270915 METAR LIRA 270915Z 03006KT 320V070 9999 FEW018 17/09 Q1020=
200809270845 METAR LIRA 270845Z 03005KT 320V100 9999 FEW020 17/09 Q1020=
200809270815 METAR LIRA 270815Z 01007KT 330V090 9999 FEW020 16/08 Q1020=
200809270745 METAR LIRA 270745Z 04008KT 320V080 9999 FEW020 14/09 Q1020=
200809270715 METAR LIRA 270715Z 04007KT 350V100 9999 FEW020 14/09 Q1020=
200809270645 METAR LIRA 270645Z 04005KT 9999 FEW020 12/08 Q1020=
200809270615 METAR LIRA 270615Z 04003KT 9999 FEW020 11/08 Q1019=
200809270545 METAR LIRA 270545Z 06004KT 9999 FEW020 10/07 Q1019=
200809270515 METAR LIRA 270515Z 04004KT 9999 FEW080 10/07 Q1019=
200809270445 METAR LIRA 270445Z 05004KT 9999 FEW080 10/07 Q1019=
200809270415 METAR LIRA 270415Z 05005KT 9999 FEW018 11/07 Q1019=
200809270345 METAR LIRA 270345Z 02004KT 9999 FEW080 12/07 Q1019=
200809270315 METAR LIRA 270315Z 02005KT 9999 FEW080 12/08 Q1019=
200809270245 METAR LIRA 270245Z 02005KT CAVOK 12/08 Q1019=
200809270215 METAR LIRA 270215Z 02004KT CAVOK 12/08 Q1019=
200809270145 METAR LIRA 270145Z 01007KT 330V040 CAVOK 13/08 Q1019=
200809270115 METAR LIRA 270115Z 01006KT 330V040 CAVOK 12/07 Q1019=
200809270045 METAR LIRA 270045Z 04003KT CAVOK 12/07 Q1019=
200809270015 METAR LIRA 270015Z 03004KT CAVOK 13/07 Q1019=
200809262345 METAR LIRA 262345Z 03005KT 360V070 CAVOK 13/08 Q1019=
200809262315 METAR LIRA 262315Z 01004KT 340V050 CAVOK 14/08 Q1019=
200809262245 METAR LIRA 262245Z 03004KT CAVOK 14/08 Q1019=
200809262215 METAR LIRA 262215Z 02007KT 340V080 CAVOK 14/09 Q1019=
200809262145 METAR LIRA 262145Z 02005KT CAVOK 14/09 Q1019=
200809262115 METAR LIRA 262115Z 03004KT 300V060 CAVOK 14/09 Q1019=
200809262045 METAR LIRA 262045Z 02005KT 310V050 CAVOK 14/09 Q1019=
200809262015 METAR LIRA 262015Z 04003KT CAVOK 14/08 Q1018=
200809261945 METAR LIRA 261945Z 06005KT 010V080 CAVOK 15/07 Q1018=
200809261915 METAR LIRA 261915Z 03005KT 290V080 CAVOK 15/07 Q1018=
200809261845 METAR LIRA 261845Z 02007KT 330V090 CAVOK 16/08 Q1018=
200809261815 METAR LIRA 261815Z 03006KT 330V060 CAVOK 17/07 Q1018=
200809261745 METAR LIRA 261745Z 36009KT 310V050 CAVOK 17/07 Q1017=
200809261715 METAR LIRA 261715Z 35012KT 350V030 9999 FEW018 18/06 Q1017=
200809261645 METAR LIRA 261645Z 01013KT 300V050 9999 FEW018 FEW020TCU
                        19/07 Q1017=
200809261615 METAR LIRA 261615Z 35012KT 300V020 9999 FEW018 FEW020TCU
                        20/07 Q1017=
200809261545 METAR LIRA 261545Z 32012KT 310V030 9999 SCT020 21/07 Q1017=
200809261515 METAR LIRA 261515Z 32011KT 310V040 9999 SCT020 21/05 Q1016=
200809261445 METAR LIRA 261445Z 36013KT 310V030 9999 SCT020 21/05 Q1016=
200809261415 METAR LIRA 261415Z 34008KT 300V030 9999 SCT020 22/05 Q1016=
200809261345 METAR LIRA 261345Z 32007KT 290V030 9999 SCT020 22/05 Q1016=
200809261315 METAR LIRA 261315Z 04006KT 330V070 9999 SCT020 22/05 Q1017=
200809261245 METAR LIRA 261245Z 01011KT 320V060 9999 SCT020 22/05 Q1017=
200809261215 METAR LIRA 261215Z 01010G21KT 340V060 9999 SCT020 22/05 Q1017=
200809261145 METAR LIRA 261145Z 09007KT 030V120 9999 SCT020 21/05 Q1017=
200809261115 METAR LIRA 261115Z 02006KT 350V100 9999 FEW020 20/06 Q1017=
200809261045 METAR LIRA 261045Z 05005KT 340V060 9999 FEW020 20/07 Q1017=
200809261015 METAR LIRA 261015Z 01005KT 330V080 9999 FEW020 19/07 Q1017=
200809260945 METAR LIRA 260945Z 05006KT 350V120 9999 FEW020 18/08 Q1017=
200809260915 METAR LIRA 260915Z 36004KT 310V060 9999 FEW020 17/08 Q1017=
200809260845 METAR LIRA 260845Z 36007KT 310V060 9999 FEW025 16/08 Q1017=
200809260815 METAR LIRA 260815Z 03007KT 330V080 9999 FEW025 15/07 Q1017=
200809260745 METAR LIRA 260745Z 02008KT 330V060 CAVOK 14/08 Q1017=
200809260715 METAR LIRA 260715Z 02007KT 330V080 CAVOK 13/08 Q1017=
200809260645 METAR LIRA 260645Z 02008KT 330V080 9999 FEW030 12/08 Q1017=
200809260615 METAR LIRA 260615Z 01005KT 330V060 9999 FEW030 12/08 Q1016=
200809260545 METAR LIRA 260545Z 04004KT 9999 FEW030 12/08 Q1016=
200809260515 METAR LIRA 260515Z 04005KT 9999 FEW030 12/08 Q1016=
200809260445 METAR LIRA 260445Z 03003KT 330V080 9999 FEW012 12/08 Q1015=
200809260415 METAR LIRA 260415Z 02004KT 9999 FEW012 12/08 Q1015=
200809260345 METAR LIRA 260345Z 03005KT 350V060 9999 FEW012 12/08 Q1015=
200809260315 METAR LIRA 260315Z 04006KT 360V080 9999 SCT012 12/08 Q1015=
200809260245 METAR LIRA 260245Z 05006KT 9999 SCT012 12/07 Q1015=
200809260215 METAR LIRA 260215Z 06006KT 030V090 9999 FEW010 SCT070 12/08
                        Q1015=
200809260145 METAR LIRA 260145Z 06005KT 9999 FEW010 SCT070 12/07 Q1015=
200809260115 METAR LIRA 260115Z 06005KT 9999 FEW010 SCT070 12/07 Q1015=
200809260045 METAR LIRA 260045Z 03004KT 9999 FEW010 SCT070 12/07 Q1015=
200809260015 METAR LIRA 260015Z 05005KT 9999 FEW010 SCT070 12/08 Q1015=
200809252350 METAR LIRA 260045Z 03004KT 9999 FEW010 SCT070 12/07 Q1015=
200809252115 METAR LIRA 252115Z 04003KT 9999 FEW020 15/10 Q1015=
200809252045 METAR LIRA 252045Z 03003KT 9999 FEW020 15/09 Q1015=
200809252015 METAR LIRA 252015Z 05004KT 9999 FEW020 16/05 Q1015=
200809251945 METAR LIRA 251945Z 01004KT 290V040 CAVOK 17/05 Q1015=
200809251915 METAR LIRA 251915Z 31008KT 300V010 9999 FEW070 18/05 Q1015=
200809251845 METAR LIRA 251845Z 35007KT 310V030 9999 FEW020 18/05 Q1015=
200809251815 METAR LIRA 251815Z 31007KT 310V010 9999 SCT017 19/05 Q1014=
200809251745 METAR LIRA 251745Z 36009KT 310V040 9999 SCT017 FEW020TCU
                        20/04 Q1014=
200809251715 METAR LIRA 251715Z 01008KT 330V060 9999 SCT017 FEW020TCU
                        21/05 Q1014=
200809251645 METAR LIRA 251645Z 36011KT 320V050 9999 SCT018 FEW020TCU
                        21/05 Q1013=
200809251615 METAR LIRA 251615Z 34014KT 320V020 9999 SCT018 FEW020TCU
                        22/06 Q1013=
200809251545 METAR LIRA 251545Z 34012KT 300V010 9999 SCT018 FEW020TCU
                        22/06 Q1012=
200809251515 METAR LIRA 251515Z 33010KT 300V360 9999 SCT018 FEW020TCU
                        23/06 Q1012=
200809251445 METAR LIRA 251445Z 33009KT 280V010 9999 SCT018 FEW020TCU
                        23/05 Q1012=
200809251415 METAR LIRA 251415Z 36012KT 300V030 9999 SCT018 FEW020TCU
                        23/06 Q1012=
200809251345 METAR LIRA 251345Z 36010KT 300V030 9999 SCT018 23/05 Q1012=
200809251315 METAR LIRA 251315Z 33008KT 280V360 9999 SCT018 23/07 Q1012=
200809251245 METAR LIRA 251245Z 30009KT 240V060 9999 SCT018 22/08 Q1012=
200809251215 METAR LIRA 251215Z 02007KT 330V070 9999 SCT018 21/08 Q1012=
200809251145 METAR LIRA 251145Z 04006KT 290V100 9999 SCT018 21/09 Q1013=
200809251115 METAR LIRA 251115Z 32007KT 300V020 9999 FEW018 21/09 Q1013=
200809251045 METAR LIRA 251045Z 33005KT 280V040 9999 FEW018 20/09 Q1013=
200809251015 METAR LIRA 251015Z 33006KT 300V110 9999 FEW018 20/11 Q1013=
200809250945 METAR LIRA 250945Z 04006KT 300V100 9999 FEW018 19/10 Q1013=
200809250915 METAR LIRA 250915Z 02004KT 340V090 9999 FEW018 18/10 Q1013=
200809250845 METAR LIRA 250845Z 02007KT 310V080 9999 FEW018 15/09 Q1013=
200809250815 METAR LIRA 250815Z 04006KT 330V090 9999 FEW018 14/09 Q1013=
200809250745 METAR LIRA 250745Z 03006KT 330V100 9999 FEW018 13/09 Q1013=
200809250715 METAR LIRA 250715Z 03007KT 330V070 9999 FEW018 12/10 Q1013=
200809250645 METAR LIRA 250645Z 05005KT 010V090 9999 FEW018 12/10 Q1013=
200809250615 METAR LIRA 250615Z 06005KT 020V090 9999 FEW018 11/09 Q1013=
200809250545 METAR LIRA 250545Z 04003KT 9999 FEW018 11/09 Q1013=
200809250515 METAR LIRA 250515Z 05003KT 9999 FEW018 11/09 Q1013=
200809250445 METAR LIRA 250445Z 03004KT 9999 FEW018 11/10 Q1013=
200809250415 METAR LIRA 250415Z 04004KT 9999 FEW080 11/10 Q1013=
200809250345 METAR LIRA 250345Z 04004KT CAVOK 11/10 Q1013=
200809250315 METAR LIRA 250315Z 04004KT CAVOK 12/10 Q1013=
200809250245 METAR LIRA 250245Z 03005KT 350V070 CAVOK 12/10 Q1013=
200809250215 METAR LIRA 250215Z 05005KT CAVOK 13/10 Q1013=
200809250145 METAR LIRA 250145Z 05004KT CAVOK 13/10 Q1013=
200809250115 METAR LIRA 250115Z 04004KT CAVOK 13/10 Q1013=
200809250045 METAR LIRA 250045Z 01003KT CAVOK 14/11 Q1013=
200809250015 METAR LIRA 250015Z 01005KT CAVOK 14/11 Q1013=
200809242345 METAR LIRA 242345Z 03004KT CAVOK 14/11 Q1013=
200809242315 METAR LIRA 242315Z 03004KT 9999 SCT080 15/10 Q1013=
200809242245 METAR LIRA 242245Z 02002KT 9999 FEW018 SCT070 15/10 Q1013=
200809242215 METAR LIRA 242215Z 36003KT 9999 FEW018 SCT070 15/10 Q1013=
200809242145 METAR LIRA 242145Z 02003KT 9999 SCT080 16/10 Q1013=
200809242115 METAR LIRA 242115Z 02003KT 9999 SCT080 16/10 Q1013=
200809242045 METAR LIRA 242045Z 02003KT 9999 SCT080 16/11 Q1013=
200809242015 METAR LIRA 242015Z 02003KT 9999 SCT080 SCT200 17/12 Q1013=
200809241945 METAR LIRA 241945Z 06002KT 9999 FEW080 SCT200 17/13 Q1013=
200809241915 METAR LIRA 241915Z 18001KT 9999 FEW080 SCT200 18/12 Q1012=
200809241845 METAR LIRA 241845Z 19002KT 9999 FEW080 SCT200 18/12 Q1012=
200809241815 METAR LIRA 241815Z 18004KT 9999 FEW080 SCT200 18/12 Q1012=
200809241745 METAR LIRA 241745Z 17004KT 9999 FEW080 SCT200 19/12 Q1012=
200809241715 METAR LIRA 241715Z 26002KT 9999 FEW030 SCT200 20/11 Q1011=
200809241645 METAR LIRA 241645Z 27005KT 230V330 9999 FEW020 SCT080 20/10
                        Q1011=
200809241615 METAR LIRA 241615Z 28007KT 230V330 9999 FEW018 SCT080 21/07
                        Q1011=
200809241545 METAR LIRA 241545Z 28010KT 220V330 9999 FEW018 BKN200 22/07
                        Q1011=
200809241515 METAR LIRA 241515Z 28007KT 220V320 9999 FEW018 BKN200 22/06
                        Q1011=
200809241445 METAR LIRA 241445Z 27007KT 220V310 9999 FEW018 SCT200 24/05
                        Q1011=
200809241415 METAR LIRA 241415Z 27009KT 240V330 9999 FEW018 24/04 Q1011=
200809241345 METAR LIRA 241345Z 27004KT 9999 FEW018 23/06 Q1011=
200809241315 METAR LIRA 241315Z 28008KT 240V330 9999 FEW018 23/06 Q1011=
200809241245 METAR LIRA 241245Z 24002KT 9999 FEW018 23/06 Q1011=
200809241215 METAR LIRA 241215Z 33006KT 9999 FEW018 23/06 Q1011=
200809241145 METAR LIRA 241145Z 29002KT 9999 FEW018 22/06 Q1011=
200809241115 METAR LIRA 241115Z 33004KT 9999 FEW018 22/10 Q1012=
200809241100 METAR LIRA INT=
200809241045 METAR LIRA 241045Z 04003KT 9999 FEW018 20/08 Q1012=
200809241015 METAR LIRA 241015Z 02004KT 340V090 9999 FEW018 20/09 Q1012=
200809240945 METAR LIRA 240945Z 36005KT 300V060 9999 FEW070 19/09 Q1012=
200809240915 METAR LIRA 240915Z 03006KT 320V080 9999 FEW070 18/09 Q1012=
200809240845 METAR LIRA 240845Z 02006KT 340V060 9999 FEW070 SCT200 16/09
                        Q1013=
200809240815 METAR LIRA 240815Z 04006KT 360V090 9999 FEW070 SCT200 15/09
                        Q1013=
200809240745 METAR LIRA 240745Z 03005KT 350V120 9999 FEW070 SCT200 14/09
                        Q1012=
200809240715 METAR LIRA 240715Z 03007KT 340V080 9999 FEW070 SCT200 13/09
                        Q1012=
200809240645 METAR LIRA 240645Z 03006KT 300V080 9999 FEW070 SCT200 11/09
                        Q1012=
200809240615 METAR LIRA 240615Z 06005KT 010V100 9999 FEW070 SCT200 10/09
                        Q1012=
200809240545 METAR LIRA 240545Z 05004KT 360V080 9999 SCT070 SCT200 11/09
                        Q1012=
200809240515 METAR LIRA 240515Z 05004KT 9999 SCT070 11/09 Q1012=
200809240445 METAR LIRA 240445Z 05004KT 9999 SCT070 11/09 Q1012=
200809240415 METAR LIRA 240415Z 05004KT 9999 SCT070 12/09 Q1011=
200809240345 METAR LIRA 240345Z 04004KT 9999 FEW070 12/09 Q1011=
200809240315 METAR LIRA 240315Z 04004KT 9999 FEW070 12/10 Q1011=
200809240245 METAR LIRA 240245Z 03003KT 9999 SCT070 13/09 Q1011=
200809240215 METAR LIRA 240215Z 04005KT 9999 SCT070 13/10 Q1011=
200809240145 METAR LIRA 240145Z 03004KT 9999 SCT070 14/11 Q1011=
200809240115 METAR LIRA 240115Z 36005KT 9999 SCT070 14/12 Q1012=
200809240045 METAR LIRA 240045Z 04004KT 9999 FEW070 14/12 Q1012=
200809240015 METAR LIRA 240015Z 03003KT 9999 FEW060 15/13 Q1012=
200809232345 METAR LIRA 232345Z 03003KT 9999 FEW035 SCT060 15/12 Q1012=
200809232315 METAR LIRA 232315Z 04004KT 9999 FEW040 SCT070 15/13 Q1012=
200809232245 METAR LIRA 232245Z 05005KT 020V080 9999 SCT035 SCT070 15/13
                        Q1012=
200809232215 METAR LIRA 232215Z 04004KT 9999 SCT030 SCT060 15/13 Q1012=
200809232145 METAR LIRA 232145Z 04003KT 9999 SCT030 SCT060 15/12 Q1012=
200809232115 METAR LIRA 232115Z 19002KT 9999 SCT020 SCT035 15/13 Q1012=
200809232045 METAR LIRA 232045Z 19005KT 9999 -RA SCT020 SCT035 16/14 Q1012=
200809232015 METAR LIRA 232015Z 19005KT 9999 SCT020 SCT035 16/12 Q1012=
200809231945 METAR LIRA 231945Z 18005KT 9999 SCT020 FEW023TCU SCT035 16/14
                        Q1012=
200809231915 METAR LIRA 231915Z 21002KT 9999 -RA SCT018 FEW022TCU SCT030
                        17/14 Q1012=
200809231845 METAR LIRA 231845Z 23004KT 9999 -RA SCT018 FEW022CB SCT030
                        17/13 Q1011=
200809231815 METAR LIRA 231815Z 34002KT 9999 -RA SCT018 FEW022CB SCT060
                        18/11 Q1011=
200809231745 METAR LIRA 231745Z 33003KT 9999 SCT018 FEW022CB SCT060 19/11
                        Q1011=
200809231715 METAR LIRA 231715Z 32005KT 9999 SCT018 FEW022TCU SCT060 19/11
                        Q1011=
200809231645 METAR LIRA 231645Z 19003KT 9999 SCT018 FEW022TCU SCT060 19/11
                        Q1011=
200809231615 METAR LIRA 231615Z 23004KT 9999 SCT020 FEW025TCU SCT060 19/10
                        Q1011=
200809231545 METAR LIRA 231545Z 23004KT 9999 FEW016 FEW020TCU BKN070 20/11
                        Q1011=
200809231515 METAR LIRA 231515Z 23004KT 9999 FEW016 FEW020TCU BKN070 20/09
                        Q1011=
200809231445 METAR LIRA 231445Z 24003KT 9999 SCT016 FEW020TCU BKN070 20/09
                        Q1011=
200809231415 METAR LIRA 231415Z 24003KT 9999 FEW016 SCT080 20/09 Q1011=
200809231345 METAR LIRA 231345Z 20005KT 9999 FEW016 SCT080 20/08 Q1011=
200809231315 METAR LIRA 231315Z 20005KT 160V240 9999 FEW018 FEW020TCU
                        SCT080 20/08 Q1011=
200809231245 METAR LIRA 231245Z 24002KT 210V280 9999 FEW018 FEW020CB SCT080
                        21/07 Q1011=
200809231215 METAR LIRA 231215Z 24002KT 9999 SCT018 FEW020CB SCT090 22/07
                        Q1011=
200809231145 METAR LIRA 231145Z 35004KT 9999 SCT020 SCT200 22/08 Q1011=
200809231115 METAR LIRA 231115Z 33003KT 280V020 9999 SCT020 SCT200 21/07
                        Q1011=
200809231045 METAR LIRA 231045Z 08004KT 9999 SCT020 SCT200 20/10 Q1011=
200809231015 METAR LIRA 231015Z 14002KT 9999 SCT020 SCT200 20/10 Q1011=
200809230945 METAR LIRA 230945Z 33005KT 300V020 9999 SCT020 SCT200 19/09
                        Q1011=
200809230915 METAR LIRA 230915Z 33003KT 280V020 9999 FEW020 SCT200 18/10
                        Q1011=
200809230845 METAR LIRA 230845Z 35005KT 310V050 9999 FEW022 SCT200 17/11
                        Q1011=
200809230815 METAR LIRA 230815Z 03005KT 310V070 9999 FEW022 SCT200 15/10
                        Q1011=
200809230745 METAR LIRA 230745Z 01004KT 330V040 9999 FEW022 SCT200 14/10
                        Q1012=
200809230715 METAR LIRA 230715Z 03005KT 350V080 9999 FEW022 SCT200 12/09
                        Q1011=
200809230645 METAR LIRA 230645Z 02003KT 9999 FEW080 SCT200 11/09 Q1011=
200809230615 METAR LIRA 230615Z 02003KT 9999 FEW022 11/09 Q1011=
200809230545 METAR LIRA 230545Z 03004KT 9999 FEW022 11/09 Q1011=
200809230515 METAR LIRA 230515Z 01004KT 9999 FEW022 11/09 Q1011=
200809230445 METAR LIRA 230445Z 02002KT 9999 FEW040 11/09 Q1011=
200809230415 METAR LIRA 230415Z 01003KT 9999 FEW060 11/09 Q1011=
200809230345 METAR LIRA 230345Z 36004KT 9999 FEW060 11/09 Q1011=
200809230315 METAR LIRA 230315Z 35002KT 9999 FEW060 11/09 Q1011=
200809230245 METAR LIRA 230245Z 01002KT 9999 FEW060 11/09 Q1011=
200809230215 METAR LIRA 230215Z 04002KT 9999 FEW060 12/10 Q1011=
200809230145 METAR LIRA 230145Z 03003KT 9999 FEW060 12/10 Q1011=
200809230115 METAR LIRA 230115Z 02004KT CAVOK 13/09 Q1011=
200809230045 METAR LIRA 230045Z 01003KT 9999 FEW070 13/09 Q1011=
200809230015 METAR LIRA 230015Z 04002KT 9999 SCT070 13/09 Q1011=
200809222350 METAR LIRA 230045Z 01003KT 9999 FEW070 13/09 Q1011=
200809222345 METAR LIRA 222345Z 05002KT 9999 SCT070 13/10 Q1011=
200809222315 METAR LIRA 222315Z 11002KT 9999 SCT060 14/10 Q1011=
200809222245 METAR LIRA 222245Z 17003KT 9999 SCT070 14/10 Q1011=
200809222215 METAR LIRA 222215Z VRB02KT 9999 SCT070 14/08 Q1011=
200809222145 METAR LIRA 222145Z 00000KT 9999 SCT070 14/08 Q1011=
200809222115 METAR LIRA 222115Z 11004KT 9999 FEW070 15/06 Q1011=
200809222045 METAR LIRA 222045Z 03003KT 9999 FEW070 16/06 Q1011=
200809222015 METAR LIRA 222015Z 15004KT 9999 SCT070 16/10 Q1011=
200809221945 METAR LIRA 221945Z 10002KT 9999 SCT070 16/10 Q1011=
200809221915 METAR LIRA 221915Z 24002KT 9999 SCT060 17/10 Q1011=
200809221845 METAR LIRA 221845Z 24002KT 9999 SCT060 17/10 Q1011=
200809221815 METAR LIRA 221815Z 20001KT 9999 SCT060 18/09 Q1011=
200809221745 METAR LIRA 221745Z 28004KT 9999 FEW020 SCT070 18/09 Q1011=
200809221715 METAR LIRA 221715Z 26005KT 220V330 9999 FEW018 SCT070 19/08
                        Q1011=
200809221645 METAR LIRA 221645Z 27007KT 210V320 9999 FEW017 FEW025CB SCT080
                        19/08 Q1011=
200809221615 METAR LIRA 221615Z 27009KT 190V310 9999 FEW018 FEW025CB 22/05
                        Q1011=
200809221545 METAR LIRA 221545Z 28007KT 210V320 9999 FEW018 FEW020TCU
                        22/02 Q1011=
200809221515 METAR LIRA 221515Z 30005KT 250V350 9999 FEW018 FEW020TCU
                        22/02 Q1010=
200809221445 METAR LIRA 221445Z 28004KT 240V330 9999 FEW018 FEW020TCU
                        22/02 Q1010=
200809221415 METAR LIRA 221415Z 30005KT 240V340 9999 FEW018 22/03 Q1010=
200809221345 METAR LIRA 221345Z 29004KT 9999 FEW018 22/04 Q1010=
200809221315 METAR LIRA 221315Z 27008KT 180V330 9999 FEW018 21/03 Q1010=
200809221245 METAR LIRA 221245Z 34002KT 300V060 9999 FEW018 21/04 Q1011=
200809221215 METAR LIRA 221215Z 05004KT 300V120 9999 FEW018 20/04 Q1011=
200809221145 METAR LIRA 221145Z 05001KT 260V360 9999 SCT018 20/07 Q1012=
200809221115 METAR LIRA 221115Z 32006KT 300V040 9999 SCT018 19/07 Q1012=
200809221045 METAR LIRA 221045Z 17002KT 9999 SCT018 19/09 Q1012=
200809221015 METAR LIRA 221015Z 34005KT 9999 SCT018 19/10 Q1012=
200809220945 METAR LIRA 220945Z 32002KT 9999 FEW018 18/11 Q1012=
200809220915 METAR LIRA 220915Z 32004KT 9999 FEW018 18/11 Q1012=
200809220845 METAR LIRA 220845Z 01004KT 300V050 9999 FEW018 17/11 Q1012=
200809220815 METAR LIRA 220815Z 06004KT 010V110 9999 FEW018 15/11 Q1012=
200809220745 METAR LIRA 220745Z 03004KT 340V110 9999 FEW018 14/11 Q1012=
200809220715 METAR LIRA 220715Z 03006KT 330V110 9999 FEW018 13/10 Q1012=
200809220645 METAR LIRA 220645Z 02005KT 9999 FEW018 12/10 Q1012=
200809220615 METAR LIRA 220615Z 05003KT 9999 FEW018 11/09 Q1011=
200809220545 METAR LIRA 220545Z 35004KT 9999 FEW080 11/10 Q1011=
200809220515 METAR LIRA 220515Z 06002KT 9999 FEW080 11/10 Q1011=
200809220445 METAR LIRA 220445Z 08003KT 9999 FEW020 SCT080 11/10 Q1011=
200809220415 METAR LIRA 220415Z 04003KT 9999 FEW020 SCT070 11/10 Q1012=
200809220345 METAR LIRA 220345Z 05003KT 9999 FEW020 SCT080 12/10 Q1012=
200809220315 METAR LIRA 220315Z 35003KT 9999 FEW020 SCT080 12/10 Q1012=
200809220245 METAR LIRA 220245Z 04002KT 9999 FEW020 SCT080 12/09 Q1012=
200809220215 METAR LIRA 220215Z 01002KT 9999 FEW020 SCT080 13/09 Q1012=
200809220145 METAR LIRA 220145Z 03003KT 9999 FEW020 SCT070 13/09 Q1012=
200809220115 METAR LIRA 220115Z 04003KT 9999 FEW020 SCT070 14/10 Q1012=
200809220045 METAR LIRA 220045Z 05002KT 9999 FEW020 SCT070 14/11 Q1013=
200809220015 METAR LIRA 220015Z 04003KT 9999 FEW020 SCT070 15/12 Q1013=
200809212345 METAR LIRA 212345Z 04002KT 9999 FEW017 SCT070 15/12 Q1013=
200809212315 METAR LIRA 212315Z 33002KT 9999 FEW017 SCT070 15/12 Q1013=
200809212245 METAR LIRA 212245Z 00000KT 9999 FEW015 BKN070 15/12 Q1013=
200809212215 METAR LIRA 212215Z 34002KT 9999 FEW017 BKN070 15/11 Q1013=
200809212145 METAR LIRA 212145Z 15002KT 9999 FEW017 SCT070 15/11 Q1013=
200809212115 METAR LIRA 212115Z 18002KT 9999 FEW017 SCT070 15/11 Q1013=
200809212045 METAR LIRA 212045Z 21002KT 9999 FEW020 SCT070 16/12 Q1013=
200809212015 METAR LIRA 212015Z 17002KT 9999 FEW020 SCT070 16/12 Q1013=
200809211945 METAR LIRA 211945Z 21002KT 9999 FEW020 SCT070 16/13 Q1013=
200809211915 METAR LIRA 211915Z 23003KT 9999 FEW020 SCT070 16/13 Q1013=
200809211845 METAR LIRA 211845Z 23003KT 9999 FEW020 SCT070 16/12 Q1013=
200809211815 METAR LIRA 211815Z 22001KT 9999 FEW020 SCT070 16/13 Q1013=
200809211745 METAR LIRA 211745Z 21003KT 9999 FEW020 BKN070 17/12 Q1013=
200809211715 METAR LIRA 211715Z 22003KT 9999 -RA FEW020 SCT030 BKN070
                        17/11 Q1013=
200809211645 METAR LIRA 211645Z 24004KT 9999 FEW020 BKN070 18/11 Q1013=
200809211615 METAR LIRA 211615Z 24004KT 9999 FEW020 BKN070 18/10 Q1013=
200809211545 METAR LIRA 211545Z 22004KT 210V310 9999 FEW020 BKN060 18/09
                        Q1012=
200809211515 METAR LIRA 211515Z 23005KT 180V280 9999 FEW020 BKN060 19/09
                        Q1012=
200809211445 METAR LIRA 211445Z 26007KT 190V280 9999 FEW020 BKN060 19/09
                        Q1013=
200809211415 METAR LIRA 211415Z 23005KT 200V300 9999 FEW018 BKN060 19/08
                        Q1013=
200809211345 METAR LIRA 211345Z 24008KT 180V270 9999 FEW018 BKN060 20/08
                        Q1013=
200809211315 METAR LIRA 211315Z 22007KT 200V300 9999 FEW018 BKN060 20/07
                        Q1013=
200809211245 METAR LIRA 211245Z 26006KT 190V310 9999 FEW020 BKN060 20/06
                        Q1013=
200809211215 METAR LIRA 211215Z 22005KT 210V300 9999 FEW020 SCT060 21/07
                        Q1013=
200809211145 METAR LIRA 211145Z 22005KT 160V260 9999 FEW020 SCT060 20/06
                        Q1014=
200809211115 METAR LIRA 211115Z 19007KT 150V240 9999 FEW018 SCT035 20/06
                        Q1014=
200809211045 METAR LIRA 211045Z 19005KT 150V240 9999 FEW018 SCT035 19/06
                        Q1014=
200809211015 METAR LIRA 211015Z 23005KT 180V270 9999 FEW018 SCT035 19/07
                        Q1014=
200809210945 METAR LIRA 210945Z 26004KT 9999 FEW018 SCT035 18/08 Q1015=
200809210915 METAR LIRA 210915Z 15002KT 9999 SCT035 18/08 Q1015=
200809210845 METAR LIRA 210845Z 35002KT 9999 SCT035 15/07 Q1015=
200809210815 METAR LIRA 210815Z 04003KT 9999 SCT035 15/08 Q1015=
200809210745 METAR LIRA 210745Z 03004KT 9999 SCT035 14/08 Q1015=
200809210715 METAR LIRA 210715Z 01004KT 340V070 9999 SCT030 14/08 Q1015=
200809210645 METAR LIRA 210645Z 36003KT 9999 SCT030 12/07 Q1015=
200809210615 METAR LIRA 210615Z 02003KT 9999 FEW030 10/07 Q1015=
200809210545 METAR LIRA 210545Z 02003KT 9999 FEW030 11/07 Q1015=
200809210515 METAR LIRA 210515Z 04003KT 9999 FEW030 11/07 Q1015=
200809210445 METAR LIRA 210445Z 05003KT 9999 FEW070 12/08 Q1015=
200809210415 METAR LIRA 210415Z 04004KT 340V070 9999 FEW070 12/07 Q1015=
200809210345 METAR LIRA 210345Z 03003KT CAVOK 13/05 Q1015=
200809210315 METAR LIRA 210315Z 03004KT CAVOK 13/04 Q1015=
200809210245 METAR LIRA 210245Z 02003KT 9999 FEW030 13/04 Q1015=
200809210215 METAR LIRA 210215Z 03005KT 9999 FEW030 SCT070 13/07 Q1015=
200809210145 METAR LIRA 210145Z 02003KT 9999 SCT030 SCT070 14/07 Q1015=
200809210115 METAR LIRA 210115Z 01003KT 9999 SCT030 SCT070 14/07 Q1015=
200809210045 METAR LIRA 210045Z 03004KT 9999 SCT030 SCT070 14/07 Q1016=
200809210015 METAR LIRA 210015Z 01003KT 9999 SCT030 SCT070 14/07 Q1016=
200809202345 METAR LIRA 202345Z 01003KT 9999 SCT030 SCT070 15/07 Q1016=
200809202315 METAR LIRA 202315Z 01003KT 9999 FEW030 15/06 Q1016=
200809202245 METAR LIRA 202245Z 02005KT 9999 FEW030 15/06 Q1016=
200809202145 METAR LIRA 202145Z 10005KT 360V060 9999 FEW030 SCT070 15/05
                        Q1016=
200809202115 METAR LIRA 202115Z 04004KT 360V090 9999 FEW030 SCT070 16/06
                        Q1016=
200809202045 METAR LIRA 202045Z 03006KT 330V080 9999 FEW030 SCT070 16/06
                        Q1016=
200809202015 METAR LIRA 202015Z 02008KT 320V060 9999 FEW030 16/06 Q1016=
200809201945 METAR LIRA 201945Z 03007KT 310V070 9999 FEW030 16/05 Q1015=
200809201915 METAR LIRA 201915Z 03008KT 340V080 9999 FEW020 17/05 Q1015=
200809201845 METAR LIRA 201845Z 02006KT 340V060 9999 FEW020 17/05 Q1015=
200809201815 METAR LIRA 201815Z 01009KT 320V090 9999 FEW020 18/04 Q1015=
200809201745 METAR LIRA 201745Z 35011KT 310V040 9999 FEW025 20/04 Q1014=
200809201715 METAR LIRA 201715Z 35011KT 290V020 9999 FEW025 20/04 Q1014=
200809201645 METAR LIRA 201645Z 35017KT 280V020 9999 FEW025 20/04 Q1014=
200809201615 METAR LIRA 201615Z 34012KT 310V030 9999 FEW025 21/04 Q1014=
200809201545 METAR LIRA 201545Z 35014KT 310V020 9999 FEW023 21/04 Q1014=
200809201515 METAR LIRA 201515Z 34012KT 300V030 9999 FEW023 22/04 Q1014=
200809201445 METAR LIRA 201445Z 34015KT 310V010 9999 FEW023 22/04 Q1014=
200809201415 METAR LIRA 201415Z 35015KT 300V020 9999 FEW023 22/04 Q1014=
200809201345 METAR LIRA 201345Z 34013KT 310V010 9999 FEW023 22/03 Q1014=
200809201315 METAR LIRA 201315Z 21003KT 290V090 9999 FEW023 22/04 Q1014=
200809201245 METAR LIRA 201245Z 33004KT 290V030 9999 SCT023 22/05 Q1015=
200809201215 METAR LIRA 201215Z 34006KT 290V030 9999 FEW018 SCT200 21/05
                        Q1015=
200809201145 METAR LIRA 201145Z 33011KT 290V010 9999 FEW018 SCT200 20/07
                        Q1015=
200809201115 METAR LIRA 201115Z 02006KT 310V110 9999 FEW018 SCT200 20/07
                        Q1015=
200809201045 METAR LIRA 201045Z 01007KT 320V070 9999 FEW018 SCT200 19/08
                        Q1015=
200809201015 METAR LIRA 201015Z 01008KT 310V090 9999 FEW018 SCT200 18/08
                        Q1016=
200809200945 METAR LIRA 200945Z 02006KT 290V100 9999 FEW018 SCT200 17/08
                        Q1016=
200809200915 METAR LIRA 200915Z 01009KT 330V090 9999 FEW022 SCT200 16/10
                        Q1016=
200809200845 METAR LIRA 200845Z 36008KT 300V070 9999 FEW022 SCT200 15/10
                        Q1016=
200809200815 METAR LIRA 200815Z 02004KT 010V080 9999 FEW022 SCT200 14/10
                        Q1016=
200809200745 METAR LIRA 200745Z 05003KT 360V070 9999 FEW022 SCT200 13/10
                        Q1015=
200809200715 METAR LIRA 200715Z 04003KT 9999 FEW022 SCT200 12/09 Q1015=
200809200645 METAR LIRA 200645Z 01004KT 9999 FEW022 SCT200 12/09 Q1015=
200809200615 METAR LIRA 200615Z 09002KT 9999 FEW022 SCT200 11/08 Q1015=
200809200545 METAR LIRA 200545Z 03007KT 340V090 9999 FEW022 SCT200 10/09
                        Q1015=
200809200515 METAR LIRA 200515Z 03007KT 360V080 9999 FEW022 SCT200 10/08
                        Q1014=
200809200445 METAR LIRA 200445Z 05006KT 020V110 9999 FEW022 10/09 Q1015=
200809200415 METAR LIRA 200415Z 07004KT CAVOK 11/10 Q1015=
200809200345 METAR LIRA 200345Z 04004KT CAVOK 11/10 Q1014=
200809200315 METAR LIRA 200315Z 05005KT CAVOK 11/11 Q1014=
200809200245 METAR LIRA 200245Z 07004KT CAVOK 12/11 Q1014=
200809200215 METAR LIRA 200215Z 06004KT CAVOK 12/11 Q1014=
200809200145 METAR LIRA 200145Z 01005KT 340V040 7000 SKC 12/11 Q1014=
200809200115 METAR LIRA 200115Z 01005KT 340V050 7000 SKC 12/11 Q1014=
200809200045 METAR LIRA 200045Z 07003KT 7000 SKC 12/11 Q1014=
200809200015 METAR LIRA 200015Z 07004KT 7000 SKC 12/11 Q1014=
200809192345 METAR LIRA 192345Z 04005KT 360V090 6000 SKC 12/12 Q1014=
200809192315 METAR LIRA 192315Z 07004KT 7000 FEW018 13/12 Q1014=
200809192245 METAR LIRA 192245Z 05002KT 7000 FEW018 13/12 Q1014=
200809192215 METAR LIRA 192215Z 10002KT 7000 FEW018 13/12 Q1014=
200809192145 METAR LIRA 192145Z 03005KT 9000 FEW018 13/12 Q1014=
200809192115 METAR LIRA 192115Z 04004KT 9000 FEW018 SCT025 14/13 Q1014=
200809192045 METAR LIRA 192045Z 09003KT 8000 FEW018 SCT025 14/13 Q1014=
200809192015 METAR LIRA 192015Z 00000KT 8000 FEW018 SCT025 14/14 Q1014=
200809191945 METAR LIRA 191945Z 00000KT 7000 FEW018 SCT025 14/14 Q1014=
200809191915 METAR LIRA 191915Z 00000KT 7000 FEW018 SCT025 15/14 Q1014=
200809191845 METAR LIRA 191845Z 35004KT 330V030 6000 SCT016 BKN025 15/14
                        Q1013=
200809191815 METAR LIRA 191815Z 36004KT 4000 BR SCT016 BKN025 15/14 Q1013=
200809191745 METAR LIRA 191745Z 01007KT 340V080 5000 -RA BR SCT016 SCT025
                        15/14 Q1013=
200809191715 METAR LIRA 191715Z 05006KT 010V090 4000 -RA BR SCT015 SCT025
                        15/14 Q1014=
200809191645 METAR LIRA 191645Z 04004KT 4000 -RA BR SCT016 SCT025 15/14
                        Q1014=
200809191615 METAR LIRA 191615Z 01005KT 320V060 4000 -RA BR SCT016 SCT025
                        15/14 Q1014=
200809191545 METAR LIRA 191545Z 03005KT 350V080 3500 -RA BR SCT016 SCT025
                        15/14 Q1014=
200809191515 METAR LIRA 191515Z 04007KT 350V090 4000 -RA BR SCT016 SCT025
                        15/14 Q1014=
200809191445 METAR LIRA 191445Z 05008KT 360V100 3500 -RA BR SCT016 SCT025
                        16/14 Q1014=
200809191415 METAR LIRA 191415Z 06005KT 330V090 3500 -RA BR SCT016 SCT025
                        16/15 Q1014=
200809191345 METAR LIRA 191345Z 06005KT 360V110 7000 -RA FEW016 SCT025
                        BKN070 15/14 Q1014=
200809191315 METAR LIRA 191315Z 05004KT 7000 -RA FEW020 SCT030 BKN070
                        16/15 Q1015=
200809191245 METAR LIRA 191245Z 07004KT 030V120 6000 SCT015 FEW020CB SCT025
                        16/15 Q1016=
200809191215 METAR LIRA 191215Z 06006KT 360V080 3500 -RA BR SCT015 FEW020CB
                        SCT025 16/15 Q1016=
200809191145 METAR LIRA 191145Z 06003KT 4500 -RA BR SCT015 FEW020CB SCT025
                        16/15 Q1016 RERA=
200809191115 METAR LIRA 191115Z 03003KT 6000 -RA FEW015 FEW020CB BKN025
                        17/15 Q1016 RERA=
200809191045 METAR LIRA 191045Z 02002KT 4500 RA FEW015 FEW020CB BKN025
                        17/13 Q1016=
200809191015 METAR LIRA 191015Z 30002KT 7000 -RA FEW015 BKN025 17/13 Q1016=
200809190945 METAR LIRA 190945Z 31003KT 8000 -DZ FEW015 BKN025 17/14 Q1016=
200809190915 METAR LIRA 190915Z 02003KT 9999 FEW015 BKN025 17/14 Q1017=
200809190845 METAR LIRA 190845Z 04003KT 9999 -DZ FEW015 BKN025 17/13 Q1017=
200809190815 METAR LIRA 190815Z 05002KT 9999 -DZ FEW015 SCT030 BKN080
                        16/13 Q1017=
200809190745 METAR LIRA 190745Z 32002KT 9999 SCT040 BKN080 16/13 Q1017=
200809190715 METAR LIRA 190715Z 05001KT 9999 FEW018 SCT040 BKN080 15/13
                        Q1017=
200809190645 METAR LIRA 190645Z 33003KT 9999 FEW018 SCT040 BKN090 14/13
                        Q1016=
200809190615 METAR LIRA 190615Z 09002KT 9999 FEW018 SCT040 BKN090 14/12
                        Q1017=
200809190545 METAR LIRA 190545Z 17001KT 9999 FEW018 BKN090 14/13 Q1016=
200809190515 METAR LIRA 190515Z 31001KT 9999 FEW018 BKN090 15/12 Q1016=
200809190445 METAR LIRA 190445Z 28002KT 9999 FEW018 BKN070 14/12 Q1016=
200809190415 METAR LIRA 190415Z 00000KT 9999 FEW030 BKN070 15/12 Q1016=
200809190345 METAR LIRA 190345Z 06003KT 9999 FEW030 SCT060 15/13 Q1017=
200809190315 METAR LIRA 190315Z 09001KT 9999 SCT060 15/13 Q1017=
200809190245 METAR LIRA 190245Z 11002KT 9999 FEW060 SCT200 15/13 Q1017=
200809190215 METAR LIRA 190215Z 06003KT 9999 SCT070 SCT200 15/13 Q1017=
200809190145 METAR LIRA 190145Z 10002KT 9999 FEW070 SCT200 15/13 Q1018=
200809190115 METAR LIRA 190115Z 10002KT 9999 FEW070 SCT200 15/13 Q1018=
200809190045 METAR LIRA 190045Z 00000KT 9999 FEW060 SCT200 15/13 Q1018=
200809190015 METAR LIRA 190015Z 25001KT CAVOK 15/12 Q1018=
200809182350 METAR LIRA 190045Z 00000KT 9999 FEW060 SCT200 15/13 Q1018=
200809182345 METAR LIRA 182345Z 27002KT CAVOK 16/13 Q1018=
200809182315 METAR LIRA 182315Z 30002KT CAVOK 16/13 Q1018=
200809182245 METAR LIRA 182245Z 10003KT CAVOK 17/14 Q1019=
200809182215 METAR LIRA 182215Z 11004KT CAVOK 17/14 Q1019=
200809182145 METAR LIRA 182145Z 11002KT CAVOK 18/14 Q1019=
200809182115 METAR LIRA 182115Z 19002KT CAVOK 18/14 Q1019=
200809182045 METAR LIRA 182045Z 03001KT CAVOK 18/15 Q1019=
200809182015 METAR LIRA 182015Z 00000KT CAVOK 19/14 Q1019=
200809181945 METAR LIRA 181945Z 26001KT CAVOK 19/14 Q1019=
200809181915 METAR LIRA 181915Z 24001KT CAVOK 19/14 Q1019=
200809181845 METAR LIRA 181845Z 24002KT CAVOK 20/13 Q1019=
200809181815 METAR LIRA 181815Z 25002KT 9999 FEW030 BKN200 20/12 Q1019=
200809181745 METAR LIRA 181745Z 24003KT 9999 FEW030 BKN200 21/12 Q1018=
200809181715 METAR LIRA 181715Z 26004KT 9999 FEW030 BKN200 22/12 Q1018=
200809181645 METAR LIRA 181645Z 26007KT 210V330 9999 FEW025 SCT200 22/11
                        Q1018=
200809181615 METAR LIRA 181615Z 27009KT 200V330 9999 FEW022 SCT200 23/10
                        Q1018=
200809181545 METAR LIRA 181545Z 29008KT 220V340 9999 FEW022 SCT200 24/08
                        Q1018=
200809181515 METAR LIRA 181515Z 28010KT 250V330 9999 FEW022 SCT200 24/07
                        Q1019=
200809181445 METAR LIRA 181445Z 29009KT 230V340 9999 FEW022 SCT200 25/06
                        Q1019=
200809181415 METAR LIRA 181415Z 28010KT 170V330 9999 FEW022 SCT200 25/06
                        Q1019=
200809181345 METAR LIRA 181345Z 31009KT 220V340 9999 FEW022 SCT200 25/05
                        Q1019=
200809181315 METAR LIRA 181315Z 33005KT 300V040 9999 FEW022 SCT200 25/05
                        Q1019=
200809181245 METAR LIRA 181245Z 02005KT 300V110 9999 FEW022 SCT200 24/06
                        Q1019=
200809181215 METAR LIRA 181215Z 33002KT 270V030 9999 FEW022 SCT200 24/08
                        Q1020=
200809181145 METAR LIRA 181145Z 33007KT 300V030 9999 FEW022 SCT200 23/08
                        Q1020=
200809181115 METAR LIRA 181115Z VRB05KT 240V130 9999 FEW022 BKN200 23/07
                        Q1020=
200809181045 METAR LIRA 181045Z 02004KT 310V030 9999 FEW022 BKN200 22/08
                        Q1020=
200809181015 METAR LIRA 181015Z 35006KT 300V020 9999 FEW022 BKN200 22/09
                        Q1020=
200809180945 METAR LIRA 180945Z 09001KT 9999 FEW022 SCT200 21/10 Q1020=
200809180915 METAR LIRA 180915Z 03004KT 9999 FEW022 SCT200 20/11 Q1020=
200809180845 METAR LIRA 180845Z 33001KT 9999 FEW022 17/09 Q1020=
200809180815 METAR LIRA 180815Z 31001KT 9999 FEW022 15/09 Q1020=
200809180745 METAR LIRA 180745Z 36001KT CAVOK 14/09 Q1020=
200809180715 METAR LIRA 180715Z 36002KT CAVOK 13/08 Q1020=
200809180645 METAR LIRA 180645Z 03002KT CAVOK 12/09 Q1020=
200809180615 METAR LIRA 180615Z 02003KT CAVOK 11/09 Q1020=
200809180545 METAR LIRA 180545Z 04002KT CAVOK 11/09 Q1019=
200809180515 METAR LIRA 180515Z 02001KT CAVOK 11/09 Q1019=
200809180445 METAR LIRA 180445Z 04003KT 9999 FEW080 SCT200 11/09 Q1019=
200809180415 METAR LIRA 180415Z 04002KT 9999 FEW080 SCT200 11/09 Q1019=
200809180345 METAR LIRA 180345Z 00000KT CAVOK 12/10 Q1019=
200809180315 METAR LIRA 180315Z 05003KT CAVOK 12/10 Q1019=
200809180245 METAR LIRA 180245Z 04002KT CAVOK 12/10 Q1019=
200809180215 METAR LIRA 180215Z 35002KT CAVOK 13/11 Q1018=
200809180145 METAR LIRA 180145Z 35001KT CAVOK 13/11 Q1018=
200809180115 METAR LIRA 180115Z 06003KT CAVOK 14/11 Q1018=
200809180045 METAR LIRA 180045Z 32001KT CAVOK 14/12 Q1018=
200809180015 METAR LIRA 180015Z 04002KT CAVOK 15/12 Q1018=
200809172345 METAR LIRA 172345Z 05002KT CAVOK 15/11 Q1018=
200809172315 METAR LIRA 172315Z 15001KT CAVOK 15/12 Q1018=
200809172245 METAR LIRA 172245Z 06003KT CAVOK 15/12 Q1018=
200809172215 METAR LIRA 172215Z 06003KT CAVOK 16/12 Q1018=
200809172145 METAR LIRA 172145Z 11002KT CAVOK 16/12 Q1018=
200809172115 METAR LIRA 172115Z 11003KT CAVOK 16/12 Q1018=
200809172045 METAR LIRA 172045Z 08002KT CAVOK 17/12 Q1018=
200809172015 METAR LIRA 172015Z 16001KT CAVOK 17/12 Q1018=
200809171945 METAR LIRA 171945Z 10002KT CAVOK 18/12 Q1018=
200809171915 METAR LIRA 171915Z 23002KT CAVOK 18/12 Q1018=
200809171845 METAR LIRA 171845Z 25003KT CAVOK 19/12 Q1017=
200809171815 METAR LIRA 171815Z 24003KT CAVOK 19/12 Q1017=
200809171745 METAR LIRA 171745Z 26003KT CAVOK 20/11 Q1016=
200809171715 METAR LIRA 171715Z 27006KT 240V310 CAVOK 21/10 Q1016=
200809171645 METAR LIRA 171645Z 28009KT 220V330 CAVOK 22/10 Q1016=
200809171615 METAR LIRA 171615Z 28010KT 210V320 CAVOK 23/08 Q1016=
200809171545 METAR LIRA 171545Z 30008KT 240V350 CAVOK 24/03 Q1015=
200809171515 METAR LIRA 171515Z 33007KT 280V010 CAVOK 24/03 Q1015=
200809171445 METAR LIRA 171445Z 35011KT 310V040 CAVOK 24/03 Q1016=
200809171415 METAR LIRA 171415Z 33010KT 300V060 CAVOK 24/03 Q1016=
200809171345 METAR LIRA 171345Z 35008KT 300V060 CAVOK 24/04 Q1016=
200809171315 METAR LIRA 171315Z 33012KT 300V060 CAVOK 23/04 Q1016=
200809171245 METAR LIRA 171245Z 03008KT 330V060 CAVOK 23/05 Q1016=
200809171215 METAR LIRA 171215Z 36006KT 330V060 CAVOK 22/05 Q1016=
200809171145 METAR LIRA 171145Z 12004KT 010V120 CAVOK 21/04 Q1016=
200809171115 METAR LIRA 171115Z 01008KT 300V040 CAVOK 21/05 Q1016=
200809171100 METAR LIRA CONTUS DIST LGTNG NE=
200809171045 METAR LIRA 171045Z 33010KT 300V030 CAVOK 20/04 Q1016=
200809171015 METAR LIRA 171015Z 33011KT 300V030 CAVOK 20/04 Q1016=
200809170945 METAR LIRA 170945Z 36006KT 330V060 CAVOK 19/05 Q1016=
200809170915 METAR LIRA 170915Z 01005KT 310V040 CAVOK 18/06 Q1016=
200809170845 METAR LIRA 170845Z 36004KT 010V090 CAVOK 15/05 Q1016=
200809170815 METAR LIRA 170815Z 05005KT 010V090 CAVOK 15/06 Q1016=
200809170745 METAR LIRA 170745Z 03004KT 360V110 CAVOK 14/07 Q1016=
200809170715 METAR LIRA 170715Z 03005KT 350V110 CAVOK 14/07 Q1015=
200809170645 METAR LIRA 170645Z 04007KT 340V080 CAVOK 12/07 Q1015=
200809170615 METAR LIRA 170615Z 04005KT 340V080 CAVOK 11/07 Q1015=
200809170545 METAR LIRA 170545Z 04004KT CAVOK 10/06 Q1015=
200809170515 METAR LIRA 170515Z 02004KT CAVOK 10/07 Q1015=
200809170445 METAR LIRA 170445Z 07005KT CAVOK 10/07 Q1014=
200809170415 METAR LIRA 170415Z 06004KT CAVOK 11/07 Q1014=
200809170345 METAR LIRA 170345Z 04003KT CAVOK 11/07 Q1014=
200809170315 METAR LIRA 170315Z 03005KT 350V060 CAVOK 11/07 Q1014=
200809170245 METAR LIRA 170245Z 02004KT CAVOK 11/07 Q1014=
200809170215 METAR LIRA 170215Z 04004KT CAVOK 12/07 Q1013=
200809170145 METAR LIRA 170145Z 05005KT CAVOK 12/07 Q1013=
200809170115 METAR LIRA 170115Z 05005KT CAVOK 13/06 Q1013=
200809170045 METAR LIRA 170045Z 04004KT 330V060 9999 FEW025 13/07 Q1013=
200809170015 METAR LIRA 170015Z 02005KT 300V060 9999 FEW025 14/07 Q1013=
200809162345 METAR LIRA 162345Z 02007KT 340V060 9999 FEW025 14/06 Q1013=
200809162315 METAR LIRA 162315Z 36006KT 330V040 9999 FEW025 14/06 Q1012=
200809162245 METAR LIRA 162245Z 04004KT 340V100 CAVOK 14/05 Q1012=
200809162215 METAR LIRA 162215Z 04005KT 350V080 CAVOK 15/05 Q1012=
200809162145 METAR LIRA 162145Z 02005KT 320V080 CAVOK 15/05 Q1012=
200809162115 METAR LIRA 162115Z 01009KT 330V040 CAVOK 16/06 Q1011=
200809162045 METAR LIRA 162045Z 01006KT 320V050 CAVOK 16/05 Q1011=
200809162015 METAR LIRA 162015Z 36007KT 320V030 CAVOK 17/04 Q1011=
200809161945 METAR LIRA 161945Z 36005KT 330V040 CAVOK 17/04 Q1010=
200809161915 METAR LIRA 161915Z 36008KT 320V040 9999 FEW020 18/04 Q1010=
200809161845 METAR LIRA 161845Z 35009KT 310V030 9999 FEW020 18/04 Q1010=
200809161815 METAR LIRA 161815Z 33008KT 310V010 9999 FEW020 19/04 Q1009=
200809161745 METAR LIRA 161745Z 33009KT 300V010 9999 FEW020 20/04 Q1009=
200809161715 METAR LIRA 161715Z 35011KT 310V020 9999 FEW020 20/04 Q1009=
200809161645 METAR LIRA 161645Z 34012KT 300V020 9999 FEW020 21/04 Q1008=
200809161615 METAR LIRA 161615Z 33014KT 300V360 9999 FEW020 22/04 Q1008=
200809161545 METAR LIRA 161545Z 34012KT 280V020 9999 FEW025 22/03 Q1008=
200809161515 METAR LIRA 161515Z 35011KT 280V020 9999 FEW025 23/03 Q1008=
200809161445 METAR LIRA 161445Z 33007KT 300V030 9999 FEW025 23/04 Q1008=
200809161415 METAR LIRA 161415Z 34011KT 290V030 9999 FEW018 23/04 Q1008=
200809161345 METAR LIRA 161345Z 29008KT 230V340 9999 FEW018 23/04 Q1008=
200809161315 METAR LIRA 161315Z 31010KT 230V340 9999 FEW018 23/05 Q1008=
200809161245 METAR LIRA 161245Z 31007KT 280V020 9999 FEW018 22/06 Q1008=
200809161215 METAR LIRA 161215Z 34007KT 270V020 9999 FEW018 22/06 Q1008=
200809161145 METAR LIRA 161145Z 34010KT 300V060 9999 FEW018 21/07 Q1008=
200809161115 METAR LIRA 161115Z 34007KT 300V050 9999 FEW018 20/08 Q1008=
200809161045 METAR LIRA 161045Z 04007KT 350V110 9999 FEW018 20/08 Q1008=
200809161015 METAR LIRA 161015Z 04007KT 300V090 9999 FEW018 19/08 Q1008=
200809161000 METAR LIRA INTER/CB NW/E/S=
200809160945 METAR LIRA 160945Z 02007KT 300V090 9999 FEW018 17/08 Q1008=
200809160915 METAR LIRA 160915Z 35010KT 300V040 9999 FEW020 17/09 Q1008=
200809160900 METAR LIRA CONTUS/CB SE-SW=
200809160845 METAR LIRA 160845Z 04007KT 340V100 9999 FEW020 15/08 Q1008=
200809160815 METAR LIRA 160815Z 01009KT 300V060 9999 FEW020 15/08 Q1008=
200809160800 METAR LIRA CONTUS/RETS/CB NW/SW-W=
200809160745 METAR LIRA 160745Z 04006KT 340V090 CAVOK 13/09 Q1008=
200809160715 METAR LIRA 160715Z 06007KT 360V090 CAVOK 13/09 Q1008=
200809160645 METAR LIRA 160645Z 03003KT CAVOK 12/09 Q1008=
200809160615 METAR LIRA 160615Z 05005KT 360V090 9999 FEW001 12/09 Q1007=
200809160600 METAR LIRA INTER CB ALL QUADS=
200809160545 METAR LIRA 160545Z 04005KT 010V090 9999 FEW001 12/11 Q1007=
200809160515 METAR LIRA 160515Z 04005KT 9999 6000S FEW001 12/11 Q1007=
200809160445 METAR LIRA 160445Z 05005KT 9999 FEW001 12/12 Q1007=
200809160415 METAR LIRA 160415Z 01003KT 6000 FEW001 13/12 Q1007=
200809160345 METAR LIRA 160345Z 03004KT 350V050 6000 FEW001 13/12 Q1007=
200809160315 METAR LIRA 160315Z 01004KT 330V050 6000 SCT001 13/11 Q1007=
200809160245 METAR LIRA 160245Z 01005KT 6000 FEW001 SCT025 13/11 Q1007=
200809160215 METAR LIRA 160215Z 03003KT 6000 SCT001 SCT025 14/13 Q1007=
200809152345 METAR LIRA 152345Z 02004KT 6000 SCT001 SCT025 14/13 Q1007=
200809152315 METAR LIRA 152315Z 02005KT 290V060 6000 SCT001 SCT025 14/14
                        Q1007=
200809152245 METAR LIRA 152245Z 36004KT 9999 SCT010 SCT025 14/14 Q1007=
200809152215 METAR LIRA 152215Z 04005KT 9999 FEW010 SCT025 14/13 Q1007=
200809152145 METAR LIRA 152145Z 05006KT 9999 5000E FEW001 SCT025 14/14
                        Q1007=
200809152115 METAR LIRA 152115Z 05005KT 290V090 9999 5000E FEW001 SCT025
                        15/14 Q1007=
200809152045 METAR LIRA 152045Z 02005KT 330V080 8000 FEW001 SCT025 15/14
                        Q1007=
200809152015 METAR LIRA 152015Z 01005KT 340V040 9999 FEW015 SCT030 15/14
                        Q1007 RETS=
200809151945 METAR LIRA 151945Z 29002KT 9999 FEW015CB SCT030 15/14 Q1007
                        RETS=
200809151915 METAR LIRA 151915Z 05004KT 030V100 9999 -TSRA FEW003 SCT012CB
                        15/14 Q1007=
200809151845 METAR LIRA 151845Z 07007KT 360V100 8000 -TSRA FEW003 SCT012CB
                        15/14 Q1008=
200809151815 METAR LIRA 151815Z 04007KT 300V100 6000 TSRA FEW003 SCT012CB
                        15/13 Q1008=
200809151745 METAR LIRA 151745Z 23003KT 9000 -TSRA SCT015CB SCT070 21/14
                        Q1007=
200809151715 METAR LIRA 151715Z 24004KT 9999 TS SCT015CB SCT070 22/11
                        Q1007=
200809151645 METAR LIRA 151645Z 24006KT 210V280 9999 FEW020CB SCT070 22/11
                        Q1007=
200809151615 METAR LIRA 151615Z 27007KT 200V310 9999 FEW020CB BKN070 23/11
                        Q1007=
200809151545 METAR LIRA 151545Z 26008KT 210V300 9999 FEW018 FEW020CB 23/09
                        Q1007=
200809151515 METAR LIRA 151515Z 24010KT 200V300 9999 FEW018 FEW020CB 24/09
                        Q1007=
200809151445 METAR LIRA 151445Z 24010KT 210V280 9999 FEW018 FEW020CB 24/09
                        Q1007=
200809151415 METAR LIRA 151415Z 24010KT 200V300 9999 FEW018 FEW020TCU
                        24/10 Q1007=
200809151345 METAR LIRA 151345Z 25008KT 180V330 9999 SCT018 FEW020TCU
                        24/10 Q1007=
200809151315 METAR LIRA 151315Z 28008KT 230V330 9999 FEW018 FEW020TCU
                        SCT025 25/08 Q1007=
200809151245 METAR LIRA 151245Z 25007KT 210V330 9999 FEW018 FEW020TCU
                        SCT025 25/08 Q1007=
200809151215 METAR LIRA 151215Z 24003KT 200V270 9999 FEW018 FEW020TCU
                        SCT025 24/08 Q1007=
200809151145 METAR LIRA 151145Z 32003KT 270V350 9999 SCT018 FEW020TCU
                        23/08 Q1007=
200809151115 METAR LIRA 151115Z 33006KT 9999 SCT018 23/08 Q1007=
200809151045 METAR LIRA 151045Z 01004KT 270V030 9999 SCT018 23/09 Q1008=
200809151015 METAR LIRA 151015Z 01002KT 9999 SCT018 22/11 Q1008=
200809150945 METAR LIRA 150945Z 35003KT 9999 FEW018 22/11 Q1008=
200809150915 METAR LIRA 150915Z 34004KT 9999 FEW018 21/12 Q1008=
200809150845 METAR LIRA 150845Z 35002KT 9999 FEW018 19/14 Q1007=
200809150815 METAR LIRA 150815Z 03004KT 330V080 9999 FEW018 17/13 Q1008=
200809150745 METAR LIRA 150745Z 03005KT 320V090 9999 FEW018 16/13 Q1008=
200809150715 METAR LIRA 150715Z 04005KT 320V120 9999 FEW018 15/12 Q1007=
200809150645 METAR LIRA 150645Z 02004KT 9999 FEW018 14/13 Q1007=
200809150615 METAR LIRA 150615Z 04004KT 360V080 9999 FEW018 14/12 Q1007=
200809150545 METAR LIRA 150545Z 05004KT 360V100 9999 FEW018 14/13 Q1007=
200809150515 METAR LIRA 150515Z 05004KT 9999 FEW018 15/13 Q1007=
200809150445 METAR LIRA 150445Z 03003KT 9999 FEW018 15/13 Q1007=
200809150415 METAR LIRA 150415Z 02003KT 9999 FEW018 SCT070 15/13 Q1007=
200809150345 METAR LIRA 150345Z 02003KT 9999 FEW018 SCT070 15/12 Q1007=
200809150315 METAR LIRA 150315Z 03002KT 9999 FEW018 SCT070 15/13 Q1007=
200809150245 METAR LIRA 150245Z 03002KT 9999 FEW018 SCT070 15/13 Q1007=
200809150215 METAR LIRA 150215Z 03003KT 9999 FEW018 SCT070 16/13 Q1008=
200809142345 METAR LIRA 142345Z 02002KT 9999 FEW018 SCT070 17/15 Q1008=
200809142315 METAR LIRA 142315Z 01004KT 9999 FEW018 SCT070 17/14 Q1008=
200809142245 METAR LIRA 142245Z 33004KT 9999 FEW018 SCT070 17/14 Q1008=
200809142215 METAR LIRA 142215Z 05005KT 9999 FEW018 FEW020CB SCT070 17/15
                        Q1008=
200809142145 METAR LIRA 142145Z 05004KT 9999 FEW018 FEW020CB SCT070 17/15
                        Q1008=
200809142115 METAR LIRA 142115Z 05004KT 010V100 9999 FEW018 FEW020CB SCT070
                        18/15 Q1008=
200809142045 METAR LIRA 142045Z 03003KT 330V070 9999 FEW018 SCT070 18/14
                        Q1008=
200809142015 METAR LIRA 142015Z 03003KT 9999 FEW018 FEW020CB SCT070 18/15
                        Q1008=
200809141945 METAR LIRA 141945Z 06002KT 9999 FEW018 FEW020CB BKN070 18/14
                        Q1008=
200809141915 METAR LIRA 141915Z 28003KT 9999 FEW018 FEW020CB BKN070 18/14
                        Q1008=
200809141845 METAR LIRA 141845Z 21003KT 9999 FEW018 FEW020CB SCT070 18/14
                        Q1008=
200809141815 METAR LIRA 141815Z 20003KT 9999 FEW018 FEW020CB SCT070 18/15
                        Q1008=
200809141745 METAR LIRA 141745Z 18008KT 9999 FEW018 FEW020CB SCT070 19/13
                        Q1008=
200809141715 METAR LIRA 141715Z 19006KT 9999 -RA FEW018 FEW020CB SCT070
                        20/12 Q1008=
200809141645 METAR LIRA 141645Z 21011KT 160V260 9999 -RA FEW018 SCT020CB
                        22/12 Q1008=
200809141615 METAR LIRA 141615Z 23005KT 9999 TS SCT020CB BKN070 22/11
                        Q1008=
200809141545 METAR LIRA 141545Z 21005KT 180V240 9999 SCT018 FEW020CB SCT200
                        23/12 Q1008=
200809141515 METAR LIRA 141515Z 21005KT 160V220 9999 SCT018 FEW020CB SCT200
                        23/11 Q1008=
200809141445 METAR LIRA 141445Z 22004KT 190V260 9999 SCT018 FEW020CB SCT200
                        23/12 Q1008=
200809141415 METAR LIRA 141415Z 25006KT 180V280 9999 SCT018 FEW020CB SCT200
                        23/11 Q1008=
200809141345 METAR LIRA 141345Z 23005KT 180V270 9999 SCT018 FEW020CB SCT200
                        23/12 Q1008=
200809141315 METAR LIRA 141315Z 22008KT 150V280 9999 SCT018 FEW020CB SCT200
                        22/13 Q1008=
200809141245 METAR LIRA 141245Z 19009KT 150V250 9999 SCT015 FEW020CB SCT070
                        22/13 Q1009=
200809141215 METAR LIRA 141215Z 20007KT 170V260 9999 SCT015 FEW020CB SCT070
                        21/14 Q1009=
200809141145 METAR LIRA 141145Z 22005KT 180V270 9999 SCT015 FEW020CB SCT070
                        20/15 Q1009=
200809141115 METAR LIRA 141115Z 23003KT 9999 SCT018 FEW020CB SCT070 22/14
                        Q1009=
200809141045 METAR LIRA 141045Z 30005KT 230V340 8000 SHRA SCT012 FEW020CB
                        SCT070 22/14 Q1009=
200809141015 METAR LIRA 141015Z 26009KT 210V310 9999 SCT015 FEW020CB SCT070
                        21/14 Q1009=
200809140945 METAR LIRA 140945Z 23007KT 200V280 9999 FEW015 FEW020CB SCT070
                        21/13 Q1010=
200809140915 METAR LIRA 140915Z 23005KT 9999 FEW015 FEW020CB SCT070 21/13
                        Q1010=
200809140845 METAR LIRA 140845Z 20003KT 9999 FEW015 FEW020CB SCT070 21/13
                        Q1010=
200809140815 METAR LIRA 140815Z 24004KT 9999 -RA FEW015 FEW020CB SCT070
                        21/14 Q1010=
200809140745 METAR LIRA 140745Z 17006KT 150V220 9999 -RA FEW015 FEW020CB
                        SCT070 20/14 Q1010=
200809140715 METAR LIRA 140715Z 18005KT 9999 FEW020 FEW021TCU SCT070 20/14
                        Q1009=
200809140645 METAR LIRA 140645Z 18004KT 9999 FEW020 SCT030 19/14 Q1009=
200809140615 METAR LIRA 140615Z 17004KT 9999 FEW020 SCT030 18/13 Q1009=
200809140545 METAR LIRA 140545Z 17003KT 9999 FEW020 SCT030 18/13 Q1009=
200809140515 METAR LIRA 140515Z 16005KT 9999 FEW020 SCT030 18/13 Q1009=
200809140445 METAR LIRA 140445Z 16003KT 9999 SCT020 SCT200 19/14 Q1009=
200809140415 METAR LIRA 140415Z 17003KT 9999 SCT020 SCT200 19/13 Q1009=
200809140345 METAR LIRA 140345Z 16004KT 9999 SCT020 SCT080 18/13 Q1009=
200809140315 METAR LIRA 140315Z 16003KT 9999 SCT020 SCT070 19/13 Q1009=
200809140245 METAR LIRA 140245Z 17003KT 9999 FEW020 SCT070 19/13 Q1009=
200809140215 METAR LIRA 140215Z 16004KT 9999 FEW020 SCT070 19/13 Q1009=
200809140145 METAR LIRA 140145Z 16003KT 9999 BKN030 18/11 Q1010=
200809140115 METAR LIRA 140115Z 15005KT 9999 SCT025 SCT070 19/12 Q1010=
200809140045 METAR LIRA 140045Z 16004KT 9999 SCT025 SCT070 19/13 Q1010=
200809140015 METAR LIRA 140015Z 17005KT 9999 SCT025 SCT060 19/13 Q1010=
200809132345 METAR LIRA 132345Z 15005KT 9999 SCT030 SCT070 19/13 Q1010=
200809132315 METAR LIRA 132315Z 16005KT 9999 SCT030 SCT060 19/13 Q1010=
200809132245 METAR LIRA 132245Z 15004KT 9999 FEW025 SCT060 19/12 Q1010=
200809132215 METAR LIRA 132215Z 19003KT 9999 FEW025 SCT060 20/13 Q1011=
200809132145 METAR LIRA 132145Z 18003KT 9999 FEW025 SCT060 20/13 Q1011=
200809132115 METAR LIRA 132115Z 18004KT 9999 FEW030 SCT060 20/14 Q1011=
200809132045 METAR LIRA 132045Z 20004KT 9999 FEW030 SCT060 20/14 Q1011=
200809132015 METAR LIRA 132015Z 18003KT 9999 FEW020 BKN060 20/14 Q1011=
200809131945 METAR LIRA 131945Z 17004KT 9999 FEW025 SCT060 20/13 Q1010=
200809131915 METAR LIRA 131915Z 21002KT 9999 FEW025 SCT060 20/13 Q1010=
200809131845 METAR LIRA 131845Z 19004KT 9999 FEW020 BKN060 21/14 Q1010=
200809131815 METAR LIRA 131815Z 23004KT 190V270 9999 FEW018 BKN060 21/13
                        Q1009=
200809131745 METAR LIRA 131745Z 24007KT 200V270 9999 FEW018 BKN060 21/13
                        Q1009=
200809131715 METAR LIRA 131715Z 23004KT 9999 FEW020 BKN070 22/13 Q1009=
200809131645 METAR LIRA 131645Z 24007KT 180V280 9999 FEW020 BKN070 23/13
                        Q1009=
200809131615 METAR LIRA 131615Z 24009KT 190V280 9999 FEW018 BKN070 23/13
                        Q1009=
200809131545 METAR LIRA 131545Z 22008KT 190V280 9999 FEW018 BKN070 23/11
                        Q1010=
200809131515 METAR LIRA 131515Z 23010KT 160V270 9999 FEW018 BKN070 24/11
                        Q1010=
200809131445 METAR LIRA 131445Z 24011KT 210V290 9999 FEW018 SCT070 24/11
                        Q1010=
200809131415 METAR LIRA 131415Z 24012KT 190V270 9999 FEW018 SCT070 24/14
                        Q1010=
200809131345 METAR LIRA 131345Z 24011KT 190V270 9999 FEW018 SCT070 24/11
                        Q1010=
200809131315 METAR LIRA 131315Z 25012KT 200V310 9999 SCT018 SCT070 24/18
                        Q1010=
200809131245 METAR LIRA 131245Z 27012KT 210V310 9999 SCT018 SCT070 24/17
                        Q1010=
200809131215 METAR LIRA 131215Z 24012KT 200V310 9999 SCT018 SCT025 25/18
                        Q1009=
200809131145 METAR LIRA 131145Z 24010KT 200V330 9999 SCT018 SCT025 25/19
                        Q1009=
200809131115 METAR LIRA 131115Z 24012KT 180V270 9999 SCT018 SCT025 24/18
                        Q1009=
200809131045 METAR LIRA 131045Z 25011KT 200V310 9999 FEW017 SCT025 24/19
                        Q1009=
200809131015 METAR LIRA 131015Z 22010KT 170V270 9999 SCT017 SCT025 23/20
                        Q1009=
200809130945 METAR LIRA 130945Z 21008KT 120V260 9999 SCT017 BKN025 22/20
                        Q1009=
200809130915 METAR LIRA 130915Z 23005KT 170V270 8000 FEW017 BKN025 22/20
                        Q1009=
200809130845 METAR LIRA 130845Z 23009KT 190V280 9000 FEW018 SCT027 22/20
                        Q1009=
200809130815 METAR LIRA 130815Z 21004KT 180V260 8000 FEW017 SCT027 22/21
                        Q1009=
200809130745 METAR LIRA 130745Z 19006KT 8000 -RA FEW018 FEW020CB SCT027
                        22/20 Q1009=
200809130715 METAR LIRA 130715Z 20004KT 180V240 7000 -RA FEW017 FEW018CB
                        BKN025 22/20 Q1009=
200809130645 METAR LIRA 130645Z 21006KT 170V240 9999 FEW017 FEW018CB SCT025
                        22/20 Q1009=
200809130615 METAR LIRA 130615Z 21006KT 9999 FEW018 BKN025 22/20 Q1009=
200809130545 METAR LIRA 130545Z 18006KT 9999 FEW018 BKN025 22/20 Q1008=
200809130515 METAR LIRA 130515Z 18003KT 9999 FEW018 BKN025 20/18 Q1008=
200809130415 METAR LIRA 130415Z 14003KT 9999 FEW016 FEW018TCU SCT070 20/18
                        Q1008=
200809130345 METAR LIRA 130345Z 12003KT 9999 FEW016 FEW018TCU SCT070 20/18
                        Q1008=
200809130315 METAR LIRA 130315Z 09002KT 9999 FEW016 FEW018TCU SCT020 20/18
                        Q1008=
200809130245 METAR LIRA 130245Z 15002KT 9999 FEW018TCU SCT080 20/18 Q1008=
200809130215 METAR LIRA 130215Z 28002KT CAVOK 21/17 Q1009=
200809130145 METAR LIRA 130145Z 20004KT CAVOK 21/17 Q1009=
200809130115 METAR LIRA 130115Z 22004KT CAVOK 21/17 Q1009=
200809130045 METAR LIRA 130045Z 19003KT CAVOK 21/18 Q1009=
200809130015 METAR LIRA 130015Z 18004KT CAVOK 21/18 Q1009=
200809122345 METAR LIRA 122345Z 19006KT CAVOK 21/18 Q1009=
200809122315 METAR LIRA 122315Z 16005KT 9999 FEW018 SCT200 21/18 Q1010=
200809122245 METAR LIRA 122245Z 11002KT 9999 FEW018 SCT200 21/19 Q1010=
200809122215 METAR LIRA 122215Z 01002KT 9999 -RA FEW020CB SCT035 21/19
                        Q1010=
200809122145 METAR LIRA 122145Z 07005KT 010V110 9999 FEW015 FEW020CB SCT035
                        21/19 Q1010=
200809122115 METAR LIRA 122115Z 05008KT 010V090 9999 -RA FEW013 FEW020CB
                        BKN040 20/19 Q1010=
200809122045 METAR LIRA 122045Z 07010KT 040V120 9999 -TSRA FEW015 FEW020CB
                        BKN035 20/19 Q1010=
200809122015 METAR LIRA 122015Z 08008KT 7000 -TSRA FEW015 SCT018CB BKN025
                        21/20 Q1011=
200809121945 METAR LIRA 121945Z 13006KT 090V200 5000 -TSRA BR SCT020CB
                        BKN030 20/19 Q1012=
200809121915 METAR LIRA 121915Z 24018G34KT 150V280 1500 TSRA BR SCT020
                        SCT030 BKN060 26/24 Q1012=
200809121845 METAR LIRA 121845Z 20009KT 170V250 9999 TS SCT020CB SCT070
                        26/24 Q1009=
200809121815 METAR LIRA 121815Z 27015G25KT 210V330 9999 TS SCT020CB SCT030
                        26/24 Q1009=
200809121745 METAR LIRA 121745Z 17015KT 9999 TS FEW015 FEW020CB SCT030
                        26/24 Q1008=
200809121715 METAR LIRA 121715Z 17019KT 9999 FEW015 SCT030 BKN060 27/23
                        Q1008=
200809121645 METAR LIRA 121645Z 18016KT 140V200 9999 FEW020 BKN060 27/23
                        Q1008=
200809121615 METAR LIRA 121615Z 18015G25KT 150V220 9999 FEW015 SCT025
                        27/24 Q1008=
200809121545 METAR LIRA 121545Z 18018KT 9999 -RA FEW020 BKN070 27/23 Q1008=
200809121515 METAR LIRA 121515Z 20015KT 160V240 9999 SCT020 SCT070 28/23
                        Q1009=
200809121445 METAR LIRA 121445Z 20015G25KT 150V240 9999 FEW020 BKN070
                        30/20 Q1009=
200809121415 METAR LIRA 121415Z 21013KT 160V260 9999 FEW030 BKN070 32/18
                        Q1008=
200809121345 METAR LIRA 121345Z 21013KT 130V240 9999 FEW030 SCT080 35/12
                        Q1008=
200809121315 METAR LIRA 121315Z 12006KT 100V190 9999 SCT080 SCT200 34/12
                        Q1008=
200809121245 METAR LIRA 121245Z 30003KT 9999 FEW030 SCT080 33/15 Q1009=
200809121215 METAR LIRA 121215Z 21004KT 090V210 9999 FEW030 SCT080 32/16
                        Q1009=
200809121145 METAR LIRA 121145Z 09003KT 9999 FEW030 BKN080 28/18 Q1010=
200809121115 METAR LIRA 121115Z 35007KT 310V040 9999 FEW030 BKN080 27/16
                        Q1011=
200809121045 METAR LIRA 121045Z 33009KT 300V060 9999 FEW030 SCT080 BKN100
                        27/18 Q1011=
200809121015 METAR LIRA 121015Z 17008KT 110V200 9999 -RA FEW030 SCT080
                        BKN100 27/17 Q1012=
200809120945 METAR LIRA 120945Z 10005KT 9999 FEW030 BKN080 27/19 Q1012=
200809120915 METAR LIRA 120915Z 13006KT 070V170 9999 FEW030 BKN080 27/20
                        Q1012=
200809120845 METAR LIRA 120845Z 14006KT 100V190 9999 SCT030 BKN070 25/21
                        Q1012=
200809120815 METAR LIRA 120815Z 23004KT 170V260 9999 SCT030 BKN070 25/20
                        Q1012=
200809120745 METAR LIRA 120745Z 29005KT 240V330 9999 SCT030 BKN070 25/16
                        Q1012=
200809120715 METAR LIRA 120715Z 15004KT 9999 SCT030 BKN070 25/16 Q1010=
200809120645 METAR LIRA 120645Z 00000KT 9999 SCT030 BKN070 23/15 Q1010=
200809120615 METAR LIRA 120615Z 00000KT 9999 SCT030 SCT070 24/14 Q1010=
200809120545 METAR LIRA 120545Z 29004KT 9999 SCT030 SCT070 24/15 Q1010=
200809120515 METAR LIRA 120515Z 12006KT 9999 SCT030 SCT070 23/15 Q1010=
200809120445 METAR LIRA 120445Z 11002KT 9999 SCT030 SCT070 23/15 Q1011=
200809120415 METAR LIRA 120415Z 12004KT 9999 SCT030 SCT070 23/15 Q1011=
200809120345 METAR LIRA 120345Z 14001KT 9999 SCT030 SCT070 22/15 Q1011=
200809120315 METAR LIRA 120315Z 00000KT 9999 SCT030 SCT070 22/15 Q1011=
200809120245 METAR LIRA 120245Z 05002KT 9999 SCT030 SCT070 23/15 Q1011=
200809120215 METAR LIRA 120215Z 23003KT 9999 SCT030 SCT070 23/14 Q1011=
200809120145 METAR LIRA 120145Z 14002KT 9999 SCT030 SCT070 23/14 Q1011=
200809120115 METAR LIRA 120115Z 17002KT 9999 SCT030 SCT070 23/14 Q1011=
200809120045 METAR LIRA 120045Z 24001KT 9999 BKN070 24/13 Q1011=
200809120015 METAR LIRA 120015Z 00000KT 9999 BKN070 24/13 Q1011=
200809112345 METAR LIRA 112345Z 00000KT 9999 BKN070 24/13 Q1011=
200809112315 METAR LIRA 112315Z 27003KT 9999 SCT070 24/11 Q1011=
200809112245 METAR LIRA 112245Z 00000KT 9999 SCT070 23/11 Q1011=
200809112215 METAR LIRA 112215Z 14005KT 9999 SCT070 24/11 Q1011=
200809112145 METAR LIRA 112145Z 15003KT 9999 SCT030 SCT070 25/11 Q1012=
200809112115 METAR LIRA 112115Z 30004KT 9999 SCT030 SCT070 25/12 Q1012=
200809112045 METAR LIRA 112045Z 21002KT 9999 SCT030 SCT070 26/11 Q1012=
200809112015 METAR LIRA 112015Z 24003KT 9999 FEW070 SCT200 26/12 Q1012=
200809111945 METAR LIRA 111945Z 19003KT 9999 FEW070 SCT200 25/11 Q1012=
200809111915 METAR LIRA 111915Z 15004KT 9999 FEW070 SCT200 27/12 Q1012=
200809111845 METAR LIRA 111845Z 20004KT 9999 FEW070 SCT200 27/14 Q1012=
200809111815 METAR LIRA 111815Z 24003KT 9999 FEW070 SCT200 28/15 Q1012=
200809111745 METAR LIRA 111745Z 27005KT 9999 FEW070 SCT200 29/15 Q1012=
200809111715 METAR LIRA 111715Z 03002KT 9999 FEW070 SCT200 30/14 Q1011=
200809111645 METAR LIRA 111645Z 18002KT 9999 FEW070 SCT200 30/15 Q1012=
200809111615 METAR LIRA 111615Z 17003KT 9999 FEW070 SCT200 30/15 Q1012=
200809111545 METAR LIRA 111545Z 19004KT 9999 FEW020 30/16 Q1012=
200809111515 METAR LIRA 111515Z 23004KT 190V270 9999 FEW020 30/17 Q1013=
200809111445 METAR LIRA 111445Z 25008KT 210V330 9999 FEW020 32/18 Q1013=
200809111415 METAR LIRA 111415Z 25008KT 200V310 CAVOK 31/18 Q1013=
200809111345 METAR LIRA 111345Z 24009KT 200V300 CAVOK 33/18 Q1013=
200809111315 METAR LIRA 111315Z 22007KT 180V280 CAVOK 34/18 Q1013=
200809111245 METAR LIRA 111245Z 23006KT 150V280 CAVOK 34/18 Q1013=
200809111215 METAR LIRA 111215Z 20005KT 150V280 CAVOK 34/18 Q1013=
200809111145 METAR LIRA 111145Z 21004KT 120V260 CAVOK 34/15 Q1013=
200809111115 METAR LIRA 111115Z 21009KT 160V230 CAVOK 33/16 Q1013=
200809111045 METAR LIRA 111045Z 18003KT 180V250 CAVOK 33/16 Q1014=
200809111015 METAR LIRA 111015Z 26001KT 160V220 CAVOK 31/18 Q1014=
200809110945 METAR LIRA 110945Z 25003KT CAVOK 30/17 Q1014=
200809110915 METAR LIRA 110915Z 20001KT CAVOK 29/16 Q1014=
200809110845 METAR LIRA 110845Z 27002KT CAVOK 28/16 Q1014=
200809110815 METAR LIRA 110815Z 00000KT CAVOK 26/16 Q1014=
200809110745 METAR LIRA 110745Z 05002KT 9999 FEW070 26/19 Q1014=
200809110715 METAR LIRA 110715Z 01002KT 9999 FEW070 24/18 Q1014=
200809110645 METAR LIRA 110645Z 34002KT 9999 FEW070 23/17 Q1014=
200809110615 METAR LIRA 110615Z 36001KT 9999 FEW070 21/16 Q1014=
200809110545 METAR LIRA 110545Z 00000KT 9999 FEW070 20/15 Q1014=
200809110515 METAR LIRA 110515Z 09002KT 9999 FEW070 20/15 Q1013=
200809110445 METAR LIRA 110445Z 00000KT CAVOK 20/15 Q1013=
200809110415 METAR LIRA 110415Z 09002KT CAVOK 20/16 Q1013=
200809110345 METAR LIRA 110345Z 09002KT CAVOK 21/16 Q1013=
200809110315 METAR LIRA 110315Z 10003KT CAVOK 20/16 Q1013=
200809110245 METAR LIRA 110245Z 00000KT CAVOK 21/16 Q1013=
200809110215 METAR LIRA 110215Z 00000KT CAVOK 21/15 Q1013=
200809110145 METAR LIRA 110145Z 00000KT CAVOK 21/15 Q1013=
200809110115 METAR LIRA 110115Z 00000KT CAVOK 21/15 Q1014=
200809110045 METAR LIRA 110045Z 04003KT CAVOK 22/15 Q1014=
200809110015 METAR LIRA 110015Z 07004KT CAVOK 22/16 Q1014=
200809102345 METAR LIRA 102345Z 10002KT CAVOK 22/16 Q1015=
200809102315 METAR LIRA 102315Z 12002KT CAVOK 22/16 Q1015=
200809102245 METAR LIRA 102245Z 12004KT CAVOK 22/16 Q1015=
200809102215 METAR LIRA 102215Z 12004KT CAVOK 23/18 Q1015=
200809102145 METAR LIRA 102145Z 31002KT CAVOK 23/19 Q1015=
200809102115 METAR LIRA 102115Z 18001KT CAVOK 24/19 Q1015=
200809102045 METAR LIRA 102045Z 18002KT CAVOK 24/20 Q1015=
200809102015 METAR LIRA 102015Z 00000KT CAVOK 24/20 Q1016=
200809101945 METAR LIRA 101945Z 19002KT CAVOK 25/19 Q1015=
200809101915 METAR LIRA 101915Z 20003KT CAVOK 25/19 Q1015=
200809101845 METAR LIRA 101845Z 24004KT CAVOK 26/17 Q1015=
200809101815 METAR LIRA 101815Z 25005KT CAVOK 27/17 Q1015=
200809101745 METAR LIRA 101745Z 23004KT CAVOK 28/17 Q1015=
200809101715 METAR LIRA 101715Z 21005KT 170V230 CAVOK 29/16 Q1014=
200809101645 METAR LIRA 101645Z 20006KT 180V240 CAVOK 29/16 Q1014=
200809101615 METAR LIRA 101615Z 20007KT 130V260 CAVOK 30/18 Q1014=
200809101545 METAR LIRA 101545Z 22006KT 160V270 CAVOK 31/19 Q1015=
200809101515 METAR LIRA 101515Z 23006KT 180V280 CAVOK 31/18 Q1015=
200809101445 METAR LIRA 101445Z 25007KT 150V270 CAVOK 31/18 Q1015=
200809101415 METAR LIRA 101415Z 21007KT 170V270 CAVOK 31/16 Q1015=
200809101345 METAR LIRA 101345Z 22009KT 160V260 CAVOK 35/16 Q1015=
200809101315 METAR LIRA 101315Z 25008KT 210V310 CAVOK 35/12 Q1015=
200809101245 METAR LIRA 101245Z 32003KT CAVOK 34/13 Q1015=
200809101215 METAR LIRA 101215Z 35003KT CAVOK 34/14 Q1015=
200809101145 METAR LIRA 101145Z 19002KT CAVOK 33/14 Q1015=
200809101115 METAR LIRA 101115Z 01002KT CAVOK 32/14 Q1016=
200809101045 METAR LIRA 101045Z 09002KT CAVOK 31/14 Q1016=
200809101015 METAR LIRA 101015Z 08001KT CAVOK 30/14 Q1016=
200809100945 METAR LIRA 100945Z 13002KT CAVOK 29/14 Q1016=
200809100915 METAR LIRA 100915Z 36003KT CAVOK 29/14 Q1017=
200809100845 METAR LIRA 100845Z 03004KT CAVOK 26/12 Q1017=
200809100815 METAR LIRA 100815Z 36004KT CAVOK 25/12 Q1017=
200809100745 METAR LIRA 100745Z 01003KT CAVOK 22/11 Q1016=
200809100715 METAR LIRA 100715Z 02003KT CAVOK 22/12 Q1016=
200809100645 METAR LIRA 100645Z 06004KT CAVOK 20/11 Q1016=
200809100615 METAR LIRA 100615Z 06003KT CAVOK 19/10 Q1016=
200809100545 METAR LIRA 100545Z 07002KT CAVOK 19/10 Q1016=
200809100515 METAR LIRA 100515Z 06002KT CAVOK 18/10 Q1016=
200809100445 METAR LIRA 100445Z 05003KT CAVOK 18/10 Q1016=
200809100415 METAR LIRA 100415Z 09002KT CAVOK 18/11 Q1016=
200809100345 METAR LIRA 100345Z 06003KT CAVOK 18/10 Q1016=
200809100315 METAR LIRA 100315Z 03003KT CAVOK 19/10 Q1016=
200809100245 METAR LIRA 100245Z 06003KT CAVOK 19/10 Q1016=
200809100215 METAR LIRA 100215Z 05003KT CAVOK 19/09 Q1016=
200809100145 METAR LIRA 100145Z 04004KT CAVOK 20/09 Q1016=
200809100115 METAR LIRA 100115Z 03003KT CAVOK 20/09 Q1016=
200809100045 METAR LIRA 100045Z 04003KT CAVOK 21/09 Q1016=
200809100015 METAR LIRA 100015Z 06002KT CAVOK 20/08 Q1016=
200809092345 METAR LIRA 092345Z 03001KT CAVOK 21/08 Q1017=
200809092315 METAR LIRA 092315Z 07001KT CAVOK 22/09 Q1017=
200809092245 METAR LIRA 092245Z 00000KT CAVOK 22/09 Q1017=
200809092215 METAR LIRA 092215Z 00000KT CAVOK 22/09 Q1017=
200809092145 METAR LIRA 092145Z 06002KT CAVOK 22/07 Q1017=
200809092115 METAR LIRA 092115Z 17002KT CAVOK 23/08 Q1017=
200809092045 METAR LIRA 092045Z 16001KT CAVOK 24/08 Q1017=
200809092015 METAR LIRA 092015Z 15002KT CAVOK 24/11 Q1017=
200809091945 METAR LIRA 091945Z 11004KT CAVOK 25/16 Q1017=
200809091915 METAR LIRA 091915Z 17004KT CAVOK 25/17 Q1017=
200809091845 METAR LIRA 091845Z 19004KT CAVOK 25/16 Q1016=
200809091815 METAR LIRA 091815Z 20004KT CAVOK 25/16 Q1016=
200809091745 METAR LIRA 091745Z 23003KT CAVOK 27/11 Q1016=
200809091715 METAR LIRA 091715Z 23004KT CAVOK 27/11 Q1016=
200809091645 METAR LIRA 091645Z 24005KT 210V280 CAVOK 29/09 Q1016=
200809091615 METAR LIRA 091615Z 27004KT 210V360 CAVOK 29/09 Q1016=
200809091545 METAR LIRA 091545Z 27006KT 180V310 CAVOK 30/10 Q1016=
200809091445 METAR LIRA 091445Z 27008KT 210V320 CAVOK 31/11 Q1016=
200809091415 METAR LIRA 091415Z 27008KT 230V320 CAVOK 32/08 Q1016=
200809091345 METAR LIRA 091345Z 29009KT 210V340 CAVOK 32/08 Q1016=
200809091315 METAR LIRA 091315Z 29005KT 260V020 CAVOK 33/05 Q1017=
200809091245 METAR LIRA 091245Z 31001KT 260V320 CAVOK 32/04 Q1017=
200809091215 METAR LIRA 091215Z 10003KT CAVOK 31/04 Q1017=
200809091145 METAR LIRA 091145Z 34004KT 280V040 CAVOK 30/04 Q1017=
200809091115 METAR LIRA 091115Z 30005KT 260V020 CAVOK 30/07 Q1018=
200809091045 METAR LIRA 091045Z 30006KT 240V340 CAVOK 29/07 Q1018=
200809091015 METAR LIRA 091015Z 32005KT 280V360 CAVOK 28/09 Q1018=
200809090945 METAR LIRA 090945Z 34004KT CAVOK 27/13 Q1018=
200809090915 METAR LIRA 090915Z 36003KT CAVOK 25/12 Q1018=
200809090845 METAR LIRA 090845Z 02004KT CAVOK 24/13 Q1018=
200809090815 METAR LIRA 090815Z 03005KT 350V090 CAVOK 23/12 Q1018=
200809090745 METAR LIRA 090745Z 04004KT 330V090 CAVOK 22/12 Q1018=
200809090715 METAR LIRA 090715Z 03004KT 300V060 CAVOK 20/12 Q1018=
200809090645 METAR LIRA 090645Z 03004KT 360V080 CAVOK 20/12 Q1018=
200809090615 METAR LIRA 090615Z 06005KT CAVOK 18/12 Q1018=
200809090545 METAR LIRA 090545Z 05003KT CAVOK 16/11 Q1018=
200809090515 METAR LIRA 090515Z 06004KT CAVOK 17/12 Q1017=
200809090445 METAR LIRA 090445Z 06004KT CAVOK 17/13 Q1017=
200809090415 METAR LIRA 090415Z 06004KT CAVOK 18/13 Q1017=
200809090345 METAR LIRA 090345Z 04004KT CAVOK 18/12 Q1017=
200809090315 METAR LIRA 090315Z 04003KT CAVOK 19/13 Q1017=
200809090245 METAR LIRA 090245Z 02006KT 350V060 CAVOK 19/13 Q1017=
200809090215 METAR LIRA 090215Z 03005KT 350V080 CAVOK 19/13 Q1017=
200809090145 METAR LIRA 090145Z 05005KT CAVOK 19/13 Q1017=
200809090115 METAR LIRA 090115Z 05004KT CAVOK 19/13 Q1017=
200809090045 METAR LIRA 090045Z 05004KT CAVOK 19/12 Q1017=
200809090015 METAR LIRA 090015Z 05003KT CAVOK 20/13 Q1016=
200809082345 METAR LIRA 082345Z 10003KT CAVOK 20/13 Q1016=
200809082315 METAR LIRA 082315Z 00000KT CAVOK 20/12 Q1016=
200809082245 METAR LIRA 082245Z 00000KT CAVOK 21/13 Q1016=
200809082215 METAR LIRA 082215Z 00000KT CAVOK 21/14 Q1017=
200809082145 METAR LIRA 082145Z 17002KT CAVOK 22/14 Q1016=
200809082115 METAR LIRA 082115Z 17002KT CAVOK 23/14 Q1016=
200809082045 METAR LIRA 082045Z 19004KT CAVOK 23/14 Q1016=
200809082015 METAR LIRA 082015Z 16003KT CAVOK 23/14 Q1016=
200809081945 METAR LIRA 081945Z 19004KT CAVOK 24/14 Q1016=
200809081915 METAR LIRA 081915Z 21003KT CAVOK 24/14 Q1016=
200809081845 METAR LIRA 081845Z 19005KT CAVOK 25/12 Q1015=
200809081815 METAR LIRA 081815Z 21004KT 9999 FEW070 26/12 Q1015=
200809081745 METAR LIRA 081745Z 20003KT 9999 FEW060 27/12 Q1015=
200809081715 METAR LIRA 081715Z 25004KT 9999 FEW030 28/11 Q1015=
200809081645 METAR LIRA 081645Z 27006KT 220V310 9999 FEW020 29/10 Q1015=
200809081615 METAR LIRA 081615Z 27005KT 200V340 9999 FEW020 29/12 Q1014=
200809081545 METAR LIRA 081545Z 25008KT 220V330 9999 FEW025 29/16 Q1015=
200809081515 METAR LIRA 081515Z 29009KT 210V330 9999 FEW025 29/16 Q1015=
200809081445 METAR LIRA 081445Z 29007KT 230V330 9999 FEW025 30/17 Q1015=
200809081415 METAR LIRA 081415Z 26008KT 210V300 9999 FEW025 30/15 Q1015=
200809081345 METAR LIRA 081345Z 24008KT 180V270 9999 FEW025 31/09 Q1015=
200809081315 METAR LIRA 081315Z 23007KT 180V270 9999 FEW025 31/10 Q1015=
200809081245 METAR LIRA 081245Z 24009KT 170V270 9999 FEW020 31/14 Q1015=
200809081215 METAR LIRA 081215Z 21010KT 140V260 9999 FEW020 30/15 Q1015=
200809081145 METAR LIRA 081145Z 20007KT 160V240 9999 FEW020 31/17 Q1015=
200809081115 METAR LIRA 081115Z 23008KT 180V280 9999 FEW020 30/17 Q1015=
200809081045 METAR LIRA 081045Z 20007KT 150V260 9999 SCT020 30/17 Q1015=
200809081015 METAR LIRA 081015Z 21008KT 150V260 9999 SCT020 30/18 Q1015=
200809080945 METAR LIRA 080945Z 20010KT 120V230 9999 SCT020 29/18 Q1015=
200809080915 METAR LIRA 080915Z 19018KT 130V240 9999 SCT020 29/19 Q1015=
200809080845 METAR LIRA 080845Z 20006KT 140V240 9999 FEW020 28/20 Q1015=
200809080815 METAR LIRA 080815Z 16003KT 120V210 9999 FEW020 27/20 Q1015=
200809080745 METAR LIRA 080745Z 16003KT 9999 FEW020 26/22 Q1015=
200809080715 METAR LIRA 080715Z 19005KT 9999 FEW020 25/22 Q1014=
200809080645 METAR LIRA 080645Z 19004KT 9999 FEW020 24/22 Q1014=
200809080615 METAR LIRA 080615Z 17004KT 9999 FEW020 24/21 Q1014=
200809080545 METAR LIRA 080545Z 21002KT 9999 FEW020 24/21 Q1014=
200809080515 METAR LIRA 080515Z 21002KT 9999 FEW020 23/20 Q1014=
200809080445 METAR LIRA 080445Z 20002KT 9999 FEW020 23/21 Q1013=
200809080415 METAR LIRA 080415Z 16003KT 9999 FEW020 24/21 Q1013=
200809080345 METAR LIRA 080345Z 15004KT 9999 SCT004 SCT070 24/21 Q1013=
200809080315 METAR LIRA 080315Z 20001KT 9999 SCT004 SCT070 24/21 Q1013=
200809080245 METAR LIRA 080245Z 19001KT 9999 SCT004 SCT070 24/22 Q1013=
200809080215 METAR LIRA 080215Z 12003KT 9999 SCT004 SCT070 24/21 Q1013=
200809080145 METAR LIRA 080145Z 00000KT 9999 SCT004 SCT070 24/21 Q1014=
200809080115 METAR LIRA 080115Z 00000KT 9999 SCT002 SCT070 24/22 Q1013=
200809080045 METAR LIRA 080045Z 00000KT 9999 SCT002 SCT070 24/22 Q1013=
200809080015 METAR LIRA 080015Z 20001KT 9999 SCT002 SCT070 24/22 Q1013=
200809072350 METAR LIRA 080045Z 00000KT 9999 SCT002 SCT070 24/22 Q1013=
200809072315 METAR LIRA 072315Z 20002KT 9999 SCT002 SCT070 24/23 Q1013=
200809072245 METAR LIRA 072245Z 18003KT 9999 FEW070 24/22 Q1013=
200809072215 METAR LIRA 072215Z 19003KT 9999 FEW080 24/21 Q1013=
200809072145 METAR LIRA 072145Z 24003KT 9999 FEW070 25/21 Q1013=
200809072115 METAR LIRA 072115Z 27003KT 9999 FEW070 25/20 Q1013=
200809072045 METAR LIRA 072045Z 26002KT 9999 FEW070 26/20 Q1012=
200809072015 METAR LIRA 072015Z 28003KT 9999 FEW070 26/20 Q1012=
200809071945 METAR LIRA 071945Z 00000KT 9999 FEW070 27/18 Q1013=
200809071915 METAR LIRA 071915Z 11005KT 9999 FEW070 27/18 Q1013=
200809071845 METAR LIRA 071845Z 13005KT 9999 FEW070 28/18 Q1013=
200809071815 METAR LIRA 071815Z 17002KT 9999 SCT070 SCT200 29/18 Q1013=
200809071745 METAR LIRA 071745Z 00000KT 9999 SCT080 SCT200 29/18 Q1013=
200809071715 METAR LIRA 071715Z 00000KT 9999 SCT080 SCT200 29/20 Q1013=
200809071645 METAR LIRA 071645Z 28002KT 9999 FEW020 BKN090 30/20 Q1013=
200809071615 METAR LIRA 071615Z 34003KT 9999 FEW020 BKN090 30/25 Q1013=
200809071545 METAR LIRA 071545Z 29008KT 260V330 9999 FEW016 BKN090 30/23
                        Q1013=
200809071515 METAR LIRA 071515Z 28005KT 200V340 9999 FEW016 SCT080 29/22
                        Q1013=
200809071445 METAR LIRA 071445Z 26007KT 220V320 9999 FEW020CB SCT080 30/21
                        Q1013=
200809071415 METAR LIRA 071415Z 27006KT 220V310 9999 FEW020CB SCT040 30/22
                        Q1013=
200809071345 METAR LIRA 071345Z 24009KT 180V310 9999 FEW020CB BKN040 30/21
                        Q1013=
200809071315 METAR LIRA 071315Z 20007KT 160V270 9999 FEW020CB SCT040 30/22
                        Q1013=
200809071245 METAR LIRA 071245Z 20009KT 170V250 9999 FEW020CB SCT040 30/18
                        Q1013=
200809071215 METAR LIRA 071215Z 23011KT 190V290 9999 FEW020CB SCT040 32/18
                        Q1013=
200809071145 METAR LIRA 071145Z 24008KT 190V300 9999 FEW020TCU 33/18 Q1013=
200809071115 METAR LIRA 071115Z 23010KT 180V280 9999 FEW020 SCT070 33/15
                        Q1012=
200809071045 METAR LIRA 071045Z 28011KT 180V310 9999 FEW020 SCT070 34/16
                        Q1012=
200809071015 METAR LIRA 071015Z 25004KT 9999 FEW020 SCT080 33/19 Q1012=
200809070945 METAR LIRA 070945Z 00000KT 9999 FEW020 SCT070 31/19 Q1012=
200809070915 METAR LIRA 070915Z 06003KT 9999 FEW017TCU SCT070 31/21 Q1012=
200809070845 METAR LIRA 070845Z 07006KT 290V130 9999 FEW020 SCT080 30/23
                        Q1012=
200809070815 METAR LIRA 070815Z 21006KT 120V250 9999 FEW020 SCT070 28/23
                        Q1013=
200809070745 METAR LIRA 070745Z 18005KT 120V200 9999 FEW020 SCT070 26/23
                        Q1013=
200809070715 METAR LIRA 070715Z 17006KT 130V230 9999 FEW020 26/21 Q1013=
200809070645 METAR LIRA 070645Z 17008KT 130V190 9999 FEW020 SCT200 25/20
                        Q1013=
200809070615 METAR LIRA 070615Z 16005KT 140V200 9999 FEW016TCU SCT200
                        23/19 Q1014=
200809070545 METAR LIRA 070545Z 21005KT 170V260 9999 SCT020 SCT200 23/19
                        Q1014=
200809070515 METAR LIRA 070515Z 16001KT 9999 FEW020 SCT200 22/18 Q1012=
200809070445 METAR LIRA 070445Z 12003KT CAVOK 22/18 Q1012=
200809070415 METAR LIRA 070415Z 07004KT CAVOK 23/17 Q1012=
200809070345 METAR LIRA 070345Z 30001KT CAVOK 24/15 Q1011=
200809070315 METAR LIRA 070315Z 00000KT CAVOK 24/15 Q1011=
200809070245 METAR LIRA 070245Z 00000KT CAVOK 25/15 Q1012=
200809070215 METAR LIRA 070215Z 02002KT 9999 FEW080 25/12 Q1012=
200809070145 METAR LIRA 070145Z 00000KT 9999 FEW080 26/13 Q1012=
200809070115 METAR LIRA 070115Z 00000KT 9999 FEW080 26/13 Q1012=
200809070045 METAR LIRA 070045Z 18007KT 120V230 9999 FEW035 27/13 Q1012=
200809070015 METAR LIRA 070015Z 16006KT 120V220 9999 FEW035 27/13 Q1012=
200809062345 METAR LIRA 062345Z 20008KT 120V240 9999 FEW035 27/13 Q1012=
200809062315 METAR LIRA 062315Z 14011KT 120V180 9999 FEW035 28/12 Q1012=
200809062245 METAR LIRA 062245Z 15014KT 130V190 9999 FEW035 28/13 Q1012=
200809062215 METAR LIRA 062215Z 16013KT 140V200 9999 FEW035 28/19 Q1012=
200809062145 METAR LIRA 062145Z 15007KT CAVOK 28/13 Q1012=
200809062115 METAR LIRA 062115Z 17009KT 130V210 CAVOK 28/12 Q1012=
200809062100 LIRA CONTUS LOW CLDS OVHD=
200809062045 METAR LIRA 062045Z 16011KT CAVOK 28/12 Q1012=
200809062015 METAR LIRA 062015Z 18008KT 160V220 CAVOK 28/12 Q1012=
200809061945 METAR LIRA 061945Z 20008KT 150V250 CAVOK 29/13 Q1012=
200809061915 METAR LIRA 061915Z 21006KT 180V240 9999 FEW080 SCT200 29/14
                        Q1012=
200809061845 METAR LIRA 061845Z 17003KT 9999 FEW080 SCT200 29/18 Q1012=
200809061815 METAR LIRA 061815Z 21006KT 180V240 9999 FEW080 SCT200 30/16
                        Q1012=
200809061745 METAR LIRA 061745Z 20002KT 9999 FEW080 SCT200 30/18 Q1012=
200809061715 METAR LIRA 061715Z 17008KT 120V220 CAVOK 31/17 Q1012=
200809061645 METAR LIRA 061645Z 17009KT 120V220 CAVOK 32/16 Q1012=
200809061615 METAR LIRA 061615Z 17015KT 140V200 CAVOK 32/16 Q1012=
200809061545 METAR LIRA 061545Z 17017KT 120V210 CAVOK 32/16 Q1011=
200809061515 METAR LIRA 061515Z 15024KT CAVOK 32/17 Q1012=
200809061445 METAR LIRA 061445Z 17018KT CAVOK 32/17 Q1013=
200809061415 METAR LIRA 061415Z 20015KT 150V250 CAVOK 32/17 Q1013=
200809061345 METAR LIRA 061345Z 19015KT 130V240 CAVOK 32/17 Q1013=
200809061315 METAR LIRA 061315Z 21014KT 150V240 CAVOK 33/16 Q1013=
200809061245 METAR LIRA 061245Z 18015KT 140V230 CAVOK 34/14 Q1013=
200809061215 METAR LIRA 061215Z 19015KT 130V230 9999 SCT070 33/13 Q1013=
200809061145 METAR LIRA 061145Z 16014KT 9999 SCT070 34/10 Q1013=
200809061115 METAR LIRA 061115Z 16016KT 120V200 9999 BKN080 34/10 Q1013=
200809061045 METAR LIRA 061045Z 17013KT 120V210 9999 FEW080 SCT200 33/09
                        Q1014=
200809061015 METAR LIRA 061015Z 15013KT 9999 FEW080 BKN200 33/09 Q1014=
200809060945 METAR LIRA 060945Z 17015KT 130V210 9999 FEW080 BKN200 33/09
                        Q1014=
200809060915 METAR LIRA 060915Z 06007KT 360V120 CAVOK 32/06 Q1014=
200809060845 METAR LIRA 060845Z 13012KT CAVOK 32/07 Q1014=
200809060815 METAR LIRA 060815Z 16009KT 120V200 CAVOK 30/07 Q1014=
200809060745 METAR LIRA 060745Z 15009KT 110V200 CAVOK 27/13 Q1014=
200809060715 METAR LIRA 060715Z 00000KT CAVOK 27/13 Q1014=
200809060645 METAR LIRA 060645Z 04002KT CAVOK 26/13 Q1014=
200809060615 METAR LIRA 060615Z 06003KT 010V110 CAVOK 25/10 Q1013=
200809060545 METAR LIRA 060545Z 34004KT 300V020 9999 FEW070 29/06 Q1013=
200809060515 METAR LIRA 060515Z 17005KT 140V240 CAVOK 29/06 Q1013=
200809060445 METAR LIRA 060445Z 14010KT CAVOK 28/07 Q1013=
200809060415 METAR LIRA 060415Z 17008KT 140V230 9999 FEW080 27/07 Q1013=
200809060345 METAR LIRA 060345Z 14006KT 110V170 9999 FEW020 27/08 Q1014=
200809060315 METAR LIRA 060315Z 14008KT 9999 FEW020 27/07 Q1014=
200809060245 METAR LIRA 060245Z 16008KT CAVOK 27/07 Q1014=
200809060215 METAR LIRA 060215Z 16008KT 120V200 9999 FEW070 28/07 Q1014=
200809060145 METAR LIRA 060145Z 17008KT 120V220 CAVOK 28/09 Q1014=
200809060115 METAR LIRA 060115Z 15009KT CAVOK 26/11 Q1014=
200809060045 METAR LIRA 060045Z 17007KT 130V200 CAVOK 26/14 Q1014=
200809060015 METAR LIRA 060015Z 16009KT 120V180 CAVOK 26/14 Q1014=
200809052350 METAR LIRA 060045Z 17007KT 130V200 CAVOK 26/14 Q1014=
200809052215 METAR LIRA 052215Z 14008KT CAVOK 26/19 Q1014=
200809052145 METAR LIRA 052145Z 18005KT 140V210 CAVOK 25/19 Q1015=
200809052115 METAR LIRA 052115Z 17009KT CAVOK 25/19 Q1015=
200809052045 METAR LIRA 052045Z 20007KT 180V240 CAVOK 26/21 Q1015=
200809052015 METAR LIRA 052015Z 19008KT 150V220 CAVOK 26/21 Q1014=
200809051945 METAR LIRA 051945Z 18004KT 160V220 CAVOK 26/22 Q1014=
200809051915 METAR LIRA 051915Z 18006KT CAVOK 26/23 Q1014=
200809051845 METAR LIRA 051845Z 19008KT CAVOK 27/22 Q1014=
200809051815 METAR LIRA 051815Z 20008KT CAVOK 27/22 Q1014=
200809051745 METAR LIRA 051745Z 19007KT 160V230 CAVOK 27/22 Q1014=
200809051715 METAR LIRA 051715Z 17013KT CAVOK 28/22 Q1014=
200809051645 METAR LIRA 051645Z 18014KT CAVOK 29/22 Q1014=
200809051615 METAR LIRA 051615Z 18014KT 150V230 CAVOK 29/21 Q1014=
200809051545 METAR LIRA 051545Z 18013KT 130V220 9999 FEW018 SCT200 30/20
                        Q1014=
200809051515 METAR LIRA 051515Z 17013KT 130V200 9999 FEW018 SCT200 30/20
                        Q1014=
200809051445 METAR LIRA 051445Z 17015KT 140V230 9999 FEW080 SCT200 30/19
                        Q1014=
200809051415 METAR LIRA 051415Z 19012KT 120V220 CAVOK 31/19 Q1014=
200809051345 METAR LIRA 051345Z 18014KT 140V230 CAVOK 31/19 Q1014=
200809051315 METAR LIRA 051315Z 18014KT 120V210 CAVOK 31/17 Q1014=
200809051245 METAR LIRA 051245Z 20012KT 160V230 CAVOK 32/17 Q1014=
200809051215 METAR LIRA 051215Z 18013KT 150V230 CAVOK 32/19 Q1014=
200809051145 METAR LIRA 051145Z 19011KT 150V240 CAVOK 31/18 Q1015=
200809051115 METAR LIRA 051115Z 21009KT 150V250 CAVOK 31/19 Q1015=
200809051045 METAR LIRA 051045Z 18012KT 150V210 9999 FEW018 SCT200 30/19
                        Q1015=
200809051015 METAR LIRA 051015Z 18014KT 140V220 9999 FEW018 SCT200 30/20
                        Q1015=
200809050945 METAR LIRA 050945Z 17013KT 9999 FEW018 BKN200 28/19 Q1015=
200809050915 METAR LIRA 050915Z 17014KT 120V200 9999 FEW018 BKN200 29/20
                        Q1015=
200809050845 METAR LIRA 050845Z 15012KT 120V190 9999 FEW018 SCT200 28/19
                        Q1015=
200809050815 METAR LIRA 050815Z 15010KT 100V180 CAVOK 28/20 Q1015=
200809050745 METAR LIRA 050745Z 15010KT 110V180 9999 FEW018 SCT200 26/20
                        Q1015=
200809050715 METAR LIRA 050715Z 14008KT 110V170 9999 FEW018 SCT200 26/21
                        Q1015=
200809050645 METAR LIRA 050645Z 14009KT 110V180 9999 FEW017 SCT200 25/20
                        Q1015=
200809050615 METAR LIRA 050615Z 15011KT 100V190 9999 SCT017 24/20 Q1015=
200809050545 METAR LIRA 050545Z 15010KT 130V190 9999 FEW017 SCT090 24/20
                        Q1015=
200809050515 METAR LIRA 050515Z 14010KT 120V180 8000 FEW017 SCT090 24/21
                        Q1015=
200809050445 METAR LIRA 050445Z 15009KT 100V170 8000 FEW017 SCT200 23/20
                        Q1014=
200809050415 METAR LIRA 050415Z 15009KT 090V190 9999 FEW035 SCT200 23/20
                        Q1014=
200809050345 METAR LIRA 050345Z 21006KT 160V250 9999 FEW035 22/18 Q1014=
200809050315 METAR LIRA 050315Z 21001KT 9999 FEW035 SCT200 22/18 Q1014=
200809050245 METAR LIRA 050245Z 11002KT 9999 FEW070 SCT200 22/19 Q1014=
200809050215 METAR LIRA 050215Z 08004KT 100V170 9999 BKN060 23/19 Q1014=
200809050145 METAR LIRA 050145Z 04003KT 9999 BKN060 22/20 Q1014=
200809050115 METAR LIRA 050115Z 21001KT 9999 SCT060 23/21 Q1014=
200809050045 METAR LIRA 050045Z 14008KT 9999 SCT060 23/21 Q1014=
200809050015 METAR LIRA 050015Z 15010KT 9999 BKN060 23/21 Q1014=
200809042350 METAR LIRA 050045Z 14008KT 9999 SCT060 23/21 Q1014=
200809042345 METAR LIRA 042345Z 15009KT 9999 FEW070 23/20 Q1014=
200809042315 METAR LIRA 042315Z 23012KT CAVOK 23/19 Q1014=
200809042245 METAR LIRA 042245Z 20003KT CAVOK 23/19 Q1014=
200809042215 METAR LIRA 042215Z 20004KT CAVOK 23/20 Q1014=
200809042145 METAR LIRA 042145Z 20008KT 170V230 CAVOK 23/20 Q1014=
200809042115 METAR LIRA 042115Z 17004KT 120V190 CAVOK 23/20 Q1014=
200809042045 METAR LIRA 042045Z 16003KT CAVOK 23/20 Q1014=
200809042015 METAR LIRA 042015Z 20005KT CAVOK 23/20 Q1014=
200809041945 METAR LIRA 041945Z 18003KT CAVOK 24/20 Q1014=
200809041915 METAR LIRA 041915Z 19007KT CAVOK 24/20 Q1014=
200809041845 METAR LIRA 041845Z 19007KT 130V230 CAVOK 24/20 Q1013=
200809041815 METAR LIRA 041815Z 18004KT CAVOK 25/20 Q1013=
200809041745 METAR LIRA 041745Z 21007KT 180V260 CAVOK 26/19 Q1013=
200809041715 METAR LIRA 041715Z 21009KT 160V250 CAVOK 26/19 Q1013=
200809041645 METAR LIRA 041645Z 21007KT 180V240 CAVOK 27/18 Q1013=
200809041615 METAR LIRA 041615Z 22007KT 160V300 CAVOK 28/18 Q1014=
200809041545 METAR LIRA 041545Z 22006KT 170V280 9999 FEW020 29/17 Q1014=
200809041515 METAR LIRA 041515Z 22008KT 170V280 9999 FEW020 30/18 Q1014=
200809041445 METAR LIRA 041445Z 21009KT 170V260 9999 FEW020 29/18 Q1014=
200809041415 METAR LIRA 041415Z 21008KT 170V260 9999 FEW020 30/18 Q1014=
200809041345 METAR LIRA 041345Z 21009KT 160V280 9999 FEW020 29/16 Q1014=
200809041315 METAR LIRA 041315Z 22009KT 160V280 9999 FEW020 29/17 Q1014=
200809041245 METAR LIRA 041245Z 20009KT 170V270 9999 FEW020 30/18 Q1014=
200809041215 METAR LIRA 041215Z 23006KT 160V260 9999 SCT020 29/20 Q1014=
200809041145 METAR LIRA 041145Z 22010KT 160V280 9999 SCT020 29/20 Q1014=
200809041115 METAR LIRA 041115Z 24010KT 160V310 9999 SCT020 30/15 Q1014=
200809041045 METAR LIRA 041045Z 18009KT 160V270 9999 FEW020 30/14 Q1014=
200809041015 METAR LIRA 041015Z 20008KT 150V270 9999 FEW020 SCT200 29/16
                        Q1014=
200809040945 METAR LIRA 040945Z 21007KT 160V260 9999 FEW020 SCT200 28/16
                        Q1014=
200809040915 METAR LIRA 040915Z 22010KT 140V250 9999 FEW020 SCT200 27/15
                        Q1014=
200809040845 METAR LIRA 040845Z 19006KT 120V230 CAVOK 22/14 Q1014=
200809040815 METAR LIRA 040815Z 08003KT CAVOK 21/14 Q1014=
200809040745 METAR LIRA 040745Z 33001KT CAVOK 22/17 Q1014=
200809040715 METAR LIRA 040715Z 34002KT CAVOK 22/17 Q1014=
200809040645 METAR LIRA 040645Z 04003KT CAVOK 20/16 Q1014=
200809040615 METAR LIRA 040615Z 04002KT CAVOK 19/16 Q1014=
200809040545 METAR LIRA 040545Z 00000KT CAVOK 18/15 Q1014=
200809040515 METAR LIRA 040515Z 13003KT CAVOK 18/16 Q1014=
200809040445 METAR LIRA 040445Z 00000KT CAVOK 19/16 Q1014=
200809040415 METAR LIRA 040415Z 12002KT CAVOK 19/16 Q1014=
200809040345 METAR LIRA 040345Z 14003KT CAVOK 19/16 Q1014=
200809040315 METAR LIRA 040315Z 12005KT CAVOK 19/16 Q1014=
200809040245 METAR LIRA 040245Z 00000KT CAVOK 19/17 Q1014=
200809040215 METAR LIRA 040215Z 11005KT CAVOK 19/16 Q1013=
200809040145 METAR LIRA 040145Z 11006KT CAVOK 20/16 Q1014=
200809040115 METAR LIRA 040115Z 11005KT CAVOK 20/16 Q1014=
200809040045 METAR LIRA 040045Z 12004KT CAVOK 20/14 Q1014=
200809040015 METAR LIRA 040015Z 13002KT CAVOK 21/15 Q1014=
200809032345 METAR LIRA 032345Z 15002KT CAVOK 21/16 Q1014=
200809032315 METAR LIRA 032315Z 19002KT CAVOK 20/17 Q1014=
200809032245 METAR LIRA 032245Z 13004KT CAVOK 21/17 Q1014=
200809032215 METAR LIRA 032215Z 11006KT CAVOK 21/18 Q1014=
200809032145 METAR LIRA 032145Z 11003KT CAVOK 22/19 Q1014=
200809032115 METAR LIRA 032115Z 22001KT CAVOK 22/20 Q1014=
200809032045 METAR LIRA 032045Z 15001KT CAVOK 23/20 Q1014=
200809032015 METAR LIRA 032015Z 16002KT 9999 FEW025 24/21 Q1014=
200809031945 METAR LIRA 031945Z 21002KT 9999 FEW025 24/21 Q1014=
200809031915 METAR LIRA 031915Z 22004KT 9999 FEW060 23/21 Q1014=
200809031845 METAR LIRA 031845Z 23003KT 9999 FEW025 24/21 Q1014=
200809031815 METAR LIRA 031815Z 24003KT 9999 FEW020 24/21 Q1013=
200809031745 METAR LIRA 031745Z 24005KT 200V270 9999 FEW020 26/20 Q1014=
200809031715 METAR LIRA 031715Z 23003KT 180V260 9999 FEW020 26/21 Q1013=
200809031645 METAR LIRA 031645Z 22006KT 170V260 CAVOK 27/19 Q1014=
200809031615 METAR LIRA 031615Z 22006KT 160V280 9999 FEW020 28/19 Q1014=
200809031545 METAR LIRA 031545Z 24009KT 190V280 9999 FEW020 29/19 Q1014=
200809031515 METAR LIRA 031515Z 24010KT 180V290 9999 FEW020TCU 29/18 Q1014=
200809031445 METAR LIRA 031445Z 24010KT 190V300 9999 FEW018 FEW020TCU
                        30/17 Q1014=
200809031415 METAR LIRA 031415Z 24010KT 180V300 9999 FEW018 FEW020TCU
                        31/16 Q1014=
200809031345 METAR LIRA 031345Z 23007KT 180V300 9999 FEW018 FEW020TCU
                        31/16 Q1014=
200809031315 METAR LIRA 031315Z 24005KT 170V300 9999 FEW018 FEW020TCU
                        31/16 Q1014=
200809031245 METAR LIRA 031245Z 22008KT 180V310 9999 FEW018 FEW020TCU
                        30/14 Q1014=
200809031215 METAR LIRA 031215Z 25008KT 180V310 9999 FEW018 FEW020TCU
                        31/15 Q1014=
200809031145 METAR LIRA 031145Z 25007KT 190V300 9999 FEW018 FEW020TCU
                        30/14 Q1014=
200809031115 METAR LIRA 031115Z 30005KT 230V320 9999 FEW018 FEW020TCU
                        30/15 Q1014=
200809031045 METAR LIRA 031045Z 26006KT 180V310 9999 FEW018 FEW020TCU
                        29/16 Q1015=
200809031015 METAR LIRA 031015Z 28004KT 9999 FEW018 FEW020TCU 29/17 Q1015=
200809030945 METAR LIRA 030945Z 26002KT 9999 FEW018 27/18 Q1015=
200809030915 METAR LIRA 030915Z 22001KT 9999 FEW018 27/18 Q1015=
200809030845 METAR LIRA 030845Z 32002KT 9999 FEW021 26/18 Q1015=
200809030815 METAR LIRA 030815Z 01004KT 9999 FEW021 24/18 Q1015=
200809030745 METAR LIRA 030745Z 06004KT 8000 FEW021 23/19 Q1015=
200809030715 METAR LIRA 030715Z 06002KT 8000 FEW021 22/18 Q1015=
200809030700 METAR LIRA INTER CB NW/SE/NE=
200809030645 METAR LIRA 030645Z 04003KT 8000 SKC 21/18 Q1015=
200809030615 METAR LIRA 030615Z 07003KT 8000 SKC 20/18 Q1015=
200809030545 METAR LIRA 030545Z 05002KT 8000 SKC 19/17 Q1015=
200809030515 METAR LIRA 030515Z 04002KT 8000 SKC 19/18 Q1014=
200809030445 METAR LIRA 030445Z 05003KT 8000 SKC 20/18 Q1014=
200809030415 METAR LIRA 030415Z 34002KT 8000 SKC 20/18 Q1014=
200809030345 METAR LIRA 030345Z 30001KT 8000 SKC 20/18 Q1014=
200809030315 METAR LIRA 030315Z 00000KT 8000 SKC 20/19 Q1014=
200809030245 METAR LIRA 030245Z 00000KT CAVOK 21/19 Q1014=
200809030215 METAR LIRA 030215Z 10003KT CAVOK 21/19 Q1014=
200809030145 METAR LIRA 030145Z 09002KT CAVOK 21/19 Q1014=
200809030115 METAR LIRA 030115Z 00000KT CAVOK 21/19 Q1014=
200809030045 METAR LIRA 030045Z 11003KT CAVOK 21/18 Q1014=
200809030015 METAR LIRA 030015Z 14001KT CAVOK 21/18 Q1015=
200809022345 METAR LIRA 022345Z 16001KT CAVOK 21/19 Q1015=
200809022315 METAR LIRA 022315Z 14002KT CAVOK 22/20 Q1015=
200809022245 METAR LIRA 022245Z 12002KT CAVOK 22/20 Q1015=
200809022215 METAR LIRA 022215Z 12004KT CAVOK 22/20 Q1015=
200809022145 METAR LIRA 022145Z 18002KT CAVOK 22/20 Q1015=
200809022115 METAR LIRA 022115Z 23002KT CAVOK 23/20 Q1015=
200809022045 METAR LIRA 022045Z 24003KT CAVOK 23/20 Q1015=
200809022015 METAR LIRA 022015Z 24002KT CAVOK 23/20 Q1015=
200809021945 METAR LIRA 021945Z 00000KT 9999 FEW020 24/20 Q1015=
200809021915 METAR LIRA 021915Z 24002KT 9999 FEW020 24/19 Q1014=
200809021845 METAR LIRA 021845Z 22003KT 9999 FEW020TCU 24/19 Q1014=
200809021815 METAR LIRA 021815Z 25003KT 9999 FEW020CB 25/19 Q1014=
200809021745 METAR LIRA 021745Z 23004KT 9999 FEW020CB 26/19 Q1014=
200809021715 METAR LIRA 021715Z 24005KT 210V280 9999 FEW018 FEW020CB 27/19
                        Q1013=
200809021645 METAR LIRA 021645Z 24005KT 200V300 9999 FEW017 FEW020CB 28/19
                        Q1013=
200809021615 METAR LIRA 021615Z 25006KT 200V300 9999 FEW020TCU 28/19 Q1013=
200809021545 METAR LIRA 021545Z 23008KT 190V320 9999 FEW018 FEW020TCU
                        29/19 Q1013=
200809021515 METAR LIRA 021515Z 21007KT 170V270 9999 FEW018 FEW020TCU
                        29/19 Q1013=
200809021445 METAR LIRA 021445Z 23006KT 190V310 9999 FEW018 FEW020TCU
                        29/19 Q1013=
200809021415 METAR LIRA 021415Z 25009KT 170V280 9999 SCT018 FEW020TCU
                        29/19 Q1014=
200809021345 METAR LIRA 021345Z 27007KT 180V320 9999 SCT018 FEW020TCU
                        29/19 Q1014=
200809021315 METAR LIRA 021315Z 20006KT 170V260 9999 SCT018 FEW020TCU
                        30/19 Q1014=
200809021245 METAR LIRA 021245Z 23008KT 170V310 9999 SCT020 29/19 Q1014=
200809021215 METAR LIRA 021215Z 27007KT 200V300 9999 SCT020 28/17 Q1014=
200809021145 METAR LIRA 021145Z 23005KT 180V290 9999 SCT020 30/17 Q1014=
200809021115 METAR LIRA 021115Z 19004KT 150V240 9999 SCT020 30/16 Q1015=
200809021045 METAR LIRA 021045Z 19005KT 150V240 9999 SCT020 30/17 Q1015=
200809021015 METAR LIRA 021015Z 20008KT 130V230 9999 SCT020 29/16 Q1015=
200809020945 METAR LIRA 020945Z 25003KT 9999 SCT020 28/16 Q1015=
200809020915 METAR LIRA 020915Z 17005KT 9999 FEW020 28/15 Q1015=
200809020845 METAR LIRA 020845Z 21004KT 150V250 9999 FEW020 27/17 Q1015=
200809020815 METAR LIRA 020815Z 23005KT 9999 FEW020 26/17 Q1015=
200809020745 METAR LIRA 020745Z 19005KT CAVOK 25/15 Q1015=
200809020715 METAR LIRA 020715Z 24003KT CAVOK 24/14 Q1015=
200809020645 METAR LIRA 020645Z 00000KT CAVOK 21/13 Q1015=
200809020615 METAR LIRA 020615Z 09002KT CAVOK 21/14 Q1015=
200809020545 METAR LIRA 020545Z 05002KT CAVOK 20/14 Q1015=
200809020515 METAR LIRA 020515Z 12004KT CAVOK 20/14 Q1015=
200809020445 METAR LIRA 020445Z 09003KT 9999 FEW070 20/16 Q1015=
200809020415 METAR LIRA 020415Z 00000KT 9999 FEW070 20/16 Q1015=
200809020345 METAR LIRA 020345Z 09001KT 9999 FEW018 20/16 Q1015=
200809020315 METAR LIRA 020315Z 15002KT 9999 FEW018 20/17 Q1015=
200809020245 METAR LIRA 020245Z 10002KT 9999 FEW018 21/17 Q1015=
200809020215 METAR LIRA 020215Z 13003KT 9999 FEW018 21/17 Q1015=
200809020145 METAR LIRA 020145Z 11002KT 9999 FEW018 21/17 Q1015=
200809020115 METAR LIRA 020115Z 12002KT 9999 FEW018 22/18 Q1015=
200809020045 METAR LIRA 020045Z 16002KT CAVOK 22/18 Q1015=
200809020015 METAR LIRA 020015Z 15002KT CAVOK 22/18 Q1015=
200809012345 METAR LIRA 012345Z 15004KT CAVOK 23/17 Q1015=
200809012315 METAR LIRA 012315Z 19003KT 9999 FEW018 24/16 Q1015=
200809012245 METAR LIRA 012245Z 16003KT 9999 FEW018 23/14 Q1015=
200809012215 METAR LIRA 012215Z 12003KT 9999 FEW018 22/17 Q1015=
200809012145 METAR LIRA 012145Z 12004KT 9999 FEW018 23/21 Q1016=
200809012115 METAR LIRA 012115Z 12004KT 9999 FEW018 24/21 Q1016=
200809012045 METAR LIRA 012045Z 16002KT 9999 FEW018 24/22 Q1016=
200809012015 METAR LIRA 012015Z 17002KT 9999 FEW018 24/21 Q1016=
200809011945 METAR LIRA 011945Z 20003KT 9999 FEW018 24/21 Q1015=
200809011915 METAR LIRA 011915Z 23002KT 9999 FEW018 25/21 Q1015=
200809011845 METAR LIRA 011845Z 23002KT 9999 FEW070 25/20 Q1015=
200809011815 METAR LIRA 011815Z 23003KT 9999 FEW018 SCT070 26/19 Q1015=
200809011745 METAR LIRA 011745Z 23004KT 190V250 9999 FEW018 27/17 Q1015=
200809011715 METAR LIRA 011715Z 24004KT 9999 FEW018 28/13 Q1015=
200809011645 METAR LIRA 011645Z 21004KT 180V270 9999 FEW018 FEW020CB 29/13
                        Q1015=
200809011615 METAR LIRA 011615Z 24007KT 170V270 9999 FEW018 FEW020CB SCT070
                        29/14 Q1015=
200809011545 METAR LIRA 011545Z 23007KT 180V290 9999 FEW018CB FEW020TCU
                        SCT070 29/13 Q1015=
200809011515 METAR LIRA 011515Z 24007KT 180V300 9999 FEW018CB FEW020TCU
                        SCT200 30/10 Q1015=
200809011445 METAR LIRA 011445Z 25007KT 200V300 9999 FEW018CB FEW020TCU
                        30/10 Q1015=
200809011415 METAR LIRA 011415Z 20007KT 160V290 9999 FEW018CB FEW020TCU
                        31/11 Q1015=
200809011345 METAR LIRA 011345Z 25006KT 180V300 9999 FEW018CB FEW020TCU
                        31/10 Q1015=
200809011315 METAR LIRA 011315Z 24004KT 180V270 9999 FEW018TCU 31/12 Q1016=
200809011245 METAR LIRA 011245Z 21007KT 150V290 9999 FEW018TCU 31/11 Q1016=
200809011215 METAR LIRA 011215Z 24006KT 190V290 9999 FEW018TCU 31/11 Q1016=
200809011145 METAR LIRA 011145Z 23006KT 190V290 9999 FEW020 31/11 Q1016=
200809011115 METAR LIRA 011115Z 23003KT 180V300 9999 FEW020 31/15 Q1017=
200809011100 METAR LIRA CONTUS CB N=
200809011045 METAR LIRA 011045Z 18008KT 140V280 9999 FEW020 31/15 Q1017=
200809011015 METAR LIRA 011015Z 25008KT 160V290 9999 FEW020 30/16 Q1017=
200809010945 METAR LIRA 010945Z 20004KT 150V270 9999 FEW018 29/19 Q1017=
200809010915 METAR LIRA 010915Z 17006KT 150V250 9999 FEW018 28/19 Q1016=
200809010845 METAR LIRA 010845Z 25004KT 180V240 9999 FEW018 SCT200 27/18
                        Q1016=
200809010815 METAR LIRA 010815Z 24006KT 190V300 CAVOK 24/19 Q1017=
200809010745 METAR LIRA 010745Z 22004KT 190V270 CAVOK 22/18 Q1016=
200809010715 METAR LIRA 010715Z 21004KT CAVOK 21/17 Q1016=
200809010645 METAR LIRA 010645Z 25002KT CAVOK 20/16 Q1016=
200809010615 METAR LIRA 010615Z 00000KT CAVOK 19/15 Q1016=
200809010545 METAR LIRA 010545Z 00000KT CAVOK 19/14 Q1016=
200809010515 METAR LIRA 010515Z 00000KT 9000 NSC 20/13 Q1015=
200809010500 METAR LIRA INTER CB AQ=
200809010445 METAR LIRA 010445Z 00000KT 8000 FEW080 BKN200 20/15 Q1015=
200809010415 METAR LIRA 010415Z 00000KT 8000 NSC 20/16 Q1015=
200809010345 METAR LIRA 010345Z 12002KT 8000 SKC 21/20 Q1015=
200809010315 METAR LIRA 010315Z 00000KT 8000 SKC 20/19 Q1015=
200809010245 METAR LIRA 010245Z 13002KT 8000 FEW010 22/21 Q1015=
200809010215 METAR LIRA 010215Z 15004KT 6000 SCT004 22/21 Q1015=
200809010145 METAR LIRA 010145Z 00000KT 8000 SKC 23/22 Q1015=
200809010115 METAR LIRA 010115Z 22001KT CAVOK 22/21 Q1015=

</pre>

</body>
</html>
