##########################################################
# Query made at 11/10/2014 15:08:52 UTC
# Time interval: from 09/01/2009 00:00  to 10/01/2009 23:59  UTC
##########################################################

##########################################################
# LIRA, Roma / Ciampino (Italy)
# WMO index: 16239
# Latitude 41-47N. Longitude 012-35E. Altitude 129 m.
##########################################################

###################################
#  METAR/SPECI from LIRA
###################################
200910012350 METAR LIRA 020045Z 01003KT 9000 FEW018 BKN080 19/18 Q1011=
200910012345 METAR LIRA 012345Z 00000KT 9000 FEW018 BKN080 20/18 Q1011=
200910012315 METAR LIRA 012315Z 06004KT 9000 FEW018 SCT080 20/18 Q1011=
200910012245 METAR LIRA 012245Z 04004KT 9000 SCT018 SCT035 BKN080 20/18
                        Q1012=
200910012215 METAR LIRA 012215Z 34002KT 9000 FEW018 SCT040 20/18 Q1012=
200910012145 METAR LIRA 012145Z 17003KT 9000 FEW018 SCT040 20/18 Q1012=
200910012115 METAR LIRA 012115Z 18005KT 9000 FEW018 SCT040 21/19 Q1012=
200910012045 METAR LIRA 012045Z 16005KT 100V190 8000 FEW018 SCT040 21/19
                        Q1012=
200910012015 METAR LIRA 012015Z 18003KT 8000 FEW018 SCT035 BKN080 21/19
                        Q1012=
200910011945 METAR LIRA 011945Z 18003KT 8000 FEW018 SCT035 21/19 Q1012=
200910011915 METAR LIRA 011915Z 18004KT 8000 FEW018 SCT035 21/17 Q1012=
200910011845 METAR LIRA 011845Z 24002KT 8000 FEW018 SCT080 21/17 Q1012=
200910011815 METAR LIRA 011815Z 34001KT 8000 FEW018 SCT080 21/16 Q1012=
200910011745 METAR LIRA 011745Z 31005KT 8000 FEW018 SCT080 21/17 Q1011=
200910011715 METAR LIRA 011715Z 32003KT 8000 FEW018 SCT035 22/16 Q1012=
200910011645 METAR LIRA 011645Z 16001KT 8000 FEW018 SCT035 22/17 Q1012=
200910011615 METAR LIRA 011615Z 12004KT 100V160 8000 FEW018 SCT035 22/17
                        Q1012=
200910011545 METAR LIRA 011545Z 15010KT 110V200 8000 FEW018 SCT035 23/17
                        Q1012=
200910011515 METAR LIRA 011515Z 15010KT 130V210 8000 FEW018 SCT070 23/18
                        Q1012=
200910011445 METAR LIRA 011445Z 15012KT 130V210 8000 FEW018 SCT070 23/18
                        Q1013=
200910011415 METAR LIRA 011415Z 17011KT 130V210 8000 FEW020 SCT070 23/19
                        Q1013=
200910011345 METAR LIRA 011345Z 17013KT 8000 FEW020 BKN070 23/18 Q1013=
200910011315 METAR LIRA 011315Z 18011KT 130V230 8000 FEW020 BKN080 24/18
                        Q1013=
200910011245 METAR LIRA 011245Z 19010KT 130V230 9999 FEW025 SCT080 25/16
                        Q1014=
200910011215 METAR LIRA 011215Z 20007KT 9999 FEW025 25/15 Q1014=
200910011145 METAR LIRA 011145Z 16008KT 9999 FEW025 25/15 Q1014=
200910011115 METAR LIRA 011115Z 16010KT 9999 FEW025 24/15 Q1015=
200910011045 METAR LIRA 011045Z 17009KT 9999 FEW025 25/15 Q1015=
200910011015 METAR LIRA 011015Z 18007KT 9999 FEW025 24/15 Q1015=
200910010945 METAR LIRA 010945Z 16008KT 8000 NSC 24/15 Q1016=
200910010915 METAR LIRA 010915Z 18006KT 7000 NSC 24/14 Q1015=
200910010845 METAR LIRA 010845Z 00000KT 7000 NSC 22/16 Q1016=
200910010815 METAR LIRA 010815Z 35004KT 7000 NSC 22/16 Q1016=
200910010745 METAR LIRA 010745Z 03003KT 8000 NSC 21/16 Q1016=
200910010715 METAR LIRA 010715Z 09003KT 8000 NSC 20/16 Q1016=
200910010645 METAR LIRA 010645Z 10006KT 8000 NSC 19/15 Q1016=
200910010615 METAR LIRA 010615Z 11004KT 8000 NSC 18/15 Q1016=
200910010545 METAR LIRA 010545Z 10002KT 8000 NSC 16/13 Q1016=
200910010515 METAR LIRA 010515Z 05003KT 8000 NSC 16/14 Q1016=
200910010445 METAR LIRA 010445Z 06003KT 8000 NSC 16/14 Q1016=
200910010415 METAR LIRA 010415Z 04003KT 7000 NSC 15/14 Q1016=
200910010345 METAR LIRA 010345Z 07003KT 7000 NSC 15/14 Q1016=
200910010315 METAR LIRA 010315Z 00000KT 7000 NSC 15/13 Q1016=
200910010245 METAR LIRA 010245Z 00000KT 8000 NSC 15/13 Q1016=
200910010215 METAR LIRA 010215Z 00000KT 8000 NSC 16/13 Q1016=
200910010145 METAR LIRA 010145Z 10001KT 8000 NSC 16/13 Q1016=
200910010115 METAR LIRA 010115Z 05002KT CAVOK 17/14 Q1017=
200910010045 METAR LIRA 010045Z 12002KT CAVOK 18/15 Q1017=
200910010015 METAR LIRA 010015Z 12003KT CAVOK 18/16 Q1017=
200909302350 METAR LIRA 010045Z 12002KT CAVOK 18/15 Q1017=
200909302345 METAR LIRA 302345Z 13002KT CAVOK 18/16 Q1017=
200909302315 METAR LIRA 302315Z 10004KT CAVOK 18/16 Q1017=
200909302245 METAR LIRA 302245Z 11001KT CAVOK 18/15 Q1018=
200909302215 METAR LIRA 302215Z 11004KT 9999 FEW070 18/15 Q1018=
200909302145 METAR LIRA 302145Z 10006KT 9999 FEW018 18/16 Q1018=
200909302115 METAR LIRA 302115Z 11003KT 9999 FEW015 19/16 Q1018=
200909302045 METAR LIRA 302045Z 10003KT 9999 FEW070 19/17 Q1018=
200909302015 METAR LIRA 302015Z 11003KT CAVOK 19/16 Q1018=
200909301945 METAR LIRA 301945Z 16003KT CAVOK 20/17 Q1017=
200909301915 METAR LIRA 301915Z 15003KT CAVOK 20/17 Q1017=
200909301845 METAR LIRA 301845Z 17003KT CAVOK 21/17 Q1017=
200909301815 METAR LIRA 301815Z 17004KT CAVOK 21/17 Q1017=
200909301745 METAR LIRA 301745Z 18004KT CAVOK 22/17 Q1017=
200909301715 METAR LIRA 301715Z 19004KT CAVOK 22/17 Q1017=
200909301645 METAR LIRA 301645Z 21004KT CAVOK 23/16 Q1016=
200909301615 METAR LIRA 301615Z 22005KT 190V260 9999 FEW018 24/16 Q1016=
200909301545 METAR LIRA 301545Z 24007KT 180V310 9999 FEW018 25/15 Q1016=
200909301515 METAR LIRA 301515Z 19006KT 190V310 9999 FEW018 26/13 Q1017=
200909301445 METAR LIRA 301445Z 27006KT 210V320 9999 FEW018 26/15 Q1017=
200909301415 METAR LIRA 301415Z 27006KT 210V310 9999 FEW018 26/14 Q1017=
200909301345 METAR LIRA 301345Z 25004KT 9999 FEW018 27/14 Q1017=
200909301315 METAR LIRA 301315Z 28004KT 9999 FEW018 27/14 Q1017=
200909301245 METAR LIRA 301245Z 21002KT 9999 FEW018 27/14 Q1017=
200909301215 METAR LIRA 301215Z 19003KT 9999 FEW018 26/14 Q1018=
200909301145 METAR LIRA 301145Z 28007KT 240V330 9999 FEW018 27/14 Q1018=
200909301115 METAR LIRA 301115Z 00000KT 9999 FEW022 26/15 Q1018=
200909301045 METAR LIRA 301045Z 28002KT 9999 FEW022 26/16 Q1018=
200909301015 METAR LIRA 301015Z 28002KT 9999 FEW022 25/17 Q1018=
200909300945 METAR LIRA 300945Z 22003KT 9999 FEW022 24/16 Q1018=
200909300915 METAR LIRA 300915Z 24004KT CAVOK 23/16 Q1018=
200909300845 METAR LIRA 300845Z 00000KT CAVOK 23/16 Q1018=
200909300815 METAR LIRA 300815Z 00000KT CAVOK 21/16 Q1018=
200909300800 METAR LIRA INT CB NE SE SW=
200909300745 METAR LIRA 300745Z 34002KT CAVOK 20/15 Q1017=
200909300715 METAR LIRA 300715Z 02002KT 9000 NSC 19/16 Q1017=
200909300645 METAR LIRA 300645Z 03002KT 8000 NSC 17/16 Q1017=
200909300615 METAR LIRA 300615Z 03003KT 7000 NSC 16/15 Q1017=
200909300545 METAR LIRA 300545Z 05003KT 7000 NSC 15/14 Q1017=
200909300515 METAR LIRA 300515Z 05003KT 8000 NSC 15/13 Q1017=
200909300445 METAR LIRA 300445Z 03002KT 9000 NSC 15/13 Q1017=
200909300415 METAR LIRA 300415Z 00000KT 9000 NSC 15/13 Q1017=
200909300345 METAR LIRA 300345Z 33001KT CAVOK 16/14 Q1017=
200909300315 METAR LIRA 300315Z 00000KT CAVOK 16/14 Q1017=
200909300245 METAR LIRA 300245Z 00000KT CAVOK 17/14 Q1017=
200909300215 METAR LIRA 300215Z 00000KT 9000 SKC 17/15 Q1017=
200909300145 METAR LIRA 300145Z 00000KT 9000 SKC 18/15 Q1017=
200909292315 METAR LIRA 292315Z 15003KT 8000 SKC 19/17 Q1017=
200909292245 METAR LIRA 292245Z 15002KT 8000 SKC 19/17 Q1017=
200909292215 METAR LIRA 292215Z 00000KT 8000 SKC 19/17 Q1017=
200909292145 METAR LIRA 292145Z 16002KT 8000 SKC 20/18 Q1017=
200909292115 METAR LIRA 292115Z 17003KT 8000 SKC 20/19 Q1017=
200909292045 METAR LIRA 292045Z 16004KT 7000 SKC 20/18 Q1017=
200909292015 METAR LIRA 292015Z 17003KT 7000 SKC 21/19 Q1017=
200909291945 METAR LIRA 291945Z 16003KT 7000 SKC 21/19 Q1017=
200909291915 METAR LIRA 291915Z 18003KT 7000 SKC 21/20 Q1017=
200909291845 METAR LIRA 291845Z 18003KT 7000 SKC 21/20 Q1017=
200909291815 METAR LIRA 291815Z 19004KT 7000 SKC 22/20 Q1017=
200909291745 METAR LIRA 291745Z 19003KT 8000 SKC 22/20 Q1016=
200909291715 METAR LIRA 291715Z 19003KT 8000 SKC 23/20 Q1016=
200909291645 METAR LIRA 291645Z 24005KT 190V280 8000 SKC 23/19 Q1016=
200909291615 METAR LIRA 291615Z 24004KT 9000 SKC 24/19 Q1016=
200909291545 METAR LIRA 291545Z 26005KT 200V310 9999 FEW018 25/18 Q1016=
200909291515 METAR LIRA 291515Z 26007KT 200V310 9999 FEW018 25/17 Q1016=
200909291445 METAR LIRA 291445Z 25008KT 190V290 9999 FEW018 26/16 Q1017=
200909291415 METAR LIRA 291415Z 27006KT 9999 FEW016 26/17 Q1017=
200909291345 METAR LIRA 291345Z 26009KT 9999 FEW016 27/17 Q1017=
200909291315 METAR LIRA 291315Z 29006KT 9999 FEW016 28/13 Q1017=
200909291245 METAR LIRA 291245Z 29004KT 9999 FEW018 28/13 Q1017=
200909291215 METAR LIRA 291215Z 23003KT 9999 FEW022 27/14 Q1018=
200909291145 METAR LIRA 291145Z 21005KT 9999 FEW022 27/15 Q1018=
200909291115 METAR LIRA 291115Z 00000KT 9999 FEW022 27/15 Q1018=
200909291045 METAR LIRA 291045Z 00000KT 9999 FEW022 27/16 Q1019=
200909291015 METAR LIRA 291015Z 26002KT 9999 FEW022 26/16 Q1019=
200909290945 METAR LIRA 290945Z 28001KT 9000 FEW022 25/16 Q1019=
200909290915 METAR LIRA 290915Z 21003KT 9000 FEW022 25/17 Q1019=
200909290845 METAR LIRA 290845Z 33001KT 9000 FEW022 23/16 Q1019=
200909290815 METAR LIRA 290815Z 00000KT 8000 NSC 21/16 Q1019=
200909290745 METAR LIRA 290745Z 35001KT 8000 NSC 20/15 Q1019=
200909290715 METAR LIRA 290715Z 03001KT 8000 NSC 19/16 Q1019=
200909290645 METAR LIRA 290645Z 02002KT 7000 NSC 18/15 Q1018=
200909290615 METAR LIRA 290615Z 03002KT 7000 NSC 17/15 Q1018=
200909290545 METAR LIRA 290545Z 06002KT 7000 NSC 16/15 Q1018=
200909290515 METAR LIRA 290515Z 04003KT 7000 NSC 16/16 Q1018=
200909290445 METAR LIRA 290445Z 05003KT 8000 NSC 16/16 Q1018=
200909290415 METAR LIRA 290415Z 04003KT 8000 NSC 16/15 Q1018=
200909290345 METAR LIRA 290345Z 01002KT 8000 NSC 17/16 Q1018=
200909290315 METAR LIRA 290315Z 01001KT 9000 NSC 17/15 Q1018=
200909290245 METAR LIRA 290245Z 03002KT CAVOK 17/15 Q1018=
200909290215 METAR LIRA 290215Z 00000KT CAVOK 17/15 Q1018=
200909290145 METAR LIRA 290145Z 00000KT CAVOK 17/16 Q1018=
200909290115 METAR LIRA 290115Z 00000KT CAVOK 17/16 Q1018=
200909290100 METAR LIRA INTER=
200909290045 METAR LIRA 290045Z 00000KT CAVOK 18/16 Q1019=
200909290015 METAR LIRA 290015Z 00000KT CAVOK 18/16 Q1019=
200909282350 METAR LIRA 290045Z 00000KT CAVOK 18/16 Q1019=
200909282345 METAR LIRA 282345Z 08001KT CAVOK 18/15 Q1019=
200909282315 METAR LIRA 282315Z 11003KT CAVOK 19/15 Q1019=
200909282245 METAR LIRA 282245Z 11002KT CAVOK 19/16 Q1019=
200909282215 METAR LIRA 282215Z 12002KT CAVOK 19/16 Q1019=
200909282145 METAR LIRA 282145Z 14002KT CAVOK 19/16 Q1019=
200909282115 METAR LIRA 282115Z 09001KT CAVOK 20/17 Q1019=
200909282045 METAR LIRA 282045Z 09003KT CAVOK 20/17 Q1019=
200909282015 METAR LIRA 282015Z 16002KT 9000 NSC 20/18 Q1019=
200909281945 METAR LIRA 281945Z 18001KT 9000 SKC 21/19 Q1019=
200909281915 METAR LIRA 281915Z 15003KT 9000 NSC 21/19 Q1019=
200909281845 METAR LIRA 281845Z 00000KT 8000 SKC 22/19 Q1019=
200909281815 METAR LIRA 281815Z 00000KT CAVOK 22/19 Q1019=
200909281745 METAR LIRA 281745Z 00000KT CAVOK 22/19 Q1019=
200909281715 METAR LIRA 281715Z 24003KT CAVOK 23/19 Q1019=
200909281645 METAR LIRA 281645Z 26003KT 9999 FEW020 23/19 Q1019=
200909281615 METAR LIRA 281615Z 25005KT 220V320 9999 FEW020 24/18 Q1019=
200909281545 METAR LIRA 281545Z 25006KT 210V320 9999 FEW020 25/17 Q1018=
200909281515 METAR LIRA 281515Z 26008KT 200V310 9999 FEW020 26/17 Q1018=
200909281445 METAR LIRA 281445Z 27009KT 200V320 9999 FEW020 26/17 Q1019=
200909281415 METAR LIRA 281415Z 25007KT 9999 FEW020 26/16 Q1019=
200909281345 METAR LIRA 281345Z 25006KT 9999 FEW020 26/14 Q1019=
200909281315 METAR LIRA 281315Z 24006KT 9999 FEW020 27/14 Q1019=
200909281245 METAR LIRA 281245Z 30001KT 9999 FEW020 27/13 Q1019=
200909281215 METAR LIRA 281215Z 22003KT 9999 FEW020 28/14 Q1020=
200909281145 METAR LIRA 281145Z 26005KT 9999 FEW020 27/14 Q1020=
200909281115 METAR LIRA 281115Z 22003KT 9999 FEW020 26/13 Q1021=
200909281045 METAR LIRA 281045Z 21005KT 9999 FEW020 26/13 Q1021=
200909281015 METAR LIRA 281015Z 33006KT 9999 FEW020 26/14 Q1021=
200909280945 METAR LIRA 280945Z 30004KT 9999 FEW020 25/12 Q1021=
200909280915 METAR LIRA 280915Z 01002KT 9999 FEW020 SCT200 25/17 Q1021=
200909280845 METAR LIRA 280845Z 33001KT 9999 FEW020 23/16 Q1021=
200909280815 METAR LIRA 280815Z 35003KT 9999 FEW020 23/17 Q1020=
200909280745 METAR LIRA 280745Z 35003KT CAVOK 20/15 Q1020=
200909280715 METAR LIRA 280715Z 03003KT CAVOK 19/15 Q1020=
200909280645 METAR LIRA 280645Z 01004KT 9999 FEW040 18/15 Q1020=
200909280615 METAR LIRA 280615Z 01001KT 9999 FEW040 17/15 Q1020=
200909280545 METAR LIRA 280545Z 02002KT 9999 FEW040 16/14 Q1020=
200909280515 METAR LIRA 280515Z 03003KT 9999 FEW070 16/14 Q1020=
200909280445 METAR LIRA 280445Z 02002KT 9999 FEW070 17/14 Q1020=
200909280415 METAR LIRA 280415Z 02002KT 9999 FEW070 17/13 Q1020=
200909280345 METAR LIRA 280345Z 02002KT 9999 FEW070 17/13 Q1020=
200909280315 METAR LIRA 280315Z 12001KT 9999 FEW070 17/13 Q1020=
200909280245 METAR LIRA 280245Z 14002KT 9999 FEW070 18/14 Q1020=
200909280215 METAR LIRA 280215Z 14002KT 9999 FEW070 18/14 Q1020=
200909280145 METAR LIRA 280145Z 14002KT 9999 FEW070 18/14 Q1020=
200909280115 METAR LIRA 280115Z 14003KT 9999 FEW070 18/14 Q1020=
200909280045 METAR LIRA 280045Z 13004KT 9999 FEW070 19/13 Q1020=
200909280015 METAR LIRA 280015Z 14003KT 9999 FEW070 19/13 Q1020=
200909272350 METAR LIRA 280045Z 13004KT 9999 FEW070 19/13 Q1020=
200909272345 METAR LIRA 272345Z 10004KT 9999 FEW070 19/14 Q1020=
200909272315 METAR LIRA 272315Z 10002KT 9999 SCT070 20/14 Q1020=
200909272245 METAR LIRA 272245Z 09003KT 9999 SCT070 20/15 Q1020=
200909272215 METAR LIRA 272215Z 16003KT 9999 SCT070 20/14 Q1020=
200909272145 METAR LIRA 272145Z 17003KT 9999 SCT070 20/14 Q1020=
200909272115 METAR LIRA 272115Z 16003KT 9999 SCT070 21/15 Q1020=
200909272045 METAR LIRA 272045Z 15004KT 9999 SCT070 21/15 Q1020=
200909272015 METAR LIRA 272015Z 14004KT 9999 SCT070 21/15 Q1020=
200909271945 METAR LIRA 271945Z 15005KT 9999 SCT070 22/15 Q1020=
200909271915 METAR LIRA 271915Z 16004KT 9999 SCT070 23/15 Q1020=
200909271845 METAR LIRA 271845Z 18004KT 9999 BKN070 23/16 Q1020=
200909271815 METAR LIRA 271815Z 18004KT 9999 BKN070 23/16 Q1019=
200909271745 METAR LIRA 271745Z 19004KT 9999 BKN070 24/16 Q1019=
200909271715 METAR LIRA 271715Z 22003KT 9999 BKN070 24/15 Q1019=
200909271645 METAR LIRA 271645Z 21005KT 9999 FEW020 SCT070 25/15 Q1019=
200909271615 METAR LIRA 271615Z 22006KT 200V290 9999 FEW020 FEW022TCU
                        SCT070 26/14 Q1019=
200909271545 METAR LIRA 271545Z 24006KT 200V310 9999 FEW020 FEW022TCU
                        SCT070 27/11 Q1019=
200909271515 METAR LIRA 271515Z 25005KT 210V360 9999 SCT020 28/12 Q1019=
200909271445 METAR LIRA 271445Z 25007KT 200V320 9999 SCT020 28/12 Q1019=
200909271415 METAR LIRA 271415Z 25005KT 210V310 9999 SCT020 28/11 Q1019=
200909271345 METAR LIRA 271345Z 27004KT 9999 SCT020 28/11 Q1019=
200909271315 METAR LIRA 271315Z 33002KT 9999 SCT020 28/11 Q1019=
200909271245 METAR LIRA 271245Z 33003KT 240V340 9999 SCT020 28/11 Q1019=
200909271215 METAR LIRA 271215Z 34004KT 280V020 9999 SCT020 28/11 Q1019=
200909271145 METAR LIRA 271145Z 35002KT 9999 FEW020 28/12 Q1019=
200909271115 METAR LIRA 271115Z 31004KT 9999 FEW020 28/12 Q1020=
200909271045 METAR LIRA 271045Z 00000KT 9999 FEW020 28/11 Q1020=
200909271015 METAR LIRA 271015Z 32004KT 9999 FEW020 27/13 Q1020=
200909270945 METAR LIRA 270945Z 33004KT 310V060 CAVOK 26/14 Q1020=
200909270915 METAR LIRA 270915Z 35005KT CAVOK 24/15 Q1020=
200909270845 METAR LIRA 270845Z 01004KT 310V020 CAVOK 23/15 Q1020=
200909270815 METAR LIRA 270815Z 02005KT CAVOK 22/15 Q1020=
200909270745 METAR LIRA 270745Z 36005KT 300V060 9999 FEW080 21/15 Q1020=
200909270715 METAR LIRA 270715Z 03003KT 9999 SCT070 21/15 Q1019=
200909270645 METAR LIRA 270645Z 05003KT 9999 SCT070 19/15 Q1019=
200909270615 METAR LIRA 270615Z 05004KT 9999 SCT070 18/15 Q1019=
200909270545 METAR LIRA 270545Z 03003KT 9999 SCT070 17/14 Q1019=
200909270515 METAR LIRA 270515Z 01002KT 9999 SCT080 17/14 Q1019=
200909270445 METAR LIRA 270445Z 04003KT 9999 SCT080 17/14 Q1019=
200909270415 METAR LIRA 270415Z 03003KT 9999 SCT080 18/15 Q1019=
200909270345 METAR LIRA 270345Z 02002KT 9999 FEW080 18/14 Q1019=
200909270315 METAR LIRA 270315Z 05002KT 9999 FEW030 SCT070 18/14 Q1019=
200909270245 METAR LIRA 270245Z 05002KT 9999 FEW030 SCT070 18/14 Q1019=
200909270215 METAR LIRA 270215Z 05003KT 9999 FEW030 SCT070 19/15 Q1019=
200909270145 METAR LIRA 270145Z 05002KT 9999 FEW030 SCT070 19/15 Q1019=
200909270115 METAR LIRA 270115Z 04003KT 9999 FEW030 SCT070 19/15 Q1019=
200909270045 METAR LIRA 270045Z 03002KT 9999 BKN070 20/15 Q1019=
200909270015 METAR LIRA 270015Z 03002KT 9999 BKN070 20/16 Q1019=
200909262350 METAR LIRA 270045Z 03002KT 9999 BKN070 20/15 Q1019=
200909262345 METAR LIRA 262345Z 03003KT 9999 BKN070 20/15 Q1019=
200909262315 METAR LIRA 262315Z 00000KT 9999 BKN070 20/15 Q1019=
200909262245 METAR LIRA 262245Z 04001KT 9999 SCT080 20/15 Q1019=
200909262215 METAR LIRA 262215Z 05002KT 9999 FEW080 20/14 Q1019=
200909262145 METAR LIRA 262145Z 01002KT 9999 FEW080 20/14 Q1018=
200909262115 METAR LIRA 262115Z 11002KT 9999 FEW080 21/14 Q1018=
200909262045 METAR LIRA 262045Z 11003KT 9999 FEW080 21/15 Q1018=
200909262015 METAR LIRA 262015Z 14006KT 9999 FEW080 21/15 Q1018=
200909261945 METAR LIRA 261945Z 10007KT 9999 FEW080 21/15 Q1017=
200909261915 METAR LIRA 261915Z 12004KT 9999 FEW080 22/17 Q1017=
200909261845 METAR LIRA 261845Z 19003KT 9999 FEW080 23/16 Q1017=
200909261815 METAR LIRA 261815Z 16003KT 9999 FEW080 23/17 Q1017=
200909261745 METAR LIRA 261745Z 17003KT 9999 FEW080 24/16 Q1016=
200909261715 METAR LIRA 261715Z 19004KT 180V240 9999 FEW021 SCT080 25/16
                        Q1016=
200909261645 METAR LIRA 261645Z 23003KT 9999 FEW020 FEW021CB 25/15 Q1016=
200909261615 METAR LIRA 261615Z 24004KT 210V300 9999 FEW020 FEW021CB 26/16
                        Q1016=
200909261545 METAR LIRA 261545Z 24006KT 200V300 9999 FEW025 27/13 Q1016=
200909261515 METAR LIRA 261515Z 26005KT 190V320 9999 FEW070 28/12 Q1016=
200909261445 METAR LIRA 261445Z 24006KT 210V310 9999 FEW070 29/10 Q1016=
200909261415 METAR LIRA 261415Z 27004KT 220V310 9999 FEW025 29/09 Q1016=
200909261345 METAR LIRA 261345Z 25005KT 200V320 9999 FEW025 29/10 Q1016=
200909261315 METAR LIRA 261315Z 29005KT 190V310 9999 FEW025 29/10 Q1016=
200909261245 METAR LIRA 261245Z 28004KT 9999 FEW025 29/10 Q1016=
200909261215 METAR LIRA 261215Z 20003KT 190V280 9999 FEW025 29/10 Q1016=
200909261145 METAR LIRA 261145Z 05002KT 9999 FEW025 28/10 Q1016=
200909261115 METAR LIRA 261115Z 04003KT CAVOK 27/11 Q1016=
200909261045 METAR LIRA 261045Z 36003KT 310V070 CAVOK 27/11 Q1016=
200909261015 METAR LIRA 261015Z 33005KT 300V030 CAVOK 26/14 Q1016=
200909260945 METAR LIRA 260945Z 35003KT 300V060 CAVOK 25/15 Q1016=
200909260915 METAR LIRA 260915Z 03006KT 330V090 CAVOK 24/14 Q1016=
200909260845 METAR LIRA 260845Z 01006KT 320V070 CAVOK 23/14 Q1016=
200909260815 METAR LIRA 260815Z 02007KT 320V060 CAVOK 22/14 Q1016=
200909260745 METAR LIRA 260745Z 01005KT 320V060 CAVOK 21/14 Q1016=
200909260715 METAR LIRA 260715Z 02008KT 330V070 CAVOK 20/14 Q1016=
200909260645 METAR LIRA 260645Z 04006KT 360V080 CAVOK 19/14 Q1015=
200909260615 METAR LIRA 260615Z 03005KT 360V080 CAVOK 17/14 Q1015=
200909260545 METAR LIRA 260545Z 03004KT 9999 FEW070 17/13 Q1015=
200909260515 METAR LIRA 260515Z 03006KT 360V080 9999 FEW070 17/13 Q1015=
200909260445 METAR LIRA 260445Z 02005KT 9999 FEW080 16/13 Q1015=
200909260415 METAR LIRA 260415Z 03005KT CAVOK 16/13 Q1015=
200909260345 METAR LIRA 260345Z 05004KT CAVOK 16/13 Q1015=
200909260315 METAR LIRA 260315Z 03005KT CAVOK 16/12 Q1015=
200909260245 METAR LIRA 260245Z 05005KT CAVOK 17/12 Q1015=
200909260215 METAR LIRA 260215Z 02003KT CAVOK 17/12 Q1015=
200909260145 METAR LIRA 260145Z 01003KT CAVOK 17/12 Q1015=
200909260115 METAR LIRA 260115Z 06004KT CAVOK 17/12 Q1015=
200909260045 METAR LIRA 260045Z 06002KT CAVOK 18/12 Q1015=
200909260015 METAR LIRA 260015Z 36002KT CAVOK 18/12 Q1015=
200909252350 METAR LIRA 260045Z 06002KT CAVOK 18/12 Q1015=
200909252345 METAR LIRA 252345Z 36003KT CAVOK 18/11 Q1015=
200909252315 METAR LIRA 252315Z 03003KT CAVOK 18/11 Q1015=
200909252245 METAR LIRA 252245Z 02005KT CAVOK 19/12 Q1015=
200909252215 METAR LIRA 252215Z 01004KT CAVOK 19/12 Q1015=
200909252145 METAR LIRA 252145Z 00000KT CAVOK 19/12 Q1015=
200909252115 METAR LIRA 252115Z 12004KT CAVOK 19/12 Q1014=
200909252045 METAR LIRA 252045Z 07001KT CAVOK 20/13 Q1014=
200909252015 METAR LIRA 252015Z 10002KT CAVOK 20/14 Q1014=
200909251945 METAR LIRA 251945Z 08005KT CAVOK 20/14 Q1014=
200909251915 METAR LIRA 251915Z 11004KT CAVOK 21/14 Q1013=
200909251845 METAR LIRA 251845Z 10002KT CAVOK 22/16 Q1013=
200909251815 METAR LIRA 251815Z 10003KT CAVOK 23/16 Q1013=
200909251745 METAR LIRA 251745Z 16003KT 9999 FEW020 23/16 Q1013=
200909251715 METAR LIRA 251715Z 18002KT 9999 FEW020 24/16 Q1013=
200909251645 METAR LIRA 251645Z 25003KT 180V250 9999 FEW020 25/16 Q1012=
200909251615 METAR LIRA 251615Z 23005KT 9999 FEW020 25/16 Q1012=
200909251545 METAR LIRA 251545Z 24004KT 9999 FEW020 27/15 Q1012=
200909251515 METAR LIRA 251515Z 16008KT 9999 FEW020 27/11 Q1012=
200909251445 METAR LIRA 251445Z 08002KT 040V130 9999 SCT020 28/09 Q1012=
200909251415 METAR LIRA 251415Z 03004KT 9999 FEW020 28/09 Q1012=
200909251345 METAR LIRA 251345Z 36002KT 9999 FEW020 28/10 Q1012=
200909251315 METAR LIRA 251315Z 35004KT 9999 FEW020 21/04 Q1012=
200909251245 METAR LIRA 251245Z 35005G15KT 310V060 9999 FEW020 28/09 Q1012=
200909251215 METAR LIRA 251215Z 09002KT 010V120 9999 FEW020 28/09 Q1013=
200909251145 METAR LIRA 251145Z 01005KT 9999 FEW070 27/09 Q1013=
200909251115 METAR LIRA 251115Z 05003KT 340V070 9999 FEW070 27/09 Q1013=
200909251045 METAR LIRA 251045Z 32003KT 300V050 9999 FEW020 SCT200 27/10
                        Q1013=
200909251015 METAR LIRA 251015Z 29003KT 270V360 9999 FEW020 SCT200 26/10
                        Q1013=
200909250945 METAR LIRA 250945Z 36006KT 320V050 9999 FEW020 SCT200 26/11
                        Q1013=
200909250915 METAR LIRA 250915Z 35004KT 9999 FEW020 SCT200 25/10 Q1013=
200909250900 LIRA INTER=
200909250845 METAR LIRA 250845Z 36001KT 9999 FEW020 SCT200 23/15 Q1013=
200909250815 METAR LIRA 250815Z 32001KT 9999 FEW020 SCT070 22/15 Q1013=
200909250745 METAR LIRA 250745Z 32002KT 9999 FEW020 BKN070 20/15 Q1012=
200909250715 METAR LIRA 250715Z 34002KT 9999 FEW020 BKN070 20/16 Q1012=
200909250645 METAR LIRA 250645Z 00000KT 9999 FEW020 SCT070 19/15 Q1012=
200909250615 METAR LIRA 250615Z 03004KT 9999 FEW020 SCT070 18/16 Q1012=
200909250545 METAR LIRA 250545Z 35003KT 9999 FEW020 SCT070 18/16 Q1012=
200909250515 METAR LIRA 250515Z 34003KT 9999 FEW020 18/16 Q1012=
200909250445 METAR LIRA 250445Z 03002KT 9999 FEW020 18/16 Q1012=
200909250415 METAR LIRA 250415Z 02002KT 9999 FEW020 SCT070 18/17 Q1012=
200909250345 METAR LIRA 250345Z 06006KT 9999 FEW018 19/17 Q1013=
200909250315 METAR LIRA 250315Z 08004KT 9999 FEW018 19/17 Q1013=
200909250245 METAR LIRA 250245Z 02004KT 9999 FEW018 19/17 Q1013=
200909250215 METAR LIRA 250215Z 00002KT 9999 FEW018 19/17 Q1014=
200909250145 METAR LIRA 250145Z 01002KT 9999 FEW018 19/17 Q1014=
200909250115 METAR LIRA 250115Z 34003KT 9999 FEW040 18/16 Q1014=
200909250045 METAR LIRA 250045Z 02003KT 9999 FEW040 19/17 Q1014=
200909250015 METAR LIRA 250015Z 03002KT 9999 FEW040 19/17 Q1014=
200909242350 METAR LIRA 250045Z 02003KT 9999 FEW040 19/17 Q1014=
200909242345 METAR LIRA 242345Z 06003KT 9999 FEW040 19/17 Q1014=
200909242315 METAR LIRA 242315Z 32003KT 9999 FEW040 20/18 Q1014=
200909242245 METAR LIRA 242245Z 31003KT 9999 FEW040 20/18 Q1014=
200909242215 METAR LIRA 242215Z 01002KT 9999 FEW040 20/18 Q1015=
200909242145 METAR LIRA 242145Z 00000KT 9999 FEW040 21/18 Q1015=
200909242115 METAR LIRA 242115Z 00000KT 9999 FEW040 21/18 Q1015=
200909242045 METAR LIRA 242045Z 17002KT 9999 FEW040 21/19 Q1015=
200909242015 METAR LIRA 242015Z 00000KT 9999 FEW040 21/17 Q1015=
200909241945 METAR LIRA 241945Z 00000KT 9999 FEW040 21/17 Q1015=
200909241915 METAR LIRA 241915Z 20001KT 9999 FEW040 22/17 Q1015=
200909241845 METAR LIRA 241845Z 19003KT 9999 FEW040 22/17 Q1015=
200909241815 METAR LIRA 241815Z 22003KT 9999 FEW040 22/18 Q1014=
200909241745 METAR LIRA 241745Z 27004KT 9999 FEW040 23/18 Q1014=
200909241715 METAR LIRA 241715Z 26002KT 9999 FEW040 23/17 Q1014=
200909241645 METAR LIRA 241645Z 24001KT 9999 FEW040 24/15 Q1014=
200909241615 METAR LIRA 241615Z 01003KT 9999 FEW040 24/16 Q1014=
200909241545 METAR LIRA 241545Z 21004KT 9999 FEW040 SCT080 24/15 Q1014=
200909241515 METAR LIRA 241515Z 17005KT 9999 FEW040 SCT080 24/14 Q1014=
200909241445 METAR LIRA 241445Z 20005KT 200V005 9999 FEW040 SCT080 25/14
                        Q1015=
200909241415 METAR LIRA 241415Z 18006KT 150V230 9999 FEW040 SCT080 25/14
                        Q1015=
200909241345 METAR LIRA 241345Z 21005KT 9999 FEW040 SCT080 25/12 Q1015=
200909241315 METAR LIRA 241315Z 19005KT 9999 FEW040 SCT080 26/12 Q1015=
200909241245 METAR LIRA 241245Z 19005KT 9999 FEW040 SCT070 26/11 Q1016=
200909241215 METAR LIRA 241215Z 22004KT 9999 FEW040 SCT070 26/11 Q1016=
200909241145 METAR LIRA 241145Z 12001KT 9999 FEW040 SCT070 26/10 Q1016=
200909241115 METAR LIRA 241115Z 20002KT 9999 FEW040 SCT070 26/10 Q1017=
200909241045 METAR LIRA 241045Z 21005KT 9999 FEW040 SCT070 26/10 Q1017=
200909241015 METAR LIRA 241015Z 33002KT 9999 FEW040 SCT070 26/10 Q1017=
200909240945 METAR LIRA 240945Z 04002KT 9999 FEW040 SCT070 25/12 Q1017=
200909240915 METAR LIRA 240915Z 04004KT 9999 FEW040 SCT070 24/11 Q1017=
200909240845 METAR LIRA 240845Z 35003KT 9999 FEW040 SCT070 23/13 Q1017=
200909240815 METAR LIRA 240815Z 05003KT 010V080 9999 FEW040 BKN070 22/13
                        Q1017=
200909240745 METAR LIRA 240745Z 04007KT 350V080 9999 FEW040 SCT070 22/14
                        Q1016=
200909240715 METAR LIRA 240715Z 04005KT 9999 FEW035 SCT070 21/14 Q1016=
200909240645 METAR LIRA 240645Z 07004KT 9999 FEW035 SCT070 20/14 Q1016=
200909240615 METAR LIRA 240615Z 04005KT 9999 FEW035 SCT070 20/13 Q1016=
200909240545 METAR LIRA 240545Z 09006KT 060V130 9999 FEW035 20/15 Q1016=
200909240515 METAR LIRA 240515Z 07003KT 9999 FEW035 SCT070 18/15 Q1016=
200909240445 METAR LIRA 240445Z 03004KT 9999 FEW040 SCT070 18/15 Q1016=
200909240415 METAR LIRA 240415Z 02002KT CAVOK 18/15 Q1016=
200909240345 METAR LIRA 240345Z 03001KT CAVOK 18/15 Q1017=
200909240315 METAR LIRA 240315Z 03002KT CAVOK 18/15 Q1017=
200909240245 METAR LIRA 240245Z 02004KT CAVOK 18/15 Q1017=
200909240215 METAR LIRA 240215Z 03003KT CAVOK 18/15 Q1017=
200909240115 METAR LIRA 240115Z 03004KT 9999 FEW020 18/15 Q1017=
200909240045 METAR LIRA 240045Z 03003KT 9999 FEW020 18/16 Q1018=
200909240015 METAR LIRA 240015Z 06005KT 9999 FEW020 19/16 Q1019=
200909232345 METAR LIRA 232345Z 05004KT 9999 FEW020 19/16 Q1019=
200909232315 METAR LIRA 232315Z 06005KT 9999 FEW020 19/17 Q1019=
200909232245 METAR LIRA 232245Z 04005KT 020V080 9999 FEW020 19/17 Q1019=
200909232215 METAR LIRA 232215Z 04005KT 9999 FEW020 20/17 Q1020=
200909232145 METAR LIRA 232145Z 05005KT 010V080 9999 FEW020 21/18 Q1020=
200909232115 METAR LIRA 232115Z 05004KT 010V080 9999 FEW020 21/18 Q1020=
200909232045 METAR LIRA 232045Z 03005KT 9999 FEW020 21/18 Q1020=
200909232015 METAR LIRA 232015Z 03004KT 9999 FEW020 21/18 Q1020=
200909231945 METAR LIRA 231945Z 07004KT 9999 FEW020 21/18 Q1020=
200909231915 METAR LIRA 231915Z 11003KT 9999 FEW020 21/17 Q1020=
200909231845 METAR LIRA 231845Z 02002KT 9999 FEW020 22/17 Q1020=
200909231815 METAR LIRA 231815Z 34003KT 9999 FEW020 22/17 Q1020=
200909231745 METAR LIRA 231745Z 33003KT 9999 FEW020 23/18 Q1020=
200909231715 METAR LIRA 231715Z 24003KT 9999 FEW020 24/17 Q1020=
200909231645 METAR LIRA 231645Z 26002KT 9999 FEW022 24/17 Q1021=
200909231615 METAR LIRA 231615Z 25004KT 9999 FEW022 25/17 Q1021=
200909231545 METAR LIRA 231545Z 23005KT 180V270 9999 FEW022 25/17 Q1021=
200909231515 METAR LIRA 231515Z 24005KT 160V300 9999 FEW022 26/16 Q1021=
200909231445 METAR LIRA 231445Z 22007KT 170V260 9999 FEW022 26/15 Q1021=
200909231415 METAR LIRA 231415Z 22008KT 170V260 9999 FEW022 26/15 Q1021=
200909231345 METAR LIRA 231345Z 22008KT 9999 SCT022 27/11 Q1021=
200909231315 METAR LIRA 231315Z 31003KT 9999 SCT022 27/07 Q1021=
200909231245 METAR LIRA 231245Z 35005KT 9999 SCT022 27/08 Q1022=
200909231215 METAR LIRA 231215Z 23005KT 9999 FEW022 27/05 Q1022=
200909231145 METAR LIRA 231145Z 29005KT 9999 FEW022 27/13 Q1022=
200909231115 METAR LIRA 231115Z 31002KT 250V360 9999 FEW022 26/13 Q1022=
200909231045 METAR LIRA 231045Z 02002KT 9999 FEW022 25/15 Q1023=
200909231015 METAR LIRA 231015Z 02004KT 9999 FEW022 25/15 Q1023=
200909230945 METAR LIRA 230945Z 34002KT 9999 FEW022 24/16 Q1023=
200909230915 METAR LIRA 230915Z 03005KT 9999 FEW022 24/16 Q1023=
200909230845 METAR LIRA 230845Z 02004KT CAVOK 23/18 Q1023=
200909230815 METAR LIRA 230815Z 01006KT 310V050 CAVOK 21/18 Q1023=
200909230745 METAR LIRA 230745Z 01003KT CAVOK 20/17 Q1023=
200909230715 METAR LIRA 230715Z 02003KT CAVOK 19/17 Q1023=
200909230645 METAR LIRA 230645Z 03002KT 9999 FEW080 17/15 Q1022=
200909230615 METAR LIRA 230615Z 01002KT 9999 FEW080 16/15 Q1022=
200909230545 METAR LIRA 230545Z 04006KT 330V070 9999 FEW070 15/14 Q1022=
200909230515 METAR LIRA 230515Z 03003KT 9999 FEW070 15/15 Q1022=
200909230445 METAR LIRA 230445Z 03004KT 9999 FEW040 16/15 Q1022=
200909230415 METAR LIRA 230415Z 04005KT 9999 FEW040 16/15 Q1022=
200909230345 METAR LIRA 230345Z 03003KT 9999 SCT080 16/15 Q1022=
200909230315 METAR LIRA 230315Z 36001KT 9999 SCT080 16/16 Q1022=
200909230245 METAR LIRA 230245Z 01003KT 9999 FEW070 16/16 Q1022=
200909230215 METAR LIRA 230215Z 00000KT CAVOK 16/16 Q1022=
200909230145 METAR LIRA 230145Z 36002KT 9999 FEW080 17/16 Q1023=
200909230115 METAR LIRA 230115Z 04002KT CAVOK 17/16 Q1023=
200909230045 METAR LIRA 230045Z 07002KT CAVOK 17/16 Q1023=
200909230015 METAR LIRA 230015Z 05002KT 9999 FEW080 17/16 Q1023=
200909222345 METAR LIRA 222345Z 04003KT 9999 FEW080 17/17 Q1023=
200909222315 METAR LIRA 222315Z 03002KT 9999 FEW080 17/17 Q1023=
200909222245 METAR LIRA 222245Z 07003KT 9999 FEW080 19/18 Q1023=
200909222215 METAR LIRA 222215Z 05005KT 9999 FEW080 18/17 Q1023=
200909222145 METAR LIRA 222145Z 07002KT 9999 SCT080 18/16 Q1023=
200909222115 METAR LIRA 222115Z 11001KT 9999 SCT080 18/16 Q1023=
200909222045 METAR LIRA 222045Z 06004KT 9999 SCT080 18/16 Q1023=
200909222015 METAR LIRA 222015Z 06006KT 020V120 9999 FEW035 SCT080 18/17
                        Q1023=
200909221945 METAR LIRA 221945Z 02005KT 310V060 9999 FEW020CB SCT070 19/17
                        Q1023=
200909221915 METAR LIRA 221915Z 04005KT 340V100 9000 FEW020CB SCT070 19/17
                        Q1022=
200909221845 METAR LIRA 221845Z 05006KT 010V080 9000 FEW018CB SCT035 19/18
                        Q1022 RETS=
200909221815 METAR LIRA 221815Z 04004KT 8000 TS FEW017 FEW018CB SCT030
                        20/19 Q1022=
200909221745 METAR LIRA 221745Z 05004KT 8000 -TSRA FEW017 FEW018CB BKN030
                        19/18 Q1022=
200909221715 METAR LIRA 221715Z 12005KT 8000 -TSRA FEW017 SCT018CB BKN030
                        19/18 Q1022 RETS=
200909221645 METAR LIRA 221645Z 16006KT 100V180 6000 -TSRA FEW017 SCT018CB
                        BKN030 20/18 Q1022=
200909221615 METAR LIRA 221615Z 11006KT 4000 TSRA BR FEW018 SCT020CB 21/19
                        Q1022=
200909221545 METAR LIRA 221545Z 29003KT 250V330 9999 -TSRA FEW018 SCT020CB
                        22/20 Q1021=
200909221515 METAR LIRA 221515Z 24001KT 9999 -TSRA FEW018 FEW020CB BKN080
                        22/19 Q1021=
200909221445 METAR LIRA 221445Z 23006KT 180V270 9999 -RA SCT018 FEW020CB
                        24/18 Q1020=
200909221415 METAR LIRA 221415Z 22007KT 180V250 9999 SCT018 FEW020TCU
                        23/19 Q1020 RETS=
200909221345 METAR LIRA 221345Z 23007KT 200V260 9999 SCT018 FEW020CB 25/18
                        Q1020 RETS=
200909221315 METAR LIRA 221315Z 22008KT 180V260 9999 TS FEW018 FEW020CB
                        SCT035 23/17 Q1020=
200909221245 METAR LIRA 221245Z 21005KT 9999 -TSRA FEW018 FEW020CB SCT035
                        25/16 Q1020=
200909221215 METAR LIRA 221215Z 26001KT 9999 FEW018 FEW020TCU SCT060 26/14
                        Q1020=
200909221145 METAR LIRA 221145Z 30005KT 9999 FEW020 SCT060 26/15 Q1020=
200909221115 METAR LIRA 221115Z 22004KT 170V270 9999 FEW020 26/15 Q1020=
200909221045 METAR LIRA 221045Z 17004KT 9999 FEW020 25/15 Q1020=
200909221015 METAR LIRA 221015Z 00000KT 9999 FEW020 25/15 Q1020=
200909220945 METAR LIRA 220945Z 33004KT 9999 SCT020 25/15 Q1020=
200909220915 METAR LIRA 220915Z 33005KT 9999 FEW025 24/16 Q1020=
200909220845 METAR LIRA 220845Z 12001KT 9999 FEW025 23/16 Q1020=
200909220815 METAR LIRA 220815Z 32004KT 9999 FEW018 SCT070 22/17 Q1020=
200909220745 METAR LIRA 220745Z 02002KT 9999 FEW018 SCT040 20/17 Q1020=
200909220715 METAR LIRA 220715Z 05003KT 9999 FEW018 BKN040 19/16 Q1019=
200909220645 METAR LIRA 220645Z 01003KT 9999 FEW018 BKN040 19/17 Q1019=
200909220615 METAR LIRA 220615Z 05002KT 9999 FEW018 BKN040 18/17 Q1019=
200909220545 METAR LIRA 220545Z 01005KT 340V060 9999 FEW018 BKN040 18/16
                        Q1019=
200909220515 METAR LIRA 220515Z 02004KT 9999 FEW018 BKN035 18/16 Q1018=
200909220445 METAR LIRA 220445Z 03002KT 9999 FEW018 SCT030 18/16 Q1018=
200909220415 METAR LIRA 220415Z 09002KT 9999 FEW018 SCT080 18/16 Q1018=
200909220345 METAR LIRA 220345Z 00000KT 9999 FEW018 SCT080 18/16 Q1018=
200909220315 METAR LIRA 220315Z 02004KT 9999 FEW018 SCT080 18/16 Q1018=
200909220245 METAR LIRA 220245Z 35003KT 9999 FEW018 SCT080 18/16 Q1018=
200909220215 METAR LIRA 220215Z 33003KT 9999 FEW018 SCT080 19/16 Q1018=
200909220145 METAR LIRA 220145Z 00000KT 9999 FEW018 SCT080 19/16 Q1018=
200909220115 METAR LIRA 220115Z 00000KT 9999 FEW018 SCT080 19/16 Q1018=
200909220045 METAR LIRA 220045Z 01003KT 9999 FEW018 FEW020CB SCT070 19/16
                        Q1018=
200909220015 METAR LIRA 220015Z 08001KT 9999 FEW018 FEW020CB SCT070 20/17
                        Q1018=
200909212350 METAR LIRA 220045Z 01003KT 9999 FEW018 FEW020CB SCT070 19/16
                        Q1018=
200909212345 METAR LIRA 212345Z 15002KT 9999 FEW018 FEW020CB SCT070 20/17
                        Q1018=
200909212315 METAR LIRA 212315Z 09001KT 9999 FEW018 FEW020CB SCT070 20/17
                        Q1018=
200909212245 METAR LIRA 212245Z 00000KT 9999 FEW018 FEW020CB SCT070 20/18
                        Q1018=
200909212215 METAR LIRA 212215Z 00000KT 9999 FEW018 FEW020CB SCT070 23/21
                        Q1018=
200909212145 METAR LIRA 212145Z 08001KT 9999 FEW018 FEW020CB SCT070 20/18
                        Q1017=
200909212115 METAR LIRA 212115Z 00000KT 9999 FEW018 SCT070 20/18 Q1017=
200909212045 METAR LIRA 212045Z 00000KT 9999 FEW018 SCT070 20/18 Q1017=
200909212015 METAR LIRA 212015Z 00000KT 9999 FEW030 SCT070 20/18 Q1017=
200909211945 METAR LIRA 211945Z 00000KT 9999 FEW030 SCT070 20/18 Q1017=
200909211915 METAR LIRA 211915Z 00000KT 9999 FEW018 SCT080 20/19 Q1017=
200909211845 METAR LIRA 211845Z 00000KT 9999 FEW018 SCT070 21/19 Q1016=
200909211815 METAR LIRA 211815Z 21003KT 9999 FEW018 SCT070 21/19 Q1016=
200909211745 METAR LIRA 211745Z 18002KT 9999 FEW018 BKN070 21/20 Q1015=
200909211715 METAR LIRA 211715Z 00000KT 9999 FEW018 BKN070 22/19 Q1015=
200909211645 METAR LIRA 211645Z 25002KT 9999 FEW018 SCT080 22/19 Q1015=
200909211615 METAR LIRA 211615Z 31001KT 9999 FEW018 SCT080 22/19 Q1015=
200909211545 METAR LIRA 211545Z 25001KT 9999 FEW018 FEW020TCU SCT035 22/19
                        Q1015=
200909211515 METAR LIRA 211515Z 23005KT 180V260 9999 FEW018 FEW020TCU
                        SCT035 22/19 Q1015=
200909211445 METAR LIRA 211445Z 08005KT 010V120 9999 FEW018 FEW020TCU
                        SCT035 23/17 Q1016=
200909211415 METAR LIRA 211415Z 34003KT 330V050 9000 FEW018 FEW020TCU
                        SCT035 22/19 Q1016=
200909211345 METAR LIRA 211345Z 32003KT 8000 -RA SCT018 FEW020TCU SCT035
                        BKN080 20/18 Q1016=
200909211315 METAR LIRA 211315Z 33004KT 6000 -RA SCT018 SCT035 BKN080
                        20/18 Q1016=
200909211245 METAR LIRA 211245Z 20001KT 6000 -DZ SCT018 BKN035 20/18 Q1015=
200909211215 METAR LIRA 211215Z 19003KT 6000 -DZ SCT018 BKN035 20/19 Q1015=
200909211145 METAR LIRA 211145Z 21004KT 180V270 6000 -DZ SCT018 BKN035
                        20/19 Q1015=
200909211115 METAR LIRA 211115Z 22002KT 8000 -DZ SCT018 BKN035 21/17 Q1016=
200909211045 METAR LIRA 211045Z 36002KT 350V080 9999 SCT018 BKN035 21/16
                        Q1015=
200909211015 METAR LIRA 211015Z 01004KT 350V080 9999 SCT018 BKN035 21/17
                        Q1015=
200909210945 METAR LIRA 210945Z 01003KT 9999 SCT018 SCT035 21/17 Q1015=
200909210915 METAR LIRA 210915Z 01003KT 9999 SCT018 SCT035 20/17 Q1015=
200909210845 METAR LIRA 210845Z 03003KT 9999 SCT018 SCT035 19/16 Q1016=
200909210815 METAR LIRA 210815Z 01004KT 9999 SCT018 SCT035 19/17 Q1015=
200909210745 METAR LIRA 210745Z 01005KT 9999 -RA SCT018 SCT030 19/17 Q1015=
200909210715 METAR LIRA 210715Z 01003KT 9999 -RA SCT018 SCT030 19/16 Q1015=
200909210645 METAR LIRA 210645Z 36002KT 9999 -RA SCT018 SCT030 18/16 Q1015=
200909210615 METAR LIRA 210615Z 03002KT 9999 SCT018 SCT030 18/16 Q1015=
200909210545 METAR LIRA 210545Z 35003KT 9999 SCT018 SCT030 18/16 Q1015=
200909210515 METAR LIRA 210515Z 03003KT 9999 FEW018 SCT030 BKN080 18/16
                        Q1015=
200909210445 METAR LIRA 210445Z 03003KT 9999 FEW018 SCT030 BKN080 18/16
                        Q1015=
200909210415 METAR LIRA 210415Z 36003KT 9999 SCT018 SCT070 18/16 Q1015=
200909210345 METAR LIRA 210345Z 36004KT 9999 SCT018 SCT070 18/16 Q1015=
200909210315 METAR LIRA 210315Z 36004KT 9999 SCT018 SCT070 18/16 Q1015=
200909210245 METAR LIRA 210245Z 01002KT 9999 SCT015 SCT070 19/17 Q1015=
200909210215 METAR LIRA 210215Z 01003KT 9999 SCT018 SCT070 19/17 Q1015=
200909210145 METAR LIRA 210145Z 34002KT 9999 SCT018 BKN070 19/17 Q1015=
200909210115 METAR LIRA 210115Z 34003KT 9999 SCT015 SCT070 19/18 Q1015=
200909210045 METAR LIRA 210045Z 33002KT 9999 SCT018 SCT070 19/17 Q1015=
200909210015 METAR LIRA 210015Z 28002KT 9999 SCT018 SCT070 19/17 Q1015=
200909202350 METAR LIRA 210045Z 33002KT 9999 SCT018 SCT070 19/17 Q1015=
200909202345 METAR LIRA 202345Z 00000KT 9999 SCT018 SCT070 19/17 Q1015=
200909202315 METAR LIRA 202315Z 00000KT 9999 SCT018 SCT070 19/18 Q1015=
200909202245 METAR LIRA 202245Z 02003KT 9999 SCT018 SCT070 19/18 Q1015=
200909202215 METAR LIRA 202215Z 04003KT 9000 SCT018 SCT070 19/18 Q1015=
200909202145 METAR LIRA 202145Z 04003KT 9000 SCT018 SCT070 20/18 Q1015=
200909202115 METAR LIRA 202115Z 04003KT 9000 FEW018 SCT070 20/18 Q1015=
200909202045 METAR LIRA 202045Z 31003KT 9000 FEW018 SCT070 20/19 Q1015=
200909202015 METAR LIRA 202015Z 31003KT 9000 SCT018 SCT070 20/19 Q1015=
200909201945 METAR LIRA 201945Z 33003KT 9000 FEW015 BKN070 20/19 Q1015=
200909201915 METAR LIRA 201915Z 01002KT 9000 FEW015 BKN070 20/19 Q1015=
200909201845 METAR LIRA 201845Z 04003KT 9000 FEW015 BKN070 20/19 Q1015=
200909201815 METAR LIRA 201815Z 03003KT 9000 FEW015 BKN070 21/19 Q1014=
200909201745 METAR LIRA 201745Z 04004KT 9000 FEW015 BKN070 21/19 Q1014=
200909201715 METAR LIRA 201715Z 03004KT 9000 FEW015 BKN070 21/19 Q1014=
200909201645 METAR LIRA 201645Z 03004KT 9000 FEW015 BKN070 21/19 Q1015=
200909201615 METAR LIRA 201615Z 04004KT 9000 FEW015 BKN070 21/19 Q1015=
200909201545 METAR LIRA 201545Z 04004KT 9000 FEW013 BKN070 22/19 Q1015=
200909201515 METAR LIRA 201515Z 03003KT 9000 SCT013 SCT070 22/19 Q1015=
200909201445 METAR LIRA 201445Z 35002KT 9000 -RA FEW016 SCT040 BKN070
                        21/19 Q1015=
200909201415 METAR LIRA 201415Z 00000KT 8000 -RA FEW016 SCT040 BKN070
                        21/19 Q1015=
200909201345 METAR LIRA 201345Z 00000KT 7000 -RA FEW016 SCT040 BKN070
                        21/19 Q1016=
200909201315 METAR LIRA 201315Z 00000KT 7000 -RA FEW016 SCT040 BKN070
                        21/19 Q1016=
200909201245 METAR LIRA 201245Z 19002KT 9000 -RA FEW016 SCT040 BKN070
                        20/19 Q1016=
200909201215 METAR LIRA 201215Z 18004KT 9000 -RA FEW018 SCT040 BKN070
                        20/18 Q1016=
200909201145 METAR LIRA 201145Z 18004KT 9999 -RA FEW020 BKN070 21/18 Q1016=
200909201115 METAR LIRA 201115Z 21003KT 9999 -RA FEW020 BKN070 21/17 Q1016=
200909201045 METAR LIRA 201045Z 11001KT 9999 FEW016 FEW020CB BKN070 21/17
                        Q1016=
200909201015 METAR LIRA 201015Z 07002KT 9999 FEW016 FEW020CB BKN070 21/17
                        Q1016=
200909200945 METAR LIRA 200945Z 08002KT 9999 FEW016 FEW020CB BKN070 21/17
                        Q1016=
200909200915 METAR LIRA 200915Z 24002KT 9999 FEW016 SCT030 BKN070 21/18
                        Q1016=
200909200845 METAR LIRA 200845Z 32002KT 9999 SCT016 SCT030 21/18 Q1015=
200909200815 METAR LIRA 200815Z 32004KT 9999 FEW018 SCT070 21/17 Q1015=
200909200745 METAR LIRA 200745Z 29003KT 9999 FEW018 FEW020CB SCT070 20/17
                        Q1015=
200909200715 METAR LIRA 200715Z 33002KT 9999 FEW018 FEW020CB BKN070 20/18
                        Q1015=
200909200645 METAR LIRA 200645Z 30003KT 9999 FEW018 FEW020CB BKN070 19/17
                        Q1014=
200909200615 METAR LIRA 200615Z 34003KT 9999 FEW018 FEW020CB BKN070 19/17
                        Q1014=
200909200545 METAR LIRA 200545Z 03002KT 9999 FEW018 BKN070 18/17 Q1014=
200909200515 METAR LIRA 200515Z 01002KT 9999 FEW018 SCT030 BKN070 18/17
                        Q1014=
200909200445 METAR LIRA 200445Z 03002KT 9999 FEW018 SCT030 BKN070 19/17
                        Q1014=
200909200415 METAR LIRA 200415Z 03004KT 9999 FEW018 SCT070 19/17 Q1014=
200909200345 METAR LIRA 200345Z 35003KT 9999 FEW015 SCT030 BKN060 19/17
                        Q1014 RERA=
200909200315 METAR LIRA 200315Z 05002KT 9999 FEW015 SCT030 BKN060 19/17
                        Q1015 RERA=
200909200245 METAR LIRA 200245Z 00000KT 9999 -RA FEW015 SCT030 BKN060
                        19/18 Q1015=
200909200215 METAR LIRA 200215Z 32002KT 9999 -RA FEW015 FEW020CB BKN060
                        19/17 Q1015=
200909200145 METAR LIRA 200145Z 00000KT 9999 -RA FEW015 FEW020CB BKN060
                        19/17 Q1015=
200909200115 METAR LIRA 200115Z 05003KT 9999 -RA FEW015 FEW020CB BKN060
                        19/17 Q1016=
200909200045 METAR LIRA 200045Z 07004KT 9999 -RA FEW015 FEW020CB BKN060
                        19/17 Q1016=
200909200015 METAR LIRA 200015Z 04003KT 9999 -RA FEW015 FEW020CB BKN060
                        19/17 Q1016 RETS=
200909192350 METAR LIRA 200045Z 07004KT 9999 -RA FEW015 FEW020CB BKN060
                        19/17 Q1016=
200909192345 METAR LIRA 192345Z 01002KT 9999 -TSRA FEW015 FEW020CB BKN060
                        19/17 Q1016=
200909192315 METAR LIRA 192315Z 09002KT 8000 -TSRA FEW015 FEW020CB BKN060
                        19/17 Q1017=
200909192245 METAR LIRA 192245Z 18003KT 9999 -TSRA FEW015 FEW020CB BKN060
                        19/17 Q1017=
200909192215 METAR LIRA 192215Z 24005KT 200V310 9999 -TSRA FEW015 FEW020CB
                        BKN070 20/18 Q1017=
200909192145 METAR LIRA 192145Z 23005KT 9999 -TSRA FEW015 FEW020CB BKN060
                        20/17 Q1016=
200909192115 METAR LIRA 192115Z 25003KT 9999 TS FEW015 FEW020CB SCT070
                        21/17 Q1016=
200909192045 METAR LIRA 192045Z 26002KT 9999 FEW015 FEW020CB SCT060 21/16
                        Q1016 RETS=
200909192015 METAR LIRA 192015Z 16005KT 9999 FEW015 FEW020CB SCT070 21/16
                        Q1016 RETS=
200909191945 METAR LIRA 191945Z 10005KT 070V130 9999 TS FEW015 FEW020CB
                        21/17 Q1016=
200909191915 METAR LIRA 191915Z 09006KT 9999 TS FEW015 FEW020CB SCT025
                        21/17 Q1016=
200909191845 METAR LIRA 191845Z 08010G20KT 9999 -TSRA SCT015 SCT020CB
                        21/16 Q1016=
200909191815 METAR LIRA 191815Z 31002KT 9999 -TS FEW015 SCT020CB 23/18
                        Q1016=
200909191745 METAR LIRA 191745Z 22002KT 9999 FEW015 SCT020CB 23/18 Q1016=
200909191715 METAR LIRA 191715Z 25004KT 210V290 9999 FEW020 FEW022CB SCT080
                        24/18 Q1016=
200909191645 METAR LIRA 191645Z 26003KT 210V300 9999 FEW020 FEW022TCU
                        SCT080 24/19 Q1016=
200909191615 METAR LIRA 191615Z 25009KT 200V320 9999 FEW020 FEW022TCU
                        SCT200 25/18 Q1016=
200909191545 METAR LIRA 191545Z 26008KT 200V320 9999 FEW020 FEW022TCU
                        SCT200 26/16 Q1016=
200909191515 METAR LIRA 191515Z 26008KT 210V330 9999 FEW020 FEW022TCU
                        SCT200 25/15 Q1016=
200909191445 METAR LIRA 191445Z 27008KT 220V330 9999 FEW020 FEW022TCU
                        SCT200 27/13 Q1015=
200909191415 METAR LIRA 191415Z 27009KT 220V330 9999 FEW020 FEW022TCU
                        SCT200 27/13 Q1015=
200909191345 METAR LIRA 191345Z 29006KT 210V340 9999 FEW020 FEW022TCU
                        SCT080 28/13 Q1016=
200909191315 METAR LIRA 191315Z 26007KT 220V330 9999 FEW022 SCT080 28/14
                        Q1016=
200909191245 METAR LIRA 191245Z 28005KT 220V350 9999 FEW022 SCT080 28/13
                        Q1016=
200909191215 METAR LIRA 191215Z 28008KT 250V360 9999 FEW022 SCT080 28/13
                        Q1016=
200909191145 METAR LIRA 191145Z 33006KT 290V030 9999 FEW022 27/15 Q1017=
200909191115 METAR LIRA 191115Z 34005KT 270V030 9999 FEW022 27/14 Q1017=
200909191045 METAR LIRA 191045Z 34005KT 300V070 9999 FEW022 27/15 Q1017=
200909191015 METAR LIRA 191015Z 36004KT 300V070 9999 FEW022 26/14 Q1017=
200909190945 METAR LIRA 190945Z 36005KT 330V070 9999 FEW022 SCT070 25/16
                        Q1017=
200909190915 METAR LIRA 190915Z 04004KT 330V070 9999 FEW020 FEW022CB 25/16
                        Q1018=
200909190845 METAR LIRA 190845Z 31005KT 9999 FEW020 FEW022CB 24/17 Q1018=
200909190815 METAR LIRA 190815Z 35006KT 330V040 9999 FEW020 FEW022TCU
                        23/17 Q1017=
200909190745 METAR LIRA 190745Z 35003KT 9999 FEW022 22/17 Q1017=
200909190715 METAR LIRA 190715Z 02002KT 9999 FEW022TCU 21/16 Q1017=
200909190645 METAR LIRA 190645Z 03003KT 9999 FEW022 SCT070 20/16 Q1017=
200909190615 METAR LIRA 190615Z 04002KT 9999 FEW025 SCT070 19/17 Q1017=
200909190545 METAR LIRA 190545Z 03003KT 9999 FEW025 SCT070 17/15 Q1017=
200909190515 METAR LIRA 190515Z 00000KT 9999 FEW025 17/16 Q1016=
200909190445 METAR LIRA 190445Z 00000KT 9999 FEW020 SCT070 17/16 Q1016=
200909190415 METAR LIRA 190415Z 00000KT 9999 SCT070 17/15 Q1016=
200909190345 METAR LIRA 190345Z 06002KT 9999 SCT070 17/16 Q1016=
200909190315 METAR LIRA 190315Z 00000KT 9999 FEW070 18/16 Q1017=
200909190245 METAR LIRA 190245Z 00000KT 9999 FEW070 18/16 Q1017=
200909190215 METAR LIRA 190215Z 00000KT 9999 SCT070 18/16 Q1017=
200909190145 METAR LIRA 190145Z 00000KT 9999 SCT070 19/17 Q1017=
200909190115 METAR LIRA 190115Z 00000KT 9999 FEW070 19/16 Q1017=
200909190045 METAR LIRA 190045Z 06002KT 9999 FEW070 19/16 Q1017=
200909190015 METAR LIRA 190015Z 00000KT 9999 FEW070 20/17 Q1017=
200909182350 METAR LIRA 190045Z 06002KT 9999 FEW070 19/16 Q1017=
200909182345 METAR LIRA 182345Z 01001KT 9999 FEW030 20/17 Q1017=
200909182315 METAR LIRA 182315Z 35001KT 9999 FEW030 20/17 Q1017=
200909182245 METAR LIRA 182245Z 00000KT 9999 FEW030 20/16 Q1017=
200909182215 METAR LIRA 182215Z 00000KT 9999 FEW020 SCT070 21/16 Q1017=
200909182145 METAR LIRA 182145Z 00000KT 9999 FEW020 SCT070 21/17 Q1017=
200909182115 METAR LIRA 182115Z 29003KT 9999 FEW020 BKN070 22/18 Q1017=
200909182045 METAR LIRA 182045Z 23002KT 9999 BKN070 22/18 Q1017=
200909182015 METAR LIRA 182015Z 23002KT 9999 SCT070 SCT080 22/18 Q1017=
200909181945 METAR LIRA 181945Z 23002KT 9999 SCT070 22/18 Q1017=
200909181915 METAR LIRA 181915Z 20002KT 9999 SCT070 22/18 Q1017=
200909181845 METAR LIRA 181845Z 22002KT 9999 SCT070 SCT080 22/18 Q1017=
200909181815 METAR LIRA 181815Z 21002KT 9999 SCT070 SCT080 22/18 Q1016=
200909181745 METAR LIRA 181745Z 23002KT 9999 SCT070 SCT080 23/17 Q1016=
200909181715 METAR LIRA 181715Z 24002KT 9999 SCT060 SCT090 23/16 Q1016=
200909181645 METAR LIRA 181645Z 26004KT 200V300 9999 FEW016 SCT060 24/14
                        Q1016=
200909181615 METAR LIRA 181615Z 26005KT 210V330 9999 FEW018 SCT060 24/15
                        Q1016=
200909181545 METAR LIRA 181545Z 25006KT 200V310 9999 FEW018 25/13 Q1016=
200909181515 METAR LIRA 181515Z 28006KT 220V310 9999 FEW018 25/11 Q1017=
200909181445 METAR LIRA 181445Z 27007KT 210V330 9999 FEW018 26/11 Q1017=
200909181415 METAR LIRA 181415Z 27005KT 200V340 9999 FEW018 26/09 Q1017=
200909181345 METAR LIRA 181345Z 28007KT 210V320 9999 FEW018 26/10 Q1017=
200909181315 METAR LIRA 181315Z 28010KT 220V320 9999 FEW018 SCT090 27/13
                        Q1017=
200909181245 METAR LIRA 181245Z 27007KT 190V310 9999 SCT018 28/17 Q1017=
200909181215 METAR LIRA 181215Z 24006KT 190V330 9999 FEW018 27/17 Q1017=
200909181145 METAR LIRA 181145Z 29005KT 240V320 9999 SCT018 27/13 Q1017=
200909181115 METAR LIRA 181115Z 02001KT 270V360 9999 SCT018 27/14 Q1017=
200909181045 METAR LIRA 181045Z 03003KT 9999 FEW020 SCT200 26/14 Q1017=
200909181015 METAR LIRA 181015Z 04004KT 9999 FEW020 26/15 Q1017=
200909180945 METAR LIRA 180945Z 31004KT 9999 FEW020 25/16 Q1017=
200909180915 METAR LIRA 180915Z 30002KT 9999 FEW020 24/17 Q1017=
200909180845 METAR LIRA 180845Z 33003KT 9999 FEW018 23/18 Q1017=
200909180815 METAR LIRA 180815Z 31003KT CAVOK 21/17 Q1017=
200909180745 METAR LIRA 180745Z 35003KT CAVOK 21/17 Q1016=
200909180715 METAR LIRA 180715Z 03005KT 320V070 CAVOK 19/17 Q1016=
200909180615 METAR LIRA 180615Z 36004KT CAVOK 18/16 Q1016=
200909180545 METAR LIRA 180545Z 05004KT CAVOK 17/17 Q1016=
200909180515 METAR LIRA 180515Z 03002KT CAVOK 17/16 Q1015=
200909180445 METAR LIRA 180445Z 17005KT CAVOK 17/16 Q1015=
200909180415 METAR LIRA 180415Z 36001KT CAVOK 17/16 Q1015=
200909180345 METAR LIRA 180345Z 02002KT CAVOK 17/16 Q1015=
200909180315 METAR LIRA 180315Z 35002KT CAVOK 17/16 Q1015=
200909180245 METAR LIRA 180245Z 08003KT CAVOK 17/16 Q1015=
200909180215 METAR LIRA 180215Z 06004KT CAVOK 17/16 Q1015=
200909180145 METAR LIRA 180145Z 05003KT CAVOK 18/17 Q1015=
200909180115 METAR LIRA 180115Z 00000KT CAVOK 18/17 Q1015=
200909180045 METAR LIRA 180045Z 00000KT CAVOK 18/17 Q1015=
200909180015 METAR LIRA 180015Z 20002KT CAVOK 19/17 Q1015=
200909172350 METAR LIRA 180045Z 00000KT CAVOK 18/17 Q1015=
200909172345 METAR LIRA 172345Z 22002KT CAVOK 19/17 Q1015=
200909172315 METAR LIRA 172315Z 00000KT CAVOK 19/17 Q1015=
200909172245 METAR LIRA 172245Z 00000KT CAVOK 19/17 Q1015=
200909172215 METAR LIRA 172215Z 10003KT CAVOK 20/17 Q1015=
200909172145 METAR LIRA 172145Z 10002KT CAVOK 20/18 Q1015=
200909172115 METAR LIRA 172115Z 00000KT CAVOK 21/18 Q1015=
200909172045 METAR LIRA 172045Z 00000KT 9999 FEW080 21/17 Q1015=
200909172015 METAR LIRA 172015Z 00000KT 9999 FEW060 21/17 Q1015=
200909171945 METAR LIRA 171945Z 19003KT 9999 FEW080 21/17 Q1015=
200909171915 METAR LIRA 171915Z 23003KT 9999 FEW080 22/17 Q1014=
200909171845 METAR LIRA 171845Z 25003KT 9999 FEW020 22/18 Q1014=
200909171815 METAR LIRA 171815Z 27004KT 9999 FEW020 23/18 Q1013=
200909171745 METAR LIRA 171745Z 00000KT 9999 FEW020 23/18 Q1013=
200909171715 METAR LIRA 171715Z 05002KT 9999 FEW020 23/18 Q1013=
200909171645 METAR LIRA 171645Z 05003KT 9999 FEW020 24/17 Q1013=
200909171615 METAR LIRA 171615Z 05004KT 9999 FEW018 FEW020CB 25/17 Q1013=
200909171545 METAR LIRA 171545Z 23005KT 9999 FEW018 FEW020CB 26/17 Q1013=
200909171515 METAR LIRA 171515Z 10001KT 9999 FEW018 FEW020CB 25/16 Q1013=
200909171445 METAR LIRA 171445Z 27001KT 9999 FEW018 FEW020CB 25/16 Q1013=
200909171415 METAR LIRA 171415Z 09004KT 030V120 9999 FEW018 FEW020CB 25/17
                        Q1013 RETS=
200909171345 METAR LIRA 171345Z 08007KT 040V120 9999 SCT018 FEW020CB 24/18
                        Q1013 RETS=
200909171315 METAR LIRA 171315Z 34009KT 240V010 9999 TS SCT018 FEW020CB
                        24/17 Q1013=
200909171245 METAR LIRA 171245Z 22006KT 180V310 9999 TS SCT018 FEW020CB
                        26/17 Q1012=
200909171215 METAR LIRA 171215Z 20010KT 140V260 9999 BKN018 FEW020CB 26/17
                        Q1012=
200909171145 METAR LIRA 171145Z 19007KT 140V250 9999 BKN020 26/18 Q1012=
200909171115 METAR LIRA 171115Z 16009KT 120V220 9999 BKN020 26/18 Q1012=
200909171045 METAR LIRA 171045Z 16009KT 120V220 9999 BKN020 26/18 Q1012=
200909171015 METAR LIRA 171015Z 18008KT 120V240 9999 SCT020 25/18 Q1012=
200909170945 METAR LIRA 170945Z 17007KT 130V240 9999 SCT020 25/18 Q1012=
200909170915 METAR LIRA 170915Z 16006KT 130V230 9999 SCT018 24/18 Q1012=
200909170845 METAR LIRA 170845Z 18006KT 140V220 9999 SCT017 23/18 Q1012=
200909170745 METAR LIRA 170745Z 08003KT 9999 FEW017 SCT030 21/18 Q1011=
200909170715 METAR LIRA 170715Z 18002KT 9999 FEW017 SCT030 21/18 Q1011=
200909170645 METAR LIRA 170645Z 00000KT 9999 FEW017 SCT030 20/18 Q1011=
200909170615 METAR LIRA 170615Z 07002KT 9999 FEW017 SCT030 20/19 Q1011=
200909170545 METAR LIRA 170545Z 05003KT 9999 FEW017 SCT030 19/18 Q1010=
200909170515 METAR LIRA 170515Z 05005KT 9000 -RA FEW017 FEW020CB BKN030
                        19/18 Q1010=
200909170445 METAR LIRA 170445Z 07005KT 9000 -RA FEW017 FEW020CB SCT030
                        BKN070 19/18 Q1010=
200909170415 METAR LIRA 170415Z 07005KT 010V100 9999 FEW017 SCT080 18/17
                        Q1010=
200909170345 METAR LIRA 170345Z 08005KT 9999 FEW017 SCT080 18/17 Q1010=
200909170315 METAR LIRA 170315Z 18001KT 9999 FEW017 SCT080 19/17 Q1010=
200909170245 METAR LIRA 170245Z 26003KT 9999 FEW017 SCT080 19/17 Q1010=
200909170215 METAR LIRA 170215Z 25003KT 9999 FEW017 19/17 Q1010=
200909170145 METAR LIRA 170145Z 16004KT 9999 FEW017 19/17 Q1010=
200909170115 METAR LIRA 170115Z 00000KT 9999 FEW017 FEW018CB 19/17 Q1010=
200909170045 METAR LIRA 170045Z 13005KT 9999 FEW017 FEW018CB SCT070 19/18
                        Q1011=
200909170015 METAR LIRA 170015Z 13002KT 7000 -RA FEW017 FEW018CB SCT070
                        19/18 Q1011=
200909162350 METAR LIRA 170045Z 13005KT 9999 FEW017 FEW018CB SCT070 19/18
                        Q1011=
200909162345 METAR LIRA 162345Z 25002KT 9999 FEW017 FEW018CB 19/18 Q1010=
200909162315 METAR LIRA 162315Z 00000KT 9999 FEW017 FEW018CB 19/17 Q1010=
200909162245 METAR LIRA 162245Z 23001KT 9999 FEW017 FEW018CB SCT080 19/18
                        Q1010=
200909162215 METAR LIRA 162215Z 30004KT 9999 FEW017 SCT030 25/23 Q1010=
200909162145 METAR LIRA 162145Z 15002KT 9999 FEW017 SCT030 21/17 Q1010=
200909162115 METAR LIRA 162115Z 10010KT 9999 FEW017 FEW018CB SCT030 20/17
                        Q1010=
200909162045 METAR LIRA 162045Z 11011KT 9999 FEW017 FEW018CB SCT030 20/17
                        Q1009=
200909162015 METAR LIRA 162015Z 11006KT 9999 FEW017 FEW018CB SCT030 20/16
                        Q1009=
200909161945 METAR LIRA 161945Z 07003KT 9999 FEW017 FEW018CB SCT030 20/17
                        Q1010=
200909161915 METAR LIRA 161915Z 09005KT 040V120 9999 FEW017 FEW018CB SCT030
                        19/17 Q1010 RETS=
200909161845 METAR LIRA 161845Z 11011KT 9999 FEW017 FEW018CB SCT030 20/17
                        Q1010 RETS=
200909161815 METAR LIRA 161815Z 15012KT 100V170 6000 -TSRA SCT007 SCT015CB
                        BKN025 20/19 Q1010=
200909161745 METAR LIRA 161745Z 14011KT 110V180 9999 TS SCT017 SCT018CB
                        23/18 Q1009=
200909161715 METAR LIRA 161715Z 15008KT 9999 SCT017 FEW018CB SCT030 23/18
                        Q1009=
200909161645 METAR LIRA 161645Z 13009KT 070V160 9999 SCT017 FEW018CB 24/20
                        Q1009=
200909161615 METAR LIRA 161615Z 14010KT 100V180 9999 FEW017CB SCT018 24/19
                        Q1009=
200909161545 METAR LIRA 161545Z 15015KT 120V180 9999 FEW017CB SCT018 25/18
                        Q1010=
200909161515 METAR LIRA 161515Z 14014KT 9999 FEW017TCU SCT018 25/18 Q1009=
200909161445 METAR LIRA 161445Z 13013KT 9999 FEW017TCU SCT018 25/18 Q1009=
200909161415 METAR LIRA 161415Z 14013KT 100V180 9999 SCT018 25/17 Q1009=
200909161345 METAR LIRA 161345Z 14015KT 110V170 9999 FEW018 FEW020CB SCT025
                        25/16 Q1009=
200909161315 METAR LIRA 161315Z 14016KT 100V180 9999 SCT017 FEW018CB 25/15
                        Q1009=
200909161245 METAR LIRA 161245Z 15015KT 110V180 9999 SCT017 FEW018CB 25/14
                        Q1010=
200909161215 METAR LIRA 161215Z 15015KT 110V180 9999 SCT017 FEW018TCU
                        SCT070 25/15 Q1010=
200909161145 METAR LIRA 161145Z 14013KT 110V180 9999 SCT017 FEW018TCU
                        SCT070 25/15 Q1009=
200909161115 METAR LIRA 161115Z 17007KT 100V200 9999 SCT017 SCT070 24/17
                        Q1010=
200909161045 METAR LIRA 161045Z 16005KT 9999 FEW018 SCT070 23/18 Q1010=
200909161015 METAR LIRA 161015Z 18005KT 150V250 9999 FEW018 SCT070 23/18
                        Q1010=
200909160945 METAR LIRA 160945Z 20003KT 9999 FEW018 SCT060 23/18 Q1009=
200909160915 METAR LIRA 160915Z 18005KT 150V230 9999 FEW018 SCT060 BKN090
                        23/19 Q1009=
200909160845 METAR LIRA 160845Z 20003KT 9999 FEW018 SCT035 23/18 Q1008=
200909160815 METAR LIRA 160815Z 09004KT 020V110 9999 FEW017 FEW020CB SCT035
                        BKN080 21/18 Q1008=
200909160745 METAR LIRA 160745Z 08014KT 050V110 9999 SCT017 FEW020CB SCT035
                        21/17 Q1008=
200909160715 METAR LIRA 160715Z 06011KT 010V130 9999 SCT012 FEW020CB BKN035
                        21/17 Q1009=
200909160645 METAR LIRA 160645Z 06008KT 030V110 9999 SCT012 FEW020CB BKN035
                        20/17 Q1009=
200909160615 METAR LIRA 160615Z 03004KT 360V070 9000 -RA SCT017 FEW020CB
                        BKN035 20/18 Q1009=
200909160545 METAR LIRA 160545Z 14008KT 110V180 9000 -RA SCT017 FEW020CB
                        BKN035 21/18 Q1009=
200909160515 METAR LIRA 160515Z 13010KT 100V160 8000 SCT016 FEW020CB BKN035
                        21/18 Q1009=
200909160445 METAR LIRA 160445Z 15013KT 120V180 8000 -RA SCT016 FEW020CB
                        BKN030 22/19 Q1009=
200909160345 METAR LIRA 160345Z 12021KT 9999 SCT015 FEW018CB BKN030 23/18
                        Q1008 RETS=
200909160315 METAR LIRA 160315Z 12016KT 8000 -TSRA SCT015 FEW018CB BKN030
                        22/18 Q1009=
200909160245 METAR LIRA 160245Z 11013G25KT 060V150 8000 -TSRA SCT015 FEW018CB
                        BKN030 22/16 Q1010=
200909160215 METAR LIRA 160215Z 10012G22KT 010V190 9999 -TSRA SCT015 FEW018CB
                        BKN030 21/16 Q1010=
200909160145 METAR LIRA 160145Z 12011KT 9999 -RA SCT012 FEW017CB SCT030
                        20/17 Q1011=
200909160115 METAR LIRA 160115Z 14006KT 090V250 8000 -RA SCT012 FEW017CB
                        BKN030 19/18 Q1011 RETS=
200909160045 METAR LIRA 160045Z 06003KT 8000 SCT012 FEW017CB SCT030 19/18
                        Q1012 RETS=
200909160015 METAR LIRA 160015Z 07006KT 050V170 6000 -TSRA SCT010 SCT015CB
                        BKN025 19/18 Q1012=
200909152345 METAR LIRA 152345Z 06005KT 020V090 5000 TSRA SCT004 SCT015CB
                        BKN025 19/18 Q1013=
200909152315 METAR LIRA 152315Z 28007KT 240V330 5000 TSRA SCT004 SCT015CB
                        BKN025 19/18 Q1013=
200909152245 METAR LIRA 152245Z 30007KT 260V350 6000 -TSRA SCT008 SCT016CB
                        BKN025 20/19 Q1013=
200909152215 METAR LIRA 152215Z 30012KT 260V320 6000 -TSRA SCT008 SCT016CB
                        BKN025 21/19 Q1012=
200909152145 METAR LIRA 152145Z 10004KT 060V130 6000 -TSRA SCT012 SCT017CB
                        BKN025 22/18 Q1012=
200909152115 METAR LIRA 152115Z 10010KT 060V130 8000 -TSRA SCT015 SCT017CB
                        BKN030 22/19 Q1012=
200909152045 METAR LIRA 152045Z 05005KT 010V160 8000 -TSRA SCT015 SCT017CB
                        BKN030 23/18 Q1012=
200909152015 METAR LIRA 152015Z 08005KT 060V120 9999 TS SCT016 SCT020CB
                        23/18 Q1012=
200909151945 METAR LIRA 151945Z 07005KT 9999 TS SCT016 SCT020CB 23/19
                        Q1012 RETS=
200909151915 METAR LIRA 151915Z 05002KT 040V140 9999 TS SCT016 SCT020CB
                        23/19 Q1012 RETS=
200909151845 METAR LIRA 151845Z 10004KT 050V110 8000 -TSRA SCT016 SCT020CB
                        23/19 Q1013=
200909151815 METAR LIRA 151815Z 12010KT 100V170 9999 TS SCT016 SCT020CB
                        24/20 Q1013=
200909151745 METAR LIRA 151745Z 12014KT 9999 SCT016 FEW020CB 24/19 Q1013=
200909151715 METAR LIRA 151715Z 15010KT 9999 SCT016 FEW020CB 25/19 Q1013=
200909151645 METAR LIRA 151645Z 15011KT 110V190 9999 SCT016 FEW020CB 25/19
                        Q1013=
200909151615 METAR LIRA 151615Z 17014KT 9999 SCT017 FEW020CB 25/18 Q1013=
200909151545 METAR LIRA 151545Z 15015KT 120V180 9999 FEW017 FEW018CB SCT200
                        25/17 Q1013=
200909151515 METAR LIRA 151515Z 16016KT 130V190 9999 FEW017 FEW018CB 25/18
                        Q1013=
200909151445 METAR LIRA 151445Z 14014KT 120V200 9999 SCT017 FEW018CB 26/18
                        Q1013=
200909151415 METAR LIRA 151415Z 15012KT 110V190 9999 FEW017 FEW018CB SCT200
                        26/17 Q1013=
200909151345 METAR LIRA 151345Z 17015KT 120V190 9999 SCT017 FEW018CB SCT080
                        26/15 Q1014=
200909151315 METAR LIRA 151315Z 14015KT 120V180 9999 SCT017 FEW018CB SCT080
                        26/16 Q1014=
200909151245 METAR LIRA 151245Z 16014KT 120V190 9999 FEW017 FEW018CB SCT080
                        25/17 Q1014=
200909151215 METAR LIRA 151215Z 15015KT 9999 SCT017 FEW018CB 25/18 Q1014=
200909151145 METAR LIRA 151145Z 16015KT 100V200 9999 FEW017 FEW018CB 25/17
                        Q1014=
200909151115 METAR LIRA 151115Z 14013KT 110V180 9999 FEW017 FEW018CB SCT200
                        23/17 Q1014=
200909151045 METAR LIRA 151045Z 15010KT 110V180 9999 FEW017 FEW018CB SCT080
                        23/16 Q1014=
200909151015 METAR LIRA 151015Z 15014KT 110V170 9999 FEW017 SCT080 24/16
                        Q1014=
200909150945 METAR LIRA 150945Z 15013KT 110V180 9999 FEW017 BKN080 23/16
                        Q1014=
200909150915 METAR LIRA 150915Z 13012KT 100V170 9999 FEW017 BKN080 22/16
                        Q1014=
200909150845 METAR LIRA 150845Z 13011KT 9999 FEW017 BKN080 23/17 Q1013=
200909150815 METAR LIRA 150815Z 15013KT 110V170 9999 FEW017 BKN080 22/15
                        Q1013=
200909150745 METAR LIRA 150745Z 11008KT 080V150 9999 FEW017 FEW018CB SCT070
                        22/17 Q1013=
200909150715 METAR LIRA 150715Z 11007KT 070V140 9999 FEW017 FEW018CB SCT080
                        21/17 Q1013=
200909150645 METAR LIRA 150645Z 03002KT 9999 FEW017 19/17 Q1012=
200909150615 METAR LIRA 150615Z 04005KT 9999 FEW017 SCT080 18/16 Q1012=
200909150545 METAR LIRA 150545Z 07007KT 040V130 9999 FEW017 FEW018CB SCT070
                        18/16 Q1012=
200909150515 METAR LIRA 150515Z 06007KT 9999 -RA SCT017 FEW018CB BKN025
                        18/16 Q1012=
200909150445 METAR LIRA 150445Z 08003KT 060V120 7000 -RA SCT017 FEW018CB
                        BKN025 17/17 Q1012 RETS=
200909150415 METAR LIRA 150415Z 06009KT 030V120 7000 RA SCT017 FEW018CB
                        BKN025 17/17 Q1013 RETS=
200909150345 METAR LIRA 150345Z 17006KT 9000 -TSRA SCT017 FEW018CB BKN030
                        18/17 Q1012=
200909150315 METAR LIRA 150315Z 13005KT 100V160 9000 -TSRA SCT017 FEW018CB
                        BKN030 18/17 Q1012=
200909150245 METAR LIRA 150245Z 23005KT 180V310 5000 -TSRA SCT017 FEW018CB
                        BKN030 19/18 Q1012=
200909150215 METAR LIRA 150215Z 10007KT 060V160 9000 -TSRA FEW017 FEW018CB
                        BKN030 19/16 Q1012=
200909150145 METAR LIRA 150145Z 04005KT 9999 FEW017 FEW018CB BKN030 20/17
                        Q1012=
200909142345 METAR LIRA 142345Z 33004KT 9999 FEW018 FEW020CB 19/18 Q1012=
200909142315 METAR LIRA 142315Z 09004KT 9999 FEW018 FEW020CB 20/17 Q1012=
200909142245 METAR LIRA 142245Z 08004KT 9999 FEW018 FEW020CB 20/17 Q1012=
200909142215 METAR LIRA 142215Z 10005KT 060V150 9999 FEW018 FEW020CB 21/18
                        Q1012=
200909142145 METAR LIRA 142145Z 10006KT 070V160 9999 FEW018 FEW020CB 21/17
                        Q1012=
200909142115 METAR LIRA 142115Z 14005KT 9999 FEW017 FEW018CB 19/16 Q1012=
200909142045 METAR LIRA 142045Z 00000KT 9999 FEW017 FEW018CB 19/18 Q1012=
200909142015 METAR LIRA 142015Z 11002KT 9999 FEW017 FEW018CB 19/18 Q1012=
200909141945 METAR LIRA 141945Z 05005KT 020V140 9999 SCT017 FEW018CB 19/18
                        Q1012 RETS=
200909141915 METAR LIRA 141915Z 08006KT 9999 SCT017 FEW018CB SCT070 19/18
                        Q1012 RETS=
200909141845 METAR LIRA 141845Z 30003KT 9999 -TSRA BKN016 FEW018CB 19/17
                        Q1011=
200909141815 METAR LIRA 141815Z 24004KT 210V320 9000 -TSRA BKN016 SCT018CB
                        20/18 Q1011=
200909141745 METAR LIRA 141745Z 18004KT 9999 BKN016 FEW018CB 23/16 Q1011=
200909141715 METAR LIRA 141715Z 19004KT 9999 BKN016 FEW018CB 23/16 Q1010=
200909141645 METAR LIRA 141645Z 22007KT 170V260 9999 SCT016 FEW018CB 24/16
                        Q1010=
200909141615 METAR LIRA 141615Z 21009KT 180V270 9999 BKN016 FEW018CB 24/17
                        Q1010=
200909141545 METAR LIRA 141545Z 18006KT 150V270 9999 BKN016 FEW018CB 23/17
                        Q1010=
200909141515 METAR LIRA 141515Z 22011KT 180V270 9999 BKN016 FEW018CB 25/18
                        Q1010=
200909141445 METAR LIRA 141445Z 22008KT 160V270 9999 BKN016 FEW018CB 25/19
                        Q1010 RETS=
200909141415 METAR LIRA 141415Z 21005KT 9999 TS BKN016 FEW018CB 23/20
                        Q1010 RETS=
200909141345 METAR LIRA 141345Z 21005KT 170V250 8000 -TSRA BKN016 FEW018CB
                        22/16 Q1010=
200909141315 METAR LIRA 141315Z 21006KT 160V260 9999 TS BKN016 FEW017CB
                        24/15 Q1010=
200909141245 METAR LIRA 141245Z 23010KT 160V260 9999 SCT018 FEW020CB 26/14
                        Q1010=
200909141215 METAR LIRA 141215Z 21010KT 160V270 9999 SCT018 FEW020CB 26/15
                        Q1010=
200909141145 METAR LIRA 141145Z 19010KT 140V250 9999 SCT018 FEW020CB 27/16
                        Q1010=
200909141115 METAR LIRA 141115Z 18010KT 120V230 9999 SCT018 FEW020TCU
                        27/16 Q1010=
200909141045 METAR LIRA 141045Z 14013KT 120V200 9999 SCT018 FEW020TCU
                        27/16 Q1010=
200909141015 METAR LIRA 141015Z 14010KT 080V190 9999 SCT018 FEW020TCU
                        26/16 Q1010=
200909140945 METAR LIRA 140945Z 18012KT 100V200 9999 SCT018 25/16 Q1010=
200909140915 METAR LIRA 140915Z 17009KT 110V210 9999 SCT018 25/17 Q1010=
200909140845 METAR LIRA 140845Z 16011KT 9999 SCT015 FEW017TCU 25/18 Q1010=
200909140815 METAR LIRA 140815Z 15010KT 120V200 9999 SCT015 FEW017CB 24/18
                        Q1010=
200909140745 METAR LIRA 140745Z 14009KT 9999 SCT015 FEW017CB 23/18 Q1010=
200909140715 METAR LIRA 140715Z 36002KT 9999 FEW015 FEW017CB 21/18 Q1010=
200909140645 METAR LIRA 140645Z 03002KT 9999 FEW015 FEW017CB 20/17 Q1010=
200909140615 METAR LIRA 140615Z 00000KT 9999 FEW015 FEW017CB 19/17 Q1010=
200909140545 METAR LIRA 140545Z 03001KT 9999 FEW015 FEW017CB 18/16 Q1010=
200909140515 METAR LIRA 140515Z 30002KT 9999 FEW015 FEW017CB 18/15 Q1010=
200909140445 METAR LIRA 140445Z 11004KT 9999 FEW015 FEW017CB 18/15 Q1010=
200909140415 METAR LIRA 140415Z 11002KT 9999 FEW015 FEW017CB 18/15 Q1010=
200909140345 METAR LIRA 140345Z 09005KT 020V120 9999 SCT030 SCT060 17/15
                        Q1010=
200909140315 METAR LIRA 140315Z 06001KT 9999 FEW025 17/16 Q1010=
200909140245 METAR LIRA 140245Z 03001KT 9999 SCT060 17/16 Q1010=
200909140215 METAR LIRA 140215Z 02002KT 9999 VCTS FEW020CB 17/16 Q1010=
200909140145 METAR LIRA 140145Z 05003KT 9999 VCTS FEW020TCU 17/17 Q1010=
200909140115 METAR LIRA 140115Z 05002KT 9999 VCTS FEW020TCU 18/15 Q1010=
200909140045 METAR LIRA 140045Z 12003KT 9999 SCT060 18/16 Q1011=
200909140015 METAR LIRA 140015Z 04003KT 9999 FEW025 SCT060 18/17 Q1011=
200909132345 METAR LIRA 132345Z 04001KT 9999 FEW020 SCT060 19/16 Q1011=
200909132315 METAR LIRA 132315Z 08002KT 9999 FEW020 SCT060 19/16 Q1011=
200909132245 METAR LIRA 132245Z 17001KT 9999 VCTS FEW020TCU SCT060 19/16
                        Q1011=
200909132215 METAR LIRA 132215Z 13002KT 9999 VCTS FEW020TCU SCT030 19/17
                        Q1011=
200909132145 METAR LIRA 132145Z 33001KT 9999 VCTS FEW020TCU 19/17 Q1011=
200909132115 METAR LIRA 132115Z 11002KT 9999 VCTS FEW020TCU 19/17 Q1011=
200909132045 METAR LIRA 132045Z 08001KT 9999 VCTS FEW020TCU 19/17 Q1011=
200909132015 METAR LIRA 132015Z 12003KT 9999 FEW070 19/17 Q1011=
200909131945 METAR LIRA 131945Z 10002KT 9999 SCT035 19/17 Q1011=
200909131915 METAR LIRA 131915Z 11004KT 9999 SCT035 20/17 Q1011=
200909131845 METAR LIRA 131845Z 09003KT 9999 FEW018 SCT035 20/17 Q1011=
200909131815 METAR LIRA 131815Z 11003KT 9999 FEW017 FEW020TCU SCT030 20/17
                        Q1011=
200909131745 METAR LIRA 131745Z 10002KT 9999 FEW017 FEW020CB 21/17 Q1011
                        RETS=
200909131715 METAR LIRA 131715Z 07004KT 9999 TS FEW016 FEW019CB SCT030
                        22/19 Q1011=
200909131645 METAR LIRA 131645Z 10002KT 8000 TSRA FEW016 SCT019CB 23/16
                        Q1011=
200909131615 METAR LIRA 131615Z 18007KT 9999 TS FEW017 SCT020CB 24/17
                        Q1011=
200909131545 METAR LIRA 131545Z 23005KT 180V270 9999 TS FEW017 FEW018CB
                        SCT070 27/18 Q1011=
200909131515 METAR LIRA 131515Z 18003KT 9999 FEW017 FEW018CB 26/16 Q1011=
200909131445 METAR LIRA 131445Z 18003KT 130V200 9999 FEW017 FEW018CB 25/18
                        Q1011=
200909131415 METAR LIRA 131415Z 00000KT 9999 SCT018CB 26/16 Q1011=
200909131345 METAR LIRA 131345Z 07003KT 9999 FEW017 FEW018CB 24/17 Q1012
                        RETS=
200909131315 METAR LIRA 131315Z 00000KT 9999 FEW017 FEW018CB SCT033 23/18
                        Q1012=
200909131245 METAR LIRA 131245Z 24001KT 9999 -TSRA FEW017 FEW018CB SCT033
                        22/19 Q1012=
200909131215 METAR LIRA 131215Z 23002KT 9999 -TSRA FEW017 FEW018CB BKN033
                        23/15 Q1012=
200909131145 METAR LIRA 131145Z 35005KT 320V060 9999 FEW017 FEW018CB 24/15
                        Q1012=
200909131115 METAR LIRA 131115Z 04006KT 340V100 9999 FEW017 FEW018CB 24/15
                        Q1013=
200909131045 METAR LIRA 131045Z 02005KT 320V100 9999 FEW017 FEW018CB SCT030
                        23/16 Q1013=
200909131015 METAR LIRA 131015Z 34010KT 280V050 9999 FEW017 FEW018CB SCT030
                        24/15 Q1013=
200909130945 METAR LIRA 130945Z 34007KT 280V060 9999 FEW017 FEW018CB 23/15
                        Q1013=
200909130915 METAR LIRA 130915Z 32011KT 260V350 9999 FEW017 FEW018CB 25/15
                        Q1013=
200909130845 METAR LIRA 130845Z 29004KT 9999 FEW018 FEW020CB 25/15 Q1013=
200909130815 METAR LIRA 130815Z 01006KT 340V050 9999 FEW018 FEW020CB 24/16
                        Q1013=
200909130745 METAR LIRA 130745Z 03004KT 9999 FEW018 FEW020TCU 21/16 Q1013=
200909130715 METAR LIRA 130715Z 03003KT 9999 FEW018 FEW020TCU 19/15 Q1012=
200909130645 METAR LIRA 130645Z 01003KT 9999 FEW018 FEW020TCU 18/15 Q1012=
200909130615 METAR LIRA 130615Z 03002KT 9999 FEW018 17/15 Q1012=
200909130545 METAR LIRA 130545Z 00002KT 9999 FEW020 16/14 Q1012=
200909130515 METAR LIRA 130515Z 03002KT 9999 FEW020 16/14 Q1012=
200909130445 METAR LIRA 130445Z 02003KT CAVOK 16/14 Q1012=
200909130415 METAR LIRA 130415Z 01002KT CAVOK 16/14 Q1012=
200909130345 METAR LIRA 130345Z 01001KT CAVOK 17/14 Q1012=
200909130315 METAR LIRA 130315Z 05001KT CAVOK 17/15 Q1012=
200909130245 METAR LIRA 130245Z 01002KT CAVOK 17/15 Q1012=
200909130215 METAR LIRA 130215Z 06001KT CAVOK 17/15 Q1012=
200909130145 METAR LIRA 130145Z 01002KT CAVOK 18/15 Q1012=
200909130115 METAR LIRA 130115Z 06002KT CAVOK 18/16 Q1012=
200909130045 METAR LIRA 130045Z 03002KT CAVOK 18/16 Q1012=
200909130015 METAR LIRA 130015Z 02002KT CAVOK 19/16 Q1012=
200909122345 METAR LIRA 122345Z 01002KT CAVOK 19/16 Q1012=
200909122315 METAR LIRA 122315Z 00000KT CAVOK 19/16 Q1012=
200909122245 METAR LIRA 122245Z 02001KT CAVOK 20/16 Q1012=
200909122215 METAR LIRA 122215Z 00000KT CAVOK 20/16 Q1012=
200909122145 METAR LIRA 122145Z 10002KT CAVOK 20/15 Q1012=
200909122115 METAR LIRA 122115Z 00000KT CAVOK 20/15 Q1012=
200909122045 METAR LIRA 122045Z 11004KT 9999 FEW080 21/15 Q1012=
200909122015 METAR LIRA 122015Z 35002KT 9999 FEW020 21/17 Q1012=
200909121945 METAR LIRA 121945Z 05004KT 9999 FEW020 SCT060 21/17 Q1012=
200909121915 METAR LIRA 121915Z 04002KT 010V080 9999 FEW020 SCT060 22/18
                        Q1012=
200909121845 METAR LIRA 121845Z 03004KT 9999 FEW020CB SCT060 22/18 Q1012=
200909121815 METAR LIRA 121815Z 33003KT 9999 FEW018 FEW020CB SCT060 23/17
                        Q1011=
200909121745 METAR LIRA 121745Z 30003KT 9999 FEW018 FEW020CB SCT070 24/15
                        Q1011 RETS=
200909121715 METAR LIRA 121715Z 22002KT 9999 -RA FEW018 FEW020CB SCT070
                        24/15 Q1011 RETS=
200909121645 METAR LIRA 121645Z 12002KT 9999 TS FEW017 SCT020CB 24/15
                        Q1011=
200909121615 METAR LIRA 121615Z 07006KT 330V080 9999 -TSRA FEW017 SCT020CB
                        24/14 Q1011=
200909121545 METAR LIRA 121545Z 29013G23KT 120V320 9999 TS FEW017 FEW020CB
                        SCT030 27/13 Q1011=
200909121515 METAR LIRA 121515Z 24010KT 180V310 9999 FEW017 FEW021TCU
                        28/13 Q1010=
200909121445 METAR LIRA 121445Z 23009KT 200V300 9999 FEW017 FEW021TCU
                        28/13 Q1010=
200909121415 METAR LIRA 121415Z 23007KT 170V330 9999 FEW017 FEW021TCU
                        28/13 Q1010=
200909121345 METAR LIRA 121345Z 24005KT 170V360 9999 FEW018 FEW022TCU
                        28/13 Q1010=
200909121315 METAR LIRA 121315Z 23010KT 160V300 9999 SCT020 29/12 Q1010=
200909121245 METAR LIRA 121245Z 30004KT 220V360 9999 FEW018 29/10 Q1011=
200909121215 METAR LIRA 121215Z 21006KT 140V340 9999 FEW018 29/10 Q1011=
200909121145 METAR LIRA 121145Z 03004KT 320V120 9999 FEW018 28/11 Q1011=
200909121115 METAR LIRA 121115Z 31005KT 270V360 9999 FEW018 28/11 Q1011=
200909121045 METAR LIRA 121045Z 26004KT 220V010 9999 FEW018 27/11 Q1011=
200909121015 METAR LIRA 121015Z 31004KT 260V100 9999 FEW018 26/12 Q1012=
200909120945 METAR LIRA 120945Z 36005KT 310V040 9999 FEW018 26/12 Q1012=
200909120915 METAR LIRA 120915Z 36003KT 350V060 9999 FEW018 25/12 Q1012=
200909120845 METAR LIRA 120845Z 36006KT 310V070 9999 FEW018 25/13 Q1012=
200909120815 METAR LIRA 120815Z 03006KT 340V080 9999 FEW018 24/12 Q1012=
200909120745 METAR LIRA 120745Z 02005KT 300V090 CAVOK 22/13 Q1012=
200909120715 METAR LIRA 120715Z 02007KT 310V060 CAVOK 20/13 Q1012=
200909120645 METAR LIRA 120645Z 04005KT 360V070 CAVOK 19/13 Q1012=
200909120615 METAR LIRA 120615Z 04004KT CAVOK 18/12 Q1012=
200909120545 METAR LIRA 120545Z 04005KT 9999 FEW020 17/12 Q1012=
200909120515 METAR LIRA 120515Z 04004KT CAVOK 16/12 Q1012=
200909120445 METAR LIRA 120445Z 03003KT CAVOK 16/12 Q1011=
200909120415 METAR LIRA 120415Z 02002KT CAVOK 16/12 Q1011=
200909120345 METAR LIRA 120345Z 04004KT CAVOK 16/12 Q1011=
200909120315 METAR LIRA 120315Z 04003KT CAVOK 16/12 Q1012=
200909120245 METAR LIRA 120245Z 03003KT CAVOK 17/13 Q1012=
200909120215 METAR LIRA 120215Z 03003KT CAVOK 17/13 Q1012=
200909120145 METAR LIRA 120145Z 03004KT CAVOK 17/13 Q1012=
200909120115 METAR LIRA 120115Z 03003KT CAVOK 18/13 Q1012=
200909120045 METAR LIRA 120045Z 03004KT CAVOK 18/13 Q1013=
200909120015 METAR LIRA 120015Z 04004KT CAVOK 18/12 Q1013=
200909112350 METAR LIRA 120045Z 03004KT CAVOK 18/13 Q1013=
200909112345 METAR LIRA 112345Z 02004KT CAVOK 19/12 Q1013=
200909112315 METAR LIRA 112315Z 03004KT CAVOK 19/12 Q1013=
200909112245 METAR LIRA 112245Z 04005KT CAVOK 19/11 Q1013=
200909112215 METAR LIRA 112215Z 01004KT 330V070 CAVOK 20/11 Q1013=
200909112145 METAR LIRA 112145Z 01004KT 310V060 CAVOK 21/11 Q1013=
200909112115 METAR LIRA 112115Z 01004KT 320V040 9999 FEW080 21/11 Q1013=
200909112045 METAR LIRA 112045Z 36004KT 9999 FEW080 22/12 Q1013=
200909112015 METAR LIRA 112015Z 01004KT 330V060 9999 FEW080 22/12 Q1013=
200909111945 METAR LIRA 111945Z 03006KT 330V080 9999 FEW080 23/13 Q1013=
200909111915 METAR LIRA 111915Z 35006KT 320V040 9999 FEW080 23/13 Q1013=
200909111845 METAR LIRA 111845Z 36003KT 9999 FEW035 SCT070 24/13 Q1013=
200909111815 METAR LIRA 111815Z 01004KT 330V040 9999 FEW021CB SCT070 24/12
                        Q1013=
200909111745 METAR LIRA 111745Z 03003KT 9999 FEW021CB SCT070 25/12 Q1013=
200909111715 METAR LIRA 111715Z 33003KT 9999 FEW021CB SCT035 25/12 Q1013=
200909111645 METAR LIRA 111645Z 03002KT 9999 FEW021CB SCT035 26/10 Q1013=
200909111615 METAR LIRA 111615Z 03003KT 350V080 9999 FEW021CB SCT035 26/11
                        Q1012=
200909111545 METAR LIRA 111545Z 02010KT 320V080 9999 FEW020 FEW021CB SCT035
                        27/12 Q1012=
200909111515 METAR LIRA 111515Z 06009KT 340V090 9999 FEW020 FEW021TCU
                        SCT035 28/11 Q1012=
200909111445 METAR LIRA 111445Z 01009KT 310V070 9999 SCT020 SCT035 28/10
                        Q1013=
200909111415 METAR LIRA 111415Z 02014KT 310V060 9999 SCT018 FEW020CB SCT035
                        28/10 Q1013=
200909111345 METAR LIRA 111345Z 27002KT 240V340 9999 SCT018 FEW020CB SCT035
                        30/08 Q1013=
200909111315 METAR LIRA 111315Z 32009KT 280V050 9999 SCT018 FEW020TCU
                        30/08 Q1013=
200909111245 METAR LIRA 111245Z 30009KT 270V360 9999 SCT018 30/08 Q1013=
200909111215 METAR LIRA 111215Z 35004KT 270V010 9999 SCT018 29/09 Q1014=
200909111145 METAR LIRA 111145Z 33002KT 270V360 9999 SCT018 29/10 Q1014=
200909111115 METAR LIRA 111115Z 32007KT 290V040 9999 FEW018 29/12 Q1014=
200909111045 METAR LIRA 111045Z 01001KT 310V040 9999 FEW018 28/12 Q1014=
200909111015 METAR LIRA 111015Z 02006KT 310V060 9999 FEW020 27/12 Q1015=
200909110945 METAR LIRA 110945Z 04007KT 300V090 9999 FEW020 27/13 Q1015=
200909110915 METAR LIRA 110915Z 03006KT 360V090 CAVOK 25/14 Q1015=
200909110845 METAR LIRA 110845Z 36006KT 300V060 CAVOK 24/15 Q1015=
200909110815 METAR LIRA 110815Z 02005KT 320V080 CAVOK 23/14 Q1016=
200909110745 METAR LIRA 110745Z 03006KT 330V080 CAVOK 22/14 Q1016=
200909110715 METAR LIRA 110715Z 02007KT 330V070 CAVOK 20/14 Q1016=
200909110645 METAR LIRA 110645Z 02006KT 330V080 CAVOK 19/13 Q1016=
200909110615 METAR LIRA 110615Z 03006KT 330V080 9999 FEW018 18/13 Q1016=
200909110545 METAR LIRA 110545Z 01006KT 310V050 9999 FEW018 17/12 Q1016=
200909110515 METAR LIRA 110515Z 03004KT 9999 FEW018 16/11 Q1016=
200909110445 METAR LIRA 110445Z 04004KT 9999 FEW080 16/11 Q1016=
200909110415 METAR LIRA 110415Z 03005KT CAVOK 16/11 Q1016=
200909110345 METAR LIRA 110345Z 03003KT CAVOK 16/11 Q1016=
200909110315 METAR LIRA 110315Z 03002KT CAVOK 16/12 Q1016=
200909110245 METAR LIRA 110245Z 03003KT CAVOK 17/12 Q1016=
200909110215 METAR LIRA 110215Z 04003KT CAVOK 17/12 Q1016=
200909110145 METAR LIRA 110145Z 01003KT CAVOK 18/13 Q1016=
200909110115 METAR LIRA 110115Z 36002KT CAVOK 19/13 Q1016=
200909110045 METAR LIRA 110045Z 34003KT CAVOK 19/13 Q1016=
200909110015 METAR LIRA 110015Z 33002KT CAVOK 19/12 Q1016=
200909102350 METAR LIRA 110045Z 34003KT CAVOK 19/13 Q1016=
200909102345 METAR LIRA 102345Z 01001KT CAVOK 19/12 Q1016=
200909102315 METAR LIRA 102315Z 35004KT CAVOK 19/13 Q1016=
200909102245 METAR LIRA 102245Z 35004KT CAVOK 20/13 Q1016=
200909102215 METAR LIRA 102215Z 34004KT CAVOK 20/14 Q1016=
200909102145 METAR LIRA 102145Z 35003KT CAVOK 20/14 Q1016=
200909102115 METAR LIRA 102115Z 04003KT CAVOK 20/15 Q1016=
200909102045 METAR LIRA 102045Z 05005KT 9999 FEW023 21/13 Q1017=
200909102015 METAR LIRA 102015Z 02004KT 300V050 9999 FEW023 22/15 Q1017=
200909101945 METAR LIRA 101945Z 03003KT 9999 FEW022 22/16 Q1016=
200909101915 METAR LIRA 101915Z 08001KT 9999 FEW022 22/16 Q1016=
200909101845 METAR LIRA 101845Z 00000KT 9999 FEW022 23/16 Q1016=
200909101815 METAR LIRA 101815Z 20002KT 9999 FEW022 SCT070 23/16 Q1016=
200909101745 METAR LIRA 101745Z 24003KT 9999 FEW022 SCT070 24/16 Q1016=
200909101715 METAR LIRA 101715Z 28007KT 220V330 9999 FEW018 SCT070 25/15
                        Q1016=
200909101645 METAR LIRA 101645Z 26006KT 200V310 9999 FEW018 FEW020TCU
                        SCT070 25/15 Q1016=
200909101615 METAR LIRA 101615Z 29008KT 220V340 9999 FEW018 FEW020TCU
                        SCT033 25/13 Q1016=
200909101545 METAR LIRA 101545Z 26012KT 220V320 9999 FEW018 FEW020TCU
                        SCT033 26/13 Q1016=
200909101515 METAR LIRA 101515Z 27009KT 220V320 9999 FEW018 FEW020TCU
                        SCT033 27/12 Q1016=
200909101445 METAR LIRA 101445Z 25010KT 210V320 9999 FEW018 FEW020TCU
                        SCT033 27/12 Q1016=
200909101415 METAR LIRA 101415Z 33003KT 300V040 9999 SCT018 SCT033 28/09
                        Q1016=
200909101345 METAR LIRA 101345Z 02006KT 9999 SCT020 29/10 Q1016=
200909101315 METAR LIRA 101315Z 03009G21KT 260V350 9999 SCT020 28/10 Q1017=
200909101245 METAR LIRA 101245Z 32004KT 9999 FEW025 28/10 Q1017=
200909101215 METAR LIRA 101215Z 30007KT 230V340 9999 FEW025 28/10 Q1017=
200909101145 METAR LIRA 101145Z 35007KT 290V050 9999 FEW025 27/10 Q1017=
200909101115 METAR LIRA 101115Z 17002KT 250V360 9999 FEW020 27/12 Q1018=
200909101045 METAR LIRA 101045Z 32006KT 300V060 9999 FEW020 26/12 Q1018=
200909101015 METAR LIRA 101015Z 19001KT 9999 FEW020 25/13 Q1018=
200909100945 METAR LIRA 100945Z 34002KT 9999 FEW020 25/14 Q1018=
200909100915 METAR LIRA 100915Z 07002KT 9999 FEW025 25/14 Q1018=
200909100845 METAR LIRA 100845Z 32005KT 9999 FEW025 24/13 Q1018=
200909100815 METAR LIRA 100815Z 33004KT 9999 FEW025 22/13 Q1018=
200909100745 METAR LIRA 100745Z 35003KT 9999 FEW020 20/13 Q1018=
200909100715 METAR LIRA 100715Z 05002KT 9999 FEW020 19/13 Q1018=
200909100645 METAR LIRA 100645Z 04004KT 9999 FEW070 18/13 Q1018=
200909100615 METAR LIRA 100615Z 04006KT 360V090 9999 FEW020 17/12 Q1018=
200909100545 METAR LIRA 100545Z 04004KT 9999 FEW020 17/12 Q1018=
200909100515 METAR LIRA 100515Z 04004KT 9999 FEW020 16/12 Q1018=
200909100445 METAR LIRA 100445Z 03003KT 9999 FEW020 SCT060 16/12 Q1018=
200909100415 METAR LIRA 100415Z 04004KT 9999 FEW033 SCT070 16/13 Q1018=
200909100345 METAR LIRA 100345Z 04004KT 9999 FEW033 SCT070 16/12 Q1018=
200909100315 METAR LIRA 100315Z 03003KT 9999 FEW033 SCT070 16/13 Q1018=
200909100245 METAR LIRA 100245Z 03003KT 9999 FEW033 17/13 Q1018=
200909100215 METAR LIRA 100215Z 05003KT 9999 FEW030 17/13 Q1018=
200909100145 METAR LIRA 100145Z 05003KT 9999 FEW030 SCT070 17/13 Q1018=
200909100115 METAR LIRA 100115Z 04005KT 9999 FEW030 SCT070 18/14 Q1019=
200909092215 METAR LIRA 092215Z 08002KT 9999 FEW020 20/14 Q1019=
200909092145 METAR LIRA 092145Z 08003KT 9999 FEW020 20/14 Q1019=
200909092115 METAR LIRA 092115Z 05003KT 9999 FEW020 21/14 Q1019=
200909092045 METAR LIRA 092045Z 04003KT 9999 FEW020 21/15 Q1019=
200909092015 METAR LIRA 092015Z 05003KT 9999 FEW020 SCT070 22/14 Q1019=
200909091945 METAR LIRA 091945Z 00000KT 9999 FEW020 22/14 Q1018=
200909091915 METAR LIRA 091915Z 00000KT 9999 FEW020 22/13 Q1018=
200909091845 METAR LIRA 091845Z 00000KT 9999 FEW020 23/13 Q1018=
200909091815 METAR LIRA 091815Z 00000KT 9999 FEW020 23/13 Q1018=
200909091745 METAR LIRA 091745Z 00000KT 9999 FEW020 24/13 Q1018=
200909091715 METAR LIRA 091715Z 31002KT 9999 FEW020 24/12 Q1018=
200909091645 METAR LIRA 091645Z 29004KT 9999 FEW020 24/12 Q1018=
200909091615 METAR LIRA 091615Z 29006KT 250V340 9999 FEW020 FEW022TCU
                        SCT070 24/12 Q1018=
200909091545 METAR LIRA 091545Z 28006KT 230V320 9999 FEW020 FEW022TCU
                        SCT070 25/12 Q1018=
200909091515 METAR LIRA 091515Z 22006KT 180V260 9999 FEW020 FEW022TCU
                        SCT070 25/12 Q1018=
200909091445 METAR LIRA 091445Z 21004KT 200V280 9999 FEW020 FEW022TCU
                        SCT070 27/11 Q1018=
200909091415 METAR LIRA 091415Z 25002KT 9999 FEW020 FEW022TCU BKN070 26/11
                        Q1018=
200909091345 METAR LIRA 091345Z 10007KT 090V150 9999 FEW020 FEW022TCU
                        BKN070 26/10 Q1018=
200909091315 METAR LIRA 091315Z 04005KT 9999 FEW020 FEW022TCU BKN070 26/10
                        Q1018=
200909091245 METAR LIRA 091245Z 03004KT 9999 FEW020 FEW022TCU BKN070 25/10
                        Q1018=
200909091215 METAR LIRA 091215Z 01006KT 340V100 9999 FEW020 FEW022TCU
                        BKN070 25/10 Q1018=
200909091145 METAR LIRA 091145Z 36005KT 300V070 9999 FEW020 FEW022TCU
                        BKN070 25/10 Q1018=
200909091115 METAR LIRA 091115Z 03006KT 290V080 9999 FEW020 FEW022TCU
                        BKN070 25/10 Q1018=
200909091045 METAR LIRA 091045Z 05007KT 350V090 9999 FEW020 FEW022TCU
                        BKN070 25/10 Q1018=
200909091015 METAR LIRA 091015Z 05007KT 300V130 9999 FEW020 FEW022TCU
                        BKN070 24/10 Q1018=
200909090945 METAR LIRA 090945Z 04007KT 310V080 9999 FEW020 FEW022TCU
                        BKN070 24/10 Q1018=
200909090915 METAR LIRA 090915Z 03006KT 340V080 9999 FEW020 FEW022TCU
                        BKN070 23/10 Q1018=
200909090845 METAR LIRA 090845Z 03005KT 360V090 9999 FEW020 FEW022TCU
                        SCT070 23/11 Q1018=
200909090815 METAR LIRA 090815Z 03005KT 330V080 9999 FEW020 FEW022TCU
                        SCT030 22/10 Q1018=
200909090745 METAR LIRA 090745Z 36006KT 300V040 9999 FEW020 FEW022TCU
                        SCT030 22/10 Q1017=
200909090715 METAR LIRA 090715Z 01004KT 310V060 9999 FEW020 FEW022TCU
                        SCT070 22/10 Q1017=
200909090645 METAR LIRA 090645Z 01005KT 9999 FEW020 FEW022TCU SCT070 21/09
                        Q1017=
200909090615 METAR LIRA 090615Z 03005KT 360V070 9999 FEW020 FEW022TCU
                        SCT070 20/09 Q1017=
200909090545 METAR LIRA 090545Z 01004KT 9999 FEW020 FEW022TCU SCT070 19/09
                        Q1017=
200909090515 METAR LIRA 090515Z 03004KT 9999 FEW020 FEW022TCU SCT070 19/09
                        Q1017=
200909090445 METAR LIRA 090445Z 05005KT 9999 FEW020 FEW022TCU SCT070 18/09
                        Q1017=
200909090415 METAR LIRA 090415Z 03002KT 9999 FEW022 SCT070 19/09 Q1017=
200909090345 METAR LIRA 090345Z 06001KT 9999 SCT025 18/09 Q1017=
200909090315 METAR LIRA 090315Z 05004KT 9999 SCT025 19/09 Q1017=
200909090245 METAR LIRA 090245Z 05001KT 9999 SCT030 SCT060 18/09 Q1017=
200909090215 METAR LIRA 090215Z 04004KT 9999 SCT030 19/09 Q1017=
200909090145 METAR LIRA 090145Z 05003KT 9999 SCT030 19/09 Q1017=
200909090115 METAR LIRA 090115Z 04005KT 9999 SCT035 19/09 Q1017=
200909090045 METAR LIRA 090045Z 05003KT 9999 FEW030 19/08 Q1017=
200909090015 METAR LIRA 090015Z 05007KT 010V080 9999 FEW030 19/10 Q1017=
200909082345 METAR LIRA 082345Z 07006KT 040V110 9999 FEW030 21/09 Q1017=
200909082315 METAR LIRA 082315Z 08006KT 9999 FEW030 21/11 Q1017=
200909082245 METAR LIRA 082245Z 10007KT 9999 FEW030 21/12 Q1017=
200909082215 METAR LIRA 082215Z 10008KT 9999 FEW030 21/15 Q1017=
200909082145 METAR LIRA 082145Z 10009KT 9999 FEW060 21/16 Q1017=
200909082115 METAR LIRA 082115Z 10007KT 9999 SCT060 22/16 Q1017=
200909082045 METAR LIRA 082045Z 12008KT 9999 SCT060 22/17 Q1017=
200909082015 METAR LIRA 082015Z 14008KT 9999 SCT060 22/16 Q1017=
200909081945 METAR LIRA 081945Z 15008KT 9999 FEW060 23/16 Q1017=
200909081915 METAR LIRA 081915Z 16007KT 140V200 9999 FEW060 23/15 Q1016=
200909081845 METAR LIRA 081845Z 18006KT 150V220 9999 SCT060 23/15 Q1016=
200909081815 METAR LIRA 081815Z 19007KT 160V220 9999 FEW030 SCT060 24/15
                        Q1016=
200909081745 METAR LIRA 081745Z 22006KT 160V250 9999 FEW030 SCT060 24/14
                        Q1016=
200909081715 METAR LIRA 081715Z 24005KT 210V310 9999 FEW035 SCT060 25/13
                        Q1016=
200909081645 METAR LIRA 081645Z 24008KT 190V310 9999 FEW030 SCT070 25/13
                        Q1016=
200909081615 METAR LIRA 081615Z 24009KT 180V300 9999 FEW030 26/12 Q1016=
200909081545 METAR LIRA 081545Z 24007KT 190V330 9999 FEW018 26/12 Q1017=
200909081515 METAR LIRA 081515Z 24008KT 200V300 9999 FEW018 26/11 Q1017=
200909081445 METAR LIRA 081445Z 27009KT 180V320 9999 FEW018 27/11 Q1017=
200909081415 METAR LIRA 081415Z 26007G17KT 190V350 9999 FEW030 28/10 Q1017=
200909081345 METAR LIRA 081345Z 30007KT 260V350 9999 FEW020 29/07 Q1017=
200909081315 METAR LIRA 081315Z 36007KT 330V030 9999 FEW020 28/08 Q1017=
200909081245 METAR LIRA 081245Z 22006KT 190V350 9999 FEW020 28/08 Q1017=
200909081215 METAR LIRA 081215Z 26003KT 9999 FEW020 27/07 Q1018=
200909081145 METAR LIRA 081145Z 23002KT 260V330 9999 FEW020 SCT030 27/08
                        Q1018=
200909081115 METAR LIRA 081115Z 32007KT 290V030 9999 FEW020 SCT030 26/09
                        Q1019=
200909081045 METAR LIRA 081045Z 34002KT 220V330 9999 FEW020 SCT030 27/10
                        Q1019=
200909081015 METAR LIRA 081015Z 30004KT 9999 FEW020 SCT030 25/10 Q1019=
200909080945 METAR LIRA 080945Z 33004KT 310V040 9999 FEW020 SCT030 25/09
                        Q1019=
200909080915 METAR LIRA 080915Z 35006KT 280V080 9999 FEW020 SCT030 24/09
                        Q1019=
200909080845 METAR LIRA 080845Z 03005KT 310V070 9999 FEW020 SCT030 24/10
                        Q1019=
200909080815 METAR LIRA 080815Z 02007KT 330V090 9999 FEW020 SCT030 23/10
                        Q1019=
200909080745 METAR LIRA 080745Z 04006KT 330V100 9999 FEW020 SCT030 22/10
                        Q1019=
200909080715 METAR LIRA 080715Z 02006KT 330V060 9999 FEW020 SCT030 20/09
                        Q1019=
200909080645 METAR LIRA 080645Z 01006KT 320V070 9999 FEW020 SCT030 20/10
                        Q1019=
200909080615 METAR LIRA 080615Z 01005KT 340V100 9999 SCT030 19/09 Q1019=
200909080545 METAR LIRA 080545Z 01006KT 330V060 9999 SCT030 18/09 Q1018=
200909080515 METAR LIRA 080515Z 36005KT 320V040 9999 SCT030 17/08 Q1018=
200909080445 METAR LIRA 080445Z 01005KT 290V050 9999 SCT030 18/08 Q1018=
200909080415 METAR LIRA 080415Z 01006KT 310V090 9999 FEW030 18/08 Q1018=
200909080345 METAR LIRA 080345Z 01006KT 340V060 9999 FEW030 18/08 Q1018=
200909080315 METAR LIRA 080315Z 02005KT 350V060 9999 FEW030 18/07 Q1018=
200909080245 METAR LIRA 080245Z 03004KT 9999 FEW030 18/07 Q1018=
200909080215 METAR LIRA 080215Z 04006KT 360V070 9999 FEW080 18/07 Q1018=
200909080145 METAR LIRA 080145Z 03006KT 350V060 9999 FEW070 18/08 Q1018=
200909080115 METAR LIRA 080115Z 04005KT CAVOK 18/09 Q1018=
200909080045 METAR LIRA 080045Z 04007KT 360V070 CAVOK 18/09 Q1018=
200909080015 METAR LIRA 080015Z 04007KT 360V060 CAVOK 18/09 Q1018=
200909072350 METAR LIRA 080045Z 04007KT 360V070 CAVOK 18/09 Q1018=
200909072345 METAR LIRA 072345Z 05007KT CAVOK 19/10 Q1018=
200909072315 METAR LIRA 072315Z 03006KT 010V070 CAVOK 19/10 Q1018=
200909072245 METAR LIRA 072245Z 02005KT 350V050 CAVOK 20/09 Q1018=
200909072215 METAR LIRA 072215Z 08008KT CAVOK 22/10 Q1018=
200909072145 METAR LIRA 072145Z 04007KT 360V110 CAVOK 21/10 Q1018=
200909072115 METAR LIRA 072115Z 00000KT CAVOK 21/13 Q1018=
200909072045 METAR LIRA 072045Z 02003KT 340V130 CAVOK 22/12 Q1018=
200909072015 METAR LIRA 072015Z 03005KT 340V070 CAVOK 22/13 Q1017=
200909071945 METAR LIRA 071945Z 07005KT CAVOK 22/13 Q1017=
200909071915 METAR LIRA 071915Z 09004KT CAVOK 23/13 Q1017=
200909071845 METAR LIRA 071845Z 18005KT 140V220 CAVOK 24/12 Q1016=
200909071815 METAR LIRA 071815Z 20004KT CAVOK 24/12 Q1016=
200909071745 METAR LIRA 071745Z 18009KT 110V220 CAVOK 25/13 Q1016=
200909071715 METAR LIRA 071715Z 17007KT 140V240 CAVOK 26/12 Q1016=
200909071645 METAR LIRA 071645Z 19009KT 150V230 CAVOK 26/10 Q1016 RMK
                        WS RWY 15=
200909071615 METAR LIRA 071615Z 20011KT 130V220 CAVOK 27/09 Q1016=
200909071545 METAR LIRA 071545Z 03004KT 300V030 CAVOK 29/06 Q1016=
200909071515 METAR LIRA 071515Z 36006KT 280V060 CAVOK 29/06 Q1016=
200909071445 METAR LIRA 071445Z 18003KT CAVOK 29/05 Q1016=
200909071415 METAR LIRA 071415Z 34010KT 270V360 CAVOK 29/06 Q1016=
200909071345 METAR LIRA 071345Z 33002KT 9999 FEW025 29/06 Q1017=
200909071315 METAR LIRA 071315Z 21002KT 9999 FEW025 28/05 Q1017=
200909071245 METAR LIRA 071245Z 29007KT 240V030 9999 FEW025 29/06 Q1017=
200909071215 METAR LIRA 071215Z 34003KT 9999 FEW020 28/05 Q1018=
200909071145 METAR LIRA 071145Z 15002KT 9999 FEW020 28/06 Q1018=
200909071115 METAR LIRA 071115Z 03005KT 330V090 9999 FEW020 28/07 Q1018=
200909071045 METAR LIRA 071045Z 05004KT 010V100 9999 FEW020 27/07 Q1018=
200909071015 METAR LIRA 071015Z 33007KT 300V080 9999 FEW020 26/07 Q1018=
200909070945 METAR LIRA 070945Z 04007KT 310V080 9999 FEW020 26/11 Q1018=
200909070915 METAR LIRA 070915Z 02007KT 300V080 9999 FEW018 25/09 Q1018=
200909070845 METAR LIRA 070845Z 02008KT 310V080 9999 FEW018 24/10 Q1018=
200909070815 METAR LIRA 070815Z 01009KT 320V070 9999 FEW018 23/09 Q1018=
200909070745 METAR LIRA 070745Z 01009KT 300V080 9999 FEW018 22/09 Q1018=
200909070715 METAR LIRA 070715Z 36006KT 320V100 9999 FEW018 21/10 Q1018=
200909070645 METAR LIRA 070645Z 01006KT 310V050 9999 FEW018 19/09 Q1017=
200909070615 METAR LIRA 070615Z 01005KT 330V050 9999 FEW018 18/09 Q1017=
200909070545 METAR LIRA 070545Z 01006KT 340V060 9999 FEW025 17/08 Q1017=
200909070515 METAR LIRA 070515Z 36006KT 310V040 9999 FEW030 17/08 Q1017=
200909070445 METAR LIRA 070445Z 35006KT 310V030 9999 FEW030 17/08 Q1017=
200909070415 METAR LIRA 070415Z 35006KT 320V040 9999 FEW020 17/09 Q1017=
200909070345 METAR LIRA 070345Z 35007KT 310V040 9999 FEW070 18/09 Q1017=
200909070315 METAR LIRA 070315Z 35007KT 330V030 9999 FEW070 18/10 Q1017=
200909070245 METAR LIRA 070245Z 36005KT 320V070 9999 FEW070 18/11 Q1017=
200909070215 METAR LIRA 070215Z 03005KT 330V070 9999 FEW070 18/11 Q1017=
200909070145 METAR LIRA 070145Z 36006KT 330V040 9999 FEW070 18/10 Q1017=
200909070115 METAR LIRA 070115Z 35007KT 310V030 CAVOK 19/10 Q1017=
200909070045 METAR LIRA 070045Z 35007KT 300V030 9999 FEW070 19/10 Q1017=
200909070015 METAR LIRA 070015Z 36004KT 320V030 9999 FEW070 19/11 Q1017=
200909062350 METAR LIRA 070045Z 35007KT 300V030 9999 FEW070 19/10 Q1017=
200909062345 METAR LIRA 062345Z 35007KT 300V020 9999 FEW070 19/11 Q1017=
200909062315 METAR LIRA 062315Z 36007KT 320V030 CAVOK 19/11 Q1016=
200909062245 METAR LIRA 062245Z 02005KT 350V070 CAVOK 19/10 Q1016=
200909062215 METAR LIRA 062215Z 01004KT 320V060 CAVOK 20/11 Q1016=
200909062145 METAR LIRA 062145Z 36009KT 320V060 CAVOK 20/11 Q1016=
200909062115 METAR LIRA 062115Z 36007KT 310V070 CAVOK 21/12 Q1016=
200909062045 METAR LIRA 062045Z 36008KT 300V050 9999 FEW080 22/14 Q1016=
200909062015 METAR LIRA 062015Z 04007KT 010V080 9999 FEW020 SCT060 23/16
                        Q1016=
200909061945 METAR LIRA 061945Z 04006KT 300V080 9999 FEW020 23/17 Q1016=
200909061915 METAR LIRA 061915Z 00000KT 9999 FEW020 23/17 Q1015=
200909061845 METAR LIRA 061845Z 22003KT 9999 FEW020 24/17 Q1015=
200909061815 METAR LIRA 061815Z 18003KT 9999 FEW020 24/17 Q1015=
200909061745 METAR LIRA 061745Z 21004KT 160V240 9999 FEW020TCU 24/17 Q1015=
200909061715 METAR LIRA 061715Z 19007KT 140V220 9999 FEW020TCU 25/17 Q1014=
200909061645 METAR LIRA 061645Z 17010KT 140V210 9999 FEW020TCU 26/17 Q1014=
200909061615 METAR LIRA 061615Z 17011KT 140V210 9999 FEW020TCU 26/17 Q1014=
200909061545 METAR LIRA 061545Z 17014KT 130V230 9999 FEW018 26/17 Q1014=
200909061515 METAR LIRA 061515Z 18013KT 130V230 9999 FEW018 FEW020TCU
                        SCT030 26/18 Q1014=
200909061445 METAR LIRA 061445Z 16017KT 130V230 9999 SCT018 FEW020TCU
                        SCT030 27/18 Q1014=
200909061415 METAR LIRA 061415Z 31003KT 270V040 9999 SCT018 FEW020TCU
                        30/10 Q1014=
200909061345 METAR LIRA 061345Z 34010G23KT 270V030 9999 SCT018 FEW020TCU
                        30/11 Q1014=
200909061315 METAR LIRA 061315Z 31012KT 260V010 9999 SCT018 FEW020TCU
                        30/12 Q1014=
200909061245 METAR LIRA 061245Z 31009KT 250V350 9999 SCT018 FEW020TCU
                        30/13 Q1014=
200909061215 METAR LIRA 061215Z 33010KT 270V020 9999 SCT018 FEW020TCU
                        30/13 Q1014=
200909061145 METAR LIRA 061145Z 01007KT 310V060 9999 SCT018 FEW020TCU
                        29/13 Q1015=
200909061115 METAR LIRA 061115Z 14003KT 9999 SCT018 FEW020TCU 29/13 Q1015=
200909061045 METAR LIRA 061045Z 19002KT 9999 SCT018 FEW020TCU 29/14 Q1015=
200909061015 METAR LIRA 061015Z 06003KT 9999 SCT018 FEW020TCU 28/13 Q1015=
200909060945 METAR LIRA 060945Z 36006KT 310V050 9999 SCT018 28/16 Q1015=
200909060915 METAR LIRA 060915Z 03006KT 300V070 9999 FEW018 27/16 Q1015=
200909060845 METAR LIRA 060845Z 34004KT 300V050 9999 FEW018 26/17 Q1015=
200909060815 METAR LIRA 060815Z 03005KT 310V070 9999 FEW018 25/17 Q1015=
200909060745 METAR LIRA 060745Z 02007KT 320V060 9999 FEW018 24/18 Q1014=
200909060715 METAR LIRA 060715Z 36006KT 310V060 9999 FEW018 23/18 Q1014=
200909060645 METAR LIRA 060645Z 36006KT 310V060 9999 FEW018 22/17 Q1014=
200909060615 METAR LIRA 060615Z 36004KT 330V060 9999 FEW018 21/18 Q1014=
200909060545 METAR LIRA 060545Z 04003KT 350V090 9999 FEW018 20/17 Q1014=
200909060515 METAR LIRA 060515Z 05005KT 9999 FEW018 20/18 Q1014=
200909060445 METAR LIRA 060445Z 01004KT 9999 FEW018 20/18 Q1014=
200909060415 METAR LIRA 060415Z 02003KT 9999 FEW020 20/18 Q1013=
200909060345 METAR LIRA 060345Z 03002KT 9999 FEW020 20/17 Q1013=
200909060315 METAR LIRA 060315Z 35002KT 9999 FEW018 20/18 Q1013=
200909060245 METAR LIRA 060245Z 05003KT 9999 FEW018TCU 20/18 Q1013=
200909060215 METAR LIRA 060215Z 04003KT 9999 FEW018TCU 21/18 Q1013=
200909060145 METAR LIRA 060145Z 06002KT 9999 SCT020 22/19 Q1013=
200909060115 METAR LIRA 060115Z 07004KT 9999 SCT020 22/19 Q1013=
200909060045 METAR LIRA 060045Z 12004KT 9999 SCT020 23/19 Q1013=
200909060015 METAR LIRA 060015Z 14007KT 9999 FEW020 SCT070 23/19 Q1013=
200909052350 METAR LIRA 060045Z 12004KT 9999 SCT020 23/19 Q1013=
200909052345 METAR LIRA 052345Z 17005KT 130V200 9999 FEW020 SCT070 23/18
                        Q1013=
200909052315 METAR LIRA 052315Z 19006KT 160V220 9999 FEW020 SCT070 23/18
                        Q1013=
200909052245 METAR LIRA 052245Z 19005KT 9999 FEW020 SCT070 23/18 Q1013=
200909052215 METAR LIRA 052215Z 15008KT 110V180 9999 FEW020 SCT070 23/19
                        Q1013=
200909052145 METAR LIRA 052145Z 18006KT 160V220 9999 SCT020 24/19 Q1013=
200909052115 METAR LIRA 052115Z 18005KT 9999 SCT020 24/20 Q1013=
200909052045 METAR LIRA 052045Z 17005KT 9999 FEW020 24/21 Q1013=
200909052015 METAR LIRA 052015Z 15006KT 9999 SCT018 24/20 Q1013=
200909051945 METAR LIRA 051945Z 17006KT 120V200 9999 FEW018 24/20 Q1013=
200909051915 METAR LIRA 051915Z 16006KT 9999 FEW018 24/20 Q1013=
200909051845 METAR LIRA 051845Z 15007KT 9999 FEW018 FEW020CB 24/19 Q1012=
200909051815 METAR LIRA 051815Z 17007KT 130V200 9999 SCT018 FEW020CB 24/19
                        Q1012=
200909051745 METAR LIRA 051745Z 18008KT 150V230 9999 SCT018 FEW020CB 25/18
                        Q1012=
200909051715 METAR LIRA 051715Z 19009KT 160V230 9999 SCT018 FEW020CB 25/18
                        Q1012=
200909051645 METAR LIRA 051645Z 19010KT 150V260 9999 FEW018 FEW020CB 26/18
                        Q1012=
200909051615 METAR LIRA 051615Z 20010KT 160V230 9999 FEW018 FEW020CB 26/18
                        Q1012=
200909051545 METAR LIRA 051545Z 20012KT 150V230 9999 FEW020CB 27/18 Q1012=
200909051515 METAR LIRA 051515Z 20012KT 150V230 9999 FEW020CB 28/18 Q1011=
200909051445 METAR LIRA 051445Z 18012KT 140V230 9999 FEW020CB 28/17 Q1011=
200909051415 METAR LIRA 051415Z 18014KT 150V260 9999 FEW020TCU 29/17 Q1012=
200909051345 METAR LIRA 051345Z 16010KT 130V240 9999 FEW020 29/18 Q1012=
200909051315 METAR LIRA 051315Z 16014KT 140V260 9999 FEW020 29/18 Q1012=
200909051245 METAR LIRA 051245Z 18007G20KT 120V230 9999 FEW020 29/18 Q1012=
200909051215 METAR LIRA 051215Z 19009KT 150V230 9999 FEW020 29/17 Q1012=
200909051145 METAR LIRA 051145Z 18010KT 100V230 9999 FEW020 29/17 Q1012=
200909051115 METAR LIRA 051115Z 19010KT 120V270 9999 FEW020 29/18 Q1012=
200909051045 METAR LIRA 051045Z 18013KT 150V240 9999 SCT020 29/19 Q1012=
200909051015 METAR LIRA 051015Z 19008KT 150V250 9999 SCT020 29/19 Q1012=
200909050945 METAR LIRA 050945Z 19011KT 150V220 9999 SCT020 29/19 Q1012=
200909050915 METAR LIRA 050915Z 15010KT 100V200 9999 SCT020 29/19 Q1012=
200909050845 METAR LIRA 050845Z 16009KT 130V210 9999 SCT020 28/19 Q1012=
200909050815 METAR LIRA 050815Z 17009KT 130V200 9999 SCT018 SCT080 27/23
                        Q1012=
200909050745 METAR LIRA 050745Z 16006KT 110V190 9999 SCT018 SCT080 27/21
                        Q1012=
200909050715 METAR LIRA 050715Z 15006KT 100V190 9999 SCT018 SCT080 26/21
                        Q1012=
200909050645 METAR LIRA 050645Z 14010KT 9999 FEW018 SCT080 25/21 Q1012=
200909050615 METAR LIRA 050615Z 14008KT 9999 FEW018 25/21 Q1012=
200909050545 METAR LIRA 050545Z 15007KT 9999 FEW017 FEW018TCU 24/21 Q1012=
200909050515 METAR LIRA 050515Z 14008KT 9999 FEW017 FEW018TCU SCT080 24/21
                        Q1011=
200909050445 METAR LIRA 050445Z 16004KT 9999 FEW017 FEW018TCU 24/21 Q1011=
200909050415 METAR LIRA 050415Z 16006KT 9999 FEW017 FEW018TCU SCT030 24/21
                        Q1011=
200909050345 METAR LIRA 050345Z 15007KT 9999 SCT018 24/21 Q1011=
200909050315 METAR LIRA 050315Z 14008KT 9999 SCT018 24/21 Q1012=
200909050245 METAR LIRA 050245Z 15007KT 9999 SCT018 24/21 Q1012=
200909050215 METAR LIRA 050215Z 16007KT 9999 SCT018 24/21 Q1012=
200909050145 METAR LIRA 050145Z 14005KT 9999 SCT018 24/21 Q1012=
200909050115 METAR LIRA 050115Z 17005KT 9999 SCT018 24/21 Q1012=
200909050045 METAR LIRA 050045Z 18004KT 9999 FEW018 24/22 Q1012=
200909050015 METAR LIRA 050015Z 18004KT 9999 FEW018 24/22 Q1012=
200909042350 METAR LIRA 050045Z 18004KT 9999 FEW018 24/22 Q1012=
200909042345 METAR LIRA 042345Z 19005KT 9999 FEW018 24/22 Q1012=
200909042315 METAR LIRA 042315Z 18005KT 9999 FEW018 24/22 Q1012=
200909042245 METAR LIRA 042245Z 17005KT 9999 FEW018 SCT070 24/22 Q1012=
200909042215 METAR LIRA 042215Z 17005KT 9999 FEW018 SCT070 25/21 Q1012=
200909042145 METAR LIRA 042145Z 16006KT 9999 FEW018 25/21 Q1012=
200909042115 METAR LIRA 042115Z 16005KT 9999 FEW018 25/21 Q1012=
200909042045 METAR LIRA 042045Z 15006KT 9999 FEW020 25/21 Q1012=
200909042015 METAR LIRA 042015Z 16005KT 9999 FEW020 25/21 Q1012=
200909041945 METAR LIRA 041945Z 17005KT 9999 FEW018 25/21 Q1012=
200909041915 METAR LIRA 041915Z 14005KT 9999 FEW018 25/21 Q1012=
200909041845 METAR LIRA 041845Z 17005KT 9999 FEW018 25/21 Q1012=
200909041815 METAR LIRA 041815Z 19003KT 9999 SCT018 25/20 Q1012=
200909041745 METAR LIRA 041745Z 23003KT 9999 SCT018 26/21 Q1011=
200909041715 METAR LIRA 041715Z 21006KT 180V250 9999 SCT018 26/20 Q1011=
200909041645 METAR LIRA 041645Z 24006KT 150V280 9999 SCT018 27/20 Q1011=
200909041615 METAR LIRA 041615Z 23008KT 200V270 9999 SCT018 28/20 Q1011=
200909041545 METAR LIRA 041545Z 24006KT 150V280 9999 FEW020 SCT200 28/20
                        Q1011=
200909041515 METAR LIRA 041515Z 22010KT 150V270 9999 FEW020 SCT200 28/20
                        Q1011=
200909041445 METAR LIRA 041445Z 23008KT 160V280 9999 FEW018 SCT200 30/21
                        Q1012=
200909041415 METAR LIRA 041415Z 22007KT 160V280 9999 FEW018 29/21 Q1012=
200909041345 METAR LIRA 041345Z 22009KT 160V270 9999 FEW018 SCT035 30/20
                        Q1012=
200909041315 METAR LIRA 041315Z 22008KT 180V300 9999 FEW018 SCT035 30/21
                        Q1012=
200909041245 METAR LIRA 041245Z 23012KT 180V300 9999 SCT016 SCT035 29/22
                        Q1012=
200909041215 METAR LIRA 041215Z 22008KT 180V280 9999 SCT016 SCT035 30/22
                        Q1012=
200909041145 METAR LIRA 041145Z 22010KT 160V250 9999 SCT016 SCT035 30/24
                        Q1012=
200909041115 METAR LIRA 041115Z 24008KT 200V280 9999 SCT016 SCT035 29/23
                        Q1012=
200909041045 METAR LIRA 041045Z 24010KT 200V280 9999 SCT016 FEW018TCU
                        SCT035 28/22 Q1012=
200909041015 METAR LIRA 041015Z 23010KT 190V290 9999 SCT015 FEW018TCU
                        SCT025 28/22 Q1012=
200909040945 METAR LIRA 040945Z 22007KT 160V270 7000 SCT015 FEW018CB SCT025
                        28/23 Q1012=
200909040915 METAR LIRA 040915Z 20007KT 150V250 7000 BKN015 FEW018CB 29/24
                        Q1012=
200909040845 METAR LIRA 040845Z 18012KT 140V240 6000 SCT016 FEW020TCU
                        30/23 Q1012=
200909040815 METAR LIRA 040815Z 15013KT 120V180 9999 FEW018 FEW020TCU
                        29/22 Q1012=
200909040745 METAR LIRA 040745Z 15012KT 120V190 9999 SCT018 FEW020TCU
                        SCT035 29/23 Q1012=
200909040715 METAR LIRA 040715Z 15012KT 120V190 9999 SCT018 FEW020TCU
                        SCT035 28/23 Q1012=
200909040645 METAR LIRA 040645Z 15013KT 9999 SCT018 FEW020TCU SCT035 27/22
                        Q1012=
200909040615 METAR LIRA 040615Z 15012KT 120V180 9999 FEW018 FEW020TCU
                        27/22 Q1012=
200909040545 METAR LIRA 040545Z 16007KT 130V190 9999 FEW018 FEW020TCU
                        26/23 Q1012=
200909040515 METAR LIRA 040515Z 15007KT 9999 SCT018 FEW020TCU 25/20 Q1012=
200909040445 METAR LIRA 040445Z 13006KT 090V170 9999 SCT018 FEW020TCU
                        26/21 Q1012=
200909040415 METAR LIRA 040415Z 14009KT 110V180 9999 FEW018 25/21 Q1012=
200909040345 METAR LIRA 040345Z 16007KT 130V200 9999 FEW018 SCT070 25/22
                        Q1012=
200909040315 METAR LIRA 040315Z 17006KT 110V200 9999 FEW018 SCT070 25/22
                        Q1012=
200909040245 METAR LIRA 040245Z 12003KT 9999 FEW018 SCT070 25/22 Q1012=
200909040215 METAR LIRA 040215Z 14004KT 9999 FEW022 SCT070 25/22 Q1012=
200909040145 METAR LIRA 040145Z 15004KT 9999 FEW022 SCT070 25/22 Q1012=
200909040115 METAR LIRA 040115Z 16005KT 9999 FEW070 25/22 Q1012=
200909040045 METAR LIRA 040045Z 13005KT 9999 FEW070 24/22 Q1012=
200909040015 METAR LIRA 040015Z 25002KT CAVOK 25/23 Q1012=
200909032350 METAR LIRA 040045Z 13005KT 9999 FEW070 24/22 Q1012=
200909032345 METAR LIRA 032345Z 17004KT CAVOK 25/23 Q1012=
200909032315 METAR LIRA 032315Z 14006KT 9999 FEW018 25/23 Q1013=
200909032245 METAR LIRA 032245Z 14004KT 9999 SCT018 25/23 Q1013=
200909032215 METAR LIRA 032215Z 14006KT 9999 SCT018 25/23 Q1013=
200909032145 METAR LIRA 032145Z 13005KT 9999 SCT018 25/23 Q1013=
200909032115 METAR LIRA 032115Z 13004KT 9999 SCT018 25/23 Q1013=
200909032045 METAR LIRA 032045Z 16005KT 9999 SCT018 26/24 Q1013=
200909032015 METAR LIRA 032015Z 16004KT 9999 FEW020 26/24 Q1013=
200909031945 METAR LIRA 031945Z 16004KT 9999 FEW020 26/23 Q1013=
200909031915 METAR LIRA 031915Z 16005KT 9999 FEW020 26/24 Q1012=
200909031845 METAR LIRA 031845Z 19004KT 9999 SCT020 26/23 Q1012=
200909031815 METAR LIRA 031815Z 19006KT 150V240 9999 SCT018 27/23 Q1012=
200909031745 METAR LIRA 031745Z 21004KT 170V250 9999 SCT020 27/22 Q1012=
200909031715 METAR LIRA 031715Z 21008KT 160V250 9999 SCT020 28/22 Q1012=
200909031645 METAR LIRA 031645Z 18010KT 9999 SCT020 28/22 Q1012=
200909031615 METAR LIRA 031615Z 19010KT 150V220 9999 SCT020 28/22 Q1012=
200909031545 METAR LIRA 031545Z 18010KT 140V250 9999 SCT020 30/21 Q1012=
200909031515 METAR LIRA 031515Z 22009KT 140V250 9999 SCT020 30/21 Q1012=
200909031445 METAR LIRA 031445Z 21010KT 130V240 9999 SCT020 30/21 Q1012=
200909031415 METAR LIRA 031415Z 21010KT 120V240 9999 FEW020 30/21 Q1012=
200909031345 METAR LIRA 031345Z 21008KT 150V260 9999 FEW018 31/20 Q1013=
200909031315 METAR LIRA 031315Z 21009KT 160V260 9999 FEW018 32/20 Q1013=
200909031245 METAR LIRA 031245Z 20008KT 130V260 9999 SCT018 31/19 Q1013=
200909031215 METAR LIRA 031215Z 19009KT 130V260 9999 SCT018 31/20 Q1013=
200909031145 METAR LIRA 031145Z 19009KT 130V250 9999 SCT018 31/21 Q1013=
200909031115 METAR LIRA 031115Z 23007KT 160V260 9999 SCT018 30/22 Q1013=
200909031045 METAR LIRA 031045Z 21005KT 150V240 9999 SCT018 30/21 Q1013=
200909031015 METAR LIRA 031015Z 16007KT 110V210 9999 SCT018 30/20 Q1014=
200909030945 METAR LIRA 030945Z 18006KT 130V230 9999 SCT018 29/20 Q1014=
200909030915 METAR LIRA 030915Z 18004KT 150V260 9999 SCT018 29/21 Q1014=
200909030845 METAR LIRA 030845Z 18007KT 110V240 9999 SCT018 29/21 Q1014=
200909030815 METAR LIRA 030815Z 19004KT 9999 SCT018 28/21 Q1014=
200909030745 METAR LIRA 030745Z 21004KT 9999 SCT018 28/22 Q1014=
200909030715 METAR LIRA 030715Z 02002KT 9999 FEW025 27/21 Q1014=
200909030700 LIRA INTER=
200909030645 METAR LIRA 030645Z 09003KT 9999 FEW080 25/20 Q1013=
200909030615 METAR LIRA 030615Z 06002KT 9999 FEW080 24/19 Q1013=
200909030545 METAR LIRA 030545Z 06002KT 9999 FEW080 23/19 Q1013=
200909030515 METAR LIRA 030515Z 09003KT 9999 FEW080 22/18 Q1013=
200909030445 METAR LIRA 030445Z 05002KT 9999 FEW080 22/18 Q1013=
200909030415 METAR LIRA 030415Z 11002KT 9999 FEW080 22/17 Q1013=
200909030345 METAR LIRA 030345Z 11003KT 9999 FEW080 22/17 Q1014=
200909030315 METAR LIRA 030315Z 14001KT 9999 FEW080 21/17 Q1014=
200909030245 METAR LIRA 030245Z 10006KT 9999 FEW080 21/17 Q1014=
200909030215 METAR LIRA 030215Z 11003KT CAVOK 22/19 Q1014=
200909030145 METAR LIRA 030145Z 13001KT CAVOK 22/19 Q1014=
200909030115 METAR LIRA 030115Z 10005KT CAVOK 22/19 Q1014=
200909030045 METAR LIRA 030045Z 10005KT CAVOK 22/20 Q1014=
200909030015 METAR LIRA 030015Z 10005KT CAVOK 22/20 Q1014=
200909022350 METAR LIRA 030045Z 10005KT CAVOK 22/20 Q1014=
200909022345 METAR LIRA 022345Z 12002KT CAVOK 23/21 Q1014=
200909022315 METAR LIRA 022315Z 13001KT CAVOK 23/21 Q1014=
200909022245 METAR LIRA 022245Z 12001KT CAVOK 23/21 Q1014=
200909022215 METAR LIRA 022215Z 11002KT CAVOK 24/21 Q1015=
200909022145 METAR LIRA 022145Z 11003KT CAVOK 24/21 Q1015=
200909022115 METAR LIRA 022115Z 11002KT CAVOK 24/22 Q1015=
200909022045 METAR LIRA 022045Z 19002KT CAVOK 25/22 Q1015=
200909022015 METAR LIRA 022015Z 17003KT CAVOK 25/22 Q1015=
200909021945 METAR LIRA 021945Z 19002KT CAVOK 25/23 Q1015=
200909021915 METAR LIRA 021915Z 20002KT 9999 FEW025 26/22 Q1015=
200909021845 METAR LIRA 021845Z 22003KT 9999 FEW025 26/22 Q1015=
200909021815 METAR LIRA 021815Z 22004KT CAVOK 26/22 Q1015=
200909021745 METAR LIRA 021745Z 23004KT 9999 FEW025 27/21 Q1015=
200909021715 METAR LIRA 021715Z 24004KT 200V290 9999 FEW020 28/20 Q1015=
200909021645 METAR LIRA 021645Z 24005KT 180V290 CAVOK 29/19 Q1015=
200909021615 METAR LIRA 021615Z 22006KT 190V290 9999 FEW020 29/18 Q1015=
200909021545 METAR LIRA 021545Z 26004KT 190V300 9999 FEW020 30/17 Q1015=
200909021515 METAR LIRA 021515Z 23009KT 180V270 9999 FEW020 30/17 Q1015=
200909021445 METAR LIRA 021445Z 24006KT 180V270 9999 FEW018 30/18 Q1015=
200909021415 METAR LIRA 021415Z 24007KT 150V270 9999 FEW018 31/18 Q1015=
200909021345 METAR LIRA 021345Z 25009KT 210V330 9999 FEW018 31/18 Q1015=
200909021315 METAR LIRA 021315Z 24007KT 160V300 9999 SCT018 32/18 Q1016=
200909021245 METAR LIRA 021245Z 21012KT 150V260 9999 SCT018 31/17 Q1016=
200909021215 METAR LIRA 021215Z 24006KT 150V280 9999 SCT018 31/18 Q1016=
200909021145 METAR LIRA 021145Z 27010KT 210V310 9999 SCT018 31/18 Q1016=
200909021115 METAR LIRA 021115Z 26007KT 210V300 9999 SCT018 31/18 Q1016=
200909021045 METAR LIRA 021045Z 18005KT 9999 SCT018 31/18 Q1016=
200909021015 METAR LIRA 021015Z 18005KT 160V270 9999 SCT018 30/19 Q1017=
200909020945 METAR LIRA 020945Z 31003KT 300V060 9999 SCT018 30/19 Q1017=
200909020915 METAR LIRA 020915Z 12001KT 9999 SCT018 29/19 Q1017=
200909020845 METAR LIRA 020845Z 16002KT 9999 SCT020 29/20 Q1017=
200909020815 METAR LIRA 020815Z 30003KT 9000 FEW020 28/20 Q1017=
200909020745 METAR LIRA 020745Z 04002KT 9000 FEW025 27/21 Q1017=
200909020715 METAR LIRA 020715Z 34002KT 9000 FEW025 26/21 Q1017=
200909020645 METAR LIRA 020645Z 03003KT 8000 NSC 25/21 Q1017=
200909020615 METAR LIRA 020615Z 05003KT 7000 NSC 23/21 Q1017=
200909020545 METAR LIRA 020545Z 04003KT 7000 NSC 22/21 Q1017=
200909020515 METAR LIRA 020515Z 05004KT 9000 FEW080 22/21 Q1017=
200909020445 METAR LIRA 020445Z 00000KT 8000 NSC 22/21 Q1017=
200909020415 METAR LIRA 020415Z 00000KT 7000 NSC 22/21 Q1017=
200909020345 METAR LIRA 020345Z 06001KT 7000 NSC 22/21 Q1017=
200909020315 METAR LIRA 020315Z 09002KT 7000 NSC 22/21 Q1017=
200909020245 METAR LIRA 020245Z 00000KT 7000 NSC 22/20 Q1017=
200909020215 METAR LIRA 020215Z 00000KT 9000 NSC 22/20 Q1017=
200909020145 METAR LIRA 020145Z 00000KT 8000 NSC 22/21 Q1017=
200909020115 METAR LIRA 020115Z 10003KT 8000 NSC 23/21 Q1017=
200909020045 METAR LIRA 020045Z 10001KT 8000 NSC 23/21 Q1017=
200909020015 METAR LIRA 020015Z 11002KT 8000 FEW080 23/21 Q1017=
200909012350 METAR LIRA 020045Z 10001KT 8000 NSC 23/21 Q1017=
200909012345 METAR LIRA 012345Z 00000KT 9000 FEW080 24/22 Q1017=
200909012315 METAR LIRA 012315Z 10002KT 9000 NSC 23/22 Q1017=
200909012245 METAR LIRA 012245Z 10003KT 9000 NSC 24/22 Q1017=
200909012215 METAR LIRA 012215Z 08003KT 9000 NSC 24/22 Q1017=
200909012145 METAR LIRA 012145Z 00000KT 8000 NSC 25/23 Q1018=
200909012115 METAR LIRA 012115Z 00000KT 8000 FEW018 25/23 Q1018=
200909012045 METAR LIRA 012045Z 20001KT 8000 FEW070 25/23 Q1018=
200909012015 METAR LIRA 012015Z 18002KT 7000 NSC 26/23 Q1018=
200909011945 METAR LIRA 011945Z 18002KT 7000 NSC 26/24 Q1018=
200909011845 METAR LIRA 011845Z 21002KT 8000 FEW020 26/24 Q1017=
200909011815 METAR LIRA 011815Z 23004KT 9999 FEW020TCU 27/24 Q1017=
200909011745 METAR LIRA 011745Z 23005KT 9999 FEW020TCU 27/23 Q1017=
200909011715 METAR LIRA 011715Z 24006KT 200V280 9999 FEW018 FEW020TCU
                        28/23 Q1017=
200909011645 METAR LIRA 011645Z 21006KT 170V280 9999 FEW018 FEW020CB 29/22
                        Q1017=
200909011615 METAR LIRA 011615Z 21007KT 170V270 9999 FEW018 FEW020CB 30/22
                        Q1017=
200909011545 METAR LIRA 011545Z 21007KT 160V250 9999 FEW018 FEW020TCU
                        30/21 Q1017=
200909011515 METAR LIRA 011515Z 22007KT 150V260 9999 FEW018 FEW020TCU
                        30/21 Q1017=
200909011445 METAR LIRA 011445Z 23007KT 150V280 9999 FEW018 FEW020TCU
                        32/21 Q1017=
200909011415 METAR LIRA 011415Z 24009KT 190V300 9999 SCT018 FEW020TCU
                        32/21 Q1017=
200909011345 METAR LIRA 011345Z 25009KT 170V300 9999 SCT018 FEW020TCU
                        31/21 Q1018=
200909011145 METAR LIRA 011145Z 24004KT 210V280 9999 SCT018 FEW020TCU
                        30/20 Q1019=
200909011115 METAR LIRA 011115Z 23004KT 9999 SCT018 FEW020TCU 30/20 Q1019=
200909011045 METAR LIRA 011045Z 23008KT 180V260 9999 SCT018 FEW020TCU
                        32/18 Q1019=
200909011015 METAR LIRA 011015Z 16006KT 120V220 9999 SCT018 FEW020TCU
                        31/17 Q1019=
200909010945 METAR LIRA 010945Z 18005KT 130V240 9999 SCT018 30/18 Q1019=
200909010915 METAR LIRA 010915Z 16007KT 120V210 9999 FEW018 30/19 Q1019=
200909010845 METAR LIRA 010845Z 16006KT 100V210 9999 FEW023 30/20 Q1019=
200909010815 METAR LIRA 010815Z 14007KT 120V190 9999 FEW023 29/20 Q1019=
200909010745 METAR LIRA 010745Z 01001KT CAVOK 28/21 Q1019=
200909010715 METAR LIRA 010715Z 01003KT CAVOK 26/20 Q1019=
200909010645 METAR LIRA 010645Z 05003KT CAVOK 25/21 Q1019=
200909010615 METAR LIRA 010615Z 01002KT 9999 FEW020 24/20 Q1019=
200909010545 METAR LIRA 010545Z 00000KT 9999 FEW020 22/20 Q1019=
200909010515 METAR LIRA 010515Z 00000KT 9999 FEW020 22/20 Q1018=
200909010445 METAR LIRA 010445Z 00000KT CAVOK 22/20 Q1018=
200909010415 METAR LIRA 010415Z 00000KT CAVOK 22/20 Q1018=
200909010345 METAR LIRA 010345Z 00000KT CAVOK 22/20 Q1018=
200909010315 METAR LIRA 010315Z 35003KT CAVOK 22/20 Q1018=
200909010245 METAR LIRA 010245Z 00000KT CAVOK 22/20 Q1018=
200909010215 METAR LIRA 010215Z 00000KT CAVOK 22/20 Q1018=
200909010145 METAR LIRA 010145Z 00000KT CAVOK 22/20 Q1018=
200909010115 METAR LIRA 010115Z 00000KT CAVOK 22/20 Q1018=
200909010045 METAR LIRA 010045Z 00000KT CAVOK 23/21 Q1018=
200909010015 METAR LIRA 010015Z 05002KT CAVOK 23/21 Q1019=

</pre>

</body>
</html>
