##########################################################
# Query made at 11/10/2014 16:26:29 UTC
# Time interval: from 09/01/2011 00:00  to 10/01/2011 23:59  UTC
##########################################################

##########################################################
# LIRA, Roma / Ciampino (Italy)
# WMO index: 16239
# Latitude 41-47N. Longitude 012-35E. Altitude 129 m.
##########################################################

###################################
#  METAR/SPECI from LIRA
###################################
201110012350 METAR LIRA 020045Z 04003KT CAVOK 17/15 Q1022=
201110012345 METAR LIRA 012345Z 09003KT CAVOK 18/14 Q1022=
201110012315 METAR LIRA 012315Z 07001KT CAVOK 18/15 Q1022=
201110012245 METAR LIRA 012245Z 13003KT CAVOK 18/15 Q1022=
201110012215 METAR LIRA 012215Z 15001KT CAVOK 18/16 Q1022=
201110012145 METAR LIRA 012145Z 15003KT CAVOK 19/17 Q1022=
201110012115 METAR LIRA 012115Z 17002KT CAVOK 19/17 Q1022=
201110012045 METAR LIRA 012045Z 18002KT CAVOK 21/18 Q1022=
201110012015 METAR LIRA 012015Z 18003KT CAVOK 21/18 Q1022=
201110011945 METAR LIRA 011945Z 17003KT CAVOK 21/17 Q1022=
201110011915 METAR LIRA 011915Z 17003KT CAVOK 21/18 Q1022=
201110011845 METAR LIRA 011845Z 17004KT CAVOK 21/17 Q1021=
201110011815 METAR LIRA 011815Z 19004KT CAVOK 22/17 Q1021=
201110011745 METAR LIRA 011745Z 22003KT CAVOK 22/16 Q1021=
201110011715 METAR LIRA 011715Z 23003KT CAVOK 23/16 Q1021=
201110011645 METAR LIRA 011645Z 25004KT CAVOK 23/16 Q1021=
201110011615 METAR LIRA 011615Z 27005KT 210V330 CAVOK 25/17 Q1021=
201110011545 METAR LIRA 011545Z 27006KT 230V300 CAVOK 26/16 Q1021=
201110011515 METAR LIRA 011515Z 26006KT 220V330 CAVOK 27/18 Q1021=
201110011445 METAR LIRA 011445Z 25005KT 9999 FEW025 27/19 Q1021=
201110011415 METAR LIRA 011415Z 23007KT 9999 FEW025 28/18 Q1022=
201110011345 METAR LIRA 011345Z 23006KT 210V270 9999 FEW022 28/17 Q1022=
201110011315 METAR LIRA 011315Z 29005KT 9999 FEW020 28/14 Q1022=
201110011245 METAR LIRA 011245Z 31006KT 270V330 9999 FEW020 28/15 Q1022=
201110011215 METAR LIRA 011215Z 23004KT 220V280 9999 FEW020 28/16 Q1023=
201110011145 METAR LIRA 011145Z 30004KT 250V300 9999 FEW020 27/16 Q1023=
201110011115 METAR LIRA 011115Z 22003KT 9999 FEW020 26/16 Q1024=
201110011045 METAR LIRA 011045Z 36002KT CAVOK 26/16 Q1024=
201110011015 METAR LIRA 011015Z 35003KT CAVOK 25/17 Q1024=
201110010945 METAR LIRA 010945Z 04002KT CAVOK 24/17 Q1024=
201110010915 METAR LIRA 010915Z 01002KT CAVOK 24/16 Q1024=
201110010845 METAR LIRA 010845Z 02003KT CAVOK 22/15 Q1024=
201110010815 METAR LIRA 010815Z 01004KT CAVOK 21/14 Q1024=
201110010745 METAR LIRA 010745Z 02003KT CAVOK 19/14 Q1024=
201110010715 METAR LIRA 010715Z 04004KT CAVOK 19/14 Q1024=
201110010645 METAR LIRA 010645Z 03002KT CAVOK 17/13 Q1023=
201110010615 METAR LIRA 010615Z 05002KT CAVOK 16/13 Q1023=
201110010545 METAR LIRA 010545Z 04002KT CAVOK 15/12 Q1023=
201110010515 METAR LIRA 010515Z 02002KT CAVOK 14/12 Q1022=
201110010445 METAR LIRA 010445Z 01002KT CAVOK 15/12 Q1022=
201110010415 METAR LIRA 010415Z 05002KT CAVOK 15/12 Q1022=
201110010345 METAR LIRA 010345Z 05004KT CAVOK 14/12 Q1022=
201110010315 METAR LIRA 010315Z 05004KT CAVOK 14/12 Q1022=
201110010245 METAR LIRA 010245Z 05003KT CAVOK 14/12 Q1023=
201110010215 METAR LIRA 010215Z 03002KT CAVOK 14/12 Q1023=
201110010145 METAR LIRA 010145Z 04004KT CAVOK 15/12 Q1023=
201110010115 METAR LIRA 010115Z 03003KT 9999 FEW070 15/12 Q1023=
201110010045 METAR LIRA 010045Z 05003KT 9999 FEW070 15/12 Q1023=
201110010015 METAR LIRA 010015Z 06003KT 9999 FEW070 15/12 Q1023=
201109302350 METAR LIRA 010045Z 05003KT 9999 FEW070 15/12 Q1023=
201109302345 METAR LIRA 302345Z 03003KT 9999 FEW070 16/12 Q1023=
201109302315 METAR LIRA 302315Z 04002KT 9999 FEW070 16/11 Q1023=
201109302245 METAR LIRA 302245Z 07002KT 9999 FEW070 17/11 Q1023=
201109302215 METAR LIRA 302215Z 13001KT 9999 FEW070 17/11 Q1023=
201109302145 METAR LIRA 302145Z 14002KT 9999 FEW070 18/11 Q1023=
201109302115 METAR LIRA 302115Z 16003KT 9999 FEW070 18/12 Q1023=
201109302045 METAR LIRA 302045Z 10002KT 9999 FEW070 18/11 Q1023=
201109302015 METAR LIRA 302015Z 12001KT 9999 FEW070 19/12 Q1023=
201109301945 METAR LIRA 301945Z 13002KT 9999 FEW070 19/13 Q1023=
201109301915 METAR LIRA 301915Z 10002KT 9999 FEW070 20/13 Q1022=
201109301845 METAR LIRA 301845Z 14002KT 9999 FEW070 20/14 Q1022=
201109301815 METAR LIRA 301815Z 17003KT 9999 FEW020 21/14 Q1022=
201109301745 METAR LIRA 301745Z 19003KT 9999 FEW020 23/14 Q1022=
201109301715 METAR LIRA 301715Z 22003KT 9999 FEW020 23/13 Q1022=
201109301645 METAR LIRA 301645Z 22004KT 9999 FEW020 24/13 Q1022=
201109301615 METAR LIRA 301615Z 22005KT 9999 FEW018 24/12 Q1022=
201109301545 METAR LIRA 301545Z 24007KT 9999 FEW018 25/11 Q1022=
201109301515 METAR LIRA 301515Z 24006KT 200V280 9999 FEW018 26/11 Q1022=
201109301445 METAR LIRA 301445Z 24006KT 9999 FEW018 27/11 Q1022=
201109301415 METAR LIRA 301415Z 23008KT 170V240 9999 FEW018 27/11 Q1022=
201109301345 METAR LIRA 301345Z 23006KT 200V300 9999 FEW018 27/12 Q1022=
201109301315 METAR LIRA 301315Z 27008KT 240V330 9999 FEW018 27/12 Q1022=
201109301245 METAR LIRA 301245Z 29002KT 9999 FEW018 27/11 Q1022=
201109301215 METAR LIRA 301215Z 30003KT 240V320 9999 FEW018 28/12 Q1023=
201109301145 METAR LIRA 301145Z 26004KT 210V300 9999 FEW018 27/11 Q1023=
201109301115 METAR LIRA 301115Z 35001KT 9999 FEW018 26/10 Q1023=
201109301045 METAR LIRA 301045Z 36002KT CAVOK 25/11 Q1023=
201109301015 METAR LIRA 301015Z 36003KT CAVOK 25/12 Q1023=
201109300945 METAR LIRA 300945Z 02006KT CAVOK 24/11 Q1023=
201109300915 METAR LIRA 300915Z 36005KT 240V030 CAVOK 23/12 Q1023=
201109300845 METAR LIRA 300845Z 01005KT 340V070 CAVOK 21/12 Q1023=
201109300815 METAR LIRA 300815Z 02006KT 360V080 CAVOK 20/12 Q1023=
201109300745 METAR LIRA 300745Z 04006KT 360V070 CAVOK 19/12 Q1022=
201109300715 METAR LIRA 300715Z 04004KT CAVOK 18/14 Q1022=
201109300645 METAR LIRA 300645Z 05004KT CAVOK 17/13 Q1022=
201109300615 METAR LIRA 300615Z 04004KT CAVOK 15/12 Q1022=
201109300545 METAR LIRA 300545Z 04003KT CAVOK 15/13 Q1022=
201109300515 METAR LIRA 300515Z 01002KT CAVOK 15/12 Q1022=
201109300445 METAR LIRA 300445Z 04004KT CAVOK 15/12 Q1022=
201109300415 METAR LIRA 300415Z 03003KT CAVOK 15/12 Q1022=
201109300345 METAR LIRA 300345Z 01003KT CAVOK 15/12 Q1022=
201109300315 METAR LIRA 300315Z 05002KT CAVOK 15/12 Q1022=
201109300245 METAR LIRA 300245Z 01003KT CAVOK 16/12 Q1022=
201109300215 METAR LIRA 300215Z 35001KT CAVOK 16/12 Q1021=
201109300145 METAR LIRA 300145Z 01003KT CAVOK 16/12 Q1021=
201109300115 METAR LIRA 300115Z 36003KT CAVOK 17/13 Q1021=
201109300045 METAR LIRA 300045Z 35003KT CAVOK 17/13 Q1021=
201109300015 METAR LIRA 300015Z 03006KT CAVOK 17/12 Q1021=
201109292350 METAR LIRA 300045Z 35003KT CAVOK 17/13 Q1021=
201109292345 METAR LIRA 292345Z 05005KT CAVOK 17/12 Q1021=
201109292315 METAR LIRA 292315Z 05004KT CAVOK 17/11 Q1021=
201109292245 METAR LIRA 292245Z 05003KT CAVOK 17/12 Q1021=
201109292215 METAR LIRA 292215Z 06006KT CAVOK 17/12 Q1021=
201109292145 METAR LIRA 292145Z 06006KT CAVOK 17/12 Q1021=
201109292115 METAR LIRA 292115Z 06003KT CAVOK 18/12 Q1021=
201109292045 METAR LIRA 292045Z 13002KT CAVOK 19/13 Q1021=
201109292015 METAR LIRA 292015Z 11002KT CAVOK 20/15 Q1021=
201109291945 METAR LIRA 291945Z 16004KT CAVOK 21/15 Q1021=
201109291915 METAR LIRA 291915Z 17003KT CAVOK 21/15 Q1021=
201109291845 METAR LIRA 291845Z 18005KT CAVOK 21/15 Q1021=
201109291815 METAR LIRA 291815Z 17005KT CAVOK 21/14 Q1021=
201109291745 METAR LIRA 291745Z 17004KT CAVOK 22/13 Q1021=
201109291715 METAR LIRA 291715Z 18003KT CAVOK 23/12 Q1021=
201109291645 METAR LIRA 291645Z 25003KT CAVOK 24/09 Q1021=
201109291615 METAR LIRA 291615Z 26006KT CAVOK 25/09 Q1021=
201109291545 METAR LIRA 291545Z 27007KT 240V310 9999 FEW070 26/10 Q1021=
201109291515 METAR LIRA 291515Z 26007KT 220V320 9999 FEW070 26/11 Q1021=
201109291445 METAR LIRA 291445Z 28007KT 230V310 9999 FEW070 SCT200 26/07
                        Q1021=
201109291415 METAR LIRA 291415Z 31005KT 260V010 9999 FEW070 SCT200 27/06
                        Q1021=
201109291345 METAR LIRA 291345Z 02003KT 9999 FEW080 SCT200 28/06 Q1021=
201109291315 METAR LIRA 291315Z 31004KT 270V010 9999 FEW070 SCT200 28/06
                        Q1021=
201109291245 METAR LIRA 291245Z 33003KT 260V350 9999 FEW070 SCT200 28/06
                        Q1021=
201109291215 METAR LIRA 291215Z 33005KT 9999 FEW070 SCT200 28/06 Q1022=
201109291145 METAR LIRA 291145Z 35006KT 310V040 9999 FEW070 SCT200 28/06
                        Q1022=
201109291115 METAR LIRA 291115Z 34004KT 9999 FEW070 27/07 Q1022=
201109291045 METAR LIRA 291045Z 36003KT 9999 FEW070 27/11 Q1022=
201109291015 METAR LIRA 291015Z 36006KT 300V030 9999 FEW070 26/12 Q1022=
201109290945 METAR LIRA 290945Z 01005KT 330V050 9999 FEW070 25/13 Q1022=
201109290915 METAR LIRA 290915Z 02006KT 330V070 9999 FEW070 24/13 Q1022=
201109290845 METAR LIRA 290845Z 03005KT 350V080 9999 FEW070 22/13 Q1022=
201109290815 METAR LIRA 290815Z 01006KT 330V040 9999 FEW070 21/13 Q1022=
201109290745 METAR LIRA 290745Z 02005KT 330V070 9999 FEW020 20/12 Q1022=
201109290715 METAR LIRA 290715Z 02004KT 320V050 9999 FEW020 19/13 Q1022=
201109290645 METAR LIRA 290645Z 02002KT 9999 FEW020 18/13 Q1022=
201109290615 METAR LIRA 290615Z 02003KT 9999 FEW020 17/12 Q1022=
201109290545 METAR LIRA 290545Z 04004KT 9999 FEW020 16/12 Q1021=
201109290515 METAR LIRA 290515Z 03003KT 9999 FEW020 15/11 Q1022=
201109290445 METAR LIRA 290445Z 06005KT 9999 FEW070 14/10 Q1022=
201109290415 METAR LIRA 290415Z 05002KT 9999 FEW070 14/10 Q1022=
201109290345 METAR LIRA 290345Z 03002KT CAVOK 15/10 Q1022=
201109290315 METAR LIRA 290315Z 02003KT CAVOK 16/10 Q1022=
201109290245 METAR LIRA 290245Z 04003KT CAVOK 16/10 Q1022=
201109290215 METAR LIRA 290215Z 02003KT CAVOK 16/10 Q1022=
201109290145 METAR LIRA 290145Z 02001KT CAVOK 17/10 Q1022=
201109290115 METAR LIRA 290115Z 01002KT CAVOK 17/10 Q1022=
201109290045 METAR LIRA 290045Z 01001KT CAVOK 17/10 Q1021=
201109290015 METAR LIRA 290015Z 08003KT CAVOK 17/11 Q1021=
201109282350 METAR LIRA 290045Z 01001KT CAVOK 17/10 Q1021=
201109282345 METAR LIRA 282345Z 06002KT CAVOK 18/11 Q1022=
201109282315 METAR LIRA 282315Z 04004KT CAVOK 19/11 Q1021=
201109282245 METAR LIRA 282245Z 03004KT CAVOK 20/12 Q1021=
201109282215 METAR LIRA 282215Z 02006KT CAVOK 20/12 Q1021=
201109282145 METAR LIRA 282145Z 35002KT CAVOK 19/13 Q1021=
201109282115 METAR LIRA 282115Z 02005KT 9999 FEW080 20/15 Q1021=
201109282045 METAR LIRA 282045Z 03005KT 9999 FEW080 20/16 Q1021=
201109282015 METAR LIRA 282015Z 05005KT 9999 FEW080 20/16 Q1021=
201109281945 METAR LIRA 281945Z 04003KT 9999 FEW030 21/16 Q1021=
201109281915 METAR LIRA 281915Z 11003KT 9999 FEW030 21/17 Q1020=
201109281845 METAR LIRA 281845Z 14004KT 9999 FEW030 22/17 Q1020=
201109281815 METAR LIRA 281815Z 20004KT 9999 FEW030 23/17 Q1020=
201109281745 METAR LIRA 281745Z 17005KT 9999 FEW030 23/17 Q1020=
201109281715 METAR LIRA 281715Z 16005KT 9999 FEW030 24/17 Q1020=
201109281645 METAR LIRA 281645Z 25003KT 9999 FEW030 25/15 Q1020=
201109281615 METAR LIRA 281615Z 25005KT 9999 FEW040 25/14 Q1020=
201109281515 METAR LIRA 281515Z 26008KT 9999 FEW020 27/15 Q1020=
201109281415 METAR LIRA 281415Z 30006KT 9999 FEW020 29/11 Q1020=
201109281245 METAR LIRA 281245Z 02003KT 9999 FEW020 27/12 Q1021=
201109281215 METAR LIRA 281215Z 32003KT 9999 FEW020 27/13 Q1021=
201109281145 METAR LIRA 281145Z 09004KT 9999 FEW020 27/14 Q1022=
201109281115 METAR LIRA 281115Z 07004KT 9999 FEW080 27/14 Q1022=
201109281045 METAR LIRA 281045Z 04004KT 9999 FEW080 SCT200 27/14 Q1022=
201109281015 METAR LIRA 281015Z 02005KT 330V070 9999 FEW080 26/15 Q1022=
201109280945 METAR LIRA 280945Z 33005KT 9999 FEW080 25/15 Q1022=
201109280915 METAR LIRA 280915Z 03006KT 350V080 9999 FEW080 24/15 Q1022=
201109280845 METAR LIRA 280845Z 02006KT 330V060 9999 FEW080 23/16 Q1022=
201109280815 METAR LIRA 280815Z 01005KT 330V060 9999 FEW080 21/15 Q1022=
201109280745 METAR LIRA 280745Z 02005KT 9999 FEW080 20/15 Q1021=
201109280715 METAR LIRA 280715Z 02005KT 9999 FEW080 19/15 Q1021=
201109280645 METAR LIRA 280645Z 05004KT 9999 FEW080 18/15 Q1021=
201109280615 METAR LIRA 280615Z 05005KT 9999 FEW080 18/15 Q1021=
201109280545 METAR LIRA 280545Z 06004KT 9999 FEW080 17/15 Q1021=
201109280515 METAR LIRA 280515Z 06003KT 9999 FEW080 17/15 Q1021=
201109280445 METAR LIRA 280445Z 04003KT 9999 FEW080 17/15 Q1021=
201109280415 METAR LIRA 280415Z 01004KT 9999 FEW080 17/15 Q1021=
201109280345 METAR LIRA 280345Z 03004KT CAVOK 17/15 Q1021=
201109280315 METAR LIRA 280315Z 04003KT CAVOK 17/15 Q1021=
201109280245 METAR LIRA 280245Z 07004KT CAVOK 17/15 Q1021=
201109280215 METAR LIRA 280215Z 02003KT CAVOK 18/15 Q1021=
201109280145 METAR LIRA 280145Z 04003KT CAVOK 18/16 Q1021=
201109280115 METAR LIRA 280115Z 02002KT CAVOK 18/15 Q1022=
201109280045 METAR LIRA 280045Z 04004KT CAVOK 19/15 Q1022=
201109280015 METAR LIRA 280015Z 04002KT CAVOK 18/14 Q1022=
201109272350 METAR LIRA 280045Z 04004KT CAVOK 19/15 Q1022=
201109272345 METAR LIRA 272345Z 07003KT CAVOK 19/16 Q1022=
201109272315 METAR LIRA 272315Z 04003KT CAVOK 20/16 Q1022=
201109272245 METAR LIRA 272245Z 02005KT CAVOK 20/16 Q1022=
201109272215 METAR LIRA 272215Z 01004KT CAVOK 20/16 Q1022=
201109272145 METAR LIRA 272145Z 05003KT 9999 FEW070 20/16 Q1022=
201109272115 METAR LIRA 272115Z 35004KT 9999 FEW060 21/17 Q1022=
201109272045 METAR LIRA 272045Z 03003KT 9999 FEW060 21/17 Q1022=
201109272015 METAR LIRA 272015Z 09006KT 050V130 9999 FEW040 21/17 Q1022=
201109271945 METAR LIRA 271945Z 08004KT 9999 FEW040 21/18 Q1022=
201109271915 METAR LIRA 271915Z 10001KT 9999 FEW040 22/18 Q1021=
201109271845 METAR LIRA 271845Z 11003KT 9999 FEW040 SCT070 22/18 Q1021=
201109271815 METAR LIRA 271815Z 16003KT 9999 FEW040 SCT070 23/18 Q1021=
201109271745 METAR LIRA 271745Z 17005KT 9999 FEW040 SCT070 24/19 Q1021=
201109271715 METAR LIRA 271715Z 17006KT 9999 SCT040 SCT070 24/18 Q1021=
201109271645 METAR LIRA 271645Z 19005KT 9999 SCT040 SCT080 25/18 Q1021=
201109271615 METAR LIRA 271615Z 19003KT 9999 FEW020 SCT040 26/14 Q1021=
201109271545 METAR LIRA 271545Z 18001KT 9999 FEW020 SCT050 26/12 Q1021=
201109271515 METAR LIRA 271515Z 12005KT 9999 FEW020 FEW022TCU SCT050 26/11
                        Q1021=
201109271445 METAR LIRA 271445Z 12006KT 9999 SCT020 FEW022CB SCT070 27/12
                        Q1021=
201109271415 METAR LIRA 271415Z 03005KT 9999 FEW020 FEW022CB SCT070 28/12
                        Q1021=
201109271345 METAR LIRA 271345Z 13003KT 9999 FEW020 FEW022TCU 29/12 Q1021=
201109271315 METAR LIRA 271315Z 33003KT 9999 SCT020 28/12 Q1021=
201109271245 METAR LIRA 271245Z 01005KT 320V050 9999 SCT020 28/13 Q1021=
201109271215 METAR LIRA 271215Z 35004KT 310V040 9999 FEW020 28/13 Q1022=
201109271145 METAR LIRA 271145Z 04003KT 350V060 9999 FEW080 28/14 Q1022=
201109271115 METAR LIRA 271115Z 01004KT 330V070 9999 FEW080 27/15 Q1022=
201109271045 METAR LIRA 271045Z 04006KT 340V060 9999 FEW080 26/16 Q1022=
201109271015 METAR LIRA 271015Z 04006KT 360V070 9999 FEW080 25/16 Q1022=
201109270945 METAR LIRA 270945Z 01003KT 350V060 9999 FEW080 24/16 Q1022=
201109270915 METAR LIRA 270915Z 02005KT 9999 FEW070 24/17 Q1022=
201109270845 METAR LIRA 270845Z 01005KT 330V060 9999 FEW060 22/15 Q1022=
201109270815 METAR LIRA 270815Z 05003KT 9999 FEW060 21/16 Q1022=
201109270745 METAR LIRA 270745Z 04005KT 9999 SCT070 20/16 Q1022=
201109270715 METAR LIRA 270715Z 01005KT 9999 FEW070 19/16 Q1021=
201109270645 METAR LIRA 270645Z 36004KT 9999 FEW070 18/15 Q1021=
201109270615 METAR LIRA 270615Z 04003KT 9999 FEW070 17/16 Q1021=
201109270545 METAR LIRA 270545Z 07004KT 9999 FEW070 16/15 Q1021=
201109270515 METAR LIRA 270515Z 04004KT 9999 FEW070 16/16 Q1020=
201109270445 METAR LIRA 270445Z 06003KT 9999 FEW070 17/15 Q1020=
201109270415 METAR LIRA 270415Z 06002KT 9999 FEW080 17/15 Q1020=
201109270345 METAR LIRA 270345Z 00000KT 9999 SCT080 17/16 Q1020=
201109270315 METAR LIRA 270315Z 00000KT 9999 SCT080 17/16 Q1020=
201109270245 METAR LIRA 270245Z 00000KT 9999 SCT080 17/16 Q1020=
201109270215 METAR LIRA 270215Z 09002KT 9999 SCT080 17/17 Q1020=
201109270145 METAR LIRA 270145Z 07002KT 9999 SCT080 17/17 Q1020=
201109270115 METAR LIRA 270115Z 05002KT 9999 FEW022 SCT080 18/17 Q1021=
201109270045 METAR LIRA 270045Z 34003KT 9999 FEW022 SCT070 18/17 Q1021=
201109270015 METAR LIRA 270015Z 06001KT 9999 FEW022 SCT080 18/17 Q1021=
201109262350 METAR LIRA 270045Z 34003KT 9999 FEW022 SCT070 18/17 Q1021=
201109262345 METAR LIRA 262345Z 36001KT 9999 FEW022 SCT080 19/17 Q1021=
201109262315 METAR LIRA 262315Z 35002KT 9999 FEW022 SCT080 18/17 Q1021=
201109262245 METAR LIRA 262245Z 32001KT 9999 FEW022 SCT080 19/17 Q1021=
201109262215 METAR LIRA 262215Z 19003KT 9999 FEW022 SCT080 19/16 Q1021=
201109262145 METAR LIRA 262145Z 13008KT 9999 FEW022 SCT080 19/16 Q1021=
201109262115 METAR LIRA 262115Z 11006KT 9999 FEW022 SCT080 18/16 Q1021=
201109262045 METAR LIRA 262045Z 08001KT 9999 FEW022 SCT080 18/16 Q1021=
201109262015 METAR LIRA 262015Z 10004KT 9999 FEW022 SCT080 18/17 Q1021=
201109261945 METAR LIRA 261945Z 11002KT 9999 FEW018 SCT080 18/17 Q1020=
201109261915 METAR LIRA 261915Z 12001KT 9999 FEW018 SCT080 19/17 Q1020=
201109261845 METAR LIRA 261845Z 09001KT 9999 FEW018 FEW020TCU SCT080 19/18
                        Q1020=
201109261815 METAR LIRA 261815Z 04005KT 9999 FEW017 FEW018CB SCT080 20/18
                        Q1020=
201109261745 METAR LIRA 261745Z 17002KT 9999 FEW017 FEW018CB SCT080 20/17
                        Q1020=
201109261715 METAR LIRA 261715Z 15005KT 9999 FEW017 FEW018CB SCT080 20/17
                        Q1020=
201109261645 METAR LIRA 261645Z 12007KT 9999 FEW017 FEW018CB SCT070 19/17
                        Q1019=
201109261615 METAR LIRA 261615Z 18006KT 9999 FEW018CB SCT080 19/19 Q1019
                        RETS=
201109261545 METAR LIRA 261545Z 17006KT 9999 FEW018CB FEW022TCU SCT200
                        19/19 Q1019 RETS=
201109261515 METAR LIRA 261515Z 19007KT 170V240 9999 -TSRA FEW016 SCT018CB
                        FEW022TCU 20/18 Q1020 RETS=
201109261445 METAR LIRA 261445Z 20014KT 6000 TSRA FEW016 SCT018CB FEW022TCU
                        21/18 Q1019=
201109261415 METAR LIRA 261415Z 17012KT 150V300 9999 TS FEW016 FEW018CB
                        FEW022TCU 26/16 Q1019=
201109261345 METAR LIRA 261345Z 28010KT 9999 FEW020CB FEW022TCU 27/15
                        Q1019=
201109261315 METAR LIRA 261315Z 30007KT 260V310 9999 SCT020 FEW022CB 27/15
                        Q1019=
201109261245 METAR LIRA 261245Z 33005KT 9999 FEW020 FEW022TCU 27/13 Q1019=
201109261215 METAR LIRA 261215Z 26004KT 240V300 9999 FEW020 FEW022TCU
                        28/14 Q1019=
201109261145 METAR LIRA 261145Z 32004KT 9999 FEW020 FEW022TCU 27/14 Q1019=
201109261115 METAR LIRA 261115Z 31004KT 240V350 9999 FEW020 FEW022TCU
                        27/14 Q1020=
201109261045 METAR LIRA 261045Z 33003KT 9999 FEW020 26/15 Q1020=
201109261015 METAR LIRA 261015Z 19002KT 9999 FEW020 25/15 Q1020=
201109260945 METAR LIRA 260945Z 36004KT 9999 FEW020 SCT200 25/16 Q1020=
201109260915 METAR LIRA 260915Z 03005KT 340V060 9999 FEW020 23/16 Q1020=
201109260845 METAR LIRA 260845Z 02005KT 330V030 9999 FEW020 21/17 Q1020=
201109260815 METAR LIRA 260815Z 02005KT CAVOK 20/16 Q1020=
201109260745 METAR LIRA 260745Z 01006KT CAVOK 19/17 Q1019=
201109260715 METAR LIRA 260715Z 03005KT 340V090 9000 NSC 18/16 Q1019=
201109260645 METAR LIRA 260645Z 04004KT 9000 NSC 17/16 Q1019=
201109260615 METAR LIRA 260615Z 04004KT 9000 NSC 16/15 Q1019=
201109260545 METAR LIRA 260545Z 06003KT 8000 NSC 16/15 Q1019=
201109260515 METAR LIRA 260515Z 04004KT 8000 FEW010 16/15 Q1019=
201109260445 METAR LIRA 260445Z 02002KT 9999 FEW080 16/15 Q1019=
201109260415 METAR LIRA 260415Z 04003KT 9999 FEW040 16/15 Q1019=
201109260345 METAR LIRA 260345Z 03002KT 9999 FEW040 16/15 Q1019=
201109260315 METAR LIRA 260315Z 03003KT 9999 FEW040 16/15 Q1019=
201109260245 METAR LIRA 260245Z 03003KT 9999 FEW040 16/15 Q1019=
201109260215 METAR LIRA 260215Z 03003KT 9999 FEW040 16/15 Q1019=
201109260145 METAR LIRA 260145Z 02002KT 9999 FEW040 17/16 Q1019=
201109260115 METAR LIRA 260115Z 36003KT 9999 FEW040 17/16 Q1019=
201109260045 METAR LIRA 260045Z 06003KT 9999 FEW040 17/16 Q1019=
201109260015 METAR LIRA 260015Z 05003KT 9999 FEW040 17/16 Q1019=
201109252350 METAR LIRA 260045Z 06003KT 9999 FEW040 17/16 Q1019=
201109252345 METAR LIRA 252345Z 00000KT 9999 FEW020 18/16 Q1019=
201109252315 METAR LIRA 252315Z 05001KT 9999 FEW020 18/16 Q1019=
201109252245 METAR LIRA 252245Z 04001KT 9999 FEW020 FEW022CB SCT040 18/17
                        Q1019=
201109252215 METAR LIRA 252215Z 01002KT 9999 FEW020 FEW022CB SCT040 18/17
                        Q1019=
201109252145 METAR LIRA 252145Z 09003KT 9999 FEW020 FEW022CB 19/17 Q1019=
201109252115 METAR LIRA 252115Z 33002KT 9999 FEW020 FEW022CB 19/17 Q1019=
201109252045 METAR LIRA 252045Z 02002KT 9999 FEW020 FEW022CB 20/17 Q1019=
201109252015 METAR LIRA 252015Z 08003KT 9999 FEW018 FEW022CB 20/17 Q1018
                        RETS=
201109251945 METAR LIRA 251945Z 13004KT 9999 FEW020 FEW022CB 20/17 Q1018
                        RETS=
201109251915 METAR LIRA 251915Z 16002KT 9999 TS SCT018 FEW022CB 21/17
                        Q1018=
201109251845 METAR LIRA 251845Z 00000KT 9999 TS SCT018 FEW022CB 21/18
                        Q1018=
201109251815 METAR LIRA 251815Z 03002KT 9999 TS SCT018 FEW022CB 21/18
                        Q1018=
201109251745 METAR LIRA 251745Z 25003KT 9999 TS FEW018 FEW022CB 21/18
                        Q1018=
201109251715 METAR LIRA 251715Z 26003KT 250V040 9999 FEW018 FEW022CB 22/18
                        Q1018=
201109251645 METAR LIRA 251645Z 27004KT 9999 FEW018 23/17 Q1018=
201109251615 METAR LIRA 251615Z 25006KT 210V280 9999 SCT018 24/16 Q1017=
201109251545 METAR LIRA 251545Z 25007KT 210V280 9999 SCT018 24/16 Q1017=
201109251515 METAR LIRA 251515Z 26006KT 200V280 9999 SCT018 26/17 Q1017=
201109251445 METAR LIRA 251445Z 21002KT 9999 FEW017 FEW018CB 26/17 Q1017=
201109251415 METAR LIRA 251415Z 27005KT 230V300 9999 FEW018 26/17 Q1017=
201109251345 METAR LIRA 251345Z 24004KT 9999 FEW018 26/16 Q1018=
201109251315 METAR LIRA 251315Z 17005KT 9999 FEW018 26/17 Q1018=
201109251245 METAR LIRA 251245Z 17004KT 120V200 9999 FEW018 26/18 Q1018=
201109251215 METAR LIRA 251215Z 18005KT 9999 FEW018 25/17 Q1018=
201109251145 METAR LIRA 251145Z 20005KT 9999 FEW018 24/16 Q1018=
201109251115 METAR LIRA 251115Z 19008KT 9999 FEW018 24/16 Q1018=
201109251045 METAR LIRA 251045Z 19007KT 9999 FEW018 24/15 Q1018=
201109251015 METAR LIRA 251015Z 18007KT 140V220 CAVOK 24/15 Q1018=
201109250945 METAR LIRA 250945Z 19007KT 150V230 CAVOK 24/13 Q1018=
201109250915 METAR LIRA 250915Z 19007KT 120V230 CAVOK 23/13 Q1018=
201109250845 METAR LIRA 250845Z 24002KT CAVOK 23/16 Q1018=
201109250815 METAR LIRA 250815Z 00000KT CAVOK 22/17 Q1018=
201109250745 METAR LIRA 250745Z 36001KT 9999 FEW080 20/17 Q1017=
201109250715 METAR LIRA 250715Z 02003KT 9999 FEW080 19/16 Q1017=
201109250645 METAR LIRA 250645Z 01001KT 9999 FEW080 18/17 Q1017=
201109250615 METAR LIRA 250615Z 01001KT 8000 FEW080 17/16 Q1017=
201109250545 METAR LIRA 250545Z 01002KT 8000 FEW080 16/15 Q1017=
201109250515 METAR LIRA 250515Z 05001KT 7000 FEW080 16/15 Q1017=
201109250445 METAR LIRA 250445Z 04001KT 8000 FEW080 16/15 Q1017=
201109250415 METAR LIRA 250415Z 05001KT CAVOK 16/16 Q1017=
201109250345 METAR LIRA 250345Z 00000KT CAVOK 17/16 Q1017=
201109250315 METAR LIRA 250315Z 09001KT CAVOK 17/16 Q1017=
201109250245 METAR LIRA 250245Z 07003KT CAVOK 17/16 Q1017=
201109250215 METAR LIRA 250215Z 08002KT CAVOK 17/16 Q1017=
201109250145 METAR LIRA 250145Z 00000KT CAVOK 17/16 Q1017=
201109250115 METAR LIRA 250115Z 12002KT CAVOK 18/16 Q1017=
201109250045 METAR LIRA 250045Z 13001KT CAVOK 18/16 Q1017=
201109250015 METAR LIRA 250015Z 10001KT CAVOK 18/17 Q1017=
201109242350 METAR LIRA 250045Z 13001KT CAVOK 18/16 Q1017=
201109242345 METAR LIRA 242345Z 00000KT 9999 FEW006 18/17 Q1017=
201109242315 METAR LIRA 242315Z 08002KT 9999 FEW006 19/18 Q1017=
201109242245 METAR LIRA 242245Z 18002KT 9999 FEW006 SCT060 19/18 Q1017=
201109242215 METAR LIRA 242215Z 00000KT 9999 FEW006 SCT060 19/18 Q1017=
201109242145 METAR LIRA 242145Z 20001KT 9999 FEW060 20/18 Q1017=
201109242115 METAR LIRA 242115Z 16001KT 9999 FEW014 SCT070 20/18 Q1017=
201109242045 METAR LIRA 242045Z 17003KT 9999 FEW014 SCT070 20/18 Q1017=
201109242015 METAR LIRA 242015Z 20001KT 9999 FEW080 20/18 Q1017=
201109241945 METAR LIRA 241945Z 15002KT 9999 FEW080 20/18 Q1017=
201109241915 METAR LIRA 241915Z 00000KT 9999 FEW080 20/18 Q1017=
201109241845 METAR LIRA 241845Z 20001KT 9999 FEW080 20/18 Q1016=
201109241815 METAR LIRA 241815Z 22002KT 9999 FEW080 21/18 Q1016=
201109241745 METAR LIRA 241745Z 22004KT 9999 FEW080 21/18 Q1015=
201109241715 METAR LIRA 241715Z 22004KT 9999 FEW080 22/17 Q1015=
201109241645 METAR LIRA 241645Z 23004KT 9999 FEW080 23/15 Q1015=
201109241615 METAR LIRA 241615Z 23004KT 9999 FEW080 24/16 Q1015=
201109241545 METAR LIRA 241545Z 20005KT 9999 FEW018 SCT070 24/16 Q1015=
201109241515 METAR LIRA 241515Z 23006KT 180V280 9999 FEW018 SCT070 25/16
                        Q1015=
201109241445 METAR LIRA 241445Z 24008KT 9999 SCT018 25/17 Q1015=
201109241415 METAR LIRA 241415Z 25007KT 200V300 9999 SCT018 25/17 Q1015=
201109241345 METAR LIRA 241345Z 26008KT 9999 SCT018 25/17 Q1015=
201109241315 METAR LIRA 241315Z 28006KT 9999 SCT018 25/16 Q1015=
201109241245 METAR LIRA 241245Z 29007KT 240V320 9999 SCT018 25/15 Q1015=
201109241215 METAR LIRA 241215Z 23005KT 9999 SCT018 27/15 Q1015=
201109241145 METAR LIRA 241145Z 06003KT 9999 SCT018 27/13 Q1016=
201109241115 METAR LIRA 241115Z 02002KT 9999 SCT018 26/14 Q1016=
201109241045 METAR LIRA 241045Z 22004KT 9999 SCT018 26/16 Q1016=
201109241015 METAR LIRA 241015Z 23005KT 9999 SCT018 24/15 Q1016=
201109240945 METAR LIRA 240945Z 26004KT 210V290 9999 SCT020 24/17 Q1016=
201109240915 METAR LIRA 240915Z 23003KT 9999 FEW020 24/17 Q1016=
201109240845 METAR LIRA 240845Z 27002KT 9999 FEW020 22/16 Q1016=
201109240815 METAR LIRA 240815Z 33001KT 9999 FEW070 21/16 Q1015=
201109240745 METAR LIRA 240745Z 31001KT 9999 FEW070 20/16 Q1015=
201109240715 METAR LIRA 240715Z 35002KT 8000 FEW070 19/17 Q1015=
201109240645 METAR LIRA 240645Z 04002KT 8000 FEW070 18/16 Q1015=
201109240615 METAR LIRA 240615Z 02001KT 8000 FEW070 17/16 Q1015=
201109240545 METAR LIRA 240545Z 02002KT 9999 FEW070 16/15 Q1014=
201109240515 METAR LIRA 240515Z 10002KT 9999 FEW070 16/15 Q1014=
201109240445 METAR LIRA 240445Z 08003KT 9999 FEW005 16/15 Q1014=
201109240415 METAR LIRA 240415Z 16001KT 9999 FEW005 16/15 Q1014=
201109240345 METAR LIRA 240345Z 35002KT 9999 FEW016 16/16 Q1014=
201109240315 METAR LIRA 240315Z 16002KT 9999 FEW016 17/15 Q1014=
201109240245 METAR LIRA 240245Z 03002KT 9999 SCT016 17/15 Q1015=
201109240215 METAR LIRA 240215Z 13001KT 9999 SCT016 SCT070 17/15 Q1015=
201109240145 METAR LIRA 240145Z 12003KT 9999 SCT016 17/16 Q1015=
201109240115 METAR LIRA 240115Z 10002KT 9999 SCT016 17/16 Q1015=
201109240045 METAR LIRA 240045Z 00000KT 9999 FEW016 18/17 Q1015=
201109240015 METAR LIRA 240015Z 14002KT 9999 FEW020 18/17 Q1015=
201109232350 METAR LIRA 240045Z 00000KT 9999 FEW016 18/17 Q1015=
201109232345 METAR LIRA 232345Z 19002KT 9999 FEW020 18/17 Q1015=
201109232315 METAR LIRA 232315Z 23001KT 9999 FEW020 18/17 Q1015=
201109232245 METAR LIRA 232245Z 11002KT CAVOK 18/17 Q1015=
201109232215 METAR LIRA 232215Z 08001KT CAVOK 18/17 Q1015=
201109232145 METAR LIRA 232145Z 05002KT CAVOK 19/18 Q1015=
201109232115 METAR LIRA 232115Z 21001KT 9999 FEW020 19/18 Q1015=
201109232045 METAR LIRA 232045Z 21002KT 9999 FEW020 19/18 Q1015=
201109232015 METAR LIRA 232015Z 21002KT 9999 FEW020 20/19 Q1015=
201109231945 METAR LIRA 231945Z 00000KT 9999 FEW020 21/19 Q1015=
201109231915 METAR LIRA 231915Z 29002KT 9999 FEW020 SCT070 21/18 Q1015=
201109231845 METAR LIRA 231845Z 26003KT 9999 FEW020 SCT070 21/17 Q1014=
201109231815 METAR LIRA 231815Z 24002KT 9999 FEW020 SCT070 21/16 Q1014=
201109231745 METAR LIRA 231745Z 22003KT 9999 FEW020 22/15 Q1014=
201109231715 METAR LIRA 231715Z 22003KT 9999 FEW020 22/14 Q1014=
201109231645 METAR LIRA 231645Z 22004KT 9999 FEW020 FEW022TCU 23/13 Q1014=
201109231615 METAR LIRA 231615Z 22006KT 9999 FEW020 FEW022TCU 24/13 Q1013=
201109231545 METAR LIRA 231545Z 23006KT 180V270 9999 FEW020 FEW022TCU
                        24/13 Q1013=
201109231515 METAR LIRA 231515Z 22007KT 180V270 9999 FEW020 FEW022TCU
                        25/13 Q1013=
201109231445 METAR LIRA 231445Z 23008KT 9999 FEW020 26/15 Q1013=
201109231415 METAR LIRA 231415Z 23007KT 190V270 9999 FEW018 27/16 Q1013=
201109231345 METAR LIRA 231345Z 21006KT 160V250 9999 FEW018 27/16 Q1014=
201109231315 METAR LIRA 231315Z 23007KT 150V270 9999 SCT018 27/16 Q1014=
201109231245 METAR LIRA 231245Z 24004KT 200V290 9999 SCT018 27/16 Q1014=
201109231215 METAR LIRA 231215Z 23004KT 180V290 9999 SCT018 27/17 Q1014=
201109231145 METAR LIRA 231145Z 23004KT 190V280 9999 SCT018 27/18 Q1014=
201109231115 METAR LIRA 231115Z 21007KT 170V270 9999 SCT018 27/18 Q1014=
201109231045 METAR LIRA 231045Z 25005KT 210V280 9999 SCT016 26/18 Q1015=
201109231015 METAR LIRA 231015Z 24006KT 210V280 9999 SCT015 26/17 Q1015=
201109230945 METAR LIRA 230945Z 20006KT 180V270 9999 SCT015 26/18 Q1015=
201109230915 METAR LIRA 230915Z 20004KT 9999 SCT015 25/18 Q1015=
201109230845 METAR LIRA 230845Z 25004KT 9999 FEW014 25/19 Q1015=
201109230815 METAR LIRA 230815Z 07001KT 9999 FEW014 23/19 Q1015=
201109230745 METAR LIRA 230745Z 10002KT 9999 FEW014 21/19 Q1015=
201109230715 METAR LIRA 230715Z 20003KT 9999 FEW015 20/19 Q1014=
201109230645 METAR LIRA 230645Z 19004KT 9999 FEW010 19/17 Q1014=
201109230615 METAR LIRA 230615Z 19004KT 9999 SCT008 18/17 Q1014=
201109230545 METAR LIRA 230545Z 18002KT 9999 FEW014 17/16 Q1014=
201109230515 METAR LIRA 230515Z 00000KT CAVOK 16/16 Q1014=
201109230445 METAR LIRA 230445Z 00000KT CAVOK 17/16 Q1013=
201109230415 METAR LIRA 230415Z 09001KT CAVOK 17/16 Q1013=
201109230345 METAR LIRA 230345Z 07003KT CAVOK 17/16 Q1014=
201109230315 METAR LIRA 230315Z 17001KT CAVOK 18/17 Q1014=
201109230245 METAR LIRA 230245Z 15003KT CAVOK 18/17 Q1014=
201109230215 METAR LIRA 230215Z 16003KT CAVOK 18/18 Q1014=
201109230145 METAR LIRA 230145Z 15004KT CAVOK 18/18 Q1014=
201109230115 METAR LIRA 230115Z 17004KT CAVOK 19/18 Q1014=
201109230045 METAR LIRA 230045Z 16004KT CAVOK 19/18 Q1014=
201109230015 METAR LIRA 230015Z 17003KT CAVOK 19/18 Q1014=
201109222350 METAR LIRA 230045Z 16004KT CAVOK 19/18 Q1014=
201109222345 METAR LIRA 222345Z 18004KT CAVOK 19/18 Q1014=
201109222315 METAR LIRA 222315Z 17004KT CAVOK 19/18 Q1014=
201109222245 METAR LIRA 222245Z 16004KT CAVOK 19/18 Q1014=
201109222215 METAR LIRA 222215Z 17003KT CAVOK 19/17 Q1014=
201109222145 METAR LIRA 222145Z 18002KT CAVOK 20/17 Q1014=
201109222115 METAR LIRA 222115Z 16003KT CAVOK 20/17 Q1014=
201109222045 METAR LIRA 222045Z 16003KT CAVOK 20/16 Q1014=
201109222015 METAR LIRA 222015Z 16003KT CAVOK 20/16 Q1014=
201109221945 METAR LIRA 221945Z 17003KT CAVOK 21/17 Q1014=
201109221915 METAR LIRA 221915Z 16003KT CAVOK 21/18 Q1014=
201109221845 METAR LIRA 221845Z 16003KT CAVOK 21/18 Q1014=
201109221815 METAR LIRA 221815Z 20004KT CAVOK 22/18 Q1014=
201109221745 METAR LIRA 221745Z 22003KT CAVOK 22/18 Q1014=
201109221715 METAR LIRA 221715Z 24004KT CAVOK 23/17 Q1014=
201109221645 METAR LIRA 221645Z 25004KT 210V280 9999 FEW022 23/16 Q1014=
201109221615 METAR LIRA 221615Z 25005KT 230V290 9999 FEW022 24/18 Q1014=
201109221545 METAR LIRA 221545Z 26007KT 230V300 9999 FEW018 25/17 Q1014=
201109221515 METAR LIRA 221515Z 27007KT 230V300 9999 FEW018 26/17 Q1014=
201109221445 METAR LIRA 221445Z 26006KT 220V300 9999 FEW018 27/18 Q1014=
201109221415 METAR LIRA 221415Z 23006KT 190V270 9999 FEW018 27/19 Q1014=
201109221345 METAR LIRA 221345Z 24007KT 180V300 9999 FEW018 27/19 Q1014=
201109221315 METAR LIRA 221315Z 25005KT 200V280 9999 FEW018 27/20 Q1014=
201109221245 METAR LIRA 221245Z 28006KT 230V290 9999 FEW018 27/19 Q1014=
201109221215 METAR LIRA 221215Z 26006KT 210V310 9999 FEW018 26/20 Q1014=
201109221145 METAR LIRA 221145Z 20003KT 9999 FEW018 28/17 Q1014=
201109221115 METAR LIRA 221115Z 14005KT 9999 FEW018 27/17 Q1014=
201109221045 METAR LIRA 221045Z 34002KT 9999 FEW018 27/17 Q1015=
201109221015 METAR LIRA 221015Z 28003KT CAVOK 26/17 Q1015=
201109220945 METAR LIRA 220945Z 17001KT CAVOK 25/16 Q1015=
201109220915 METAR LIRA 220915Z 34002KT CAVOK 23/16 Q1015=
201109220845 METAR LIRA 220845Z 03002KT CAVOK 23/17 Q1015=
201109220815 METAR LIRA 220815Z 02003KT CAVOK 22/17 Q1015=
201109220745 METAR LIRA 220745Z 03004KT CAVOK 20/16 Q1015=
201109220715 METAR LIRA 220715Z 03003KT CAVOK 20/17 Q1015=
201109220645 METAR LIRA 220645Z 04003KT CAVOK 19/16 Q1015=
201109220615 METAR LIRA 220615Z 36001KT CAVOK 18/16 Q1015=
201109220545 METAR LIRA 220545Z 05002KT CAVOK 16/16 Q1014=
201109220515 METAR LIRA 220515Z 03002KT CAVOK 17/15 Q1014=
201109220445 METAR LIRA 220445Z 04002KT CAVOK 16/15 Q1014=
201109220415 METAR LIRA 220415Z 03003KT CAVOK 16/15 Q1014=
201109220345 METAR LIRA 220345Z 04002KT CAVOK 16/14 Q1014=
201109220315 METAR LIRA 220315Z 05002KT CAVOK 16/14 Q1014=
201109220245 METAR LIRA 220245Z 07002KT CAVOK 16/15 Q1014=
201109220215 METAR LIRA 220215Z 04002KT CAVOK 17/15 Q1014=
201109220145 METAR LIRA 220145Z 04002KT CAVOK 17/15 Q1014=
201109220115 METAR LIRA 220115Z 09002KT CAVOK 17/15 Q1014=
201109220045 METAR LIRA 220045Z 32001KT CAVOK 17/15 Q1014=
201109220015 METAR LIRA 220015Z 00000KT CAVOK 17/15 Q1014=
201109212350 METAR LIRA 220045Z 32001KT CAVOK 17/15 Q1014=
201109212345 METAR LIRA 212345Z 00000KT CAVOK 18/15 Q1014=
201109212315 METAR LIRA 212315Z 17001KT CAVOK 18/15 Q1014=
201109212245 METAR LIRA 212245Z 11001KT CAVOK 19/16 Q1014=
201109212215 METAR LIRA 212215Z 10002KT CAVOK 20/16 Q1014=
201109212145 METAR LIRA 212145Z 12001KT CAVOK 20/16 Q1014=
201109212115 METAR LIRA 212115Z 11002KT CAVOK 20/16 Q1014=
201109212045 METAR LIRA 212045Z 00000KT CAVOK 20/16 Q1014=
201109212015 METAR LIRA 212015Z 17001KT CAVOK 20/17 Q1014=
201109211945 METAR LIRA 211945Z 17001KT CAVOK 21/18 Q1014=
201109211915 METAR LIRA 211915Z 00000KT CAVOK 22/18 Q1014=
201109211845 METAR LIRA 211845Z 19002KT CAVOK 23/17 Q1014=
201109211815 METAR LIRA 211815Z 02002KT CAVOK 23/18 Q1014=
201109211745 METAR LIRA 211745Z 23002KT CAVOK 24/17 Q1013=
201109211715 METAR LIRA 211715Z 26004KT CAVOK 24/17 Q1013=
201109211645 METAR LIRA 211645Z 24005KT 210V290 CAVOK 25/16 Q1013=
201109211615 METAR LIRA 211615Z 27007KT 240V330 CAVOK 27/15 Q1013=
201109211545 METAR LIRA 211545Z 34002KT CAVOK 28/13 Q1013=
201109211515 METAR LIRA 211515Z 33003KT CAVOK 28/13 Q1013=
201109211445 METAR LIRA 211445Z 30007KT 250V310 CAVOK 28/13 Q1013=
201109211415 METAR LIRA 211415Z 30006KT 260V350 9999 FEW022 28/13 Q1014=
201109211345 METAR LIRA 211345Z 30004KT 9999 FEW022 28/13 Q1014=
201109211315 METAR LIRA 211315Z 31006KT 270V060 CAVOK 28/14 Q1014=
201109211245 METAR LIRA 211245Z 02006KT CAVOK 27/13 Q1014=
201109211215 METAR LIRA 211215Z 33005KT 300V030 CAVOK 27/13 Q1014=
201109211145 METAR LIRA 211145Z 33005KT 290V060 CAVOK 27/13 Q1014=
201109211115 METAR LIRA 211115Z 34007KT 300V080 CAVOK 26/13 Q1014=
201109211045 METAR LIRA 211045Z 03008KT 310V080 CAVOK 26/13 Q1014=
201109211015 METAR LIRA 211015Z 03009KT 340V060 CAVOK 25/13 Q1014=
201109210945 METAR LIRA 210945Z 36009KT 320V060 CAVOK 24/14 Q1014=
201109210915 METAR LIRA 210915Z 35010KT 320V040 CAVOK 23/14 Q1014=
201109210845 METAR LIRA 210845Z 01009KT 340V070 CAVOK 23/14 Q1014=
201109210815 METAR LIRA 210815Z 01011KT 330V050 CAVOK 22/15 Q1014=
201109210745 METAR LIRA 210745Z 02006KT 320V070 CAVOK 20/15 Q1014=
201109210715 METAR LIRA 210715Z 03003KT CAVOK 20/15 Q1014=
201109210645 METAR LIRA 210645Z 04003KT 010V070 CAVOK 19/15 Q1014=
201109210615 METAR LIRA 210615Z 36002KT CAVOK 18/14 Q1014=
201109210545 METAR LIRA 210545Z 36003KT CAVOK 16/13 Q1014=
201109210515 METAR LIRA 210515Z 02003KT CAVOK 16/13 Q1013=
201109210445 METAR LIRA 210445Z 26004KT CAVOK 15/13 Q1013=
201109210415 METAR LIRA 210415Z 16001KT CAVOK 15/13 Q1013=
201109210345 METAR LIRA 210345Z 07004KT CAVOK 16/13 Q1013=
201109210315 METAR LIRA 210315Z 35004KT CAVOK 16/13 Q1013=
201109210245 METAR LIRA 210245Z 32003KT CAVOK 16/13 Q1013=
201109210215 METAR LIRA 210215Z 00000KT CAVOK 15/13 Q1013=
201109210145 METAR LIRA 210145Z 00000KT CAVOK 17/13 Q1013=
201109210115 METAR LIRA 210115Z 00000KT CAVOK 17/13 Q1013=
201109210045 METAR LIRA 210045Z 03002KT CAVOK 17/13 Q1013=
201109210015 METAR LIRA 210015Z 03005KT 330V050 CAVOK 18/13 Q1013=
201109202350 METAR LIRA 210045Z 03002KT CAVOK 17/13 Q1013=
201109202345 METAR LIRA 202345Z 36003KT CAVOK 18/13 Q1013=
201109202315 METAR LIRA 202315Z 35006KT 330V040 CAVOK 18/13 Q1013=
201109202245 METAR LIRA 202245Z 01006KT CAVOK 18/15 Q1013=
201109202215 METAR LIRA 202215Z 35007KT CAVOK 18/13 Q1013=
201109202145 METAR LIRA 202145Z 34006KT CAVOK 18/13 Q1013=
201109202115 METAR LIRA 202115Z 33007KT 9999 FEW080 18/13 Q1013=
201109202045 METAR LIRA 202045Z 34008KT 9999 FEW080 18/12 Q1013=
201109202015 METAR LIRA 202015Z 33009KT 9999 FEW080 19/12 Q1013=
201109201945 METAR LIRA 201945Z 36008KT 300V090 9999 FEW080 19/12 Q1013=
201109201915 METAR LIRA 201915Z 34009KT CAVOK 19/12 Q1012=
201109201845 METAR LIRA 201845Z 35012G22KT 300V010 9999 FEW080 19/12 Q1012=
201109201815 METAR LIRA 201815Z 34015G25KT 9999 FEW080 19/11 Q1012=
201109201745 METAR LIRA 201745Z 35012G25KT 9999 FEW018 20/11 Q1012=
201109201715 METAR LIRA 201715Z 35014KT 9999 FEW018 20/10 Q1011=
201109201645 METAR LIRA 201645Z 34015KT 9999 FEW018 21/09 Q1011=
201109201615 METAR LIRA 201615Z 35013KT 320V040 9999 FEW018 22/08 Q1011=
201109201545 METAR LIRA 201545Z 33014G25KT 9999 SCT018 23/08 Q1011=
201109201515 METAR LIRA 201515Z 34012KT 300V020 9999 SCT018 23/08 Q1011=
201109201445 METAR LIRA 201445Z 36012KT 310V020 9999 SCT018 23/08 Q1011=
201109201415 METAR LIRA 201415Z 35010KT 9999 SCT018 23/08 Q1011=
201109201345 METAR LIRA 201345Z 35010KT 300V020 9999 SCT018 SCT025 23/08
                        Q1011=
201109201315 METAR LIRA 201315Z 35010KT 310V030 9999 SCT018 SCT025 23/08
                        Q1011=
201109201245 METAR LIRA 201245Z 32011KT 9999 SCT020 23/08 Q1011=
201109201215 METAR LIRA 201215Z 31007G17KT 280V040 9999 SCT020 22/08 Q1011=
201109201145 METAR LIRA 201145Z 33006KT 290V010 9999 SCT020 22/09 Q1011=
201109201115 METAR LIRA 201115Z 34007KT 9999 SCT020 21/10 Q1011=
201109201045 METAR LIRA 201045Z 33006KT 270V010 9999 SCT020 20/10 Q1011=
201109201015 METAR LIRA 201015Z 02006KT 310V070 9999 FEW020 20/10 Q1011=
201109200945 METAR LIRA 200945Z 34005KT 9999 FEW020 18/10 Q1011=
201109200915 METAR LIRA 200915Z 01004KT 310V080 9999 FEW020 18/11 Q1011=
201109200845 METAR LIRA 200845Z 01005KT 350V070 9999 FEW070 16/10 Q1010=
201109200815 METAR LIRA 200815Z 04007KT 340V060 9999 FEW070 16/11 Q1010=
201109200745 METAR LIRA 200745Z 34007KT 9999 SCT070 15/11 Q1010=
201109200715 METAR LIRA 200715Z 02005KT 9999 SCT070 14/11 Q1010=
201109200645 METAR LIRA 200645Z 03005KT 9999 SCT070 13/11 Q1010=
201109200615 METAR LIRA 200615Z 02006KT 9999 SCT080 13/12 Q1010=
201109200545 METAR LIRA 200545Z 06005KT 9999 FEW080 12/11 Q1010=
201109200515 METAR LIRA 200515Z 07006KT 9999 FEW080 11/10 Q1010=
201109200445 METAR LIRA 200445Z 05004KT 9999 FEW080 11/10 Q1009=
201109200415 METAR LIRA 200415Z 01006KT 320V040 9999 FEW080 12/11 Q1009=
201109200345 METAR LIRA 200345Z 02003KT CAVOK 12/11 Q1009=
201109200315 METAR LIRA 200315Z 35002KT 9999 FEW080 12/11 Q1007=
201109200245 METAR LIRA 200245Z 00000KT 9999 FEW080 12/11 Q1007=
201109200215 METAR LIRA 200215Z 04004KT 9999 FEW030 12/12 Q1007=
201109200145 METAR LIRA 200145Z 04004KT 9999 FEW030 13/12 Q1008=
201109200115 METAR LIRA 200115Z 04004KT 9999 FEW030 13/12 Q1008=
201109200045 METAR LIRA 200045Z 00000KT 9999 FEW030 14/13 Q1008=
201109200015 METAR LIRA 200015Z 16004KT 9999 FEW030 13/13 Q1008=
201109192350 METAR LIRA 200045Z 00000KT 9999 FEW030 14/13 Q1008=
201109192345 METAR LIRA 192345Z 15004KT 9999 FEW030 13/12 Q1008=
201109192315 METAR LIRA 192315Z 24003KT 9999 SCT030 14/13 Q1008=
201109192245 METAR LIRA 192245Z 00000KT 9999 FEW016 SCT030 14/14 Q1008=
201109192215 METAR LIRA 192215Z 02004KT 9999 FEW016 FEW018CB SCT030 14/14
                        Q1008 RETS=
201109192145 METAR LIRA 192145Z 24004KT 9999 FEW016 FEW018CB SCT030 15/14
                        Q1007 RETS=
201109192115 METAR LIRA 192115Z 07002KT 9999 TS FEW016 FEW018CB SCT030
                        15/13 Q1007=
201109192045 METAR LIRA 192045Z 09006KT 030V100 9999 TS FEW016 FEW018CB
                        15/12 Q1007=
201109192015 METAR LIRA 192015Z 00000KT 9999 TS FEW016 FEW018CB 15/14
                        Q1007=
201109191945 METAR LIRA 191945Z 25007G18KT 230V330 6000 -TSRA FEW017 SCT018CB
                        17/14 Q1007=
201109191915 METAR LIRA 191915Z 18002KT 9999 TS FEW017 FEW020CB SCT030
                        18/15 Q1006=
201109191845 METAR LIRA 191845Z 21001KT 9999 FEW017 FEW020CB SCT030 18/14
                        Q1006 RETS=
201109191815 METAR LIRA 191815Z 20002KT 9999 TS FEW017 FEW018CB SCT030
                        18/14 Q1006=
201109191745 METAR LIRA 191745Z 18004KT 9999 TS SCT017 FEW018CB SCT025
                        18/14 Q1006=
201109191715 METAR LIRA 191715Z 24002KT 9999 SCT017 FEW018CB SCT027 18/15
                        Q1006=
201109191645 METAR LIRA 191645Z 31003KT 9999 SCT017 FEW018CB SCT027 19/15
                        Q1006 RETS=
201109191615 METAR LIRA 191615Z 25001KT 9999 SCT017 FEW018CB SCT030 19/14
                        Q1006 RETS=
201109191545 METAR LIRA 191545Z 00000KT 9999 -TSRA SCT017 FEW018CB SCT030
                        18/14 Q1006=
201109191515 METAR LIRA 191515Z 25005KT 9999 -TSRA SCT017 FEW018CB SCT030
                        18/14 Q1006=
201109191445 METAR LIRA 191445Z 27011KT 9999 -RA SCT017 FEW018CB 21/12
                        Q1006 RETS=
201109191415 METAR LIRA 191415Z 26016G29KT 220V300 9999 SCT017 FEW018CB
                        21/12 Q1006 RETS=
201109191345 METAR LIRA 191345Z 26016G32KT 9999 TS SCT017 FEW018CB 22/13
                        Q1005 RERA=
201109191315 METAR LIRA 191315Z 26009G19KT 230V300 9999 -SHRA SCT017 FEW018CB
                        SCT030 22/10 Q1005=
201109191245 METAR LIRA 191245Z 21009KT 180V250 9999 FEW017 FEW018TCU
                        22/11 Q1005=
201109191215 METAR LIRA 191215Z 20011G22KT 180V240 9999 FEW015 FEW017TCU
                        SCT030 22/11 Q1006=
201109191145 METAR LIRA 191145Z 23012G23KT 190V270 9999 SCT015 FEW017TCU
                        SCT030 22/13 Q1006=
201109191115 METAR LIRA 191115Z 21010G20KT 180V280 9999 FEW015 FEW017TCU
                        SCT030 23/12 Q1006=
201109191045 METAR LIRA 191045Z 23011KT 190V280 9999 FEW015 FEW017TCU
                        SCT030 23/13 Q1006=
201109191015 METAR LIRA 191015Z 23008KT 180V260 9999 FEW015 FEW017TCU
                        SCT030 22/13 Q1005=
201109190945 METAR LIRA 190945Z 25005KT 220V290 9999 FEW015 FEW017TCU
                        SCT030 22/10 Q1005=
201109190915 METAR LIRA 190915Z 28007KT 240V320 9999 FEW015 FEW017TCU
                        22/09 Q1005=
201109190845 METAR LIRA 190845Z 31008KT 270V340 9999 FEW015 FEW017TCU
                        22/09 Q1005=
201109190815 METAR LIRA 190815Z 29007G17KT 250V320 9999 FEW014 FEW017TCU
                        21/16 Q1004=
201109190745 METAR LIRA 190745Z 18005KT 9999 FEW014 FEW017TCU SCT080 21/16
                        Q1004=
201109190715 METAR LIRA 190715Z 17007KT 9999 FEW014 SCT080 20/15 Q1004=
201109190645 METAR LIRA 190645Z 16006KT 120V180 9999 FEW014 SCT080 19/15
                        Q1004=
201109190615 METAR LIRA 190615Z 19006KT 160V220 9999 FEW014 SCT080 19/15
                        Q1004=
201109190545 METAR LIRA 190545Z 18007KT 9999 FEW014 SCT030 18/16 Q1004=
201109190515 METAR LIRA 190515Z 18006KT 9999 FEW014 BKN030 19/16 Q1004=
201109190445 METAR LIRA 190445Z 20004KT 9999 -RA SCT014 BKN030 19/17 Q1004=
201109190415 METAR LIRA 190415Z 17006KT 9999 -RA SCT014 BKN030 19/18 Q1004=
201109190345 METAR LIRA 190345Z 19005KT 9999 -RA SCT014 SCT040 19/18 Q1005
                        RETS=
201109190315 METAR LIRA 190315Z 19006KT 9999 -RA SCT014 FEW019CB 20/19
                        Q1005 RETS=
201109190245 METAR LIRA 190245Z 20003KT 9999 TS SCT016 SCT019CB 20/19
                        Q1005 RERA=
201109190215 METAR LIRA 190215Z 27008KT 220V330 3000 TSRA BR SCT016 BKN019CB
                        19/19 Q1004=
201109190145 METAR LIRA 190145Z 12013G24KT 080V150 4000 TS SHRA BR SCT016
                        BKN020CB 21/20 Q1003=
201109190115 METAR LIRA 190115Z 14015KT 9999 TS FEW016 SCT020CB 23/21
                        Q1003=
201109190045 METAR LIRA 190045Z 16015KT 9999 TS FEW016 FEW020CB SCT060
                        23/21 Q1005=
201109190015 METAR LIRA 190015Z 16011KT 130V190 9999 FEW016 FEW020CB SCT060
                        23/21 Q1005=
201109182350 METAR LIRA 190045Z 16015KT 9999 TS FEW016 FEW020CB SCT060
                        23/21 Q1005=
201109182345 METAR LIRA 182345Z 14011KT 9999 SCT016 FEW020CB 23/20 Q1004=
201109182315 METAR LIRA 182315Z 15014KT 9999 SCT016 23/21 Q1006=
201109182245 METAR LIRA 182245Z 15012KT 9999 SCT016 23/21 Q1007=
201109182215 METAR LIRA 182215Z 15012KT 9999 SCT016 23/21 Q1007=
201109182145 METAR LIRA 182145Z 15011KT 9999 SCT016 23/21 Q1007=
201109182115 METAR LIRA 182115Z 15012KT 9999 FEW016 23/22 Q1007=
201109182045 METAR LIRA 182045Z 15010KT 9999 FEW016 23/21 Q1007=
201109182015 METAR LIRA 182015Z 16008KT 9999 FEW016 23/21 Q1007=
201109181945 METAR LIRA 181945Z 17008KT 9999 FEW018 23/21 Q1007=
201109181915 METAR LIRA 181915Z 18006KT 150V210 9999 FEW025 23/21 Q1007=
201109181845 METAR LIRA 181845Z 17008KT 9999 SCT060 23/21 Q1007=
201109181815 METAR LIRA 181815Z 17007KT 9999 SCT060 24/21 Q1007=
201109181745 METAR LIRA 181745Z 17007KT 9999 SCT060 24/20 Q1007=
201109181715 METAR LIRA 181715Z 17007KT 9999 SCT060 25/18 Q1007=
201109181645 METAR LIRA 181645Z 19008KT 9999 FEW020 SCT070 25/17 Q1008=
201109181615 METAR LIRA 181615Z 20010KT 9999 FEW020 SCT080 26/17 Q1008=
201109181545 METAR LIRA 181545Z 19011KT 9999 SCT080 SCT200 27/16 Q1008=
201109181515 METAR LIRA 181515Z 19010KT 160V230 9999 FEW030 SCT080 27/18
                        Q1008=
201109181445 METAR LIRA 181445Z 18012KT 150V220 9999 FEW030 SCT080 28/18
                        Q1008=
201109181415 METAR LIRA 181415Z 19012G22KT 9999 FEW020 SCT070 27/16 Q1008=
201109181345 METAR LIRA 181345Z 17014KT 9999 FEW020 SCT080 28/17 Q1008=
201109181315 METAR LIRA 181315Z 18012KT 9999 FEW020 SCT080 28/16 Q1009=
201109181245 METAR LIRA 181245Z 17012KT 130V240 9999 FEW020 BKN080 28/16
                        Q1009=
201109181215 METAR LIRA 181215Z 19011KT 160V220 9999 FEW020 SCT080 28/17
                        Q1009=
201109181145 METAR LIRA 181145Z 18012KT 9999 FEW030 SCT070 30/17 Q1009=
201109181115 METAR LIRA 181115Z 19010KT 170V250 9999 FEW030 SCT080 29/14
                        Q1010=
201109181045 METAR LIRA 181045Z 18010KT 160V220 9999 FEW070 29/16 Q1010=
201109181015 METAR LIRA 181015Z 18010KT 150V220 9999 FEW030 28/16 Q1010=
201109180945 METAR LIRA 180945Z 18010KT 9999 SCT070 28/15 Q1011=
201109180915 METAR LIRA 180915Z 19009KT 140V230 9999 FEW080 27/14 Q1011=
201109180845 METAR LIRA 180845Z 19007KT 130V210 CAVOK 27/15 Q1011=
201109180815 METAR LIRA 180815Z 17006KT 130V200 CAVOK 26/16 Q1011=
201109180745 METAR LIRA 180745Z 19007KT 160V220 9999 FEW040 24/18 Q1011=
201109180715 METAR LIRA 180715Z 20007KT 9999 FEW040 23/14 Q1011=
201109180645 METAR LIRA 180645Z 22001KT 9999 FEW040 20/16 Q1011=
201109180615 METAR LIRA 180615Z 26001KT 9999 FEW035 18/15 Q1011=
201109180545 METAR LIRA 180545Z 00000KT 9999 FEW035 SCT080 17/15 Q1011=
201109180515 METAR LIRA 180515Z 10001KT 9999 FEW040 18/15 Q1011=
201109180445 METAR LIRA 180445Z 08001KT CAVOK 18/15 Q1011=
201109180415 METAR LIRA 180415Z 15001KT CAVOK 18/14 Q1011=
201109180345 METAR LIRA 180345Z 12003KT CAVOK 18/14 Q1011=
201109180315 METAR LIRA 180315Z 14003KT CAVOK 18/15 Q1011=
201109180245 METAR LIRA 180245Z 12002KT CAVOK 19/15 Q1011=
201109180215 METAR LIRA 180215Z 11004KT CAVOK 19/14 Q1012=
201109180145 METAR LIRA 180145Z 15001KT CAVOK 19/14 Q1012=
201109180115 METAR LIRA 180115Z 17002KT CAVOK 19/15 Q1012=
201109180045 METAR LIRA 180045Z 12002KT CAVOK 20/15 Q1012=
201109180015 METAR LIRA 180015Z 12001KT CAVOK 20/14 Q1012=
201109172350 METAR LIRA 180045Z 12002KT CAVOK 20/15 Q1012=
201109172345 METAR LIRA 172345Z 00000KT CAVOK 20/14 Q1013=
201109172315 METAR LIRA 172315Z 15002KT CAVOK 20/13 Q1013=
201109172245 METAR LIRA 172245Z 14002KT CAVOK 20/14 Q1013=
201109172215 METAR LIRA 172215Z 00000KT CAVOK 20/14 Q1013=
201109172145 METAR LIRA 172145Z 25002KT CAVOK 20/16 Q1013=
201109172115 METAR LIRA 172115Z 11001KT CAVOK 21/14 Q1013=
201109172045 METAR LIRA 172045Z 00000KT CAVOK 21/17 Q1013=
201109172015 METAR LIRA 172015Z 12001KT CAVOK 22/17 Q1013=
201109171945 METAR LIRA 171945Z 00000KT CAVOK 23/17 Q1013=
201109171915 METAR LIRA 171915Z 21001KT CAVOK 24/17 Q1013=
201109171845 METAR LIRA 171845Z 21002KT CAVOK 24/17 Q1013=
201109171815 METAR LIRA 171815Z 22002KT CAVOK 25/16 Q1013=
201109171745 METAR LIRA 171745Z 23003KT CAVOK 26/16 Q1013=
201109171715 METAR LIRA 171715Z 26004KT CAVOK 27/16 Q1013=
201109171645 METAR LIRA 171645Z 26004KT CAVOK 28/15 Q1013=
201109171615 METAR LIRA 171615Z 27007KT 250V310 CAVOK 29/15 Q1013=
201109171545 METAR LIRA 171545Z 28007KT 240V320 CAVOK 29/14 Q1013=
201109171515 METAR LIRA 171515Z 28008KT 240V320 9999 FEW020 30/14 Q1013=
201109171445 METAR LIRA 171445Z 26007KT 210V310 9999 FEW020 30/14 Q1013=
201109171415 METAR LIRA 171415Z 26008KT 220V310 9999 FEW020 30/14 Q1013=
201109171345 METAR LIRA 171345Z 27009KT 230V310 9999 FEW020 31/14 Q1014=
201109171315 METAR LIRA 171315Z 27009KT 230V310 9999 FEW020 31/13 Q1014=
201109171245 METAR LIRA 171245Z 27009KT 220V310 9999 FEW020 31/10 Q1014=
201109171215 METAR LIRA 171215Z 28005KT 240V330 9999 FEW020 32/10 Q1014=
201109171145 METAR LIRA 171145Z 30004KT 230V330 9999 FEW020 32/10 Q1014=
201109171115 METAR LIRA 171115Z 29005KT 9999 FEW020 32/11 Q1015=
201109170945 METAR LIRA 170945Z 33002KT CAVOK 30/11 Q1015=
201109170915 METAR LIRA 170915Z 33003KT CAVOK 28/12 Q1015=
201109170845 METAR LIRA 170845Z 01003KT CAVOK 27/12 Q1015=
201109170815 METAR LIRA 170815Z 03003KT CAVOK 25/12 Q1015=
201109170745 METAR LIRA 170745Z 02004KT 340V050 CAVOK 24/12 Q1015=
201109170715 METAR LIRA 170715Z 03004KT CAVOK 22/13 Q1015=
201109170645 METAR LIRA 170645Z 05005KT 010V090 CAVOK 21/13 Q1015=
201109170615 METAR LIRA 170615Z 03003KT CAVOK 19/13 Q1015=
201109170545 METAR LIRA 170545Z 05003KT CAVOK 17/13 Q1015=
201109170515 METAR LIRA 170515Z 03002KT CAVOK 17/13 Q1015=
201109170445 METAR LIRA 170445Z 35002KT CAVOK 17/12 Q1015=
201109170415 METAR LIRA 170415Z 06003KT CAVOK 17/12 Q1015=
201109170345 METAR LIRA 170345Z 05002KT CAVOK 18/13 Q1015=
201109170315 METAR LIRA 170315Z 04002KT CAVOK 18/13 Q1015=
201109170245 METAR LIRA 170245Z 06002KT CAVOK 18/13 Q1015=
201109170215 METAR LIRA 170215Z 08006KT CAVOK 18/13 Q1015=
201109170145 METAR LIRA 170145Z 08004KT CAVOK 18/13 Q1015=
201109170115 METAR LIRA 170115Z 05002KT CAVOK 18/13 Q1015=
201109170045 METAR LIRA 170045Z 32003KT CAVOK 19/13 Q1015=
201109170015 METAR LIRA 170015Z 05001KT CAVOK 19/13 Q1015=
201109162350 METAR LIRA 170045Z 32003KT CAVOK 19/13 Q1015=
201109162345 METAR LIRA 162345Z 00000KT CAVOK 20/13 Q1015=
201109162315 METAR LIRA 162315Z 11002KT CAVOK 20/13 Q1015=
201109162245 METAR LIRA 162245Z 07004KT CAVOK 20/13 Q1015=
201109162215 METAR LIRA 162215Z 00000KT CAVOK 21/13 Q1015=
201109162145 METAR LIRA 162145Z 14001KT CAVOK 23/13 Q1015=
201109162115 METAR LIRA 162115Z 14002KT CAVOK 23/14 Q1015=
201109162045 METAR LIRA 162045Z 11004KT CAVOK 23/14 Q1015=
201109162015 METAR LIRA 162015Z 10002KT CAVOK 23/16 Q1015=
201109161945 METAR LIRA 161945Z 35001KT CAVOK 24/16 Q1015=
201109161915 METAR LIRA 161915Z 20002KT CAVOK 24/16 Q1015=
201109161845 METAR LIRA 161845Z 18003KT CAVOK 25/16 Q1015=
201109161815 METAR LIRA 161815Z 18003KT CAVOK 26/17 Q1015=
201109161745 METAR LIRA 161745Z 24002KT CAVOK 26/15 Q1015=
201109161715 METAR LIRA 161715Z 25004KT CAVOK 28/14 Q1015=
201109161645 METAR LIRA 161645Z 26005KT 220V320 CAVOK 28/16 Q1015=
201109161615 METAR LIRA 161615Z 26006KT 220V290 CAVOK 30/12 Q1015=
201109161545 METAR LIRA 161545Z 26008KT 210V310 CAVOK 31/13 Q1015=
201109161515 METAR LIRA 161515Z 27008KT 240V300 CAVOK 32/13 Q1015=
201109161445 METAR LIRA 161445Z 27008KT 230V300 CAVOK 32/11 Q1015=
201109161415 METAR LIRA 161415Z 29008KT 230V300 9999 FEW025 33/11 Q1015=
201109161345 METAR LIRA 161345Z 29009KT 250V320 CAVOK 33/11 Q1015=
201109161315 METAR LIRA 161315Z 23005KT 9999 FEW025 34/11 Q1015=
201109161245 METAR LIRA 161245Z 29006KT 220V350 9999 FEW025 33/10 Q1016=
201109161215 METAR LIRA 161215Z 32007KT 9999 FEW025 33/10 Q1016=
201109161145 METAR LIRA 161145Z 30005KT 280V350 9999 FEW025 BKN200 33/10
                        Q1016=
201109161115 METAR LIRA 161115Z 04003KT CAVOK 32/11 Q1017=
201109161045 METAR LIRA 161045Z 34004KT CAVOK 32/12 Q1017=
201109161015 METAR LIRA 161015Z 36003KT CAVOK 31/12 Q1017=
201109160945 METAR LIRA 160945Z 36003KT CAVOK 30/13 Q1017=
201109160915 METAR LIRA 160915Z 01003KT CAVOK 29/13 Q1017=
201109160845 METAR LIRA 160845Z 04004KT CAVOK 27/13 Q1017=
201109160815 METAR LIRA 160815Z 01004KT CAVOK 25/14 Q1016=
201109160745 METAR LIRA 160745Z 01004KT CAVOK 24/14 Q1016=
201109160715 METAR LIRA 160715Z 03002KT CAVOK 22/15 Q1016=
201109160645 METAR LIRA 160645Z 04002KT CAVOK 21/15 Q1016=
201109160615 METAR LIRA 160615Z 04003KT CAVOK 20/15 Q1016=
201109160545 METAR LIRA 160545Z 06004KT CAVOK 19/15 Q1016=
201109160515 METAR LIRA 160515Z 04003KT CAVOK 17/14 Q1015=
201109160445 METAR LIRA 160445Z 04003KT CAVOK 18/14 Q1015=
201109160415 METAR LIRA 160415Z 04002KT CAVOK 18/14 Q1015=
201109160345 METAR LIRA 160345Z 36001KT CAVOK 18/14 Q1015=
201109160315 METAR LIRA 160315Z 03003KT CAVOK 18/14 Q1015=
201109160245 METAR LIRA 160245Z 05004KT CAVOK 19/14 Q1015=
201109160215 METAR LIRA 160215Z 03003KT CAVOK 19/15 Q1016=
201109160145 METAR LIRA 160145Z 05005KT CAVOK 19/15 Q1016=
201109160115 METAR LIRA 160115Z 05004KT CAVOK 19/14 Q1016=
201109160045 METAR LIRA 160045Z 04004KT CAVOK 20/14 Q1016=
201109160015 METAR LIRA 160015Z 03002KT CAVOK 20/14 Q1016=
201109152350 METAR LIRA 160045Z 04004KT CAVOK 20/14 Q1016=
201109152345 METAR LIRA 152345Z 03002KT CAVOK 20/14 Q1016=
201109152315 METAR LIRA 152315Z 05002KT CAVOK 20/13 Q1016=
201109152245 METAR LIRA 152245Z 08001KT CAVOK 21/14 Q1016=
201109152215 METAR LIRA 152215Z 08002KT CAVOK 21/13 Q1016=
201109152145 METAR LIRA 152145Z 08002KT CAVOK 21/14 Q1016=
201109152115 METAR LIRA 152115Z 00000KT CAVOK 22/14 Q1016=
201109152045 METAR LIRA 152045Z 17002KT CAVOK 22/15 Q1016=
201109152015 METAR LIRA 152015Z 17002KT CAVOK 23/17 Q1016=
201109151945 METAR LIRA 151945Z 18003KT CAVOK 24/17 Q1015=
201109151915 METAR LIRA 151915Z 17002KT CAVOK 24/17 Q1015=
201109151845 METAR LIRA 151845Z 20005KT CAVOK 25/17 Q1015=
201109151815 METAR LIRA 151815Z 21004KT 9999 FEW030 25/15 Q1015=
201109151745 METAR LIRA 151745Z 20004KT 9999 FEW025 27/16 Q1015=
201109151715 METAR LIRA 151715Z 25003KT 9999 FEW020 27/15 Q1015=
201109151645 METAR LIRA 151645Z 26005KT 230V300 9999 FEW018 28/15 Q1015=
201109151615 METAR LIRA 151615Z 27008KT 210V310 9999 FEW018 28/14 Q1015=
201109151545 METAR LIRA 151545Z 29008KT 240V310 9999 FEW018 29/15 Q1015=
201109151515 METAR LIRA 151515Z 27010KT 9999 FEW018 30/15 Q1015=
201109151445 METAR LIRA 151445Z 26008KT 200V300 9999 FEW018 31/16 Q1015=
201109151415 METAR LIRA 151415Z 28007KT 240V310 9999 FEW018 31/14 Q1015=
201109151345 METAR LIRA 151345Z 25006KT 230V300 9999 FEW018 32/14 Q1015=
201109151315 METAR LIRA 151315Z 28009KT 240V330 9999 FEW018 32/14 Q1015=
201109151245 METAR LIRA 151245Z 26006KT 230V310 9999 FEW018 32/14 Q1015=
201109151215 METAR LIRA 151215Z 31007KT 270V330 9999 FEW018 32/13 Q1015=
201109151145 METAR LIRA 151145Z 31005KT 220V330 9999 FEW018 32/10 Q1015=
201109151115 METAR LIRA 151115Z 31004KT 9999 FEW018 32/12 Q1015=
201109151045 METAR LIRA 151045Z 35004KT 9999 FEW018 31/11 Q1015=
201109151015 METAR LIRA 151015Z 34002KT 9999 FEW018 30/13 Q1015=
201109150945 METAR LIRA 150945Z 35004KT CAVOK 29/13 Q1015=
201109150915 METAR LIRA 150915Z 33005KT CAVOK 28/14 Q1015=
201109150845 METAR LIRA 150845Z 36005KT 320V040 CAVOK 27/14 Q1015=
201109150815 METAR LIRA 150815Z 02003KT CAVOK 26/15 Q1015=
201109150745 METAR LIRA 150745Z 01006KT 330V050 9999 FEW012 25/15 Q1014=
201109150715 METAR LIRA 150715Z 01005KT 9999 FEW012 23/15 Q1014=
201109150645 METAR LIRA 150645Z 02003KT CAVOK 21/16 Q1014=
201109150615 METAR LIRA 150615Z 02003KT CAVOK 20/17 Q1014=
201109150545 METAR LIRA 150545Z 03003KT CAVOK 18/16 Q1014=
201109150515 METAR LIRA 150515Z 04005KT 8000 NSC 18/17 Q1014=
201109150445 METAR LIRA 150445Z 01004KT 8000 NSC 19/18 Q1014=
201109150415 METAR LIRA 150415Z 35004KT CAVOK 19/18 Q1014=
201109150345 METAR LIRA 150345Z 04003KT CAVOK 19/18 Q1014=
201109150315 METAR LIRA 150315Z 04002KT 9999 FEW008 BKN025 19/17 Q1014=
201109150245 METAR LIRA 150245Z 05002KT 9999 FEW008 BKN025 19/17 Q1014=
201109150215 METAR LIRA 150215Z 12003KT 9999 FEW008 19/18 Q1014=
201109150145 METAR LIRA 150145Z 09003KT 9999 FEW008 20/19 Q1014=
201109150115 METAR LIRA 150115Z 10002KT 9999 FEW008 20/19 Q1014=
201109150045 METAR LIRA 150045Z 09001KT 9999 FEW008 21/20 Q1014=
201109150015 METAR LIRA 150015Z 15002KT 9999 FEW010 21/20 Q1014=
201109142350 METAR LIRA 150045Z 09001KT 9999 FEW008 21/20 Q1014=
201109142345 METAR LIRA 142345Z 16002KT 9999 FEW010 22/21 Q1015=
201109142315 METAR LIRA 142315Z 00000KT 9999 FEW020 22/21 Q1014=
201109142245 METAR LIRA 142245Z 20001KT CAVOK 22/21 Q1014=
201109142215 METAR LIRA 142215Z 21002KT 9999 FEW020 22/21 Q1014=
201109142145 METAR LIRA 142145Z 22002KT 9999 FEW020 22/21 Q1014=
201109142115 METAR LIRA 142115Z 00000KT 9999 FEW020 22/20 Q1014=
201109142045 METAR LIRA 142045Z 26002KT 9999 FEW020 23/21 Q1014=
201109142015 METAR LIRA 142015Z 25002KT 9999 FEW017CB 23/21 Q1014=
201109141945 METAR LIRA 141945Z 00000KT 9999 FEW017CB 23/21 Q1014=
201109141915 METAR LIRA 141915Z 20003KT 9999 FEW017CB 24/22 Q1014=
201109141845 METAR LIRA 141845Z 22003KT 9999 FEW017CB 24/21 Q1013=
201109141815 METAR LIRA 141815Z 21003KT 9999 FEW017CB 25/21 Q1013=
201109141745 METAR LIRA 141745Z 22003KT 9999 FEW017TCU 25/20 Q1013=
201109141715 METAR LIRA 141715Z 22002KT 9999 FEW017 FEW018TCU 26/18 Q1013=
201109141645 METAR LIRA 141645Z 21005KT 9999 FEW017 FEW018TCU 27/19 Q1013=
201109141615 METAR LIRA 141615Z 23006KT 190V270 9999 FEW017 FEW018TCU
                        28/20 Q1013=
201109141545 METAR LIRA 141545Z 21007KT 180V260 9999 FEW020 FEW022TCU
                        29/20 Q1013=
201109141515 METAR LIRA 141515Z 20006KT 9999 FEW018 FEW022TCU 29/21 Q1013=
201109141445 METAR LIRA 141445Z 23010KT 9999 FEW018 FEW022TCU 29/21 Q1013=
201109141415 METAR LIRA 141415Z 19007KT 9999 FEW018 FEW024TCU 29/20 Q1013=
201109141345 METAR LIRA 141345Z 21008KT 110V280 9999 FEW018 FEW024TCU
                        30/19 Q1013=
201109141315 METAR LIRA 141315Z 19006KT 150V250 9999 FEW018 FEW024TCU
                        30/19 Q1014=
201109141245 METAR LIRA 141245Z 21008KT 150V260 9999 FEW018 30/19 Q1014=
201109141215 METAR LIRA 141215Z 19009KT 150V230 9999 SCT018 31/20 Q1014=
201109141145 METAR LIRA 141145Z 19011KT 160V230 9999 SCT018 31/19 Q1014=
201109141115 METAR LIRA 141115Z 22006KT 170V290 9999 FEW018 32/18 Q1014=
201109141045 METAR LIRA 141045Z 25002KT 9999 FEW018 32/16 Q1014=
201109141015 METAR LIRA 141015Z 33002KT 9999 FEW018 30/16 Q1014=
201109140945 METAR LIRA 140945Z 28004KT 9999 FEW018 30/16 Q1014=
201109140915 METAR LIRA 140915Z 21002KT CAVOK 29/17 Q1014=
201109140845 METAR LIRA 140845Z 34002KT CAVOK 27/16 Q1014=
201109140815 METAR LIRA 140815Z 30002KT CAVOK 27/16 Q1014=
201109140745 METAR LIRA 140745Z 34001KT CAVOK 25/17 Q1014=
201109140715 METAR LIRA 140715Z 36001KT CAVOK 23/17 Q1013=
201109140645 METAR LIRA 140645Z 02002KT CAVOK 22/16 Q1013=
201109140615 METAR LIRA 140615Z 03002KT CAVOK 21/16 Q1013=
201109140545 METAR LIRA 140545Z 36001KT 9999 FEW004 20/16 Q1013=
201109140515 METAR LIRA 140515Z 34002KT 9999 FEW004 19/17 Q1013=
201109140445 METAR LIRA 140445Z 11002KT 9999 FEW004 20/16 Q1013=
201109140415 METAR LIRA 140415Z 09002KT 9999 FEW004 20/16 Q1013=
201109140345 METAR LIRA 140345Z 07002KT 9999 FEW025 20/16 Q1013=
201109140315 METAR LIRA 140315Z 08002KT 7000 SCT007 21/18 Q1013=
201109140245 METAR LIRA 140245Z 32001KT 2000 BR BKN003 22/21 Q1013=
201109140215 METAR LIRA 140215Z 00000KT 7000 BKN010 22/21 Q1013=
201109140145 METAR LIRA 140145Z 15002KT 9999 SCT025 20/18 Q1013=
201109140115 METAR LIRA 140115Z 17002KT CAVOK 21/19 Q1014=
201109140045 METAR LIRA 140045Z 18002KT CAVOK 21/18 Q1014=
201109140015 METAR LIRA 140015Z 15004KT CAVOK 20/16 Q1014=
201109132350 METAR LIRA 140045Z 18002KT CAVOK 21/18 Q1014=
201109132345 METAR LIRA 132345Z 21003KT CAVOK 21/18 Q1014=
201109132315 METAR LIRA 132315Z 25002KT CAVOK 22/18 Q1014=
201109132245 METAR LIRA 132245Z 00000KT CAVOK 22/18 Q1014=
201109132215 METAR LIRA 132215Z 35001KT CAVOK 23/18 Q1014=
201109132145 METAR LIRA 132145Z 02002KT CAVOK 23/16 Q1014=
201109132115 METAR LIRA 132115Z 07002KT CAVOK 23/17 Q1013=
201109132045 METAR LIRA 132045Z 00000KT CAVOK 23/21 Q1013=
201109132015 METAR LIRA 132015Z 00000KT CAVOK 23/21 Q1013=
201109131945 METAR LIRA 131945Z 28001KT CAVOK 24/21 Q1013=
201109131915 METAR LIRA 131915Z 23001KT 9999 FEW018 25/19 Q1013=
201109131845 METAR LIRA 131845Z 24003KT 9999 FEW018 25/18 Q1013=
201109131815 METAR LIRA 131815Z 24003KT 9999 FEW018 26/17 Q1013=
201109131745 METAR LIRA 131745Z 24002KT 9999 FEW018 28/17 Q1013=
201109131715 METAR LIRA 131715Z 29002KT 9999 FEW018 28/16 Q1013=
201109131645 METAR LIRA 131645Z 27006KT 240V310 9999 FEW018 28/16 Q1013=
201109131615 METAR LIRA 131615Z 26006KT 230V290 9999 FEW018 29/15 Q1013=
201109131545 METAR LIRA 131545Z 27006KT 230V300 9999 FEW018 30/16 Q1013=
201109131515 METAR LIRA 131515Z 23006KT 170V260 9999 FEW017 FEW018CB 31/14
                        Q1013=
201109131445 METAR LIRA 131445Z 24005KT 160V300 9999 FEW017 FEW018CB 31/14
                        Q1013=
201109131415 METAR LIRA 131415Z 23007KT 200V280 9999 FEW017 FEW018CB 31/15
                        Q1013=
201109131345 METAR LIRA 131345Z 22006KT 170V250 9999 FEW015 FEW017TCU
                        32/15 Q1013=
201109131315 METAR LIRA 131315Z 27008KT 240V310 9999 FEW015 FEW017TCU
                        32/15 Q1014=
201109131245 METAR LIRA 131245Z 26008KT 210V310 9999 FEW015 FEW017TCU
                        31/15 Q1014=
201109131215 METAR LIRA 131215Z 24007KT 210V280 9999 FEW015 FEW017TCU
                        32/15 Q1014=
201109131145 METAR LIRA 131145Z 26005KT 9999 FEW015 FEW017TCU 32/15 Q1014=
201109131115 METAR LIRA 131115Z 36003KT 9999 FEW015 31/15 Q1014=
201109131045 METAR LIRA 131045Z 18004KT 9999 FEW015 33/16 Q1015=
201109131015 METAR LIRA 131015Z 22004KT 200V270 9999 FEW015 31/17 Q1015=
201109130945 METAR LIRA 130945Z 17003KT 9999 FEW015 30/17 Q1015=
201109130915 METAR LIRA 130915Z 31002KT 9999 FEW080 28/18 Q1015=
201109130845 METAR LIRA 130845Z 08002KT 9999 FEW080 26/18 Q1015=
201109130815 METAR LIRA 130815Z 35001KT 9999 FEW080 25/18 Q1015=
201109130745 METAR LIRA 130745Z 02003KT CAVOK 24/19 Q1015=
201109130715 METAR LIRA 130715Z 02003KT CAVOK 23/19 Q1015=
201109130645 METAR LIRA 130645Z 03003KT 9999 FEW080 22/19 Q1014=
201109130615 METAR LIRA 130615Z 04002KT 9999 FEW080 20/19 Q1014=
201109130545 METAR LIRA 130545Z 03002KT 9999 SCT080 18/18 Q1014=
201109130515 METAR LIRA 130515Z 04003KT 9999 FEW080 18/17 Q1014=
201109130445 METAR LIRA 130445Z 05003KT 9999 FEW080 18/18 Q1014=
201109130415 METAR LIRA 130415Z 05003KT 9999 FEW080 18/18 Q1014=
201109130345 METAR LIRA 130345Z 03002KT CAVOK 19/18 Q1014=
201109130315 METAR LIRA 130315Z 04002KT CAVOK 19/18 Q1014=
201109130300 METAR LIRA CONTUS=
201109130245 METAR LIRA 130245Z 01002KT CAVOK 20/19 Q1014=
201109130215 METAR LIRA 130215Z 04003KT CAVOK 20/18 Q1014=
201109130200 METAR LIRA CONTUS=
201109130145 METAR LIRA 130145Z 03003KT CAVOK 20/19 Q1014=
201109130115 METAR LIRA 130115Z 06003KT CAVOK 20/19 Q1014=
201109130045 METAR LIRA 130045Z 08003KT CAVOK 20/19 Q1014=
201109130015 METAR LIRA 130015Z 08002KT CAVOK 20/20 Q1014=
201109122350 METAR LIRA 130045Z 08003KT CAVOK 20/19 Q1014=
201109122345 METAR LIRA 122345Z 05003KT CAVOK 20/20 Q1015=
201109122315 METAR LIRA 122315Z 07002KT CAVOK 21/19 Q1015=
201109122245 METAR LIRA 122245Z 10002KT CAVOK 21/20 Q1015=
201109122215 METAR LIRA 122215Z 12001KT CAVOK 21/19 Q1015=
201109122145 METAR LIRA 122145Z 10001KT CAVOK 22/20 Q1015=
201109122115 METAR LIRA 122115Z 09002KT CAVOK 22/20 Q1015=
201109122045 METAR LIRA 122045Z 00000KT CAVOK 22/21 Q1015=
201109122015 METAR LIRA 122015Z 00000KT CAVOK 23/21 Q1015=
201109121945 METAR LIRA 121945Z 00000KT CAVOK 24/22 Q1015=
201109121915 METAR LIRA 121915Z 26001KT CAVOK 24/22 Q1015=
201109121845 METAR LIRA 121845Z 24002KT 9999 FEW018 25/23 Q1015=
201109121815 METAR LIRA 121815Z 23002KT 9999 FEW018 25/22 Q1014=
201109121745 METAR LIRA 121745Z 24002KT 9999 FEW017 25/21 Q1014=
201109121715 METAR LIRA 121715Z 24004KT 9999 FEW017 26/21 Q1014=
201109121645 METAR LIRA 121645Z 24004KT 9999 FEW017 26/21 Q1014=
201109121615 METAR LIRA 121615Z 24005KT 9999 FEW017 26/20 Q1014=
201109121545 METAR LIRA 121545Z 24005KT 9999 FEW017 27/21 Q1014=
201109121515 METAR LIRA 121515Z 23005KT 210V270 9999 FEW017 27/21 Q1014=
201109121445 METAR LIRA 121445Z 23006KT 200V260 9999 FEW017 27/22 Q1014=
201109121415 METAR LIRA 121415Z 23006KT 190V280 9999 FEW017 28/23 Q1015=
201109121345 METAR LIRA 121345Z 23006KT 190V280 9999 FEW017 28/23 Q1015=
201109121315 METAR LIRA 121315Z 24007KT 190V280 9999 FEW020 28/22 Q1015=
201109121245 METAR LIRA 121245Z 22007KT 180V250 9999 FEW020 29/22 Q1015=
201109121215 METAR LIRA 121215Z 22007KT 180V260 9999 FEW020 29/22 Q1015=
201109121145 METAR LIRA 121145Z 24007KT 190V300 9999 FEW020 29/22 Q1015=
201109121115 METAR LIRA 121115Z 23007KT 160V280 9999 FEW020 29/22 Q1015=
201109121045 METAR LIRA 121045Z 22006KT 170V270 9999 SCT020 29/22 Q1015=
201109121015 METAR LIRA 121015Z 21005KT 150V260 9999 FEW020 28/21 Q1015=
201109120945 METAR LIRA 120945Z 24004KT 9999 FEW060 27/19 Q1015=
201109120915 METAR LIRA 120915Z 22004KT 9999 FEW060 27/18 Q1015=
201109120845 METAR LIRA 120845Z 27002KT 9999 FEW060 25/17 Q1015=
201109120815 METAR LIRA 120815Z 23002KT 9999 FEW060 25/21 Q1016=
201109120745 METAR LIRA 120745Z 12002KT 9999 FEW060 23/17 Q1016=
201109120715 METAR LIRA 120715Z 00000KT 9999 FEW060 21/17 Q1015=
201109120645 METAR LIRA 120645Z 33003KT 9999 FEW060 20/17 Q1015=
201109120615 METAR LIRA 120615Z 06002KT 9999 FEW060 20/17 Q1015=
201109120545 METAR LIRA 120545Z 06002KT 9999 FEW060 18/16 Q1015=
201109120515 METAR LIRA 120515Z 03002KT 9999 FEW070 18/16 Q1016=
201109120445 METAR LIRA 120445Z 08002KT 9999 FEW060 17/13 Q1016=
201109120415 METAR LIRA 120415Z 09002KT 9999 FEW060 17/13 Q1016=
201109120345 METAR LIRA 120345Z 00000KT 7000 FEW080 18/18 Q1015=
201109120315 METAR LIRA 120315Z 00000KT 7000 FEW080 19/18 Q1015=
201109120245 METAR LIRA 120245Z 00000KT 8000 FEW080 19/18 Q1016=
201109120215 METAR LIRA 120215Z 00000KT 8000 FEW080 19/18 Q1016=
201109120145 METAR LIRA 120145Z 11003KT 7000 FEW009 20/19 Q1016=
201109120115 METAR LIRA 120115Z 07005KT 7000 FEW009 20/19 Q1016=
201109120045 METAR LIRA 120045Z 05002KT 7000 FEW009 SCT030 20/20 Q1016=
201109120015 METAR LIRA 120015Z 10002KT 7000 FEW009 SCT030 20/18 Q1016=
201109112350 METAR LIRA 120045Z 05002KT 7000 FEW009 SCT030 20/20 Q1016=
201109112345 METAR LIRA 112345Z 17002KT 7000 FEW009 SCT030 20/18 Q1016=
201109112315 METAR LIRA 112315Z 15002KT 7000 FEW009 19/17 Q1016=
201109112245 METAR LIRA 112245Z 17003KT CAVOK 20/18 Q1016=
201109112215 METAR LIRA 112215Z 00000KT CAVOK 20/20 Q1016=
201109112145 METAR LIRA 112145Z 00000KT CAVOK 20/19 Q1016=
201109112115 METAR LIRA 112115Z 11001KT CAVOK 22/21 Q1016=
201109112045 METAR LIRA 112045Z 00000KT CAVOK 22/21 Q1016=
201109112015 METAR LIRA 112015Z 00000KT CAVOK 22/21 Q1016=
201109111915 METAR LIRA 111915Z 24003KT 9999 FEW080 23/21 Q1016=
201109111845 METAR LIRA 111845Z 26002KT 9999 FEW080 24/21 Q1016=
201109111815 METAR LIRA 111815Z 26002KT 9999 FEW080 24/20 Q1016=
201109111745 METAR LIRA 111745Z 27003KT 9999 FEW080 25/20 Q1016=
201109111715 METAR LIRA 111715Z 27004KT CAVOK 26/21 Q1016=
201109111645 METAR LIRA 111645Z 24006KT CAVOK 27/20 Q1015=
201109111615 METAR LIRA 111615Z 24005KT 9999 FEW020 28/19 Q1015=
201109111545 METAR LIRA 111545Z 23007KT 200V260 9999 FEW020 29/17 Q1015=
201109111515 METAR LIRA 111515Z 22007KT 190V260 9999 FEW018 30/16 Q1015=
201109111445 METAR LIRA 111445Z 22007KT 180V260 9999 FEW018 30/17 Q1015=
201109111415 METAR LIRA 111415Z 22008KT 180V260 9999 FEW018 31/15 Q1016=
201109111345 METAR LIRA 111345Z 22007KT 170V290 9999 FEW018 31/15 Q1016=
201109111315 METAR LIRA 111315Z 20007KT 170V250 9999 FEW018 32/15 Q1016=
201109111245 METAR LIRA 111245Z 21006KT 170V260 CAVOK 32/15 Q1016=
201109111215 METAR LIRA 111215Z 24006KT 180V310 CAVOK 32/16 Q1016=
201109111145 METAR LIRA 111145Z 24006KT 180V280 CAVOK 32/15 Q1016=
201109111115 METAR LIRA 111115Z 20004KT 170V230 CAVOK 32/14 Q1016=
201109111045 METAR LIRA 111045Z 22005KT CAVOK 32/14 Q1016=
201109111015 METAR LIRA 111015Z 05002KT CAVOK 32/14 Q1017=
201109110945 METAR LIRA 110945Z 16003KT CAVOK 30/14 Q1017=
201109110915 METAR LIRA 110915Z 07002KT CAVOK 30/16 Q1017=
201109110845 METAR LIRA 110845Z 05001KT CAVOK 28/16 Q1017=
201109110815 METAR LIRA 110815Z 08001KT CAVOK 26/18 Q1017=
201109110745 METAR LIRA 110745Z 02002KT 9999 FEW004 25/18 Q1017=
201109110715 METAR LIRA 110715Z 04003KT 9999 FEW004 24/18 Q1017=
201109110645 METAR LIRA 110645Z 01003KT 9999 FEW004 22/19 Q1017=
201109110615 METAR LIRA 110615Z 04002KT 9999 FEW003 21/18 Q1017=
201109110545 METAR LIRA 110545Z 06002KT 9999 4000SE BR FEW003 19/18 Q1017=
201109110515 METAR LIRA 110515Z 04003KT 9999 FEW006 18/17 Q1017=
201109110445 METAR LIRA 110445Z 00000KT CAVOK 19/17 Q1017=
201109110415 METAR LIRA 110415Z 05003KT CAVOK 19/17 Q1016=
201109110345 METAR LIRA 110345Z 09003KT CAVOK 18/16 Q1017=
201109110315 METAR LIRA 110315Z 05001KT CAVOK 18/15 Q1017=
201109110245 METAR LIRA 110245Z 04001KT CAVOK 19/16 Q1017=
201109110215 METAR LIRA 110215Z 00000KT CAVOK 19/16 Q1017=
201109110145 METAR LIRA 110145Z 00000KT CAVOK 19/16 Q1017=
201109110115 METAR LIRA 110115Z 17001KT CAVOK 20/16 Q1017=
201109110045 METAR LIRA 110045Z 12002KT CAVOK 20/16 Q1017=
201109110015 METAR LIRA 110015Z 11002KT CAVOK 20/16 Q1017=
201109102350 METAR LIRA 110045Z 12002KT CAVOK 20/16 Q1017=
201109102345 METAR LIRA 102345Z 11003KT CAVOK 19/17 Q1017=
201109102315 METAR LIRA 102315Z 11003KT CAVOK 20/18 Q1017=
201109102245 METAR LIRA 102245Z 11002KT CAVOK 21/19 Q1017=
201109102215 METAR LIRA 102215Z 15004KT CAVOK 21/19 Q1017=
201109102145 METAR LIRA 102145Z 15003KT CAVOK 21/20 Q1017=
201109102115 METAR LIRA 102115Z 16003KT CAVOK 22/21 Q1017=
201109102045 METAR LIRA 102045Z 16003KT CAVOK 23/21 Q1017=
201109102015 METAR LIRA 102015Z 18003KT CAVOK 23/21 Q1017=
201109101945 METAR LIRA 101945Z 19004KT CAVOK 24/21 Q1017=
201109101915 METAR LIRA 101915Z 19003KT CAVOK 24/21 Q1017=
201109101845 METAR LIRA 101845Z 21002KT CAVOK 24/21 Q1016=
201109101815 METAR LIRA 101815Z 24003KT CAVOK 25/21 Q1016=
201109101745 METAR LIRA 101745Z 25003KT CAVOK 26/21 Q1016=
201109101715 METAR LIRA 101715Z 26004KT CAVOK 27/21 Q1016=
201109101645 METAR LIRA 101645Z 25005KT CAVOK 28/19 Q1016=
201109101615 METAR LIRA 101615Z 27006KT 230V310 CAVOK 29/19 Q1016=
201109101545 METAR LIRA 101545Z 27006KT 230V300 CAVOK 30/19 Q1016=
201109101515 METAR LIRA 101515Z 26007KT 190V310 CAVOK 30/17 Q1016=
201109101445 METAR LIRA 101445Z 28008KT 240V340 CAVOK 31/17 Q1016=
201109101415 METAR LIRA 101415Z 24008KT 220V300 CAVOK 31/17 Q1016=
201109101345 METAR LIRA 101345Z 27008KT 210V310 CAVOK 32/16 Q1016=
201109101315 METAR LIRA 101315Z 28005KT 180V270 CAVOK 32/14 Q1016=
201109101245 METAR LIRA 101245Z 30004KT 220V330 CAVOK 31/13 Q1016=
201109101215 METAR LIRA 101215Z 32005KT 280V360 CAVOK 31/15 Q1016=
201109101145 METAR LIRA 101145Z 30004KT 240V310 CAVOK 31/15 Q1017=
201109101115 METAR LIRA 101115Z 29005KT CAVOK 30/14 Q1017=
201109101045 METAR LIRA 101045Z 30005KT 210V360 CAVOK 31/16 Q1017=
201109101015 METAR LIRA 101015Z 09003KT CAVOK 30/15 Q1017=
201109100945 METAR LIRA 100945Z 29003KT CAVOK 28/17 Q1017=
201109100915 METAR LIRA 100915Z 08002KT CAVOK 27/19 Q1017=
201109100845 METAR LIRA 100845Z 01003KT CAVOK 26/19 Q1017=
201109100815 METAR LIRA 100815Z 36004KT CAVOK 25/20 Q1017=
201109100745 METAR LIRA 100745Z 36005KT 330V030 CAVOK 24/20 Q1017=
201109100715 METAR LIRA 100715Z 02004KT CAVOK 23/20 Q1017=
201109100645 METAR LIRA 100645Z 05004KT 350V070 CAVOK 23/20 Q1016=
201109100615 METAR LIRA 100615Z 06005KT 030V100 CAVOK 20/19 Q1016=
201109100545 METAR LIRA 100545Z 06004KT CAVOK 19/19 Q1016=
201109100515 METAR LIRA 100515Z 04003KT CAVOK 18/17 Q1015=
201109100445 METAR LIRA 100445Z 05003KT CAVOK 18/17 Q1015=
201109100415 METAR LIRA 100415Z 06004KT CAVOK 18/18 Q1015=
201109100345 METAR LIRA 100345Z 05003KT CAVOK 19/18 Q1015=
201109100315 METAR LIRA 100315Z 02002KT CAVOK 19/18 Q1015=
201109100245 METAR LIRA 100245Z 10001KT CAVOK 19/18 Q1015=
201109100215 METAR LIRA 100215Z 11001KT CAVOK 19/18 Q1015=
201109100145 METAR LIRA 100145Z 11001KT CAVOK 20/19 Q1015=
201109100115 METAR LIRA 100115Z 08004KT CAVOK 20/18 Q1015=
201109100045 METAR LIRA 100045Z 08003KT CAVOK 20/18 Q1015=
201109100015 METAR LIRA 100015Z 09002KT CAVOK 20/18 Q1015=
201109092350 METAR LIRA 100045Z 08003KT CAVOK 20/18 Q1015=
201109092345 METAR LIRA 092345Z 09002KT CAVOK 20/18 Q1015=
201109092315 METAR LIRA 092315Z 36001KT CAVOK 20/18 Q1015=
201109092245 METAR LIRA 092245Z 00000KT CAVOK 20/19 Q1015=
201109092215 METAR LIRA 092215Z 35001KT CAVOK 21/19 Q1015=
201109092145 METAR LIRA 092145Z 01002KT CAVOK 21/19 Q1015=
201109092115 METAR LIRA 092115Z 02002KT CAVOK 22/20 Q1015=
201109092045 METAR LIRA 092045Z 31002KT CAVOK 22/20 Q1015=
201109092015 METAR LIRA 092015Z 32001KT CAVOK 22/20 Q1015=
201109091945 METAR LIRA 091945Z 32002KT CAVOK 23/19 Q1015=
201109091915 METAR LIRA 091915Z 32002KT CAVOK 23/20 Q1014=
201109091845 METAR LIRA 091845Z 32001KT CAVOK 24/20 Q1014=
201109091815 METAR LIRA 091815Z 29002KT CAVOK 24/20 Q1014=
201109091745 METAR LIRA 091745Z 26003KT CAVOK 24/19 Q1014=
201109091715 METAR LIRA 091715Z 25003KT CAVOK 26/20 Q1014=
201109091645 METAR LIRA 091645Z 28006KT 220V340 CAVOK 26/19 Q1014=
201109091615 METAR LIRA 091615Z 28006KT 220V310 CAVOK 27/20 Q1014=
201109091545 METAR LIRA 091545Z 26006KT 9999 FEW020 27/19 Q1014=
201109091515 METAR LIRA 091515Z 27006KT 210V310 9999 FEW020 27/19 Q1013=
201109091445 METAR LIRA 091445Z 25005KT 210V290 9999 FEW020 28/19 Q1013=
201109091415 METAR LIRA 091415Z 24007KT 170V300 9999 FEW020 28/19 Q1013=
201109091345 METAR LIRA 091345Z 25008KT 200V280 9999 FEW020 29/19 Q1014=
201109091315 METAR LIRA 091315Z 02006KT 200V300 9999 FEW018 29/19 Q1014=
201109091245 METAR LIRA 091245Z 21007KT 160V260 9999 FEW018 29/18 Q1014=
201109091215 METAR LIRA 091215Z 26008KT 210V310 9999 FEW018 29/18 Q1014=
201109091145 METAR LIRA 091145Z 24005KT 200V300 9999 FEW018 29/18 Q1014=
201109091115 METAR LIRA 091115Z 23007KT 180V280 9999 FEW018 29/19 Q1014=
201109091045 METAR LIRA 091045Z 28006KT 240V320 9999 FEW018 28/18 Q1014=
201109091015 METAR LIRA 091015Z 25006KT 190V300 9999 FEW018 28/18 Q1014=
201109091000 METAR LIRA INTER CB SW/NW-N=
201109090945 METAR LIRA 090945Z 22004KT 9999 FEW018 27/19 Q1013=
201109090915 METAR LIRA 090915Z 29004KT 9999 FEW018 SCT200 27/19 Q1013=
201109090845 METAR LIRA 090845Z 23003KT 9999 FEW018 SCT200 26/20 Q1013=
201109090815 METAR LIRA 090815Z 26003KT 9999 FEW018 SCT200 25/20 Q1013=
201109090745 METAR LIRA 090745Z 36002KT 9999 FEW018 SCT200 24/21 Q1013=
201109090715 METAR LIRA 090715Z 30002KT 9999 FEW018 SCT200 23/20 Q1013=
201109090645 METAR LIRA 090645Z 02002KT 9999 FEW015 SCT200 22/20 Q1012=
201109090615 METAR LIRA 090615Z 03002KT 9999 FEW015 21/18 Q1012=
201109090545 METAR LIRA 090545Z 07001KT 9999 FEW015 20/18 Q1012=
201109090515 METAR LIRA 090515Z 08001KT 9999 FEW015 19/18 Q1012=
201109090445 METAR LIRA 090445Z 11002KT 9999 SCT015 19/17 Q1012=
201109090415 METAR LIRA 090415Z 16002KT 9999 SCT015 19/18 Q1012=
201109090345 METAR LIRA 090345Z 14001KT 9999 FEW012 20/18 Q1012=
201109090315 METAR LIRA 090315Z 10004KT 9999 FEW012 20/19 Q1012=
201109090245 METAR LIRA 090245Z 17003KT 9999 FEW006 SCT012 21/20 Q1012=
201109090215 METAR LIRA 090215Z 15003KT 9999 FEW006 SCT012 20/19 Q1012=
201109090145 METAR LIRA 090145Z 15003KT 9999 FEW006 21/20 Q1012=
201109090115 METAR LIRA 090115Z 14005KT 9999 FEW006 SCT012 20/20 Q1012=
201109090045 METAR LIRA 090045Z 16003KT 9999 FEW006 21/20 Q1012=
201109090015 METAR LIRA 090015Z 17003KT CAVOK 21/20 Q1012=
201109082350 METAR LIRA 090045Z 16003KT 9999 FEW006 21/20 Q1012=
201109082345 METAR LIRA 082345Z 16004KT 9999 FEW006 21/20 Q1012=
201109082315 METAR LIRA 082315Z 15005KT CAVOK 21/21 Q1012=
201109082245 METAR LIRA 082245Z 15005KT CAVOK 21/20 Q1012=
201109082215 METAR LIRA 082215Z 16004KT CAVOK 22/20 Q1012=
201109082145 METAR LIRA 082145Z 17002KT CAVOK 22/20 Q1012=
201109082115 METAR LIRA 082115Z 17003KT CAVOK 22/20 Q1012=
201109082045 METAR LIRA 082045Z 18003KT CAVOK 23/20 Q1012=
201109082015 METAR LIRA 082015Z 19003KT CAVOK 23/21 Q1012=
201109081945 METAR LIRA 081945Z 19003KT CAVOK 23/21 Q1012=
201109081915 METAR LIRA 081915Z 21002KT CAVOK 23/21 Q1012=
201109081845 METAR LIRA 081845Z 22002KT CAVOK 23/19 Q1012=
201109081815 METAR LIRA 081815Z 22003KT CAVOK 24/20 Q1011=
201109081745 METAR LIRA 081745Z 23003KT CAVOK 24/20 Q1011=
201109081715 METAR LIRA 081715Z 25004KT 230V290 CAVOK 25/21 Q1011=
201109081645 METAR LIRA 081645Z 24006KT 210V330 9999 FEW020 26/21 Q1011=
201109081615 METAR LIRA 081615Z 23008KT 9999 FEW020 27/21 Q1011=
201109081545 METAR LIRA 081545Z 23008KT 9999 FEW025 28/20 Q1011=
201109081515 METAR LIRA 081515Z 23007KT 9999 FEW025 29/21 Q1011=
201109081445 METAR LIRA 081445Z 25006KT 210V320 9999 SCT025 30/20 Q1011=
201109081415 METAR LIRA 081415Z 23006KT 170V290 9999 SCT025 29/20 Q1011=
201109081345 METAR LIRA 081345Z 24007KT 190V270 9999 SCT025 29/20 Q1011=
201109081315 METAR LIRA 081315Z 24009KT 210V290 9999 SCT025 30/20 Q1011=
201109081245 METAR LIRA 081245Z 25005KT 210V280 9999 FEW025 30/17 Q1011=
201109081215 METAR LIRA 081215Z 29005KT 240V320 9999 FEW025 30/14 Q1011=
201109081145 METAR LIRA 081145Z 36003KT 9999 FEW020 30/13 Q1012=
201109081115 METAR LIRA 081115Z 35003KT 9999 FEW020 29/13 Q1012=
201109081045 METAR LIRA 081045Z 27002KT 9999 FEW020 29/14 Q1012=
201109081015 METAR LIRA 081015Z 35003KT CAVOK 28/15 Q1012=
201109080945 METAR LIRA 080945Z 04002KT CAVOK 27/15 Q1012=
201109080915 METAR LIRA 080915Z 32002KT CAVOK 27/17 Q1012=
201109080845 METAR LIRA 080845Z 03003KT CAVOK 26/16 Q1012=
201109080815 METAR LIRA 080815Z 36004KT CAVOK 24/17 Q1012=
201109080745 METAR LIRA 080745Z 34003KT CAVOK 23/18 Q1011=
201109080715 METAR LIRA 080715Z 31001KT CAVOK 21/17 Q1011=
201109080645 METAR LIRA 080645Z 32002KT CAVOK 19/17 Q1011=
201109080615 METAR LIRA 080615Z 12002KT CAVOK 18/16 Q1011=
201109080545 METAR LIRA 080545Z 06002KT CAVOK 18/15 Q1011=
201109080515 METAR LIRA 080515Z 00000KT 9999 FEW006 17/15 Q1011=
201109080445 METAR LIRA 080445Z 08002KT 9999 FEW006 17/15 Q1011=
201109080415 METAR LIRA 080415Z 07001KT 9999 FEW006 17/15 Q1011=
201109080345 METAR LIRA 080345Z 09002KT 9999 FEW006 17/14 Q1011=
201109080315 METAR LIRA 080315Z 10002KT 9999 FEW006 18/14 Q1011=
201109080245 METAR LIRA 080245Z 10003KT 9999 FEW006 18/13 Q1012=
201109080215 METAR LIRA 080215Z 12002KT 9999 FEW006 18/14 Q1011=
201109080145 METAR LIRA 080145Z 09004KT 9999 FEW006 18/17 Q1012=
201109080115 METAR LIRA 080115Z 15004KT 9999 FEW006 19/18 Q1012=
201109080045 METAR LIRA 080045Z 15002KT 9999 FEW006 19/17 Q1012=
201109080015 METAR LIRA 080015Z 12002KT 9999 FEW006 19/18 Q1012=
201109072350 METAR LIRA 080045Z 15002KT 9999 FEW006 19/17 Q1012=
201109072345 METAR LIRA 072345Z 12003KT CAVOK 20/19 Q1013=
201109072315 METAR LIRA 072315Z 15004KT CAVOK 20/19 Q1013=
201109072245 METAR LIRA 072245Z 16003KT CAVOK 20/20 Q1013=
201109072215 METAR LIRA 072215Z 16003KT CAVOK 21/20 Q1013=
201109072145 METAR LIRA 072145Z 15004KT CAVOK 21/20 Q1014=
201109072115 METAR LIRA 072115Z 16004KT CAVOK 21/20 Q1014=
201109072045 METAR LIRA 072045Z 18002KT CAVOK 21/20 Q1014=
201109072015 METAR LIRA 072015Z 18002KT CAVOK 22/21 Q1014=
201109071945 METAR LIRA 071945Z 18002KT CAVOK 22/21 Q1014=
201109071915 METAR LIRA 071915Z 19002KT CAVOK 23/21 Q1014=
201109071845 METAR LIRA 071845Z 23002KT CAVOK 23/21 Q1014=
201109071815 METAR LIRA 071815Z 23003KT CAVOK 23/20 Q1014=
201109071745 METAR LIRA 071745Z 22004KT CAVOK 24/20 Q1014=
201109071715 METAR LIRA 071715Z 23004KT 9999 FEW030 25/21 Q1014=
201109071645 METAR LIRA 071645Z 26005KT 220V300 9999 FEW030 25/19 Q1014=
201109071615 METAR LIRA 071615Z 26006KT 230V310 9999 FEW030 26/18 Q1014=
201109071545 METAR LIRA 071545Z 26006KT 220V320 9999 FEW030 27/14 Q1014=
201109071515 METAR LIRA 071515Z 27006KT 230V300 9999 FEW030 28/13 Q1014=
201109071445 METAR LIRA 071445Z 27007KT 220V310 9999 FEW030 28/15 Q1014=
201109071415 METAR LIRA 071415Z 29010KT 260V330 9999 FEW030 29/16 Q1015=
201109071345 METAR LIRA 071345Z 28010KT 9999 FEW030 28/17 Q1015=
201109071315 METAR LIRA 071315Z 28010KT 260V320 9999 FEW030 SCT200 28/18
                        Q1015=
201109071245 METAR LIRA 071245Z 28010KT 9999 FEW030 28/17 Q1015=
201109071215 METAR LIRA 071215Z 27008G18KT 220V300 9999 FEW030 29/16 Q1016=
201109071145 METAR LIRA 071145Z 32008KT 9999 FEW030 31/15 Q1015=
201109071115 METAR LIRA 071115Z 35004KT 300V030 9999 FEW030 29/12 Q1016=
201109071045 METAR LIRA 071045Z 30004KT 9999 FEW030 SCT200 29/16 Q1017=
201109071015 METAR LIRA 071015Z 33005KT 300V010 9999 FEW030 28/16 Q1017=
201109070945 METAR LIRA 070945Z 34003KT 9999 FEW030 27/17 Q1017=
201109070915 METAR LIRA 070915Z 34005KT 9999 FEW030 27/17 Q1017=
201109070845 METAR LIRA 070845Z 31003KT 9999 FEW030 27/17 Q1017=
201109070815 METAR LIRA 070815Z 04003KT CAVOK 26/17 Q1017=
201109070745 METAR LIRA 070745Z 04003KT CAVOK 24/17 Q1017=
201109070715 METAR LIRA 070715Z 03005KT CAVOK 23/17 Q1017=
201109070645 METAR LIRA 070645Z 03004KT CAVOK 22/18 Q1017=
201109070615 METAR LIRA 070615Z 05004KT CAVOK 20/17 Q1017=
201109070545 METAR LIRA 070545Z 05004KT CAVOK 20/17 Q1017=
201109070515 METAR LIRA 070515Z 07003KT CAVOK 18/16 Q1017=
201109070445 METAR LIRA 070445Z 07002KT CAVOK 18/16 Q1017=
201109070415 METAR LIRA 070415Z 00000KT CAVOK 18/16 Q1017=
201109070345 METAR LIRA 070345Z 05001KT CAVOK 18/16 Q1017=
201109070315 METAR LIRA 070315Z 04004KT 9999 FEW070 19/16 Q1017=
201109070245 METAR LIRA 070245Z 05001KT 9999 FEW070 19/17 Q1017=
201109070215 METAR LIRA 070215Z 03002KT 9999 FEW070 19/16 Q1017=
201109070145 METAR LIRA 070145Z 03003KT 9999 FEW070 19/16 Q1017=
201109070115 METAR LIRA 070115Z 03002KT 9999 FEW070 20/16 Q1017=
201109070045 METAR LIRA 070045Z 03002KT 9999 FEW070 20/16 Q1017=
201109070015 METAR LIRA 070015Z 05002KT 9999 FEW070 20/16 Q1017=
201109062350 METAR LIRA 070045Z 03002KT 9999 FEW070 20/16 Q1017=
201109062345 METAR LIRA 062345Z 08001KT 9999 FEW070 20/16 Q1017=
201109062315 METAR LIRA 062315Z 11005KT 9999 FEW070 20/16 Q1017=
201109062245 METAR LIRA 062245Z 12003KT 9999 FEW070 20/16 Q1017=
201109062215 METAR LIRA 062215Z 20001KT 9999 FEW070 21/16 Q1017=
201109062145 METAR LIRA 062145Z 16004KT 9999 FEW070 22/16 Q1017=
201109062115 METAR LIRA 062115Z 16002KT 9999 FEW070 22/16 Q1017=
201109062045 METAR LIRA 062045Z 20003KT 9999 FEW070 24/18 Q1017=
201109062015 METAR LIRA 062015Z 21003KT 9999 FEW070 24/18 Q1017=
201109061945 METAR LIRA 061945Z 16002KT 9999 FEW070 24/19 Q1017=
201109061915 METAR LIRA 061915Z 18004KT 9999 FEW070 24/19 Q1017=
201109061845 METAR LIRA 061845Z 17005KT 9999 FEW070 24/19 Q1017=
201109061815 METAR LIRA 061815Z 17005KT 9999 FEW020 24/19 Q1017=
201109061745 METAR LIRA 061745Z 24005KT 9999 FEW020 25/19 Q1017=
201109061715 METAR LIRA 061715Z 23006KT 9999 FEW020 26/18 Q1017=
201109061645 METAR LIRA 061645Z 24007KT 210V290 9999 FEW020 26/20 Q1017=
201109061615 METAR LIRA 061615Z 27007KT 220V310 9999 FEW020 27/19 Q1017=
201109061545 METAR LIRA 061545Z 24008KT 220V290 9999 FEW023 28/20 Q1017=
201109061515 METAR LIRA 061515Z 27009KT 230V290 9999 FEW023 29/19 Q1017=
201109061445 METAR LIRA 061445Z 27008KT 220V300 9999 FEW023 30/18 Q1017=
201109061415 METAR LIRA 061415Z 26009KT 210V310 9999 FEW023 31/16 Q1017=
201109061345 METAR LIRA 061345Z 30004KT 9999 FEW023 FEW025TCU 32/12 Q1018=
201109061315 METAR LIRA 061315Z 32007KT 9999 FEW023 FEW025TCU 32/10 Q1018=
201109061245 METAR LIRA 061245Z 02003KT 9999 FEW023 FEW025TCU 32/12 Q1018=
201109061215 METAR LIRA 061215Z 27002KT 9999 FEW023 FEW025TCU 32/14 Q1018=
201109061145 METAR LIRA 061145Z 30002KT 9999 FEW023 FEW025TCU 31/14 Q1018=
201109061115 METAR LIRA 061115Z 36003KT 9999 FEW023TCU 30/14 Q1019=
201109061045 METAR LIRA 061045Z 22004KT 9999 FEW025 29/16 Q1019=
201109061015 METAR LIRA 061015Z 32004KT 9999 FEW025 28/17 Q1019=
201109060945 METAR LIRA 060945Z 34004KT 290V040 9999 FEW025 27/17 Q1019=
201109060915 METAR LIRA 060915Z 36003KT 9999 FEW025 26/18 Q1019=
201109060845 METAR LIRA 060845Z 34003KT CAVOK 25/18 Q1019=
201109060815 METAR LIRA 060815Z 33004KT CAVOK 24/19 Q1019=
201109060745 METAR LIRA 060745Z 35005KT 9999 FEW070 24/20 Q1019=
201109060715 METAR LIRA 060715Z 05002KT 9999 FEW070 23/19 Q1019=
201109060645 METAR LIRA 060645Z 06003KT 9999 FEW070 22/19 Q1019=
201109060615 METAR LIRA 060615Z 36003KT 9999 FEW070 20/19 Q1019=
201109060545 METAR LIRA 060545Z 06002KT 9999 FEW070 20/19 Q1019=
201109060515 METAR LIRA 060515Z 05001KT 9999 FEW070 19/18 Q1018=
201109060445 METAR LIRA 060445Z 35002KT 9999 FEW070 19/18 Q1018=
201109060415 METAR LIRA 060415Z 00000KT 9999 FEW070 19/18 Q1018=
201109060345 METAR LIRA 060345Z 00000KT 9999 FEW070 19/18 Q1019=
201109060315 METAR LIRA 060315Z 05002KT 9999 FEW070 20/19 Q1019=
201109060245 METAR LIRA 060245Z 35001KT 9999 FEW070 20/19 Q1019=
201109060215 METAR LIRA 060215Z 00000KT 9999 FEW070 20/20 Q1019=
201109060145 METAR LIRA 060145Z 05002KT 9999 FEW070 21/20 Q1019=
201109060115 METAR LIRA 060115Z 11002KT 9999 FEW070 21/20 Q1019=
201109060045 METAR LIRA 060045Z 09001KT 9999 FEW018 21/20 Q1019=
201109060015 METAR LIRA 060015Z 08001KT 9999 FEW018 21/20 Q1019=
201109052350 METAR LIRA 060045Z 09001KT 9999 FEW018 21/20 Q1019=
201109052345 METAR LIRA 052345Z 10003KT 9999 SCT018 21/20 Q1019=
201109052315 METAR LIRA 052315Z 10004KT 9999 SCT018 22/20 Q1019=
201109052245 METAR LIRA 052245Z 10004KT 9999 SCT018 22/20 Q1019=
201109052215 METAR LIRA 052215Z 11003KT 9999 FEW018 22/20 Q1019=
201109052145 METAR LIRA 052145Z 11005KT 9999 FEW018 22/20 Q1019=
201109052115 METAR LIRA 052115Z 10004KT 9999 FEW018 22/20 Q1019=
201109052045 METAR LIRA 052045Z 10002KT 9999 SCT018 22/21 Q1019=
201109052015 METAR LIRA 052015Z 10003KT 9999 SCT018 23/21 Q1019=
201109051945 METAR LIRA 051945Z 00000KT 9999 SCT018 23/21 Q1019=
201109051915 METAR LIRA 051915Z 23001KT 9999 FEW018 24/21 Q1018=
201109051845 METAR LIRA 051845Z 27002KT 9999 SCT018 24/21 Q1018=
201109051815 METAR LIRA 051815Z 27004KT 9999 SCT018 25/21 Q1018=
201109051745 METAR LIRA 051745Z 29005KT 240V310 9999 SCT018 26/21 Q1017=
201109051715 METAR LIRA 051715Z 27006KT 240V310 9999 SCT018 27/21 Q1017=
201109051645 METAR LIRA 051645Z 28005KT 210V290 9999 SCT018 27/21 Q1017=
201109051615 METAR LIRA 051615Z 26005KT 200V290 9999 SCT018 27/21 Q1017=
201109051545 METAR LIRA 051545Z 25007KT 210V330 9999 SCT018 27/20 Q1017=
201109051515 METAR LIRA 051515Z 27007KT 200V300 9999 SCT018 28/20 Q1017=
201109051445 METAR LIRA 051445Z 27007KT 200V320 9999 SCT018 28/19 Q1017=
201109051415 METAR LIRA 051415Z 28009KT 230V310 9999 SCT018 28/19 Q1017=
201109051345 METAR LIRA 051345Z 30009KT 240V340 9999 SCT018 28/19 Q1017=
201109051315 METAR LIRA 051315Z 25007KT 210V320 9999 SCT018 28/19 Q1017=
201109051245 METAR LIRA 051245Z 29009KT 240V310 9999 SCT018 28/19 Q1017=
201109051215 METAR LIRA 051215Z 28008KT 230V320 9999 SCT018 28/20 Q1017=
201109051145 METAR LIRA 051145Z 27007KT 210V310 9999 BKN018 29/18 Q1017=
201109051115 METAR LIRA 051115Z 27007KT 180V320 9999 BKN018 29/18 Q1017=
201109051045 METAR LIRA 051045Z 25008KT 170V310 9999 SCT018 29/18 Q1017=
201109051015 METAR LIRA 051015Z 28006KT 230V020 9999 SCT018 28/18 Q1017=
201109050945 METAR LIRA 050945Z 25004KT 9999 BKN018 28/18 Q1017=
201109050915 METAR LIRA 050915Z 36004KT 9999 BKN018 27/19 Q1017=
201109050845 METAR LIRA 050845Z 26004KT 9999 SCT018 26/19 Q1017=
201109050815 METAR LIRA 050815Z 35003KT 9999 SCT020 26/20 Q1017=
201109050745 METAR LIRA 050745Z 28004KT 9999 SCT020 26/20 Q1016=
201109050715 METAR LIRA 050715Z 13002KT 9999 FEW020 25/20 Q1016=
201109050645 METAR LIRA 050645Z 13002KT 9999 FEW020 24/21 Q1016=
201109050615 METAR LIRA 050615Z 13002KT 9999 FEW020 22/20 Q1016=
201109050545 METAR LIRA 050545Z 09003KT 9999 FEW020 FEW022TCU 21/19 Q1016=
201109050515 METAR LIRA 050515Z 07003KT 9999 FEW020 FEW022CB 20/18 Q1016=
201109050445 METAR LIRA 050445Z 04001KT 9999 FEW020 20/18 Q1015=
201109050415 METAR LIRA 050415Z 15001KT 9999 FEW020 20/19 Q1015=
201109050345 METAR LIRA 050345Z 15003KT 9999 FEW020 21/18 Q1015=
201109050315 METAR LIRA 050315Z 00000KT 9000 FEW005 SCT020 20/19 Q1015=
201109050245 METAR LIRA 050245Z 00000KT 9000 FEW005 SCT020 20/19 Q1015=
201109050215 METAR LIRA 050215Z 00000KT 9999 FEW005 SCT020 21/19 Q1015=
201109050145 METAR LIRA 050145Z 23003KT 9999 FEW005 SCT020 21/19 Q1015=
201109050115 METAR LIRA 050115Z 23002KT 9999 FEW020 21/17 Q1015=
201109050045 METAR LIRA 050045Z 00000KT 9999 FEW020 21/18 Q1015=
201109050015 METAR LIRA 050015Z 07003KT 9999 FEW018 SCT070 21/18 Q1015=
201109042350 METAR LIRA 050045Z 00000KT 9999 FEW020 21/18 Q1015=
201109042345 METAR LIRA 042345Z 06007KT 9999 FEW018 BKN070 21/19 Q1015=
201109042315 METAR LIRA 042315Z 06010KT 9999 SCT018 BKN070 21/19 Q1016=
201109042245 METAR LIRA 042245Z 03006KT 350V070 9999 SCT016 BKN060 21/19
                        Q1016=
201109042215 METAR LIRA 042215Z 02005KT 310V040 9999 SCT016 BKN060 21/19
                        Q1017=
201109042145 METAR LIRA 042145Z 02006KT 9999 -RA SCT018 BKN070 21/19 Q1017=
201109042115 METAR LIRA 042115Z 03004KT 9999 SCT018 BKN070 21/19 Q1017=
201109042045 METAR LIRA 042045Z 02004KT 9999 -RA SCT018 BKN070 22/20 Q1017=
201109042015 METAR LIRA 042015Z 29003KT 9999 -RA SCT018 BKN070 23/20 Q1017=
201109041945 METAR LIRA 041945Z 29005KT 9999 -RA SCT018 BKN070 23/19 Q1017=
201109041915 METAR LIRA 041915Z 25003KT 9999 -RA SCT018 BKN070 23/19 Q1016=
201109041845 METAR LIRA 041845Z 25003KT 240V300 9999 -RA SCT018 BKN070
                        23/18 Q1016=
201109041815 METAR LIRA 041815Z 28006KT 240V300 9999 SCT020 BKN070 25/18
                        Q1015=
201109041745 METAR LIRA 041745Z 26010KT 230V300 9999 SCT020 BKN070 27/17
                        Q1015=
201109041715 METAR LIRA 041715Z 24006KT 190V260 9999 SCT020 BKN080 28/19
                        Q1015=
201109041645 METAR LIRA 041645Z 19005KT 9999 SCT020 BKN080 28/20 Q1014=
201109041615 METAR LIRA 041615Z 18008KT 9999 SCT020 SCT080 27/19 Q1014=
201109041545 METAR LIRA 041545Z 15009KT 9999 SCT020 SCT080 27/21 Q1014=
201109041515 METAR LIRA 041515Z 20010KT 150V240 9999 SCT020 SCT080 28/21
                        Q1014=
201109041445 METAR LIRA 041445Z 23007KT 9999 SCT020 SCT080 28/23 Q1014=
201109041415 METAR LIRA 041415Z 24007KT 9999 SCT020 SCT080 28/23 Q1014=
201109041345 METAR LIRA 041345Z 20010KT 150V230 9999 SCT020 SCT080 29/24
                        Q1014=
201109041315 METAR LIRA 041315Z 21011KT 190V260 9999 SCT020 SCT080 29/19
                        Q1014=
201109041245 METAR LIRA 041245Z 22012KT 9999 FEW020 SCT080 30/18 Q1014=
201109041215 METAR LIRA 041215Z 22014KT 190V260 9999 FEW020 SCT080 31/20
                        Q1014=
201109041115 METAR LIRA 041115Z 18010KT 160V210 9999 FEW020 BKN080 30/19
                        Q1014=
201109041045 METAR LIRA 041045Z 19007KT 150V230 9999 FEW020 BKN080 30/20
                        Q1014=
201109041015 METAR LIRA 041015Z 20008KT 150V220 9999 FEW020 SCT080 29/21
                        Q1014=
201109040945 METAR LIRA 040945Z 20007KT 150V220 9999 FEW020 SCT080 28/21
                        Q1014=
201109040915 METAR LIRA 040915Z 17010KT 9999 FEW020 SCT080 28/22 Q1014=
201109040845 METAR LIRA 040845Z 16010KT 9999 FEW020 SCT080 28/22 Q1014=
201109040815 METAR LIRA 040815Z 18009KT 9999 FEW020 SCT080 27/22 Q1014=
201109040745 METAR LIRA 040745Z 06002KT 9999 FEW020 SCT080 26/21 Q1014=
201109040715 METAR LIRA 040715Z 07007KT 050V120 9999 FEW020 SCT080 26/21
                        Q1014=
201109040645 METAR LIRA 040645Z 16010KT 9999 FEW020 SCT080 25/22 Q1014=
201109040615 METAR LIRA 040615Z 17007KT 9999 FEW020 SCT080 24/21 Q1013=
201109040545 METAR LIRA 040545Z 23003KT 9999 FEW020 SCT080 23/21 Q1013=
201109040515 METAR LIRA 040515Z 03001KT 9999 FEW020 22/20 Q1013=
201109040445 METAR LIRA 040445Z 00000KT CAVOK 22/20 Q1013=
201109040415 METAR LIRA 040415Z 21002KT CAVOK 23/20 Q1013=
201109040345 METAR LIRA 040345Z 20002KT CAVOK 22/20 Q1013=
201109040315 METAR LIRA 040315Z 25003KT CAVOK 22/20 Q1013=
201109040245 METAR LIRA 040245Z 06002KT CAVOK 23/21 Q1014=
201109040215 METAR LIRA 040215Z 18002KT CAVOK 23/22 Q1014=
201109040145 METAR LIRA 040145Z 00000KT CAVOK 23/22 Q1014=
201109040115 METAR LIRA 040115Z 35001KT CAVOK 24/22 Q1014=
201109040045 METAR LIRA 040045Z 07007KT CAVOK 24/22 Q1014=
201109040015 METAR LIRA 040015Z 00000KT CAVOK 25/23 Q1015=
201109032350 METAR LIRA 040045Z 07007KT CAVOK 24/22 Q1014=
201109032345 METAR LIRA 032345Z 22002KT CAVOK 25/23 Q1015=
201109032315 METAR LIRA 032315Z 24003KT CAVOK 25/23 Q1014=
201109032245 METAR LIRA 032245Z 16004KT CAVOK 25/22 Q1014=
201109032215 METAR LIRA 032215Z 17002KT CAVOK 25/23 Q1014=
201109032145 METAR LIRA 032145Z 00000KT CAVOK 25/23 Q1014=
201109032115 METAR LIRA 032115Z 12002KT CAVOK 25/23 Q1014=
201109032045 METAR LIRA 032045Z 13002KT CAVOK 26/23 Q1014=
201109032015 METAR LIRA 032015Z 23002KT CAVOK 26/23 Q1013=
201109031945 METAR LIRA 031945Z 20004KT CAVOK 27/23 Q1013=
201109031915 METAR LIRA 031915Z 00000KT CAVOK 27/23 Q1013=
201109031845 METAR LIRA 031845Z 36001KT CAVOK 27/23 Q1013=
201109031815 METAR LIRA 031815Z 23001KT CAVOK 27/23 Q1013=
201109031745 METAR LIRA 031745Z 24003KT CAVOK 29/23 Q1013=
201109031715 METAR LIRA 031715Z 25003KT CAVOK 29/23 Q1013=
201109031645 METAR LIRA 031645Z 22005KT CAVOK 30/24 Q1013=
201109031615 METAR LIRA 031615Z 22004KT 220V280 CAVOK 30/24 Q1013=
201109031545 METAR LIRA 031545Z 21005KT 160V250 CAVOK 30/23 Q1013=
201109031515 METAR LIRA 031515Z 22007KT 160V250 CAVOK 30/23 Q1013=
201109031445 METAR LIRA 031445Z 23006KT 210V280 CAVOK 30/23 Q1013=
201109031415 METAR LIRA 031415Z 22007KT 180V260 CAVOK 31/23 Q1013=
201109031345 METAR LIRA 031345Z 24010KT 200V270 CAVOK 32/19 Q1013=
201109031315 METAR LIRA 031315Z 23009KT 230V270 CAVOK 32/19 Q1013=
201109031245 METAR LIRA 031245Z 22006KT 180V260 CAVOK 33/19 Q1013=
201109031215 METAR LIRA 031215Z 22007KT 180V260 CAVOK 32/19 Q1013=
201109031145 METAR LIRA 031145Z 24009KT 180V290 CAVOK 32/19 Q1013=
201109031115 METAR LIRA 031115Z 27005KT CAVOK 34/18 Q1013=
201109031045 METAR LIRA 031045Z 25005KT 190V320 CAVOK 34/18 Q1013=
201109031015 METAR LIRA 031015Z 25005KT 210V300 9999 FEW060 33/18 Q1013=
201109030945 METAR LIRA 030945Z 24004KT 180V270 9999 FEW030 SCT060 33/19
                        Q1013=
201109030915 METAR LIRA 030915Z 03002KT 9999 FEW030 SCT060 32/19 Q1013=
201109030845 METAR LIRA 030845Z 34002KT 9999 SCT030 SCT060 30/18 Q1013=
201109030815 METAR LIRA 030815Z 03002KT 9999 SCT030 SCT060 29/17 Q1013=
201109030745 METAR LIRA 030745Z 01001KT 9999 FEW030 SCT060 27/16 Q1013=
201109030715 METAR LIRA 030715Z 03001KT 9999 FEW030 SCT060 25/15 Q1013=
201109030645 METAR LIRA 030645Z 33002KT 9999 FEW030 SCT060 25/15 Q1013=
201109030615 METAR LIRA 030615Z 33003KT 9999 FEW030 SCT060 26/16 Q1013=
201109030545 METAR LIRA 030545Z 15003KT 9999 FEW030 SCT060 26/16 Q1013=
201109030515 METAR LIRA 030515Z 09001KT 9999 FEW030 SCT060 24/14 Q1013=
201109030445 METAR LIRA 030445Z 04005KT 9999 FEW025 SCT060 24/14 Q1014=
201109030415 METAR LIRA 030415Z 00000KT 9999 SCT060 24/14 Q1013=
201109030345 METAR LIRA 030345Z 25001KT 9999 FEW060 24/14 Q1013=
201109030315 METAR LIRA 030315Z 08003KT CAVOK 24/14 Q1013=
201109030245 METAR LIRA 030245Z 19002KT CAVOK 24/13 Q1013=
201109030215 METAR LIRA 030215Z 20002KT CAVOK 24/13 Q1014=
201109030145 METAR LIRA 030145Z 25003KT 9999 FEW080 24/12 Q1014=
201109030115 METAR LIRA 030115Z 07003KT 9999 FEW080 24/13 Q1013=
201109030045 METAR LIRA 030045Z 07003KT 9999 FEW080 24/12 Q1013=
201109030015 METAR LIRA 030015Z 14001KT CAVOK 24/11 Q1013=
201109022350 METAR LIRA 030045Z 07003KT 9999 FEW080 24/12 Q1013=
201109022345 METAR LIRA 022345Z 22004KT CAVOK 26/11 Q1013=
201109022315 METAR LIRA 022315Z 24004KT CAVOK 26/11 Q1013=
201109022245 METAR LIRA 022245Z 26001KT 9999 FEW060 26/11 Q1013=
201109022215 METAR LIRA 022215Z 04001KT 9999 SCT060 26/11 Q1013=
201109022145 METAR LIRA 022145Z 10005KT 9999 FEW020CB BKN060 26/11 Q1013=
201109022115 METAR LIRA 022115Z 10003KT 9999 VCTS FEW020CB BKN060 26/11
                        Q1014=
201109022045 METAR LIRA 022045Z 08005KT 9999 BKN060 26/11 Q1014=
201109022015 METAR LIRA 022015Z 07006KT 9999 FEW007 BKN060 27/11 Q1014=
201109021945 METAR LIRA 021945Z 06003KT 9999 FEW007 SCT060 27/11 Q1014=
201109021915 METAR LIRA 021915Z 06002KT 9999 FEW007 27/11 Q1014=
201109021845 METAR LIRA 021845Z 14006KT 9999 FEW080 28/11 Q1013=
201109021815 METAR LIRA 021815Z 19003KT 9999 FEW080 28/11 Q1014=
201109021745 METAR LIRA 021745Z 21004KT 9999 FEW080 28/10 Q1014=
201109021715 METAR LIRA 021715Z 20009KT 170V230 9999 FEW080 29/11 Q1013=
201109021645 METAR LIRA 021645Z 20009KT CAVOK 29/10 Q1013=
201109021615 METAR LIRA 021615Z 20011G21KT CAVOK 30/11 Q1013=
201109021545 METAR LIRA 021545Z 21010KT 180V250 CAVOK 31/12 Q1013=
201109021515 METAR LIRA 021515Z 21010KT 180V240 CAVOK 31/12 Q1013=
201109021445 METAR LIRA 021445Z 20010KT 160V240 CAVOK 32/13 Q1013=
201109021415 METAR LIRA 021415Z 19011KT CAVOK 33/14 Q1013=
201109021345 METAR LIRA 021345Z 19010KT 160V240 CAVOK 33/14 Q1013=
201109021315 METAR LIRA 021315Z 20010KT 160V240 CAVOK 34/14 Q1014=
201109021245 METAR LIRA 021245Z 18010KT 140V220 CAVOK 34/15 Q1014=
201109021215 METAR LIRA 021215Z 16007KT 120V220 CAVOK 34/15 Q1014=
201109021145 METAR LIRA 021145Z 19008KT 140V210 CAVOK 34/14 Q1014=
201109021115 METAR LIRA 021115Z 19007KT 150V240 CAVOK 33/13 Q1014=
201109021045 METAR LIRA 021045Z 18008KT 150V220 CAVOK 33/13 Q1015=
201109021015 METAR LIRA 021015Z 18007KT 130V230 CAVOK 32/14 Q1015=
201109020945 METAR LIRA 020945Z 17005KT 130V240 CAVOK 32/14 Q1015=
201109020915 METAR LIRA 020915Z 34002KT CAVOK 31/16 Q1015=
201109020845 METAR LIRA 020845Z 04002KT CAVOK 29/16 Q1015=
201109020815 METAR LIRA 020815Z 33001KT CAVOK 27/14 Q1015=
201109020745 METAR LIRA 020745Z 02002KT CAVOK 26/17 Q1015=
201109020715 METAR LIRA 020715Z 04002KT 9999 FEW060 25/16 Q1015=
201109020645 METAR LIRA 020645Z 04003KT 9999 FEW060 24/16 Q1015=
201109020615 METAR LIRA 020615Z 00000KT 9999 FEW060 22/15 Q1015=
201109020545 METAR LIRA 020545Z 00000KT 9999 FEW023 20/16 Q1015=
201109020515 METAR LIRA 020515Z 00000KT 9999 FEW023 19/15 Q1015=
201109020445 METAR LIRA 020445Z 06001KT 9999 FEW023 19/15 Q1015=
201109020415 METAR LIRA 020415Z 08001KT 9999 FEW040 19/15 Q1015=
201109020345 METAR LIRA 020345Z 26001KT 9999 FEW070 20/15 Q1015=
201109020315 METAR LIRA 020315Z 11002KT CAVOK 20/15 Q1015=
201109020245 METAR LIRA 020245Z 08001KT CAVOK 20/14 Q1015=
201109020215 METAR LIRA 020215Z 02001KT CAVOK 20/14 Q1015=
201109020145 METAR LIRA 020145Z 00000KT CAVOK 21/14 Q1015=
201109020115 METAR LIRA 020115Z 12002KT CAVOK 21/14 Q1015=
201109020045 METAR LIRA 020045Z 09002KT CAVOK 21/14 Q1015=
201109020015 METAR LIRA 020015Z 17001KT CAVOK 22/14 Q1015=
201109012350 METAR LIRA 020045Z 09002KT CAVOK 21/14 Q1015=
201109012345 METAR LIRA 012345Z 13002KT 9999 FEW070 23/13 Q1015=
201109012315 METAR LIRA 012315Z 14003KT 9999 FEW070 23/14 Q1015=
201109012245 METAR LIRA 012245Z 11004KT CAVOK 23/17 Q1015=
201109012215 METAR LIRA 012215Z 12003KT CAVOK 23/17 Q1015=
201109012145 METAR LIRA 012145Z 12002KT 9999 FEW070 23/16 Q1015=
201109012115 METAR LIRA 012115Z 10002KT 9999 FEW070 23/17 Q1015=
201109012045 METAR LIRA 012045Z 14003KT 9999 FEW022 24/20 Q1016=
201109012015 METAR LIRA 012015Z 23001KT 9999 FEW022 SCT070 24/21 Q1016=
201109011945 METAR LIRA 011945Z 16005KT 9999 FEW022 SCT070 25/22 Q1016=
201109011915 METAR LIRA 011915Z 21003KT 9999 FEW022 SCT070 25/21 Q1015=
201109011845 METAR LIRA 011845Z 21003KT 9999 FEW022 SCT070 25/21 Q1015=
201109011815 METAR LIRA 011815Z 21004KT 9999 FEW022 SCT070 26/22 Q1015=
201109011745 METAR LIRA 011745Z 21004KT 170V240 9999 FEW022 SCT070 27/22
                        Q1015=
201109011715 METAR LIRA 011715Z 20005KT 170V230 9999 FEW022 SCT070 27/22
                        Q1015=
201109011645 METAR LIRA 011645Z 21006KT 180V270 9999 FEW022 SCT070 27/21
                        Q1016=
201109011615 METAR LIRA 011615Z 20008KT 9999 FEW022 27/21 Q1016=
201109011545 METAR LIRA 011545Z 20009KT 160V240 9999 FEW022 28/20 Q1015=
201109011515 METAR LIRA 011515Z 21009KT 160V250 9999 FEW022 28/20 Q1015=
201109011445 METAR LIRA 011445Z 20010KT 160V240 9999 FEW022 28/20 Q1016=
201109011415 METAR LIRA 011415Z 20012KT 160V240 9999 FEW022 29/20 Q1015=
201109011345 METAR LIRA 011345Z 21010KT 160V250 9999 FEW022 30/20 Q1015=
201109011315 METAR LIRA 011315Z 22011KT 180V260 9999 FEW022 29/20 Q1015=
201109011245 METAR LIRA 011245Z 22011KT 180V250 9999 FEW022 30/21 Q1015=
201109011215 METAR LIRA 011215Z 22010KT 180V250 CAVOK 32/19 Q1015=
201109011145 METAR LIRA 011145Z 17005KT 120V230 CAVOK 32/16 Q1015=
201109011115 METAR LIRA 011115Z 15003KT CAVOK 32/15 Q1015=
201109011045 METAR LIRA 011045Z 19004KT 150V240 CAVOK 32/16 Q1016=
201109011015 METAR LIRA 011015Z 07002KT CAVOK 31/16 Q1016=
201109010945 METAR LIRA 010945Z 32003KT CAVOK 30/15 Q1016=
201109010915 METAR LIRA 010915Z 22002KT CAVOK 29/16 Q1016=
201109010845 METAR LIRA 010845Z 33002KT CAVOK 28/18 Q1016=
201109010815 METAR LIRA 010815Z 01002KT CAVOK 26/19 Q1016=
201109010745 METAR LIRA 010745Z 02002KT CAVOK 25/19 Q1016=
201109010715 METAR LIRA 010715Z 02001KT CAVOK 24/20 Q1016=
201109010645 METAR LIRA 010645Z 36002KT CAVOK 23/18 Q1016=
201109010615 METAR LIRA 010615Z 00000KT CAVOK 21/18 Q1016=
201109010545 METAR LIRA 010545Z 00000KT CAVOK 20/16 Q1016=
201109010515 METAR LIRA 010515Z 08003KT CAVOK 20/16 Q1016=
201109010445 METAR LIRA 010445Z 12004KT CAVOK 20/16 Q1015=
201109010415 METAR LIRA 010415Z 12005KT CAVOK 19/15 Q1015=
201109010345 METAR LIRA 010345Z 16002KT CAVOK 20/16 Q1015=
201109010315 METAR LIRA 010315Z 12002KT CAVOK 20/17 Q1015=
201109010245 METAR LIRA 010245Z 11004KT CAVOK 20/18 Q1015=
201109010215 METAR LIRA 010215Z 13002KT CAVOK 20/19 Q1015=
201109010145 METAR LIRA 010145Z 10004KT CAVOK 20/19 Q1015=
201109010115 METAR LIRA 010115Z 16003KT CAVOK 21/20 Q1015=
201109010045 METAR LIRA 010045Z 16003KT 9999 FEW018 21/20 Q1015=
201109010015 METAR LIRA 010015Z 16005KT 9999 FEW018 21/20 Q1015=

</pre>

</body>
</html>
